No errors
No warnings
97 ms
data source=metars
4834 results
raw_text,station_id,observation_time,latitude,longitude,temp_c,dewpoint_c,wind_dir_degrees,wind_speed_kt,wind_gust_kt,visibility_statute_mi,altim_in_hg,sea_level_pressure_mb,corrected,auto,auto_station,maintenance_indicator_on,no_signal,lightning_sensor_off,freezing_rain_sensor_off,present_weather_sensor_off,wx_string,sky_cover,cloud_base_ft_agl,sky_cover,cloud_base_ft_agl,sky_cover,cloud_base_ft_agl,sky_cover,cloud_base_ft_agl,flight_category,three_hr_pressure_tendency_mb,maxT_c,minT_c,maxT24hr_c,minT24hr_c,precip_in,pcp3hr_in,pcp6hr_in,pcp24hr_in,snow_in,vert_vis_ft,metar_type,elevation_m
ZMCK 160130Z 08005MPS 050V120 CAVOK 20/07 Q1014 NOSIG RMK QFE645.5 43,ZMCK,2025-08-16T01:30:00Z,47.651,106.822,20,7,80,10,,6+,29.94,,,,,,TRUE,,,,,CAVOK,,,,,,,,VFR,,,,,,,,,,,,METAR,1366
WSSS 160130Z 16008KT 9999 FEW016 BKN160 28/25 Q1009 NOSIG,WSSS,2025-08-16T01:30:00Z,1.368,103.982,28,25,160,8,,6+,29.79,,,,,,TRUE,,,,,FEW,1600,BKN,16000,,,,,VFR,,,,,,,,,,,,METAR,17
WARR 160130Z 13005KT 9999 FEW020 28/24 Q1010 NOSIG METAR ,WARR,2025-08-16T01:30:00Z,-7.38,112.787,28,24,130,5,,6+,29.82,,,,,,TRUE,,,,,FEW,2000,,,,,,,VFR,,,,,,,,,,,,METAR,3
WAKK 160130Z 12010KT 9999 BKN015 29/21 Q1012 NOSIG,WAKK,2025-08-16T01:30:00Z,-8.52,140.417,29,21,120,10,,6+,29.88,,,,,,TRUE,,,,,BKN,1500,,,,,,,MVFR,,,,,,,,,,,,METAR,5
WADD 160130Z 13016KT 9999 SCT015 28/24 Q1012 NOSIG,WADD,2025-08-16T01:30:00Z,-8.748,115.167,28,24,130,16,,6+,29.88,,,,,,TRUE,,,,,SCT,1500,,,,,,,VFR,,,,,,,,,,,,METAR,3
VQPR 160130Z 35003KT 290V100 8000 FEW015 16/14 Q1020,VQPR,2025-08-16T01:30:00Z,27.403,89.425,16,14,350,3,,4.97,30.12,,,,,,,,,,,FEW,1500,,,,,,,MVFR,,,,,,,,,,,,METAR,2227
VOTK 160130Z 27010G20KT 6000 FEW018 28/23 Q1005 NOSIG,VOTK,2025-08-16T01:30:00Z,8.722,78.028,28,23,270,10,20,3.73,29.68,,,,,,TRUE,,,,,FEW,1800,,,,,,,MVFR,,,,,,,,,,,,METAR,25
VOML 160130Z 22003KT 4000 BR FEW004 SCT012 OVC080 24/23 Q1006 NOSIG,VOML,2025-08-16T01:30:00Z,12.961,74.89,24,23,220,3,,2.49,29.70,,,,,,TRUE,,,,BR,FEW,400,SCT,1200,OVC,8000,,,IFR,,,,,,,,,,,,METAR,100
VOMD 160130Z 32007KT 6000 FEW020 SCT100 29/20 Q1005 NOSIG,VOMD,2025-08-16T01:30:00Z,9.835,78.093,29,20,320,7,,3.73,29.68,,,,,,TRUE,,,,,FEW,2000,SCT,10000,,,,,MVFR,,,,,,,,,,,,METAR,135
VOHY 160130Z 27008KT 4000 BR SCT010 SCT015 BKN080 24/21 Q1004 NOSIG,VOHY,2025-08-16T01:30:00Z,17.453,78.468,24,21,270,8,,2.49,29.65,,,,,,TRUE,,,,BR,SCT,1000,SCT,1500,BKN,8000,,,IFR,,,,,,,,,,,,METAR,540
VNKT 160130Z 00000KT 7000 FEW010 FEW025CB SCT030 BKN100 22/22 Q1013 NOSIG CB TO W NW N AND NE,VNKT,2025-08-16T01:30:00Z,27.697,85.359,22,22,0,0,,4.35,29.91,,,,,,TRUE,,,,,FEW,1000,FEW,2500,SCT,3000,BKN,10000,MVFR,,,,,,,,,,,,METAR,1334
VECC 160130Z 06004KT 3200 HZ FEW020 SCT100 28/26 Q1002 NOSIG,VECC,2025-08-16T01:30:00Z,22.651,88.445,28,26,60,4,,1.99,29.59,,,,,,TRUE,,,,HZ,FEW,2000,SCT,10000,,,,,IFR,,,,,,,,,,,,METAR,11
VAAU 160130Z 25004KT 4000 HZ SCT012 BKN020 OVC080 22/22 Q1005 NOSIG,VAAU,2025-08-16T01:30:00Z,19.863,75.398,22,22,250,4,,2.49,29.68,,,,,,TRUE,,,,HZ,SCT,1200,BKN,2000,OVC,8000,,,IFR,,,,,,,,,,,,METAR,578
UBBZ 160130Z AUTO 02008KT 9999 // ///045/// 20/19 Q1014,UBBZ,2025-08-16T01:30:00Z,39.094,46.734,20,19,20,8,,6+,29.94,,,TRUE,,,,,,,,,,,,,,,,VFR,,,,,,,,,,,,METAR,489
UBBG 160130Z 31004KT 9999 FEW100 21/16 Q1012 NOSIG,UBBG,2025-08-16T01:30:00Z,40.738,46.318,21,16,310,4,,6+,29.88,,,,,,TRUE,,,,,FEW,10000,,,,,,,VFR,,,,,,,,,,,,METAR,333
SPZO 160130Z 14003KT 080V230 9999 NSC 11/03 Q1032 NOSIG RMK BIRD HAZARD RWY 10/28,SPZO,2025-08-16T01:30:00Z,-13.536,-71.939,11,3,140,3,,6+,30.47,,,,,,TRUE,,,,,CLR,,,,,,,,VFR,,,,,,,,,,,,METAR,3249
OPLA 160130Z 17005KT 2500 BR SCT100 28/26 Q1002 BECMG 3000 BR RMK QFE977 A29.60,OPLA,2025-08-16T01:30:00Z,31.522,74.404,28,26,170,5,,1.55,29.59,,,,,,,,,,BR,SCT,10000,,,,,,,IFR,,,,,,,,,,,,METAR,217
OPKC 160130Z 26005KT 5000 HZ SCT100 28/24 Q1001 NOSIG,OPKC,2025-08-16T01:30:00Z,24.902,67.139,28,24,260,5,,3.11,29.56,,,,,,TRUE,,,,HZ,SCT,10000,,,,,,,MVFR,,,,,,,,,,,,METAR,20
OMSJ 160130Z 10012KT 8000 NSC 32/24 Q0998 NOSIG,OMSJ,2025-08-16T01:30:00Z,25.329,55.517,32,24,100,12,,4.97,29.47,,,,,,TRUE,,,,,CLR,,,,,,,,MVFR,,,,,,,,,,,,METAR,33
LBWN 160130Z AUTO 04007KT 9999 NCD 21/16 Q1016 NOSIG,LBWN,2025-08-16T01:30:00Z,43.232,27.825,21,16,40,7,,6+,30.00,,,TRUE,,,TRUE,,,,,CLR,,,,,,,,VFR,,,,,,,,,,,,METAR,74
LBSF 160130Z AUTO VRB02KT 9999 NSC 19/10 Q1018 NOSIG,LBSF,2025-08-16T01:30:00Z,42.694,23.414,19,10,VRB,2,,6+,30.06,,,TRUE,,,TRUE,,,,,CLR,,,,,,,,VFR,,,,,,,,,,,,METAR,531
LBPD 160130Z AUTO 29003KT 9999 BKN170/// 18/11 Q1017,LBPD,2025-08-16T01:30:00Z,42.064,24.86,18,11,290,3,,6+,30.03,,,TRUE,,,,,,,,BKN,17000,,,,,,,VFR,,,,,,,,,,,,METAR,182
LBGO 160130Z AUTO 07001KT 9999 NCD 16/13 Q1016,LBGO,2025-08-16T01:30:00Z,43.151,25.713,16,13,70,1,,6+,30.00,,,TRUE,,,,,,,,CLR,,,,,,,,VFR,,,,,,,,,,,,METAR,84
LBBG 160130Z AUTO 04009KT 9999 NCD 20/16 Q1015 NOSIG,LBBG,2025-08-16T01:30:00Z,42.569,27.514,20,16,40,9,,6+,29.97,,,TRUE,,,TRUE,,,,,CLR,,,,,,,,VFR,,,,,,,,,,,,METAR,41
KQFX 160130Z AUTO 9999 BKN035 30/23 A2996 RMK A02 TSNO,KQFX,2025-08-16T01:30:00Z,-99.99,-99.99,30,23,,,,6+,29.96,,,TRUE,TRUE,,,TRUE,,,,BKN,3500,,,,,,,VFR,,,,,,,,,,,,METAR,9999
KQFV 160130Z AUTO 27004KT 9999 SCT028 BKN040 29/21 A3003 RMK A02 TSNO,KQFV,2025-08-16T01:30:00Z,-99.99,-99.99,29,21,270,4,,6+,30.03,,,TRUE,TRUE,,,TRUE,,,,SCT,2800,BKN,4000,,,,,VFR,,,,,,,,,,,,METAR,9999
KQFU 160130Z AUTO 21004KT 9999 FEW027 SCT039 30/23 A3002 RMK A02 TSNO,KQFU,2025-08-16T01:30:00Z,-99.99,-99.99,30,23,210,4,,6+,30.02,,,TRUE,TRUE,,,TRUE,,,,FEW,2700,SCT,3900,,,,,VFR,,,,,,,,,,,,METAR,9999
KQFB 160130Z AUTO 33001KT 9999 CLR 32/25 A3003 RMK A02 TSNO,KQFB,2025-08-16T01:30:00Z,-99.99,-99.99,32,25,330,1,,6+,30.03,,,TRUE,TRUE,,,TRUE,,,,CLR,,,,,,,,VFR,,,,,,,,,,,,METAR,9999
KQEX 160130Z AUTO 05002KT 9999 FEW023 30/24 A2990 RMK A02 TSNO,KQEX,2025-08-16T01:30:00Z,-99.99,-99.99,30,24,50,2,,6+,29.90,,,TRUE,TRUE,,,TRUE,,,,FEW,2300,,,,,,,VFR,,,,,,,,,,,,METAR,9999
KQEW 160130Z AUTO 21001KT 9999 // FEW026 FEW029 30/23 A2997 RMK A02 TSNO,KQEW,2025-08-16T01:30:00Z,-99.99,-99.99,30,23,210,1,,6+,29.97,,,TRUE,TRUE,,,TRUE,,,,FEW,2600,FEW,2900,,,,,VFR,,,,,,,,,,,,METAR,9999
KQEQ 160130Z AUTO 23005KT 9999 CLR 29/24 A3000 RMK A02 TSNO,KQEQ,2025-08-16T01:30:00Z,-99.99,-99.99,29,24,230,5,,6+,30.00,,,TRUE,TRUE,,,TRUE,,,,CLR,,,,,,,,VFR,,,,,,,,,,,,METAR,9999
KQEP 160130Z AUTO 15001KT 9999 BKN021 30/24 A2999 RMK A02 TSNO,KQEP,2025-08-16T01:30:00Z,-99.99,-99.99,30,24,150,1,,6+,29.99,,,TRUE,TRUE,,,TRUE,,,,BKN,2100,,,,,,,MVFR,,,,,,,,,,,,METAR,9999
KQEI 160130Z AUTO 18003KT 9999 BKN035 28/23 A2999 RMK A02 TSNO,KQEI,2025-08-16T01:30:00Z,-99.99,-99.99,28,23,180,3,,6+,29.99,,,TRUE,TRUE,,,TRUE,,,,BKN,3500,,,,,,,VFR,,,,,,,,,,,,METAR,9999
HRYR 160130Z 33010KT 9999 TS FEW020CB BKN023 17/15 Q1020 BECMG 4000 TSRA,HRYR,2025-08-16T01:30:00Z,-1.969,30.14,17,15,330,10,,6+,30.12,,,,,,,,,,TS,FEW,2000,BKN,2300,,,,,MVFR,,,,,,,,,,,,METAR,1493
FMMI 160130Z 30003KT 8000 -RADZ SCT010 BKN020 15/15 Q1019 NOSIG,FMMI,2025-08-16T01:30:00Z,-18.797,47.479,15,15,300,3,,4.97,30.09,,,,,,TRUE,,,,-RA -DZ,SCT,1000,BKN,2000,,,,,MVFR,,,,,,,,,,,,METAR,1269
FMCZ 160130Z AUTO 24005KT CAVOK 22/21 Q1013 TEMPO 3000 SHRA SCT025TCU,FMCZ,2025-08-16T01:30:00Z,-12.805,45.281,22,21,240,5,,6+,29.91,,,TRUE,,,,,,,,CAVOK,,,,,,,,VFR,,,,,,,,,,,,METAR,7
BKPR 160130Z 33002KT CAVOK 20/09 Q1018 NOSIG,BKPR,2025-08-16T01:30:00Z,42.576,21.03,20,9,330,2,,6+,30.06,,,,,,TRUE,,,,,CAVOK,,,,,,,,VFR,,,,,,,,,,,,METAR,545
KPVG 160129Z AUTO 06004KT 10SM SCT015 26/25 A3010 RMK AO2 $,KPVG,2025-08-16T01:29:00Z,36.7824,-76.452,26,25,60,4,,10+,30.10,,,TRUE,TRUE,TRUE,,,,,,SCT,1500,,,,,,,VFR,,,,,,,,,,,,SPECI,7
KHDN 160129Z AUTO 14020G29KT 10SM BKN100 OVC120 23/08 A3021 RMK AO2 PK WND 14032/0119 WSHFT 0109 LTG DSNT NE AND E $,KHDN,2025-08-16T01:29:00Z,40.4842,-107.23,23,8,140,20,29,10+,30.21,,,TRUE,TRUE,TRUE,,,,,,BKN,10000,OVC,12000,,,,,VFR,,,,,,,,,,,,SPECI,2012
KAFP 160129Z AUTO 00000KT 5SM BR CLR 27/25 A3008 RMK AO2 T02650252,KAFP,2025-08-16T01:29:00Z,35.0194,-80.0784,26.5,25.2,0,0,,5,30.08,,,TRUE,TRUE,,,,,,BR,CLR,,,,,,,,MVFR,,,,,,,,,,,,METAR,91
CZSJ 160129Z AUTO 29007G15KT 270V340 7SM -RA SCT022 BKN027 BKN032 OVC045 10/09 A2997 RMK SLP160,CZSJ,2025-08-16T01:29:00Z,53.063,-93.344,10,9,290,7,15,7,29.97,1016,,TRUE,,,,,,,-RA,SCT,2200,BKN,2700,BKN,3200,OVC,4500,MVFR,,,,,,,,,,,,SPECI,286
UMKK 160128Z 25004MPS 7000 SCT050CB 18/18 Q1014 R24/290095 NOSIG RMK QFE759/1012,UMKK,2025-08-16T01:28:00Z,54.885,20.583,18,18,250,8,,4.35,29.94,,,,,,TRUE,,,,,SCT,5000,,,,,,,MVFR,,,,,,,,,,,,SPECI,6
KSHN 160128Z AUTO 18006KT 1 3/4SM +RA BR FEW010 OVC016 19/18 A2979 RMK AO2 P0009 T01890178,KSHN,2025-08-16T01:28:00Z,47.2384,-123.142,18.9,17.8,180,6,,1.75,29.79,,,TRUE,TRUE,,,,,,+RA BR,FEW,1000,OVC,1600,,,,,IFR,,,,,,0.09,,,,,,SPECI,84
KLEE 160128Z AUTO 23003KT 10SM VCTS FEW050 SCT090 SCT120 29/24 A3009 RMK AO2 LTG DSNT SW-NW T02890239,KLEE,2025-08-16T01:28:00Z,28.8214,-81.8006,28.9,23.9,230,3,,10+,30.09,,,TRUE,TRUE,,,,,,VCTS,FEW,5000,SCT,9000,SCT,12000,,,VFR,,,,,,,,,,,,SPECI,21
CYPX 160128Z AUTO 09020G26KT 6SM -RA 08/ A2968 RMK PRESFR PCPN 0.8MM PAST HR CLD MISG DP MISG SLP054,CYPX,2025-08-16T01:28:00Z,60.045,-77.281,8,,90,20,26,6,29.68,1005.4,,TRUE,,,,,,,-RA,,,,,,,,,VFR,,,,,,,,,,,,SPECI,10
CYPR 160128Z AUTO 15005KT 120V190 FEW008 SCT015 BKN027 OVC035 14/14 A2940 RMK PCPN 0.8MM PAST HR WX MISG VIS MISG SLP957 DENSITY ALT 700FT,CYPR,2025-08-16T01:28:00Z,54.291,-130.451,14,14,150,5,,,29.40,995.7,,TRUE,,,,,,,,FEW,800,SCT,1500,BKN,2700,OVC,3500,,,,,,,,,,,,,SPECI,30
CYET 160128Z AUTO 09009KT 9SM OVC009 13/11 A2982 RMK SLP113 DENSITY ALT 3600FT,CYET,2025-08-16T01:28:00Z,53.58,-116.455,13,11,90,9,,9,29.82,1011.3,,TRUE,,,,,,,,OVC,900,,,,,,,IFR,,,,,,,,,,,,SPECI,925
PASN 160127Z AUTO 29010KT 10SM BKN013 OVC020 13/09 A3028 RMK AO2 T01330094 TSNO $,PASN,2025-08-16T01:27:00Z,57.155,-170.223,13.3,9.4,290,10,,10+,30.28,,,TRUE,TRUE,TRUE,,TRUE,,,,BKN,1300,OVC,2000,,,,,MVFR,,,,,,,,,,,,SPECI,8
CBBC 160127Z AUTO 16008KT 9SM -RA SCT025 BKN060 OVC095 16/14 A2951 RMK SLP994 DENSITY ALT 800FT,CBBC,2025-08-16T01:27:00Z,52.181,-128.154,16,14,160,8,,9,29.51,999.4,,TRUE,,,,,,,-RA,SCT,2500,BKN,6000,OVC,9500,,,VFR,,,,,,,,,,,,SPECI,36
PATE 160126Z AUTO 23016KT 10SM BKN007 OVC013 10/09 A3000 RMK AO2 TSNO,PATE,2025-08-16T01:26:00Z,65.242,-166.328,10,9,230,16,,10+,30.00,,,TRUE,TRUE,,,TRUE,,,,BKN,700,OVC,1300,,,,,IFR,,,,,,,,,,,,SPECI,93
PABA 160126Z AUTO 29016KT 10SM UP SCT009 OVC024 03/02 A2997 RMK AO2 P0000 TSNO,PABA,2025-08-16T01:26:00Z,70.135,-143.585,3,2,290,16,,10+,29.97,,,TRUE,TRUE,,,TRUE,,,UP,SCT,900,OVC,2400,,,,,MVFR,,,,,,0.005,,,,,,SPECI,1
KSGU 160126Z AUTO 11015G18KT VCTS 27/14 A2998 RMK AO2 LTG DSNT SW AND W TSE24B26RAE11 P0001,KSGU,2025-08-16T01:26:00Z,37.0444,-113.503,27,14,110,15,18,,29.98,,,TRUE,TRUE,,,,,,VCTS,,,,,,,,,,,,,,,0.01,,,,,,SPECI,877
KOLS 160126Z AUTO 26009G41KT 170V350 M1/4SM +TSRA BKN012 BKN060 OVC075 17/14 A3020 RMK AO2 PK WND 33041/0122 LTG DSNT N AND SE AND NW TSB0055 PRESRR P0117 T01720139,KOLS,2025-08-16T01:26:00Z,31.4208,-110.847,17.2,13.9,260,9,41,0.25,30.20,,,TRUE,TRUE,,,,,,+TSRA,BKN,1200,BKN,6000,OVC,7500,,,LIFR,,,,,,,,,,,,SPECI,1194
KNDZ 160126Z 00000KT 10SM FEW040 BKN110 BKN250 23/23 A3012 RMK AO2 RAE18 TSE26 T1 SET P0000 T02330228 $,KNDZ,2025-08-16T01:26:00Z,30.6973,-87.0207,23.3,22.8,0,0,,10+,30.12,,,,TRUE,TRUE,,,,,,FEW,4000,BKN,11000,BKN,25000,,,VFR,,,,,,0.005,,,,,,SPECI,51
KMRT 160126Z 00000KT 10SM CLR 22/22 A3014 RMK AO2,KMRT,2025-08-16T01:26:00Z,40.2237,-83.3475,22,22,0,0,,10+,30.14,,,,TRUE,,,,,,,CLR,,,,,,,,VFR,,,,,,,,,,,,METAR,302
CYZH 160126Z AUTO 13013KT 9SM -RA BKN028 BKN035 OVC047 12/09 A2991 RMK SLP145,CYZH,2025-08-16T01:26:00Z,55.293,-114.773,12,9,130,13,,9,29.91,1014.5,,TRUE,,,,,,,-RA,BKN,2800,BKN,3500,OVC,4700,,,MVFR,,,,,,,,,,,,SPECI,583
TIST 160125Z AUTO 03010G17KT 10SM -RA FEW019 SCT028 BKN044 28/24 A2994 RMK AO2 PK WND 04031/0105 RAB10 P0004 T02780239 $,TIST,2025-08-16T01:25:00Z,18.3362,-64.9799,27.8,23.9,30,10,17,10+,29.94,,,TRUE,TRUE,TRUE,,,,,-RA,FEW,1900,SCT,2800,BKN,4400,,,VFR,,,,,,0.04,,,,,,SPECI,5
KWVI 160125Z AUTO 10007KT 10SM OVC009 17/14 A2997 RMK AO2 T01670139,KWVI,2025-08-16T01:25:00Z,36.9394,-121.79,16.7,13.9,100,7,,10+,29.97,,,TRUE,TRUE,,,,,,,OVC,900,,,,,,,IFR,,,,,,,,,,,,SPECI,47
KNMM 160125Z AUTO 07003KT 10SM TS FEW100 28/25 A3011 RMK AO2 TSB19 T02780250 $,KNMM,2025-08-16T01:25:00Z,32.546,-88.543,27.8,25,70,3,,10+,30.11,,,TRUE,TRUE,TRUE,,,,,TS,FEW,10000,,,,,,,VFR,,,,,,,,,,,,SPECI,94
KIOW 160125Z AUTO 00000KT 10SM VCTS -RA FEW110 22/21 A3004 RMK AO2 LTG DSNT N-SE TSE19 P0005 T02170206,KIOW,2025-08-16T01:25:00Z,41.6394,-91.5445,21.7,20.6,0,0,,10+,30.04,,,TRUE,TRUE,,,,,,VCTS -RA,FEW,11000,,,,,,,VFR,,,,,,0.05,,,,,,SPECI,199
KGWW 160125Z AUTO 03003KT 10SM CLR 24/24 A3008 RMK AO2 T02410241,KGWW,2025-08-16T01:25:00Z,35.4637,-77.9604,24.1,24.1,30,3,,10+,30.08,,,TRUE,TRUE,,,,,,,CLR,,,,,,,,VFR,,,,,,,,,,,,METAR,40
KFHM 160125Z 05002G06KT 23/17 ,KFHM,2025-08-16T01:25:00Z,34.0677,-118.242,23,17,50,2,6,,0.00,,,,,,,,,,,,,,,,,,,,,,,,,,,,,,,METAR,126
KFFA 160125Z AUTO 04003KT 10SM OVC005 25/25 A3006 RMK AO2 T02500246,KFFA,2025-08-16T01:25:00Z,36.0165,-75.6739,25,24.6,40,3,,10+,30.06,,,TRUE,TRUE,,,,,,,OVC,500,,,,,,,IFR,,,,,,,,,,,,METAR,2
KCDR 160125Z AUTO 27029G55KT 3/4SM +TSRA SCT016 BKN070 OVC110 20/17 A3001 RMK AO2 PK WND 28055/0121 WSHFT 0109 LTG DSNT N AND NW RAB13 TSB0054 T02000172 PNO $,KCDR,2025-08-16T01:25:00Z,42.8374,-103.098,20,17.2,270,29,55,0.75,30.01,,,TRUE,TRUE,TRUE,,,,,+TSRA,SCT,1600,BKN,7000,OVC,11000,,,LIFR,,,,,,,,,,,,SPECI,1002
KBYS 160125Z AUTO 18010KT 9SM CLR 36/M02 A2984 RMK AO2 WSHFT 20 SLP073 $,KBYS,2025-08-16T01:25:00Z,35.271,-116.634,36,-2,180,10,,9,29.84,1007.3,,TRUE,TRUE,TRUE,,,,,,CLR,,,,,,,,VFR,,,,,,,,,,,,SPECI,717
EHWO 160125Z AUTO 03004KT 340V070 9999 OVC015 19/15 Q1024 WHT,EHWO,2025-08-16T01:25:00Z,51.448,4.342,19,15,30,4,,6+,30.24,,,TRUE,,,,,,,,OVC,1500,,,,,,,MVFR,,,,,,,,,,,,METAR,15
EHVL 160125Z AUTO 01017KT 9999 OVC011 18/16 Q1025 BLACKGRN,EHVL,2025-08-16T01:25:00Z,53.297,5.086,18,16,10,17,,6+,30.27,,,TRUE,,,,,,,,OVC,1100,,,,,,,MVFR,,,,,,,,,,,,METAR,2
EHVK 160125Z AUTO 36003KT 330V040 9999 SCT014 OVC016 19/16 Q1024 WHT,EHVK,2025-08-16T01:25:00Z,51.658,5.707,19,16,360,3,,6+,30.24,,,TRUE,,,,,,,,SCT,1400,OVC,1600,,,,,MVFR,,,,,,,,,,,,METAR,20
EHSG 160125Z AUTO 36015KT 330V030 //// // FEW007/// BKN008/// OVC009/// 18/16 Q1026 RE//,EHSG,2025-08-16T01:25:00Z,51.7,3.056,18,16,360,15,,,30.30,,,TRUE,,,,,,,,FEW,700,BKN,800,OVC,900,,,,,,,,,,,,,,,METAR,40
EHSC 160125Z AUTO 01016KT 9999 ///////// 19/16 Q1025 W21/H10,EHSC,2025-08-16T01:25:00Z,51.926,3.67,19,16,10,16,,6+,30.27,,,TRUE,,,,,,,,,,,,,,,,VFR,,,,,,,,,,,,METAR,19
EHSA 160125Z AUTO 36018KT 9999 ///////// 18/16 Q1026 W20/H9,EHSA,2025-08-16T01:25:00Z,51.998,3.275,18,16,360,18,,6+,30.30,,,TRUE,,,,,,,,,,,,,,,,VFR,,,,,,,,,,,,METAR,18
EHRD 160125Z AUTO 02007KT 350V060 9999 SCT011 BKN014 OVC017 19/16 Q1025 NOSIG,EHRD,2025-08-16T01:25:00Z,51.954,4.444,19,16,20,7,,6+,30.27,,,TRUE,,,TRUE,,,,,SCT,1100,BKN,1400,OVC,1700,,,MVFR,,,,,,,,,,,,METAR,-4
EHQW 160125Z AUTO 01021KT //// // FEW006/// SCT009/// BKN010/// 18/16 Q1026 RE//,EHQW,2025-08-16T01:25:00Z,52.679,3.805,18,16,10,21,,,30.30,,,TRUE,,,,,,,,FEW,600,SCT,900,BKN,1000,,,,,,,,,,,,,,,METAR,40
EHQS 160125Z AUTO 01014KT //// // FEW007/// SCT008/// OVC010/// 18/17 Q1025 RE//,EHQS,2025-08-16T01:25:00Z,52.319,4.043,18,17,10,14,,,30.27,,,TRUE,,,,,,,,FEW,700,SCT,800,OVC,1000,,,,,,,,,,,,,,,METAR,40
EHQN 160125Z AUTO 01016KT 310V040 //// // FEW007/// BKN013/// OVC016/// 18/16 Q1025 RE//,EHQN,2025-08-16T01:25:00Z,52.654,4.262,18,16,10,16,,,30.27,,,TRUE,,,,,,,,FEW,700,BKN,1300,OVC,1600,,,,,,,,,,,,,,,METAR,40
EHPG 160125Z AUTO 02011KT 290V100 9999 FEW006 SCT009 BKN011 18/17 Q1026,EHPG,2025-08-16T01:25:00Z,52.36,3.342,18,17,20,11,,6+,30.30,,,TRUE,,,,,,,,FEW,600,SCT,900,BKN,1100,,,MVFR,,,,,,,,,,,,METAR,24
EHMG 160125Z AUTO 36017KT 9999 BKN012 OVC015 17/14 Q1026,EHMG,2025-08-16T01:25:00Z,53.614,4.96,17,14,360,17,,6+,30.30,,,TRUE,,,,,,,,BKN,1200,OVC,1500,,,,,MVFR,,,,,,,,,,,,METAR,30
EHMA 160125Z AUTO 35017KT 9999 BKN011 BKN013 OVC016 18/15 Q1025,EHMA,2025-08-16T01:25:00Z,53.492,5.942,18,15,350,17,,6+,30.27,,,TRUE,,,,,,,,BKN,1100,BKN,1300,OVC,1600,,,MVFR,,,,,,,,,,,,METAR,27
EHLW 160125Z AUTO 01008KT 340V040 9999 BKN010 OVC013 18/16 Q1025 GRN,EHLW,2025-08-16T01:25:00Z,53.223,5.752,18,16,10,8,,6+,30.27,,,TRUE,,,,,,,,BKN,1000,OVC,1300,,,,,MVFR,,,,,,,,,,,,METAR,1
EHLE 160125Z AUTO 04006KT 9999 BKN015 OVC018 19/16 Q1024,EHLE,2025-08-16T01:25:00Z,52.456,5.522,19,16,40,6,,6+,30.24,,,TRUE,,,,,,,,BKN,1500,OVC,1800,,,,,MVFR,,,,,,,,,,,,METAR,-3
EHKV 160125Z AUTO 02017KT 9999 SCT012 OVC014 17/14 Q1027,EHKV,2025-08-16T01:25:00Z,53.269,3.628,17,14,20,17,,6+,30.32,,,TRUE,,,,,,,,SCT,1200,OVC,1400,,,,,MVFR,,,,,,,,,,,,METAR,28
EHKD 160125Z AUTO 01008KT 320V050 9999 FEW013 OVC015 18/16 Q1025 WHT,EHKD,2025-08-16T01:25:00Z,52.927,4.781,18,16,10,8,,6+,30.27,,,TRUE,,,,,,,,FEW,1300,OVC,1500,,,,,MVFR,,,,,,,,,,,,METAR,1
EHJA 160125Z AUTO 02012KT 9999 SCT010/// BKN012/// OVC015/// 17/14 Q1027 RERA,EHJA,2025-08-16T01:25:00Z,53.824,2.945,17,14,20,12,,6+,30.32,,,TRUE,,,,,,,,SCT,1000,BKN,1200,OVC,1500,,,MVFR,,,,,,,,,,,,METAR,34
EHHW 160125Z AUTO 36013KT 9999 SCT012/// BKN014/// OVC016/// 17/13 Q1025,EHHW,2025-08-16T01:25:00Z,54.037,6.042,17,13,360,13,,6+,30.27,,,TRUE,,,,,,,,SCT,1200,BKN,1400,OVC,1600,,,MVFR,,,,,,,,,,,,METAR,10
EHGR 160125Z AUTO 34006KT 280V040 9999 BKN013 OVC015 19/16 Q1024 GRN,EHGR,2025-08-16T01:25:00Z,51.565,4.935,19,16,340,6,,6+,30.24,,,TRUE,,,,,,,,BKN,1300,OVC,1500,,,,,MVFR,,,,,,,,,,,,METAR,12
EHGG 160125Z AUTO 33007KT 280V020 9999 BKN009/// BKN010/// OVC013/// 18/16 Q1024,EHGG,2025-08-16T01:25:00Z,53.12,6.579,18,16,330,7,,6+,30.24,,,TRUE,,,,,,,,BKN,900,BKN,1000,OVC,1300,,,IFR,,,,,,,,,,,,METAR,2
EHFD 160125Z AUTO VRB18KT 9999 BKN019/// 16/12 Q1026,EHFD,2025-08-16T01:25:00Z,54.854,4.696,16,12,VRB,18,,6+,30.30,,,TRUE,,,,,,,,BKN,1900,,,,,,,MVFR,,,,,,,,,,,,METAR,24
EHEH 160125Z AUTO 36008KT 320V040 9999 OVC015 19/16 Q1024 WHT,EHEH,2025-08-16T01:25:00Z,51.45,5.377,19,16,360,8,,6+,30.24,,,TRUE,,,,,,,,OVC,1500,,,,,,,MVFR,,,,,,,,,,,,METAR,20
EHDV 160125Z AUTO /////KT 9999 SCT013/// BKN015/// 16/13 Q1027,EHDV,2025-08-16T01:25:00Z,54.326,2.936,16,13,,,,6+,30.32,,,TRUE,,,,,,,,SCT,1300,BKN,1500,,,,,MVFR,,,,,,,,,,,,METAR,36
EHDL 160125Z AUTO 35006KT 290V080 9999 OVC016 18/15 Q1024 WHT,EHDL,2025-08-16T01:25:00Z,52.061,5.887,18,15,350,6,,6+,30.24,,,TRUE,,,,,,,,OVC,1600,,,,,,,MVFR,,,,,,,,,,,,METAR,49
EHBK 160125Z AUTO 01007KT 330V050 9000 OVC006 19/17 Q1024,EHBK,2025-08-16T01:25:00Z,50.905,5.762,19,17,10,7,,5.59,30.24,,,TRUE,,,,,,,,OVC,600,,,,,,,IFR,,,,,,,,,,,,METAR,112
EHAM 160125Z 36007KT 320V030 9999 FEW012 BKN019 19/16 Q1025 NOSIG,EHAM,2025-08-16T01:25:00Z,52.315,4.79,19,16,360,7,,6+,30.27,,,,,,TRUE,,,,,FEW,1200,BKN,1900,,,,,MVFR,,,,,,,,,,,,METAR,-2
EHAK 160125Z AUTO 35019KT 9999 SCT023/// 16/12 Q1026,EHAK,2025-08-16T01:25:00Z,55.399,3.81,16,12,350,19,,6+,30.30,,,TRUE,,,,,,,,SCT,2300,,,,,,,VFR,,,,,,,,,,,,METAR,33
UUBC 160124Z 00000MPS 0350 0250SE R31/0250N FG NSC 09/09 Q1017 R31/CLRD60 NOSIG RMK QFE746/0995,UUBC,2025-08-16T01:24:00Z,54.552,36.37,9,9,0,0,,0.22,30.03,,,,,,TRUE,,,,FG,CLR,,,,,,,,LIFR,,,,,,,,,,,,SPECI,198
PANI 160124Z AUTO 29011KT 10SM BKN028 BKN047 OVC055 13/08 A3010 RMK AO2 $,PANI,2025-08-16T01:24:00Z,61.578,-159.539,13,8,290,11,,10+,30.10,,,TRUE,TRUE,TRUE,,,,,,BKN,2800,BKN,4700,OVC,5500,,,MVFR,,,,,,,,,,,,SPECI,21
KSNS 160124Z 29013G20KT 10SM BKN012 OVC017 18/14 A2998 RMK AO2 T01780144 $,KSNS,2025-08-16T01:24:00Z,36.6635,-121.609,17.8,14.4,290,13,20,10+,29.98,,,,TRUE,TRUE,,,,,,BKN,1200,OVC,1700,,,,,MVFR,,,,,,,,,,,,SPECI,20
KPRN 160124Z AUTO 34003KT 10SM CLR 26/24 A3011 RMK AO2 TSB05E21 T02610239,KPRN,2025-08-16T01:24:00Z,31.8467,-86.6141,26.1,23.9,340,3,,10+,30.11,,,TRUE,TRUE,,,,,,,CLR,,,,,,,,VFR,,,,,,,,,,,,SPECI,137
KMLI 160124Z 00000KT 10SM VCTS -RA FEW110 22/20 A3007 RMK AO2 LTG DSNT ALQDS TSE18 P0005 T02170200 $,KMLI,2025-08-16T01:24:00Z,41.4482,-90.5237,21.7,20,0,0,,10+,30.07,,,,TRUE,TRUE,,,,,VCTS -RA,FEW,11000,,,,,,,VFR,,,,,,0.05,,,,,,SPECI,174
KINS 160124Z AUTO 29013G16KT 10SM FEW002 SCT070 BKN110 BKN180 31/11 A2989 RMK AO2 LTG DSNT NW-NE RAE11DZB11E16 TSE24 SLP071 $,KINS,2025-08-16T01:24:00Z,36.586,-115.69,31,11,290,13,16,10+,29.89,1007.1,,TRUE,TRUE,TRUE,,,,,,FEW,200,SCT,7000,BKN,11000,BKN,18000,VFR,,,,,,,,,,,,SPECI,954
KHRT 160124Z 00000KT 10SM VCTS FEW095 BKN130 26/22 A3010 RMK AO2A TSE24 SLP191 $,KHRT,2025-08-16T01:24:00Z,30.428,-86.69,26,22,0,0,,10+,30.10,1019.1,,,TRUE,TRUE,,,,,VCTS,FEW,9500,BKN,13000,,,,,VFR,,,,,,,,,,,,SPECI,10
KFOK 160124Z 13004KT 10SM BKN009 23/22 A3019 RMK AO2 CIG 007V012 T02280217,KFOK,2025-08-16T01:24:00Z,40.8506,-72.6193,22.8,21.7,130,4,,10+,30.19,,,,TRUE,,,,,,,BKN,900,,,,,,,IFR,,,,,,,,,,,,SPECI,13
KCUB 160124Z AUTO 29006KT 10SM CLR 29/22 A3007 RMK AO2 LTG DSNT NE AND SW AND W T02940222,KCUB,2025-08-16T01:24:00Z,33.972,-80.9939,29.4,22.2,290,6,,10+,30.07,,,TRUE,TRUE,,,,,,,CLR,,,,,,,,VFR,,,,,,,,,,,,SPECI,55
KAKQ 160124Z AUTO 00000KT 7SM BKN017 24/24 A3010 RMK AO2 T02440239,KAKQ,2025-08-16T01:24:00Z,36.9827,-77.0014,24.4,23.9,0,0,,7,30.10,,,TRUE,TRUE,,,,,,,BKN,1700,,,,,,,MVFR,,,,,,,,,,,,SPECI,34
CYUB 160124Z 32014G20KT 10SM BKN004 07/07 A2988 RMK ST7 CIG RAG SLP122,CYUB,2025-08-16T01:24:00Z,69.434,-133.026,7,7,320,14,20,10+,29.88,1012.2,,,,,,,,,,BKN,400,,,,,,,LIFR,,,,,,,,,,,,SPECI,5
CYHE 160124Z AUTO 28005KT 8SM -RA FEW008 BKN030 OVC037 17/17 A2976 RMK PCPN 1.2MM PAST HR SLP080 DENSITY ALT 700FT,CYHE,2025-08-16T01:24:00Z,49.37,-121.493,17,17,280,5,,8,29.76,1008,,TRUE,,,,,,,-RA,FEW,800,BKN,3000,OVC,3700,,,MVFR,,,,,,,,,,,,SPECI,43
USTR 160123Z 34003MPS 280V360 0500 0250N R21/0550 FG SCT001 11/11 Q0999 R21/090065 R30/090065 TEMPO 0300 FG VV002 RMK QBB030,USTR,2025-08-16T01:23:00Z,57.19,65.324,11,11,340,6,,0.31,29.50,,,,,,,,,,FG,SCT,100,,,,,,,LIFR,,,,,,,,,,,,SPECI,93
KORF 160123Z 06008KT 10SM BKN011 BKN017 OVC024 26/24 A3009 RMK AO2 T02560239,KORF,2025-08-16T01:23:00Z,36.9037,-76.1927,25.6,23.9,60,8,,10+,30.09,,,,TRUE,,,,,,,BKN,1100,BKN,1700,OVC,2400,,,MVFR,,,,,,,,,,,,SPECI,5
KNUC 160123Z AUTO 26004KT 10SM OVC010 18/15 A2997 RMK AO2 T01780150 PNO $,KNUC,2025-08-16T01:23:00Z,33.022,-118.583,17.8,15,260,4,,10+,29.97,,,TRUE,TRUE,TRUE,,,,,,OVC,1000,,,,,,,MVFR,,,,,,,,,,,,SPECI,52
KNOG 160123Z AUTO 13013G22KT 10SM FEW020 BKN028 BKN036 27/23 A2999 RMK AO2 T02720233 PNO $,KNOG,2025-08-16T01:23:00Z,27.895,-98.043,27.2,23.3,130,13,22,10+,29.99,,,TRUE,TRUE,TRUE,,,,,,FEW,2000,BKN,2800,BKN,3600,,,MVFR,,,,,,,,,,,,SPECI,72
KMLU 160123Z 32003KT 10SM -RA FEW047 SCT095 BKN120 26/24 A3007 RMK AO2 TSE17 P0004 T02560244,KMLU,2025-08-16T01:23:00Z,32.5155,-92.03,25.6,24.4,320,3,,10+,30.07,,,,TRUE,,,,,,-RA,FEW,4700,SCT,9500,BKN,12000,,,VFR,,,,,,0.04,,,,,,SPECI,22
CYRV 160123Z AUTO 13005KT 100V190 6SM RA BR BKN010 OVC066 16/15 A2982 RMK PCPN 1.0MM PAST HR SLP102 DENSITY ALT 2100FT,CYRV,2025-08-16T01:23:00Z,50.958,-118.176,16,15,130,5,,6,29.82,1010.2,,TRUE,,,,,,,RA BR,BKN,1000,OVC,6600,,,,,MVFR,,,,,,,,,,,,SPECI,456
PAPB 160122Z AUTO 27005KT 3SM BR BKN003 OVC013 10/10 A3029 RMK AO2 T01000100 TSNO $,PAPB,2025-08-16T01:22:00Z,56.576,-169.663,10,10,270,5,,3,30.29,,,TRUE,TRUE,TRUE,,TRUE,,,BR,BKN,300,OVC,1300,,,,,LIFR,,,,,,,,,,,,SPECI,33
MHLM 160122Z 08008KT 9999 VCTS SCT025TCU FEW028CB BKN080 26/23 Q1015 A2997 NOSIG,MHLM,2025-08-16T01:22:00Z,15.442,-87.934,26,23,80,8,,6+,29.97,,,,,,TRUE,,,,VCTS,SCT,2500,FEW,2800,BKN,8000,,,VFR,,,,,,,,,,,,SPECI,32
KVOK 160122Z 23005KT 10SM -TSRA BKN036 BKN085 27/23 A3004 RMK AO2A RAB22 TSB12 PRESRR SLP170,KVOK,2025-08-16T01:22:00Z,43.938,-90.253,27,23,230,5,,10+,30.04,1017,,,TRUE,,,,,,-TSRA,BKN,3600,BKN,8500,,,,,VFR,,,,,,,,,,,,SPECI,278
KMKL 160122Z AUTO 11007KT 10SM VCTS BKN055 27/23 A3010 RMK AO1 TSE16 T02670228,KMKL,2025-08-16T01:22:00Z,35.5933,-88.917,26.7,22.8,110,7,,10+,30.10,,,TRUE,TRUE,,,,,,VCTS,BKN,5500,,,,,,,VFR,,,,,,,,,,,,SPECI,130
KJKA 160122Z COR 05011G20KT 2SM VCTS RA BKN006 BKN020 BKN040 27/22 A3012 RMK LTG DSNT N-SE,KJKA,2025-08-16T01:22:00Z,30.291,-87.661,27,22,50,11,20,2,30.12,,TRUE,,,,,,,,VCTS RA,BKN,600,BKN,2000,BKN,4000,,,IFR,,,,,,,,,,,,SPECI,5
KHQM 160122Z AUTO 20015G24KT 2 1/2SM RA BR OVC016 18/17 A2981 RMK AO2 P0008 T01780172,KHQM,2025-08-16T01:22:00Z,46.9729,-123.931,17.8,17.2,200,15,24,2.5,29.81,,,TRUE,TRUE,,,,,,RA BR,OVC,1600,,,,,,,IFR,,,,,,0.08,,,,,,SPECI,4
KFHR 160122Z AUTO 16006KT 7SM -RA OVC005 16/16 A2976 RMK AO2 P0002 T01610156,KFHR,2025-08-16T01:22:00Z,48.52,-123.026,16.1,15.6,160,6,,7,29.76,,,TRUE,TRUE,,,,,,-RA,OVC,500,,,,,,,IFR,,,,,,0.02,,,,,,SPECI,34
KECG 160122Z 04009KT 10SM BKN017 26/24 A3008 RMK AO2 T02560239,KECG,2025-08-16T01:22:00Z,36.2571,-76.1716,25.6,23.9,40,9,,10+,30.08,,,,TRUE,,,,,,,BKN,1700,,,,,,,MVFR,,,,,,,,,,,,SPECI,2
KCRQ 160122Z AUTO 23008KT 10SM BKN014 19/15 A2994 RMK AO2 T01890150,KCRQ,2025-08-16T01:22:00Z,33.1299,-117.277,18.9,15,230,8,,10+,29.94,,,TRUE,TRUE,,,,,,,BKN,1400,,,,,,,MVFR,,,,,,,,,,,,SPECI,96
KAXN 160122Z AUTO 11004KT 10SM SCT028 26/22 A3000 RMK AO2 T02560222,KAXN,2025-08-16T01:22:00Z,45.868,-95.394,25.6,22.2,110,4,,10+,30.00,,,TRUE,TRUE,,,,,,,SCT,2800,,,,,,,VFR,,,,,,,,,,,,SPECI,433
KAHN 160122Z 08003KT 7SM RA FEW075 SCT090 OVC110 23/21 A3016 RMK AO2 LTG DSNT SE TSB0059E16 P0006 T02280211,KAHN,2025-08-16T01:22:00Z,33.9477,-83.3274,22.8,21.1,80,3,,7,30.16,,,,TRUE,,,,,,RA,FEW,7500,SCT,9000,OVC,11000,,,VFR,,,,,,0.06,,,,,,SPECI,241
PAAK 160121Z AUTO 08007KT 1/4SM -RA FG OVC002 11/11 A3030 RMK AO2 TSNO PNO $,PAAK,2025-08-16T01:21:00Z,52.219,-174.208,11,11,80,7,,0.25,30.30,,,TRUE,TRUE,TRUE,,TRUE,,,-RA FG,OVC,200,,,,,,,LIFR,,,,,,,,,,,,SPECI,11
KSMP 160121Z AUTO 00000KT 1SM -RA BR FEW002 BKN010 OVC042 14/14 A2996 RMK AO2 P0003 T01390139,KSMP,2025-08-16T01:21:00Z,47.2764,-121.338,13.9,13.9,0,0,,1,29.96,,,TRUE,TRUE,,,,,,-RA BR,FEW,200,BKN,1000,OVC,4200,,,IFR,,,,,,0.03,,,,,,SPECI,1206
KLIC 160121Z AUTO 00000KT 10SM VCTS FEW120 29/06 A3006 RMK AO2 T02940056,KLIC,2025-08-16T01:21:00Z,39.2733,-103.667,29.4,5.6,0,0,,10+,30.06,,,TRUE,TRUE,,,,,,VCTS,FEW,12000,,,,,,,VFR,,,,,,,,,,,,SPECI,1635
KLHW 160121Z 04003KT 10SM FEW045 24/22 A3002 RMK AO2A RAE21 TSE09 SLP168,KLHW,2025-08-16T01:21:00Z,31.8872,-81.5625,24,22,40,3,,10+,30.02,1016.8,,,TRUE,,,,,,,FEW,4500,,,,,,,VFR,,,,,,,,,,,,SPECI,14
KGXF 160121Z 14025G29KT 9SM VCTS BKN080CB 31/21 A2984 RMK AO2A LTG 8E-DSNT SE RAB0055E0056 TSE21 SLP090 FZRANO $,KGXF,2025-08-16T01:21:00Z,32.885,-112.721,31,21,140,25,29,9,29.84,1009,,,TRUE,TRUE,,,TRUE,,VCTS,BKN,8000,,,,,,,VFR,,,,,,,,,,,,SPECI,261
K0J4 160121Z AUTO 20003KT 10SM CLR 27/22 A3014 RMK AO2 TSE18 T02670222,K0J4,2025-08-16T01:21:00Z,31.0447,-86.3119,26.7,22.2,200,3,,10+,30.14,,,TRUE,TRUE,,,,,,,CLR,,,,,,,,VFR,,,,,,,,,,,,SPECI,96
CYGW 160121Z AUTO 17011G19KT 9SM BKN018 OVC027 19/17 A2958 RMK PCPN 0.8MM PAST HR SLP019 DENSITY ALT 900FT,CYGW,2025-08-16T01:21:00Z,55.283,-77.76,19,17,170,11,19,9,29.58,1001.9,,TRUE,,,,,,,,BKN,1800,OVC,2700,,,,,MVFR,,,,,,,,,,,,SPECI,13
USNN 160120Z 28001MPS 0800 FG VV002 15/14 Q0996 R21/15//65 NOSIG RMK QFE742,USNN,2025-08-16T01:20:00Z,60.959,76.497,15,14,280,2,,0.5,29.41,,,,,,TRUE,,,,FG,OVX,0,,,,,,,LIFR,,,,,,,,,,,200,SPECI,52
PKWA 160120Z AUTO 06012KT 10SM -RA SCT060 BKN090 25/23 A2986 RMK AO2 P0001 T02540233,PKWA,2025-08-16T01:20:00Z,8.72,167.724,25.4,23.3,60,12,,10+,29.86,,,TRUE,TRUE,,,,,,-RA,SCT,6000,BKN,9000,,,,,VFR,,,,,,0.01,,,,,,METAR,6
PAVC 160120Z AUTO 25013KT 9SM SCT008 OVC017 12/11 A3027 RMK AO2 PNO $,PAVC,2025-08-16T01:20:00Z,55.115,-162.271,12,11,250,13,,9,30.27,,,TRUE,TRUE,TRUE,,,,,,SCT,800,OVC,1700,,,,,MVFR,,,,,,,,,,,,SPECI,48
LWSK 160120Z 36001KT 9999 FEW090 17/10 Q1016 NOSIG,LWSK,2025-08-16T01:20:00Z,41.952,21.627,17,10,360,1,,6+,30.00,,,,,,TRUE,,,,,FEW,9000,,,,,,,VFR,,,,,,,,,,,,METAR,232
LWOH 160120Z 01003KT 320V030 9999 FEW040 15/08 Q1018,LWOH,2025-08-16T01:20:00Z,41.181,20.744,15,8,10,3,,6+,30.06,,,,,,,,,,,FEW,4000,,,,,,,VFR,,,,,,,,,,,,METAR,700
LTFM 160120Z 06021KT 9999 FEW028 24/18 Q1013 NOSIG,LTFM,2025-08-16T01:20:00Z,41.262,28.74,24,18,60,21,,6+,29.91,,,,,,TRUE,,,,,FEW,2800,,,,,,,VFR,,,,,,,,,,,,METAR,99
LTFJ 160120Z 04013KT CAVOK 21/18 Q1012 NOSIG,LTFJ,2025-08-16T01:20:00Z,40.899,29.309,21,18,40,13,,6+,29.88,,,,,,TRUE,,,,,CAVOK,,,,,,,,VFR,,,,,,,,,,,,METAR,83
LTFE 160120Z 00000KT CAVOK 21/21 Q1005 NOSIG,LTFE,2025-08-16T01:20:00Z,37.245,27.673,21,21,0,0,,6+,29.68,,,,,,TRUE,,,,,CAVOK,,,,,,,,VFR,,,,,,,,,,,,METAR,6
LTFC 160120Z 36003KT 310V060 CAVOK 22/12 Q1010,LTFC,2025-08-16T01:20:00Z,37.855,30.368,22,12,360,3,,6+,29.82,,,,,,,,,,,CAVOK,,,,,,,,VFR,,,,,,,,,,,,METAR,862
LTDB 160120Z 04003KT 7000 SCT025 23/23 Q1004 NOSIG,LTDB,2025-08-16T01:20:00Z,36.8938,35.07,23,23,40,3,,4.35,29.65,,,,,,TRUE,,,,,SCT,2500,,,,,,,MVFR,,,,,,,,,,,,METAR,6
LTCS 160120Z 35007KT CAVOK 24/M02 Q1006,LTCS,2025-08-16T01:20:00Z,37.445,38.904,24,-2,350,7,,6+,29.70,,,,,,,,,,,CAVOK,,,,,,,,VFR,,,,,,,,,,,,METAR,825
LTCJ 160120Z 18004KT CAVOK 21/04 Q1002 NOSIG,LTCJ,2025-08-16T01:20:00Z,37.93,41.117,21,4,180,4,,6+,29.59,,,,,,TRUE,,,,,CAVOK,,,,,,,,VFR,,,,,,,,,,,,METAR,559
LTCG 160120Z 24005KT 210V270 9999 SCT035 24/17 Q1012 NOSIG,LTCG,2025-08-16T01:20:00Z,40.995,39.782,24,17,240,5,,6+,29.88,,,,,,TRUE,,,,,SCT,3500,,,,,,,VFR,,,,,,,,,,,,METAR,28
LTCE 160120Z 10005KT CAVOK 09/04 Q1017 NOSIG,LTCE,2025-08-16T01:20:00Z,39.956,41.17,9,4,100,5,,6+,30.03,,,,,,TRUE,,,,,CAVOK,,,,,,,,VFR,,,,,,,,,,,,METAR,1758
LTCC 160120Z 27015KT CAVOK 27/03 Q1004 NOSIG,LTCC,2025-08-16T01:20:00Z,37.894,40.201,27,3,270,15,,6+,29.65,,,,,,TRUE,,,,,CAVOK,,,,,,,,VFR,,,,,,,,,,,,METAR,676
LTBU 160120Z 03009KT CAVOK 21/18 Q1013,LTBU,2025-08-16T01:20:00Z,41.139,27.919,21,18,30,9,,6+,29.91,,,,,,,,,,,CAVOK,,,,,,,,VFR,,,,,,,,,,,,METAR,165
LTBS 160120Z 10005KT CAVOK 24/20 Q1003 NOSIG,LTBS,2025-08-16T01:20:00Z,36.713,28.793,24,20,100,5,,6+,29.62,,,,,,TRUE,,,,,CAVOK,,,,,,,,VFR,,,,,,,,,,,,METAR,2
LTBR 160120Z 00000KT CAVOK 14/11 Q1012 NOSIG,LTBR,2025-08-16T01:20:00Z,40.255,29.562,14,11,0,0,,6+,29.88,,,,,,TRUE,,,,,CAVOK,,,,,,,,VFR,,,,,,,,,,,,METAR,233
LTBJ 160120Z 02006KT CAVOK 24/12 Q1006 NOSIG,LTBJ,2025-08-16T01:20:00Z,38.285,27.155,24,12,20,6,,6+,29.70,,,,,,TRUE,,,,,CAVOK,,,,,,,,VFR,,,,,,,,,,,,METAR,123
LTBA 160120Z 06015KT 9999 FEW022 24/18 Q1012,LTBA,2025-08-16T01:20:00Z,40.982,28.821,24,18,60,15,,6+,29.88,,,,,,,,,,,FEW,2200,,,,,,,VFR,,,,,,,,,,,,METAR,33
LTAZ 160120Z 20009KT CAVOK 17/07 Q1013,LTAZ,2025-08-16T01:20:00Z,38.771,34.521,17,7,200,9,,6+,29.91,,,,,,,,,,,CAVOK,,,,,,,,VFR,,,,,,,,,,,,METAR,944
LTAU 160120Z 09013KT CAVOK 17/09 Q1013 NOSIG,LTAU,2025-08-16T01:20:00Z,38.77,35.495,17,9,90,13,,6+,29.91,,,,,,TRUE,,,,,CAVOK,,,,,,,,VFR,,,,,,,,,,,,METAR,1053
LTAT 160120Z 20003KT 140V250 CAVOK 18/01 Q1009 NOSIG,LTAT,2025-08-16T01:20:00Z,38.435,38.092,18,1,200,3,,6+,29.79,,,,,,TRUE,,,,,CAVOK,,,,,,,,VFR,,,,,,,,,,,,METAR,850
LTAJ 160120Z 25004KT 230V290 CAVOK 22/11 Q1006 NOSIG,LTAJ,2025-08-16T01:20:00Z,36.947,37.479,22,11,250,4,,6+,29.70,,,,,,TRUE,,,,,CAVOK,,,,,,,,VFR,,,,,,,,,,,,METAR,684
LTAI 160120Z 32005KT 290V350 9999 SCT012 26/25 Q1004 BECMG TL0300 BKN008,LTAI,2025-08-16T01:20:00Z,36.9,30.798,26,25,320,5,,6+,29.65,,,,,,,,,,,SCT,1200,,,,,,,VFR,,,,,,,,,,,,METAR,50
LTAG 160120Z 05004KT 9999 FEW025 24/21 Q1004 NOSIG,LTAG,2025-08-16T01:20:00Z,37.002,35.426,24,21,50,4,,6+,29.65,,,,,,TRUE,,,,,FEW,2500,,,,,,,VFR,,,,,,,,,,,,METAR,62
LTAF 160120Z 22001KT 6000 FEW030 25/24 Q1004 NOSIG,LTAF,2025-08-16T01:20:00Z,36.989,35.293,25,24,220,1,,3.73,29.65,,,,,,TRUE,,,,,FEW,3000,,,,,,,MVFR,,,,,,,,,,,,METAR,19
LTAC 160120Z 05008KT 020V090 CAVOK 17/09 Q1015 NOSIG,LTAC,2025-08-16T01:20:00Z,40.128,32.995,17,9,50,8,,6+,29.97,,,,,,TRUE,,,,,CAVOK,,,,,,,,VFR,,,,,,,,,,,,METAR,952
LSZS 160120Z AUTO VRB01KT 9999 FEW003 07/07 Q1029,LSZS,2025-08-16T01:20:00Z,46.526,9.879,7,7,VRB,1,,6+,30.38,,,TRUE,,,,,,,,FEW,300,,,,,,,VFR,,,,,,,,,,,,METAR,1708
LSZR 160120Z AUTO 26003KT 9999 //////TCU 20/18 Q1021,LSZR,2025-08-16T01:20:00Z,47.485,9.561,20,18,260,3,,6+,30.15,,,TRUE,,,,,,,,,,,,,,,,VFR,,,,,,,,,,,,METAR,396
LSZL 160120Z AUTO 00000KT 9999NDV NCD 21/18 Q1019 RMK,LSZL,2025-08-16T01:20:00Z,46.164,8.878,21,18,0,0,,,30.09,,,TRUE,,,,,,,,CLR,,,,,,,,,,,,,,,,,,,,METAR,198
LSZH 160120Z AUTO VRB02KT 9999 //////TCU 18/18 Q1021 NOSIG,LSZH,2025-08-16T01:20:00Z,47.48,8.536,18,18,VRB,2,,6+,30.15,,,TRUE,,,TRUE,,,,,,,,,,,,,VFR,,,,,,,,,,,,METAR,424
LSZG 160120Z AUTO 05004KT CAVOK 18/18 Q1021,LSZG,2025-08-16T01:20:00Z,47.179,7.415,18,18,50,4,,6+,30.15,,,TRUE,,,,,,,,CAVOK,,,,,,,,VFR,,,,,,,,,,,,METAR,428
LSZC 160120Z AUTO 25003KT CAVOK 20/16 Q1022,LSZC,2025-08-16T01:20:00Z,46.972,8.392,20,16,250,3,,6+,30.18,,,TRUE,,,,,,,,CAVOK,,,,,,,,VFR,,,,,,,,,,,,METAR,445
LSZB 160120Z AUTO VRB01KT CAVOK 18/16 Q1021,LSZB,2025-08-16T01:20:00Z,46.914,7.497,18,16,VRB,1,,6+,30.15,,,TRUE,,,,,,,,CAVOK,,,,,,,,VFR,,,,,,,,,,,,METAR,510
LSZA 160120Z AUTO 36004KT CAVOK 20/17 Q1019,LSZA,2025-08-16T01:20:00Z,46.004,8.91,20,17,360,4,,6+,30.09,,,TRUE,,,,,,,,CAVOK,,,,,,,,VFR,,,,,,,,,,,,METAR,276
LSMP 160120Z AUTO 00000KT 5000NDV BR NCD 19/17 Q1021 RMK,LSMP,2025-08-16T01:20:00Z,46.844,6.916,19,17,0,0,,,30.15,,,TRUE,,,,,,,BR,CLR,,,,,,,,,,,,,,,,,,,,METAR,490
LSMM 160120Z AUTO 00000KT 9999NDV ////// 18/16 Q1022 RMK MIS,LSMM,2025-08-16T01:20:00Z,46.743,8.11,18,16,0,0,,,30.18,,,TRUE,,,,,,,,,,,,,,,,,,,,,,,,,,,,METAR,570
LSME 160120Z AUTO 00000KT 9999NDV NCD 19/17 Q1021 RMK,LSME,2025-08-16T01:20:00Z,47.092,8.305,19,17,0,0,,,30.15,,,TRUE,,,,,,,,CLR,,,,,,,,,,,,,,,,,,,,METAR,427
LSMD 160120Z AUTO 11002KT 9999NDV NCD 19/17 Q1021 RMK,LSMD,2025-08-16T01:20:00Z,47.399,8.648,19,17,110,2,,,30.15,,,TRUE,,,,,,,,CLR,,,,,,,,,,,,,,,,,,,,METAR,436
LSMA 160120Z AUTO VRB02KT 9999NDV NCD 18/16 Q1022 RMK,LSMA,2025-08-16T01:20:00Z,46.943,8.286,18,16,VRB,2,,,30.18,,,TRUE,,,,,,,,CLR,,,,,,,,,,,,,,,,,,,,METAR,441
LSGS 160120Z AUTO VRB02KT CAVOK 19/15 Q1022,LSGS,2025-08-16T01:20:00Z,46.219,7.33,19,15,VRB,2,,6+,30.18,,,TRUE,,,,,,,,CAVOK,,,,,,,,VFR,,,,,,,,,,,,METAR,482
LSGG 160120Z AUTO VRB02KT CAVOK 20/16 Q1021 NOSIG,LSGG,2025-08-16T01:20:00Z,46.248,6.128,20,16,VRB,2,,6+,30.15,,,TRUE,,,TRUE,,,,,CAVOK,,,,,,,,VFR,,,,,,,,,,,,METAR,411
LSGC 160120Z AUTO VRB01KT CAVOK 15/13 Q1025,LSGC,2025-08-16T01:20:00Z,47.083,6.792,15,13,VRB,1,,6+,30.27,,,TRUE,,,,,,,,CAVOK,,,,,,,,VFR,,,,,,,,,,,,METAR,1018
LOWW 160120Z 18007KT CAVOK 19/15 Q1017 NOSIG,LOWW,2025-08-16T01:20:00Z,48.117,16.582,19,15,180,7,,6+,30.03,,,,,,TRUE,,,,,CAVOK,,,,,,,,VFR,,,,,,,,,,,,METAR,179
LOWS 160120Z AUTO VRB02KT 9999 NCD 19/15 Q1020,LOWS,2025-08-16T01:20:00Z,47.789,13.009,19,15,VRB,2,,6+,30.12,,,TRUE,,,,,,,,CLR,,,,,,,,VFR,,,,,,,,,,,,METAR,427
LOWL 160120Z AUTO 19003KT 150V220 9999 NCD 19/16 Q1019,LOWL,2025-08-16T01:20:00Z,48.233,14.188,19,16,190,3,,6+,30.09,,,TRUE,,,,,,,,CLR,,,,,,,,VFR,,,,,,,,,,,,METAR,290
LOWK 160120Z AUTO 29006KT 9999 NCD 19/14 Q1020,LOWK,2025-08-16T01:20:00Z,46.648,14.318,19,14,290,6,,6+,30.12,,,TRUE,,,,,,,,CLR,,,,,,,,VFR,,,,,,,,,,,,METAR,450
LOWI 160120Z AUTO VRB03KT 9999 -RA VCTS //////CB FEW034 BKN110 17/16 Q1023 RESHRA,LOWI,2025-08-16T01:20:00Z,47.26,11.344,17,16,VRB,3,,6+,30.21,,,TRUE,,,,,,,-RA VCTS,FEW,3400,BKN,11000,,,,,VFR,,,,,,,,,,,,METAR,570
LOWG 160120Z AUTO VRB01KT 9999 NCD 18/14 Q1018,LOWG,2025-08-16T01:20:00Z,46.997,15.447,18,14,VRB,1,,6+,30.06,,,TRUE,,,,,,,,CLR,,,,,,,,VFR,,,,,,,,,,,,METAR,337
LLBG 160120Z VRB03KT CAVOK 27/21 Q1007 NOSIG,LLBG,2025-08-16T01:20:00Z,32.011,34.887,27,21,VRB,3,,6+,29.73,,,,,,TRUE,,,,,CAVOK,,,,,,,,VFR,,,,,,,,,,,,METAR,35
LIRZ 160120Z AUTO 15003KT 120V200 9999 NCD 17/16 Q1016,LIRZ,2025-08-16T01:20:00Z,43.097,12.51,17,16,150,3,,6+,30.00,,,TRUE,,,,,,,,CLR,,,,,,,,VFR,,,,,,,,,,,,METAR,206
LIRQ 160120Z VRB01KT CAVOK 21/13 Q1015,LIRQ,2025-08-16T01:20:00Z,43.81,11.205,21,13,VRB,1,,6+,29.97,,,,,,,,,,,CAVOK,,,,,,,,VFR,,,,,,,,,,,,METAR,33
LIRN 160120Z 02004KT 340V050 CAVOK 22/16 Q1014 NOSIG,LIRN,2025-08-16T01:20:00Z,40.885,14.292,22,16,20,4,,6+,29.94,,,,,,TRUE,,,,,CAVOK,,,,,,,,VFR,,,,,,,,,,,,METAR,76
LIRF 160120Z VRB01KT CAVOK 22/14 Q1014 NOSIG,LIRF,2025-08-16T01:20:00Z,41.8,12.239,22,14,VRB,1,,6+,29.94,,,,,,TRUE,,,,,CAVOK,,,,,,,,VFR,,,,,,,,,,,,METAR,2
LIRA 160120Z AUTO 05005KT 9999 // FEW220/// 23/13 Q1015,LIRA,2025-08-16T01:20:00Z,41.808,12.585,23,13,50,5,,6+,29.97,,,TRUE,,,,,,,,FEW,22000,,,,,,,VFR,,,,,,,,,,,,METAR,101
LIPZ 160120Z AUTO 36007KT 9999 NCD 25/17 Q1014,LIPZ,2025-08-16T01:20:00Z,45.505,12.352,25,17,360,7,,6+,29.94,,,TRUE,,,,,,,,CLR,,,,,,,,VFR,,,,,,,,,,,,METAR,3
LIPY 160120Z AUTO 17003KT 9999 NCD 22/14 Q1014,LIPY,2025-08-16T01:20:00Z,43.617,13.36,22,14,170,3,,6+,29.94,,,TRUE,,,,,,,,CLR,,,,,,,,VFR,,,,,,,,,,,,METAR,11
LIPX 160120Z VRB02KT 9999 BKN090 24/18 Q1015,LIPX,2025-08-16T01:20:00Z,45.387,10.872,24,18,VRB,2,,6+,29.97,,,,,,,,,,,BKN,9000,,,,,,,VFR,,,,,,,,,,,,METAR,67
LIPR 160120Z AUTO 25003KT 9999 NCD 23/12 Q1014,LIPR,2025-08-16T01:20:00Z,44.02,12.612,23,12,250,3,,6+,29.94,,,TRUE,,,,,,,,CLR,,,,,,,,VFR,,,,,,,,,,,,METAR,10
LIPQ 160120Z AUTO 03004KT 9999 NCD 24/16 Q1015,LIPQ,2025-08-16T01:20:00Z,45.828,13.472,24,16,30,4,,6+,29.97,,,TRUE,,,,,,,,CLR,,,,,,,,VFR,,,,,,,,,,,,METAR,6
LIPO 160120Z AUTO VRB02KT 9999 BKN110/// 26/17 Q1016,LIPO,2025-08-16T01:20:00Z,45.429,10.331,26,17,VRB,2,,6+,30.00,,,TRUE,,,,,,,,BKN,11000,,,,,,,VFR,,,,,,,,,,,,METAR,104
LIPH 160120Z AUTO 36003KT 9999 NCD 25/17 Q1015,LIPH,2025-08-16T01:20:00Z,45.648,12.194,25,17,360,3,,6+,29.97,,,TRUE,,,,,,,,CLR,,,,,,,,VFR,,,,,,,,,,,,METAR,10
LIPE 160120Z 22004KT CAVOK 23/13 Q1015,LIPE,2025-08-16T01:20:00Z,44.531,11.297,23,13,220,4,,6+,29.97,,,,,,,,,,,CAVOK,,,,,,,,VFR,,,,,,,,,,,,METAR,37
LIMZ 160120Z AUTO 22006KT 9999 NCD 21/15 Q1019,LIMZ,2025-08-16T01:20:00Z,44.547,7.623,21,15,220,6,,6+,30.09,,,TRUE,,,,,,,,CLR,,,,,,,,VFR,,,,,,,,,,,,METAR,377
LIML 160120Z VRB02KT CAVOK 22/18 Q1017 NOSIG,LIML,2025-08-16T01:20:00Z,45.461,9.263,22,18,VRB,2,,6+,30.03,,,,,,TRUE,,,,,CAVOK,,,,,,,,VFR,,,,,,,,,,,,METAR,109
LIMJ 160120Z 06006KT CAVOK 28/16 Q1015,LIMJ,2025-08-16T01:20:00Z,44.413,8.838,28,16,60,6,,6+,29.97,,,,,,,,,,,CAVOK,,,,,,,,VFR,,,,,,,,,,,,METAR,3
LIMF 160120Z VRB02KT CAVOK 24/16 Q1018,LIMF,2025-08-16T01:20:00Z,45.203,7.649,24,16,VRB,2,,6+,30.06,,,,,,,,,,,CAVOK,,,,,,,,VFR,,,,,,,,,,,,METAR,295
LIME 160120Z 01005KT CAVOK 24/14 Q1017 NOSIG,LIME,2025-08-16T01:20:00Z,45.674,9.704,24,14,10,5,,6+,30.03,,,,,,TRUE,,,,,CAVOK,,,,,,,,VFR,,,,,,,,,,,,METAR,239
LIMC 160120Z 04005KT CAVOK 23/18 Q1018 NOSIG,LIMC,2025-08-16T01:20:00Z,45.631,8.728,23,18,40,5,,6+,30.06,,,,,,TRUE,,,,,CAVOK,,,,,,,,VFR,,,,,,,,,,,,METAR,221
LIEE 160120Z 35007KT CAVOK 23/20 Q1014,LIEE,2025-08-16T01:20:00Z,39.243,9.06,23,20,350,7,,6+,29.94,,,,,,,,,,,CAVOK,,,,,,,,VFR,,,,,,,,,,,,METAR,1
LIEA 160120Z 03004KT CAVOK 21/19 Q1015,LIEA,2025-08-16T01:20:00Z,40.631,8.289,21,19,30,4,,6+,29.97,,,,,,,,,,,CAVOK,,,,,,,,VFR,,,,,,,,,,,,METAR,22
LICR 160120Z AUTO 05006KT 9999 NCD 26/20 Q1013,LICR,2025-08-16T01:20:00Z,38.072,15.654,26,20,50,6,,6+,29.91,,,TRUE,,,,,,,,CLR,,,,,,,,VFR,,,,,,,,,,,,METAR,16
LICJ 160120Z 23002KT 9999 FEW023 26/23 Q1013,LICJ,2025-08-16T01:20:00Z,38.176,13.091,26,23,230,2,,6+,29.91,,,,,,,,,,,FEW,2300,,,,,,,VFR,,,,,,,,,,,,METAR,20
LICG 160120Z AUTO 33010KT 290V360 2200 BR VV002 25/24 Q1015,LICG,2025-08-16T01:20:00Z,36.814,11.971,25,24,330,10,,1.37,29.97,,,TRUE,,,,,,,BR,OVX,0,,,,,,,LIFR,,,,,,,,,,,200,METAR,192
LICD 160120Z AUTO 29007KT 9999 NCD 25/24 Q1013,LICD,2025-08-16T01:20:00Z,35.498,12.618,25,24,290,7,,6+,29.91,,,TRUE,,,,,,,,CLR,,,,,,,,VFR,,,,,,,,,,,,METAR,20
LICC 160120Z 22007KT CAVOK 20/17 Q1012,LICC,2025-08-16T01:20:00Z,37.467,15.064,20,17,220,7,,6+,29.88,,,,,,,,,,,CAVOK,,,,,,,,VFR,,,,,,,,,,,,METAR,6
LICB 160120Z AUTO 06004KT 9999 NCD 20/11 Q1013,LICB,2025-08-16T01:20:00Z,36.994,14.606,20,11,60,4,,6+,29.91,,,TRUE,,,,,,,,CLR,,,,,,,,VFR,,,,,,,,,,,,METAR,212
LICA 160120Z AUTO 08006KT 9999 BKN021/// 22/20 Q1013,LICA,2025-08-16T01:20:00Z,38.908,16.242,22,20,80,6,,6+,29.91,,,TRUE,,,,,,,,BKN,2100,,,,,,,MVFR,,,,,,,,,,,,METAR,7
LIBR 160120Z AUTO 33008KT 9999 FEW110/// BKN150/// 25/21 Q1013,LIBR,2025-08-16T01:20:00Z,40.658,17.951,25,21,330,8,,6+,29.91,,,TRUE,,,,,,,,FEW,11000,BKN,15000,,,,,VFR,,,,,,,,,,,,METAR,5
LIBP 160120Z AUTO 24007KT 9999 BKN220/// 23/15 Q1014,LIBP,2025-08-16T01:20:00Z,42.432,14.181,23,15,240,7,,6+,29.94,,,TRUE,,,,,,,,BKN,22000,,,,,,,VFR,,,,,,,,,,,,METAR,10
LIBD 160120Z 22004KT CAVOK 21/14 Q1013,LIBD,2025-08-16T01:20:00Z,41.138,16.765,21,14,220,4,,6+,29.91,,,,,,,,,,,CAVOK,,,,,,,,VFR,,,,,,,,,,,,METAR,42
LGTS 160120Z 11004KT 9999 FEW025 21/12 Q1014 NOSIG,LGTS,2025-08-16T01:20:00Z,40.52,22.971,21,12,110,4,,6+,29.94,,,,,,TRUE,,,,,FEW,2500,,,,,,,VFR,,,,,,,,,,,,METAR,4
LGSR 160120Z 30017KT CAVOK 26/17 Q1007,LGSR,2025-08-16T01:20:00Z,36.399,25.479,26,17,300,17,,6+,29.73,,,,,,,,,,,CAVOK,,,,,,,,VFR,,,,,,,,,,,,METAR,31
LGSO 160120Z AUTO 29006KT //// // ////// 24/17 Q1008 RE//,LGSO,2025-08-16T01:20:00Z,37.422,24.95,24,17,290,6,,,29.76,,,TRUE,,,,,,,,,,,,,,,,,,,,,,,,,,,,METAR,71
LGSA 160120Z 28004KT 9999 FEW020 23/19 Q1010,LGSA,2025-08-16T01:20:00Z,35.54,24.141,23,19,280,4,,6+,29.82,,,,,,,,,,,FEW,2000,,,,,,,VFR,,,,,,,,,,,,METAR,122
LGRP 160120Z 25020KT CAVOK 26/22 Q1004 NOSIG,LGRP,2025-08-16T01:20:00Z,36.405,28.086,26,22,250,20,,6+,29.65,,,,,,TRUE,,,,,CAVOK,,,,,,,,VFR,,,,,,,,,,,,METAR,3
LGPA 160120Z AUTO 34011KT //// // ////// 24/19 Q1008 RE//,LGPA,2025-08-16T01:20:00Z,37.022,25.114,24,19,340,11,,,29.76,,,TRUE,,,,,,,,,,,,,,,,,,,,,,,,,,,,METAR,42
LGMK 160120Z 34016KT CAVOK 23/20 Q1007,LGMK,2025-08-16T01:20:00Z,37.435,25.348,23,20,340,16,,6+,29.73,,,,,,,,,,,CAVOK,,,,,,,,VFR,,,,,,,,,,,,METAR,126
LGKZ 160120Z AUTO 35006KT 310V020 //// // ////// 20/04 Q1017 RE//,LGKZ,2025-08-16T01:20:00Z,40.288,21.842,20,4,350,6,,,30.03,,,TRUE,,,,,,,,,,,,,,,,,,,,,,,,,,,,METAR,615
LGKR 160120Z 00000KT 9999 FEW025 23/20 Q1012 NOSIG,LGKR,2025-08-16T01:20:00Z,39.61,19.913,23,20,0,0,,6+,29.88,,,,,,TRUE,,,,,FEW,2500,,,,,,,VFR,,,,,,,,,,,,METAR,2
LGKO 160120Z 30012KT CAVOK 23/22 Q1006,LGKO,2025-08-16T01:20:00Z,36.801,27.091,23,22,300,12,,6+,29.70,,,,,,,,,,,CAVOK,,,,,,,,VFR,,,,,,,,,,,,METAR,130
LGKL 160120Z VRB03KT 9999 FEW030 19/17 Q1011,LGKL,2025-08-16T01:20:00Z,37.068,22.026,19,17,VRB,3,,6+,29.85,,,,,,,,,,,FEW,3000,,,,,,,VFR,,,,,,,,,,,,METAR,4
LGIR 160120Z 29013KT 9999 FEW016 26/17 Q1009 NOSIG,LGIR,2025-08-16T01:20:00Z,35.337,25.173,26,17,290,13,,6+,29.79,,,,,,TRUE,,,,,FEW,1600,,,,,,,VFR,,,,,,,,,,,,METAR,37
LGIO 160120Z AUTO 07005KT //// // ////// 16/14 Q1015 RE//,LGIO,2025-08-16T01:20:00Z,39.696,20.823,16,14,70,5,,,29.97,,,TRUE,,,,,,,,,,,,,,,,,,,,,,,,,,,,METAR,476
LGEL 160120Z 33010KT CAVOK 27/11 Q1010,LGEL,2025-08-16T01:20:00Z,38.064,23.556,27,11,330,10,,6+,29.82,,,,,,,,,,,CAVOK,,,,,,,,VFR,,,,,,,,,,,,METAR,21
LGAV 160120Z 36014KT CAVOK 25/14 Q1011 NOSIG,LGAV,2025-08-16T01:20:00Z,37.936,23.945,25,14,360,14,,6+,29.85,,,,,,TRUE,,,,,CAVOK,,,,,,,,VFR,,,,,,,,,,,,METAR,83
LGAD 160120Z VRB03KT 9999 FEW025 22/15 Q1011,LGAD,2025-08-16T01:20:00Z,37.923,21.287,22,15,VRB,3,,6+,29.85,,,,,,,,,,,FEW,2500,,,,,,,VFR,,,,,,,,,,,,METAR,8
LCEN 160120Z 23008KT CAVOK 23/17 Q1005 NOSIG,LCEN,2025-08-16T01:20:00Z,35.155,33.496,23,17,230,8,,6+,29.68,,,,,,TRUE,,,,,CAVOK,,,,,,,,VFR,,,,,,,,,,,,METAR,91
LATI 160120Z VRB01KT 9999 SCT160 23/18 Q1013 NOSIG,LATI,2025-08-16T01:20:00Z,41.419,19.716,23,18,VRB,1,,6+,29.91,,,,,,TRUE,,,,,SCT,16000,,,,,,,VFR,,,,,,,,,,,,METAR,32
KUKF 160120Z AUTO 00000KT 10SM BKN090 23/22 A3020 RMK AO2,KUKF,2025-08-16T01:20:00Z,36.2188,-81.1002,23,22,0,0,,10+,30.20,,,TRUE,TRUE,,,,,,,BKN,9000,,,,,,,VFR,,,,,,,,,,,,METAR,383
KTAZ 160120Z AUTO 17003KT 10SM CLR 28/24 A3008 RMK AO2,KTAZ,2025-08-16T01:20:00Z,39.535,-89.3294,28,24,170,3,,10+,30.08,,,TRUE,TRUE,,,,,,,CLR,,,,,,,,VFR,,,,,,,,,,,,METAR,188
KRCZ 160120Z AUTO 00000KT 10SM CLR 28/23 A3008 RMK AO2 T02800230,KRCZ,2025-08-16T01:20:00Z,34.8955,-79.7576,28,23,0,0,,10+,30.08,,,TRUE,TRUE,,,,,,,CLR,,,,,,,,VFR,,,,,,,,,,,,METAR,110
KRAP 160120Z 25016G22KT 10SM -TSRA BKN085 BKN110 28/18 A2997 RMK AO2 LTG DSNT S AND NW RAB17 TSB14 PRESRR TS W MOV E P0000 T02780178 $,KRAP,2025-08-16T01:20:00Z,44.0458,-103.054,27.8,17.8,250,16,22,10+,29.97,,,,TRUE,TRUE,,,,,-TSRA,BKN,8500,BKN,11000,,,,,VFR,,,,,,0.005,,,,,,SPECI,965
KQFW 160120Z AUTO 21002KT 9999 BKN027 27/24 A2982 RMK A02 TSNO,KQFW,2025-08-16T01:20:00Z,-99.99,-99.99,27,24,210,2,,6+,29.82,,,TRUE,TRUE,,,TRUE,,,,BKN,2700,,,,,,,MVFR,,,,,,,,,,,,METAR,9999
KQFT 160120Z AUTO 18003KT 9999 FEW032 FEW043 29/24 A2996 RMK A02 TSNO,KQFT,2025-08-16T01:20:00Z,-99.99,-99.99,29,24,180,3,,6+,29.96,,,TRUE,TRUE,,,TRUE,,,,FEW,3200,FEW,4300,,,,,VFR,,,,,,,,,,,,METAR,9999
KQEY 160120Z AUTO 35002KT 9999 FEW020 SCT024 29/23 A2971 RMK A02 TSNO,KQEY,2025-08-16T01:20:00Z,-99.99,-99.99,29,23,350,2,,6+,29.71,,,TRUE,TRUE,,,TRUE,,,,FEW,2000,SCT,2400,,,,,VFR,,,,,,,,,,,,METAR,9999
KQEV 160120Z AUTO 26003KT 9999 FEW019 30/24 A2995 RMK A02 TSNO,KQEV,2025-08-16T01:20:00Z,-99.99,-99.99,30,24,260,3,,6+,29.95,,,TRUE,TRUE,,,TRUE,,,,FEW,1900,,,,,,,VFR,,,,,,,,,,,,METAR,9999
KQER 160120Z AUTO 20002KT 9999 BKN016 BKN037 28/25 A2995 RMK A02 TSNO,KQER,2025-08-16T01:20:00Z,-99.99,-99.99,28,25,200,2,,6+,29.95,,,TRUE,TRUE,,,TRUE,,,,BKN,1600,BKN,3700,,,,,MVFR,,,,,,,,,,,,METAR,9999
KQEN 160120Z AUTO 9999 BKN018 25/20 A3009 RMK A02 TSNO,KQEN,2025-08-16T01:20:00Z,-99.99,-99.99,25,20,,,,6+,30.09,,,TRUE,TRUE,,,TRUE,,,,BKN,1800,,,,,,,MVFR,,,,,,,,,,,,METAR,9999
KQEJ 160120Z AUTO 22004KT 9999 BKN027 28/23 A2996 RMK A02 TSNO,KQEJ,2025-08-16T01:20:00Z,-99.99,-99.99,28,23,220,4,,6+,29.96,,,TRUE,TRUE,,,TRUE,,,,BKN,2700,,,,,,,MVFR,,,,,,,,,,,,METAR,9999
KPO1 160120Z AUTO 10013G18KT 10SM CLR 24/14 A2992 RMK AO2 TSNO,KPO1,2025-08-16T01:20:00Z,48.134,-105.162,24,14,100,13,18,10+,29.92,,,TRUE,TRUE,,,TRUE,,,,CLR,,,,,,,,VFR,,,,,,,,,,,,METAR,621
KOYE 160120Z AUTO 35008KT 10SM FEW019 29/23 A3008 RMK A01,KOYE,2025-08-16T01:20:00Z,28.8669,-90.4911,29,23,350,8,,10+,30.08,,,TRUE,TRUE,,,,,,,FEW,1900,,,,,,,VFR,,,,,,,,,,,,METAR,30
KNFE 160120Z AUTO 05004KT 10SM SCT014 BKN023 25/24 A3008 RMK AO2 T02500239,KNFE,2025-08-16T01:20:00Z,36.701,-76.129,25,23.9,50,4,,10+,30.08,,,TRUE,TRUE,,,,,,,SCT,1400,BKN,2300,,,,,MVFR,,,,,,,,,,,,SPECI,4
KMRN 160120Z AUTO 00000KT 7SM CLR 25/25 A3019 RMK AO2 T02480246,KMRN,2025-08-16T01:20:00Z,35.8192,-81.6097,24.8,24.6,0,0,,7,30.19,,,TRUE,TRUE,,,,,,,CLR,,,,,,,,VFR,,,,,,,,,,,,METAR,375
KM08 160120Z AUTO 00000KT 10SM 28/25 A3008 RMK A01,KM08,2025-08-16T01:20:00Z,35.2155,-89.0449,28,25,0,0,,10+,30.08,,,TRUE,TRUE,,,,,,,,,,,,,,,VFR,,,,,,,,,,,,METAR,149
KJSL 160120Z AUTO 10010G15KT 10SM CLR 30/24 A3006 RMK A01,KJSL,2025-08-16T01:20:00Z,26.2367,-91.2567,30,24,100,10,15,10+,30.06,,,TRUE,TRUE,,,,,,,CLR,,,,,,,,VFR,,,,,,,,,,,,METAR,45
KJNX 160120Z AUTO 00000KT 10SM CLR A3008 RMK AO2,KJNX,2025-08-16T01:20:00Z,35.5369,-78.3934,,,0,0,,10+,30.08,,,TRUE,TRUE,,,,,,,CLR,,,,,,,,VFR,,,,,,,,,,,,METAR,41
KHRJ 160120Z AUTO 36003KT 10SM CLR 25/24 A3010 RMK AO2 T02540244,KHRJ,2025-08-16T01:20:00Z,35.3794,-78.7356,25.4,24.4,360,3,,10+,30.10,,,TRUE,TRUE,,,,,,,CLR,,,,,,,,VFR,,,,,,,,,,,,METAR,55
KGHB 160120Z AUTO VRB04KT 10SM CLR 30/25 A3007 RMK A01,KGHB,2025-08-16T01:20:00Z,27.8403,-91.9878,30,25,VRB,4,,10+,30.07,,,TRUE,TRUE,,,,,,,CLR,,,,,,,,VFR,,,,,,,,,,,,METAR,30
K40B 160120Z AUTO 00000KT 13/09 A3020 RMK AO1 SLP219 T01330094 52003 P0000,K40B,2025-08-16T01:20:00Z,46.616,-69.533,13.3,9.4,0,0,,,30.20,1021.9,,TRUE,TRUE,,,,,,,,,,,,,,,,0.03,,,,,0.005,,,,,,METAR,344
EYVI 160120Z 18010KT CAVOK 16/12 Q1014 NOSIG,EYVI,2025-08-16T01:20:00Z,54.634,25.286,16,12,180,10,,6+,29.94,,,,,,TRUE,,,,,CAVOK,,,,,,,,VFR,,,,,,,,,,,,METAR,180
EYSA 160120Z AUTO 19010KT 9999 -SHRA FEW043 SCT069 OVC079 18/16Q1011,EYSA,2025-08-16T01:20:00Z,55.894,23.395,,,190,10,,6+,29.85,,,TRUE,,,,,,,-SHRA,FEW,4300,SCT,6900,OVC,7900,,,VFR,,,,,,,,,,,,METAR,135
EYPA 160120Z 30005KT 240V350 CAVOK 19/17 Q1011,EYPA,2025-08-16T01:20:00Z,55.973,21.092,19,17,300,5,,6+,29.85,,,,,,,,,,,CAVOK,,,,,,,,VFR,,,,,,,,,,,,METAR,15
EYKA 160120Z 18009KT 150V210 CAVOK 20/13 Q1012,EYKA,2025-08-16T01:20:00Z,54.962,24.069,20,13,180,9,,6+,29.88,,,,,,,,,,,CAVOK,,,,,,,,VFR,,,,,,,,,,,,METAR,68
EVVA 160120Z AUTO 36012KT 9999 OVC011 18/16 Q1009,EVVA,2025-08-16T01:20:00Z,57.361,21.545,18,16,360,12,,6+,29.79,,,TRUE,,,,,,,,OVC,1100,,,,,,,MVFR,,,,,,,,,,,,METAR,1
EVRA 160120Z 23007KT 200V260 CAVOK 20/17 Q1008 NOSIG,EVRA,2025-08-16T01:20:00Z,56.924,23.968,20,17,230,7,,6+,29.76,,,,,,TRUE,,,,,CAVOK,,,,,,,,VFR,,,,,,,,,,,,METAR,7
EVLA 160120Z AUTO 30007KT 260V330 9999 SCT030/// BKN041/// 20/17 Q1010,EVLA,2025-08-16T01:20:00Z,56.517,21.097,20,17,300,7,,6+,29.82,,,TRUE,,,,,,,,SCT,3000,BKN,4100,,,,,VFR,,,,,,,,,,,,METAR,5
EVGA 160120Z AUTO 20009KT CAVOK 18/15 Q1008,EVGA,2025-08-16T01:20:00Z,56.778,24.854,18,15,200,9,,6+,29.76,,,TRUE,,,,,,,,CAVOK,,,,,,,,VFR,,,,,,,,,,,,METAR,61
ETWM 160120Z AUTO 36006KT //// // ////// 18/15 Q1023 ///,ETWM,2025-08-16T01:20:00Z,52.725,7.33,18,15,360,6,,,30.21,,,TRUE,,,,,,,,,,,,,,,,,,,,,,,,,,,,METAR,18
ETSN 160120Z 27002KT 9999 FEW060TCU SCT280 20/17 Q1019 BLU+,ETSN,2025-08-16T01:20:00Z,48.71,11.21,20,17,270,2,,6+,30.09,,,,,,,,,,,FEW,6000,SCT,28000,,,,,VFR,,,,,,,,,,,,METAR,378
ETSL 160120Z AUTO 22007KT 9999 // ////// 21/17 Q1021 ///,ETSL,2025-08-16T01:20:00Z,48.185,10.861,21,17,220,7,,6+,30.15,,,TRUE,,,,,,,,,,,,,,,,VFR,,,,,,,,,,,,METAR,548
ETSI 160120Z AUTO 16003KT 9999 // ////// 20/18 Q1019 ///,ETSI,2025-08-16T01:20:00Z,48.716,11.534,20,18,160,3,,6+,30.09,,,TRUE,,,,,,,,,,,,,,,,VFR,,,,,,,,,,,,METAR,366
ETSH 160120Z 26003KT 9999 19/14 Q1020 BLU+,ETSH,2025-08-16T01:20:00Z,51.768,13.168,19,14,260,3,,6+,30.12,,,,,,,,,,,,,,,,,,,VFR,,,,,,,,,,,,METAR,79
ETSB 160120Z AUTO 36006KT //// // ////// 18/14 Q1023 ///,ETSB,2025-08-16T01:20:00Z,50.175,7.06,18,14,360,6,,,30.21,,,TRUE,,,,,,,,,,,,,,,,,,,,,,,,,,,,METAR,477
ETNT 160120Z AUTO 34008KT 9999 // ////// 17/15 Q1024 ///,ETNT,2025-08-16T01:20:00Z,53.548,7.667,17,15,340,8,,6+,30.24,,,TRUE,,,,,,,,,,,,,,,,VFR,,,,,,,,,,,,METAR,5
ETNS 160120Z AUTO 32012KT //// // ////// 16/14 Q1022 ///,ETNS,2025-08-16T01:20:00Z,54.457,9.52,16,14,320,12,,,30.18,,,TRUE,,,,,,,,,,,,,,,,,,,,,,,,,,,,METAR,22
ETNN 160120Z 30006KT 9999 FEW050 19/16 Q1023 BLU+,ETNN,2025-08-16T01:20:00Z,50.829,6.66,19,16,300,6,,6+,30.21,,,,,,,,,,,FEW,5000,,,,,,,VFR,,,,,,,,,,,,METAR,108
ETNL 160120Z AUTO 31014KT 9999 // ////// 18/16 Q1019 ///,ETNL,2025-08-16T01:20:00Z,53.916,12.279,18,16,310,14,,6+,30.09,,,TRUE,,,,,,,,,,,,,,,,VFR,,,,,,,,,,,,METAR,40
ETNH 160120Z AUTO 29012KT 9999 // ////// 16/13 Q1022 ///,ETNH,2025-08-16T01:20:00Z,54.312,9.538,16,13,290,12,,6+,30.18,,,TRUE,,,,,,,,,,,,,,,,VFR,,,,,,,,,,,,METAR,6
ETMN 160120Z AUTO 33011KT 6000 // ////// 17/15 Q1023 ///,ETMN,2025-08-16T01:20:00Z,53.765,8.658,17,15,330,11,,3.73,30.21,,,TRUE,,,,,,,,,,,,,,,,MVFR,,,,,,,,,,,,METAR,23
ETHS 160120Z AUTO 34006KT 8000 // ////// 18/15 Q1022 ///,ETHS,2025-08-16T01:20:00Z,52.918,10.184,18,15,340,6,,4.97,30.18,,,TRUE,,,,,,,,,,,,,,,,MVFR,,,,,,,,,,,,METAR,71
ETHN 160120Z 01006KT 9999 FEW080 SCT270 21/14 Q1021 BLU+,ETHN,2025-08-16T01:20:00Z,49.392,9.958,21,14,10,6,,6+,30.15,,,,,,,,,,,FEW,8000,SCT,27000,,,,,VFR,,,,,,,,,,,,METAR,466
ETHL 160120Z AUTO 22004KT 9999 // ////// 20/17 Q1021 ///,ETHL,2025-08-16T01:20:00Z,48.218,9.91,20,17,220,4,,6+,30.15,,,TRUE,,,,,,,,,,,,,,,,VFR,,,,,,,,,,,,METAR,536
ETHF 160120Z AUTO 31005KT 9999 // ////// 17/14 Q1022 ///,ETHF,2025-08-16T01:20:00Z,51.114,9.286,17,14,310,5,,6+,30.18,,,TRUE,,,,,,,,,,,,,,,,VFR,,,,,,,,,,,,METAR,171
ETHC 160120Z 30006KT 9999 OVC013 19/16 Q1022 GRN,ETHC,2025-08-16T01:20:00Z,52.591,10.022,19,16,300,6,,6+,30.18,,,,,,,,,,,OVC,1300,,,,,,,MVFR,,,,,,,,,,,,METAR,35
ETHB 160120Z AUTO 02003KT 9999 // ////// 19/16 Q1022 ///,ETHB,2025-08-16T01:20:00Z,52.279,9.082,19,16,20,3,,6+,30.18,,,TRUE,,,,,,,,,,,,,,,,VFR,,,,,,,,,,,,METAR,69
ETHA 160120Z AUTO 22005KT 9999 // ////// 19/17 Q1022 ///,ETHA,2025-08-16T01:20:00Z,47.834,10.867,19,17,220,5,,6+,30.18,,,TRUE,,,,,,,,,,,,,,,,VFR,,,,,,,,,,,,METAR,738
ETGG 160120Z AUTO 31014KT 9999 // ////// 16/13 Q1021 ///,ETGG,2025-08-16T01:20:00Z,54.827,9.506,16,13,310,14,,6+,30.15,,,TRUE,,,,,,,,,,,,,,,,VFR,,,,,,,,,,,,METAR,33
ESUT 160120Z AUTO 31023KT 9999 -RA OVC033/// 09/06 Q1002 REDZ,ESUT,2025-08-16T01:20:00Z,65.806,15.083,9,6,310,23,,6+,29.59,,,TRUE,,,,,,,-RA,OVC,3300,,,,,,,VFR,,,,,,,,,,,,METAR,457
ESUP 160120Z AUTO 18004KT 150V210 9999 // ///////// 13/13 Q0994,ESUP,2025-08-16T01:20:00Z,67.246,23.069,13,13,180,4,,6+,29.35,,,TRUE,,,,,,,,,,,,,,,,VFR,,,,,,,,,,,,METAR,164
ESTL 160120Z AUTO 29011KT 9999 FEW018/// BKN020/// 16/15 Q1017,ESTL,2025-08-16T01:20:00Z,56.083,13.213,16,15,290,11,,6+,30.03,,,TRUE,,,,,,,,FEW,1800,BKN,2000,,,,,MVFR,,,,,,,,,,,,METAR,39
ESTA 160120Z AUTO 30014KT 9999 OVC014/// 17/14 Q1017,ESTA,2025-08-16T01:20:00Z,56.294,12.848,17,14,300,14,,6+,30.03,,,TRUE,,,,,,,,OVC,1400,,,,,,,MVFR,,,,,,,,,,,,METAR,19
ESSV 160120Z AUTO 01008KT 9999 SCT051/// 16/11 Q1012,ESSV,2025-08-16T01:20:00Z,57.662,18.348,16,11,10,8,,6+,29.88,,,TRUE,,,,,,,,SCT,5100,,,,,,,VFR,,,,,,,,,,,,METAR,38
ESST 160120Z AUTO 34004KT 300V020 9999 NCD 09/05 Q1017,ESST,2025-08-16T01:20:00Z,60.158,12.992,9,5,340,4,,6+,30.03,,,TRUE,,,,,,,,CLR,,,,,,,,VFR,,,,,,,,,,,,METAR,110
ESSP 160120Z AUTO 30005KT 9999 BKN076/// 13/10 Q1014,ESSP,2025-08-16T01:20:00Z,58.584,16.255,13,10,300,5,,6+,29.94,,,TRUE,,,,,,,,BKN,7600,,,,,,,VFR,,,,,,,,,,,,METAR,3
ESSL 160120Z AUTO 32004KT 9999 BKN074/// 14/11 Q1015,ESSL,2025-08-16T01:20:00Z,58.406,15.681,14,11,320,4,,6+,29.97,,,TRUE,,,,,,,,BKN,7400,,,,,,,VFR,,,,,,,,,,,,METAR,51
ESSD 160120Z AUTO 28009KT 9999 NCD 10/06 Q1013,ESSD,2025-08-16T01:20:00Z,60.422,15.515,10,6,280,9,,6+,29.91,,,TRUE,,,,,,,,CLR,,,,,,,,VFR,,,,,,,,,,,,METAR,151
ESSB 160120Z AUTO 26006KT 9999 NCD 12/11 Q1012,ESSB,2025-08-16T01:20:00Z,59.356,17.933,12,11,260,6,,6+,29.88,,,TRUE,,,,,,,,CLR,,,,,,,,VFR,,,,,,,,,,,,METAR,14
ESSA 160120Z 27007KT CAVOK 09/09 Q1012 NOSIG,ESSA,2025-08-16T01:20:00Z,59.664,17.92,9,9,270,7,,6+,29.88,,,,,,TRUE,,,,,CAVOK,,,,,,,,VFR,,,,,,,,,,,,METAR,36
ESPE 160120Z AUTO 27006KT 9999 OVC019/// 09/07 Q0996,ESPE,2025-08-16T01:20:00Z,65.875,20.144,9,7,270,6,,6+,29.41,,,TRUE,,,,,,,,OVC,1900,,,,,,,MVFR,,,,,,,,,,,,METAR,182
ESPA 160120Z AUTO 24004KT 9999 NCD 10/07 Q0996,ESPA,2025-08-16T01:20:00Z,65.541,22.126,10,7,240,4,,6+,29.41,,,TRUE,,,,,,,,CLR,,,,,,,,VFR,,,,,,,,,,,,METAR,12
ESOW 160120Z AUTO 26006KT 9999 NCD 12/11 Q1014,ESOW,2025-08-16T01:20:00Z,59.595,16.638,12,11,260,6,,6+,29.94,,,TRUE,,,,,,,,CLR,,,,,,,,VFR,,,,,,,,,,,,METAR,7
ESOK 160120Z AUTO 32007KT 9999 NCD 11/05 Q1016,ESOK,2025-08-16T01:20:00Z,59.442,13.342,11,5,320,7,,6+,30.00,,,TRUE,,,,,,,,CLR,,,,,,,,VFR,,,,,,,,,,,,METAR,101
ESOH 160120Z AUTO VRB01KT 9999 NCD 05/05 Q1016,ESOH,2025-08-16T01:20:00Z,60.02,13.579,5,5,VRB,1,,6+,30.00,,,TRUE,,,,,,,,CLR,,,,,,,,VFR,,,,,,,,,,,,METAR,145
ESOE 160120Z AUTO 27007KT 9999 NCD 12/11 Q1015,ESOE,2025-08-16T01:20:00Z,59.229,15.046,12,11,270,7,,6+,29.97,,,TRUE,,,,,,,,CLR,,,,,,,,VFR,,,,,,,,,,,,METAR,57
ESNZ 160120Z AUTO 30028G40KT 9999 BKN028/// 10/06 Q1009,ESNZ,2025-08-16T01:20:00Z,63.199,14.489,10,6,300,28,40,6+,29.79,,,TRUE,,,,,,,,BKN,2800,,,,,,,MVFR,,,,,,,,,,,,METAR,360
ESNX 160120Z AUTO 27012KT 250V310 9999 R30///// FEW009/// OVC015/// 08/06 Q0997,ESNX,2025-08-16T01:20:00Z,65.592,19.283,8,6,270,12,,6+,29.44,,,TRUE,,,,,,,,FEW,900,OVC,1500,,,,,MVFR,,,,,,,,,,,,METAR,380
ESNV 160120Z AUTO 28010KT 9999 -RA FEW015/// BKN039/// OVC048/// 07/// Q1002,ESNV,2025-08-16T01:20:00Z,64.579,16.839,,,280,10,,6+,29.59,,,TRUE,,,,,,,-RA,FEW,1500,BKN,3900,OVC,4800,,,VFR,,,,,,,,,,,,METAR,348
ESNU 160120Z 26005KT CAVOK 09/08 Q1001,ESNU,2025-08-16T01:20:00Z,63.789,20.285,9,8,260,5,,6+,29.56,,,,,,,,,,,CAVOK,,,,,,,,VFR,,,,,,,,,,,,METAR,8
ESNS 160120Z AUTO 23007KT 9999 NCD 09/07 Q0999,ESNS,2025-08-16T01:20:00Z,64.625,21.077,9,7,230,7,,6+,29.50,,,TRUE,,,,,,,,CLR,,,,,,,,VFR,,,,,,,,,,,,METAR,41
ESNQ 160120Z AUTO 35014KT 3200 DZ VV032 09/09 Q0996,ESNQ,2025-08-16T01:20:00Z,67.823,20.34,9,9,350,14,,1.99,29.41,,,TRUE,,,,,,,DZ,OVX,0,,,,,,,IFR,,,,,,,,,,,3200,METAR,447
ESNO 160120Z AUTO 30010KT 9999 NCD 09/06 Q1002,ESNO,2025-08-16T01:20:00Z,63.412,18.98,9,6,300,10,,6+,29.59,,,TRUE,,,,,,,,CLR,,,,,,,,VFR,,,,,,,,,,,,METAR,100
ESNN 160120Z AUTO 30016KT 9999 SCT044/// 13/06 Q1007,ESNN,2025-08-16T01:20:00Z,62.532,17.436,13,6,300,16,,6+,29.73,,,TRUE,,,,,,,,SCT,4400,,,,,,,VFR,,,,,,,,,,,,METAR,4
ESNL 160120Z AUTO 26007KT 9999 OVC029/// ///// Q1000,ESNL,2025-08-16T01:20:00Z,64.552,18.711,,,260,7,,6+,29.53,,,TRUE,,,,,,,,OVC,2900,,,,,,,MVFR,,,,,,,,,,,,METAR,220
ESNK 160120Z AUTO 31017KT 9999 -DZ FEW037/// BKN051/// BKN068/// 12/06 Q1005,ESNK,2025-08-16T01:20:00Z,63.047,17.766,12,6,310,17,,6+,29.68,,,TRUE,,,,,,,-DZ,FEW,3700,BKN,5100,BKN,6800,,,VFR,,,,,,,,,,,,METAR,4
ESNG 160120Z AUTO 36012KT 9999 BKN019/// ///// Q0993,ESNG,2025-08-16T01:20:00Z,67.133,20.81,,,360,12,,6+,29.32,,,TRUE,,,,,,,,BKN,1900,,,,,,,MVFR,,,,,,,,,,,,METAR,300
ESND 160120Z AUTO 28016KT 260V320 9999 OVC041/// 11/06 Q1011,ESND,2025-08-16T01:20:00Z,62.047,14.416,11,6,280,16,,6+,29.85,,,TRUE,,,,,,,,OVC,4100,,,,,,,VFR,,,,,,,,,,,,METAR,352
ESMX 160120Z AUTO 27005KT 9999 NCD 15/15 Q1015,ESMX,2025-08-16T01:20:00Z,56.927,14.73,15,15,270,5,,6+,29.97,,,TRUE,,,,,,,,CLR,,,,,,,,VFR,,,,,,,,,,,,METAR,176
ESMV 160120Z AUTO 25004KT 210V280 9999 SCT011/// 15/14 Q1015,ESMV,2025-08-16T01:20:00Z,57.29,14.134,15,14,250,4,,6+,29.97,,,TRUE,,,,,,,,SCT,1100,,,,,,,VFR,,,,,,,,,,,,METAR,167
ESMT 160120Z AUTO 30012KT 9999 NCD 16/14 Q1016,ESMT,2025-08-16T01:20:00Z,56.691,12.82,16,14,300,12,,6+,30.00,,,TRUE,,,,,,,,CLR,,,,,,,,VFR,,,,,,,,,,,,METAR,24
ESMS 160120Z 31013KT 9999 FEW018 SCT021 16/13 Q1017,ESMS,2025-08-16T01:20:00Z,55.539,13.373,16,13,310,13,,6+,30.03,,,,,,,,,,,FEW,1800,SCT,2100,,,,,VFR,,,,,,,,,,,,METAR,68
ESMQ 160120Z AUTO 28007KT 9999 NCD 17/15 Q1013,ESMQ,2025-08-16T01:20:00Z,56.685,16.284,17,15,280,7,,6+,29.91,,,TRUE,,,,,,,,CLR,,,,,,,,VFR,,,,,,,,,,,,METAR,3
ESMK 160120Z AUTO 29014KT 9999 OVC019/// 18/14 Q1016,ESMK,2025-08-16T01:20:00Z,55.922,14.085,18,14,290,14,,6+,30.00,,,TRUE,,,,,,,,OVC,1900,,,,,,,MVFR,,,,,,,,,,,,METAR,20
ESKS 160120Z AUTO 30013KT 9999 FEW040/// 09/03 Q1015,ESKS,2025-08-16T01:20:00Z,61.165,12.834,9,3,300,13,,6+,29.97,,,TRUE,,,,,,,,FEW,4000,,,,,,,VFR,,,,,,,,,,,,METAR,503
ESKN 160120Z 30005KT CAVOK 11/10 Q1014,ESKN,2025-08-16T01:20:00Z,58.786,16.918,11,10,300,5,,6+,29.94,,,,,,,,,,,CAVOK,,,,,,,,VFR,,,,,,,,,,,,METAR,41
ESKM 160120Z AUTO 24008KT 9999 NCD 08/06 Q1014,ESKM,2025-08-16T01:20:00Z,60.96,14.507,8,6,240,8,,6+,29.94,,,TRUE,,,,,,,,CLR,,,,,,,,VFR,,,,,,,,,,,,METAR,184
ESIB 160120Z AUTO 02011KT 9999 NCD 17/06 Q1016,ESIB,2025-08-16T01:20:00Z,58.431,12.71,17,6,20,11,,6+,30.00,,,TRUE,,,,,,,,CLR,,,,,,,,VFR,,,,,,,,,,,,METAR,51
ESIA 160120Z AUTO VRB02KT 9999 NCD 12/11 Q1015,ESIA,2025-08-16T01:20:00Z,58.514,14.507,12,11,VRB,2,,6+,29.97,,,TRUE,,,,,,,,CLR,,,,,,,,VFR,,,,,,,,,,,,METAR,94
ESGT 160120Z AUTO 36007KT 9999 NCD 13/06 Q1017,ESGT,2025-08-16T01:20:00Z,58.314,12.347,13,6,360,7,,6+,30.03,,,TRUE,,,,,,,,CLR,,,,,,,,VFR,,,,,,,,,,,,METAR,40
ESGP 160120Z AUTO 35004KT 9999 NCD 13/08 Q1016,ESGP,2025-08-16T01:20:00Z,57.781,11.869,13,8,350,4,,6+,30.00,,,TRUE,,,,,,,,CLR,,,,,,,,VFR,,,,,,,,,,,,METAR,15
ESGJ 160120Z AUTO 32004KT 9999 NCD 14/12 Q1015,ESGJ,2025-08-16T01:20:00Z,57.752,14.069,14,12,320,4,,6+,29.97,,,TRUE,,,,,,,,CLR,,,,,,,,VFR,,,,,,,,,,,,METAR,224
ESGG 160120Z 35007KT CAVOK 14/09 Q1016,ESGG,2025-08-16T01:20:00Z,57.667,12.285,14,9,350,7,,6+,30.00,,,,,,,,,,,CAVOK,,,,,,,,VFR,,,,,,,,,,,,METAR,152
ESDF 160120Z AUTO 28004KT 9999 NCD 16/16 Q1015,ESDF,2025-08-16T01:20:00Z,56.266,15.267,16,16,280,4,,6+,29.97,,,TRUE,,,,,,,,CLR,,,,,,,,VFR,,,,,,,,,,,,METAR,52
ESCM 160120Z AUTO 28010KT 9999 NCD 10/10 Q1012,ESCM,2025-08-16T01:20:00Z,59.899,17.589,10,10,280,10,,6+,29.88,,,TRUE,,,,,,,,CLR,,,,,,,,VFR,,,,,,,,,,,,METAR,21
ESCF 160120Z AUTO 29004KT 9999 BKN072/// 13/11 Q1015,ESCF,2025-08-16T01:20:00Z,58.398,15.526,13,11,290,4,,6+,29.97,,,TRUE,,,,,,,,BKN,7200,,,,,,,VFR,,,,,,,,,,,,METAR,86
ENZV 160120Z AUTO 34014KT 9999 NCD 12/08 Q1024,ENZV,2025-08-16T01:20:00Z,58.884,5.637,12,8,340,14,,6+,30.24,,,TRUE,,,,,,,,CLR,,,,,,,,VFR,,,,,,,,,,,,METAR,7
ENWV 160120Z AUTO 34017KT 9999NDV FEW031/// 14/11 Q1027 W///S4,ENWV,2025-08-16T01:20:00Z,56.278,3.395,14,11,340,17,,,30.32,,,TRUE,,,,,,,,FEW,3100,,,,,,,,,,,,,,,,,,,METAR,30
ENVD 160120Z AUTO 18012KT 9999 NCD 18/14 Q0998,ENVD,2025-08-16T01:20:00Z,70.065,29.835,18,14,180,12,,6+,29.47,,,TRUE,,,,,,,,CLR,,,,,,,,VFR,,,,,,,,,,,,METAR,39
ENVA 160120Z 27023KT 9999 -DZRA SCT011 BKN023 11/11 Q1017 RMK WIND 670FT 28028KT,ENVA,2025-08-16T01:20:00Z,63.46,10.931,11,11,270,23,,6+,30.03,,,,,,,,,,-DZ -RA,SCT,1100,BKN,2300,,,,,MVFR,,,,,,,,,,,,METAR,12
ENUN 160120Z AUTO 31021KT 9999 OVC032/// 11/07 Q1014 W12/S4,ENUN,2025-08-16T01:20:00Z,67.069,7.097,11,7,310,21,,6+,29.94,,,TRUE,,,,,,,,OVC,3200,,,,,,,VFR,,,,,,,,,,,,METAR,40
ENUG 160120Z AUTO 36021KT 9999NDV -RA OVC063/// 11/08 Q1000 W///S4,ENUG,2025-08-16T01:20:00Z,71.305,22.253,11,8,360,21,,,29.53,,,TRUE,,,,,,,-RA,OVC,6300,,,,,,,,,,,,,,,,,,,METAR,30
ENTO 160120Z AUTO 30003KT 270V340 9999 // NCD 12/03 Q1018,ENTO,2025-08-16T01:20:00Z,59.184,10.255,12,3,300,3,,6+,30.06,,,TRUE,,,,,,,,CLR,,,,,,,,VFR,,,,,,,,,,,,METAR,84
ENTC 160120Z AUTO 04003KT 360V060 9999 -RA OVC044/// 10/08 Q1003 RMK WIND 2600FT 36032KT,ENTC,2025-08-16T01:20:00Z,69.675,18.916,10,8,40,3,,6+,29.62,,,TRUE,,,,,,,-RA,OVC,4400,,,,,,,VFR,,,,,,,,,,,,METAR,9
ENST 160120Z AUTO 34013G23KT 270V050 9999 -RA FEW019/// BKN036/// OVC051/// 12/08 Q1010 RMK WIND 0300FT 32021G35KT,ENST,2025-08-16T01:20:00Z,65.961,12.472,12,8,340,13,23,6+,29.82,,,TRUE,,,,,,,-RA,FEW,1900,BKN,3600,OVC,5100,,,VFR,,,,,,,,,,,,METAR,17
ENSS 160120Z AUTO 17004KT 9999 OVC108/// 14/13 Q0998 RMK WIND 0500FT 20011KT,ENSS,2025-08-16T01:20:00Z,70.355,31.044,14,13,170,4,,6+,29.47,,,TRUE,,,,,,,,OVC,10800,,,,,,,VFR,,,1.1,,,,,,,,,METAR,13
ENSR 160120Z AUTO 32008KT 290V350 9999 -RA OVC024/// 11/09 Q1002 RMK WIND RWY 32 31006KT WIND 1119FT /////KT,ENSR,2025-08-16T01:20:00Z,69.789,20.955,11,9,320,8,,6+,29.59,,,TRUE,,,,,,,-RA,OVC,2400,,,,,,,MVFR,,,,,,,,,,,,METAR,5
ENSL 160120Z AUTO 33015KT 9999 SCT025/// 13/08 Q1028 W12/S3,ENSL,2025-08-16T01:20:00Z,58.367,1.907,13,8,330,15,,6+,30.35,,,TRUE,,,,,,,,SCT,2500,,,,,,,VFR,,,,,,,,,,,,METAR,50
ENSK 160120Z AUTO 33015KT 290V350 9999 OVC032/// 11/07 Q1006,ENSK,2025-08-16T01:20:00Z,68.58,15.029,11,7,330,15,,6+,29.70,,,TRUE,,,,,,,,OVC,3200,,,,,,,VFR,,,,,,,,,,,,METAR,3
ENSH 160120Z AUTO 34019G31KT 310V010 9999 NCD 12/06 Q1005 REDZ RMK WIND 0150FT 34020G32KT,ENSH,2025-08-16T01:20:00Z,68.245,14.669,12,6,340,19,31,6+,29.68,,,TRUE,,,,,,,,CLR,,,,,,,,VFR,,,,,,,,,,,,METAR,9
ENSG 160120Z AUTO 24005KT 200V280 9999 NCD 08/05 Q1022 RMK WIND 3806FT 28026KT,ENSG,2025-08-16T01:20:00Z,61.158,7.141,8,5,240,5,,6+,30.18,,,TRUE,,,,,,,,CLR,,,,,,,,VFR,,,,,,,,,,,,METAR,493
ENSF 160120Z AUTO 32012KT 9999 BKN029/// 12/06 Q1026 W/////,ENSF,2025-08-16T01:20:00Z,61.25,1.85,12,6,320,12,,6+,30.30,,,TRUE,,,,,,,,BKN,2900,,,,,,,MVFR,,,,,,,,,,,,METAR,15
ENSE 160120Z AUTO 31008G19KT 9999 BKN022/// 11/06 Q1026 W/////,ENSE,2025-08-16T01:20:00Z,61.45,2.15,11,6,310,8,19,6+,30.30,,,TRUE,,,,,,,,BKN,2200,,,,,,,MVFR,,,,,,,,,,,,METAR,10
ENSD 160120Z AUTO 30010KT 270V010 9999 OVC050/// 12/08 Q1024 RMK WIND RWY 26 29004KT WIND 1140FT 27003KT,ENSD,2025-08-16T01:20:00Z,61.829,6.104,12,8,300,10,,6+,30.24,,,TRUE,,,,,,,,OVC,5000,,,,,,,VFR,,,,,,,,,,,,METAR,61
ENSB 160120Z 26009KT 9999 SCT012 SCT020 BKN025 08/07 Q0997 RMK WIND 1400FT 21003KT,ENSB,2025-08-16T01:20:00Z,78.246,15.466,8,7,260,9,,6+,29.44,,,,,,,,,,,SCT,1200,SCT,2000,BKN,2500,,,MVFR,,,-0.3,,,,,,,,,METAR,30
ENRY 160120Z AUTO 32004KT 9999 NCD 12/06 Q1018,ENRY,2025-08-16T01:20:00Z,59.381,10.783,12,6,320,4,,6+,30.06,,,TRUE,,,,,,,,CLR,,,,,,,,VFR,,,,,,,,,,,,METAR,45
ENRS 160120Z AUTO 34024KT 9999 FEW033/// OVC047/// 12/07 Q1009,ENRS,2025-08-16T01:20:00Z,67.527,12.104,12,7,340,24,,6+,29.79,,,TRUE,,,,,,,,FEW,3300,OVC,4700,,,,,VFR,,,,,,,,,,,,METAR,4
ENRO 160120Z AUTO 27008KT 210V350 9999 OVC022/// 08/04 Q1016,ENRO,2025-08-16T01:20:00Z,62.578,11.342,8,4,270,8,,6+,30.00,,,TRUE,,,,,,,,OVC,2200,,,,,,,MVFR,,,,,,,,,,,,METAR,624
ENRM 160120Z AUTO 30012KT 260V340 9999 -DZ SCT024/// BKN061/// 12/09 Q1014,ENRM,2025-08-16T01:20:00Z,64.835,11.141,12,9,300,12,,6+,29.94,,,TRUE,,,,,,,-DZ,SCT,2400,BKN,6100,,,,,VFR,,,,,,,,,,,,METAR,4
ENRA 160120Z AUTO 29010G21KT 230V350 9999 -RA FEW049/// BKN058/// 12/07 Q1005,ENRA,2025-08-16T01:20:00Z,66.364,14.302,12,7,290,10,21,6+,29.68,,,TRUE,,,,,,,-RA,FEW,4900,BKN,5800,,,,,VFR,,,,,,,,,,,,METAR,66
ENQR 160120Z AUTO 30016KT 9999 BKN029/// BKN110/// 11/06 Q1025 W33///,ENQR,2025-08-16T01:20:00Z,61.53,2.22,11,6,300,16,,6+,30.27,,,TRUE,,,,,,,,BKN,2900,BKN,11000,,,,,MVFR,,,,,,,,,,,,METAR,10
ENQC 160120Z AUTO 31016KT 9999 BKN031/// 14/07 Q1025 W///S4,ENQC,2025-08-16T01:20:00Z,60.886,3.61,14,7,310,16,,6+,30.27,,,TRUE,,,,,,,,BKN,3100,,,,,,,VFR,,,,,,,,,,,,METAR,20
ENQA 160120Z AUTO 33019KT 9999 BKN036/// 12/08 Q1026 W12/S4,ENQA,2025-08-16T01:20:00Z,60.645,3.725,12,8,330,19,,6+,30.30,,,TRUE,,,,,,,,BKN,3600,,,,,,,VFR,,,,,,,,,,,,METAR,90
ENOV 160120Z AUTO 25006KT 210V280 9999 -DZ FEW022/// SCT028/// BKN038/// 10/08 Q1024 RERA RMK WIND RWY 24 23005KT WIND 2090FT 26009KT,ENOV,2025-08-16T01:20:00Z,62.18,6.078,10,8,250,6,,6+,30.24,,,TRUE,,,,,,,-DZ,FEW,2200,SCT,2800,BKN,3800,,,VFR,,,,,,,,,,,,METAR,72
ENOL 160120Z 31023KT 9999 FEW012 SCT025 12/09 Q1018,ENOL,2025-08-16T01:20:00Z,63.703,9.609,12,9,310,23,,6+,30.06,,,,,,,,,,,FEW,1200,SCT,2500,,,,,VFR,,,,,,,,,,,,METAR,9
ENOA 160120Z 33014KT 9999 BKN030 12/06 Q1026 W///S4,ENOA,2025-08-16T01:20:00Z,60.492,2.827,12,6,330,14,,6+,30.30,,,,,,,,,,,BKN,3000,,,,,,,MVFR,,,,,,,,,,,,METAR,5
ENNM 160120Z AUTO 27012KT 230V300 9999 SCT025/// BKN033/// OVC062/// 12/08 Q1013,ENNM,2025-08-16T01:20:00Z,64.471,11.57,12,8,270,12,,6+,29.91,,,TRUE,,,,,,,,SCT,2500,BKN,3300,OVC,6200,,,VFR,,,,,,,,,,,,METAR,2
ENNE 160120Z AUTO 35027KT 9999 SCT017/// BKN050/// 11/09 Q1015 W///S5,ENNE,2025-08-16T01:20:00Z,66.03,8.08,11,9,350,27,,6+,29.97,,,TRUE,,,,,,,,SCT,1700,BKN,5000,,,,,VFR,,,,,,,,,,,,METAR,10
ENNA 160120Z 28007KT 230V010 9999 5000SE -RA FEW004 SCT011 OVC017 13/13 Q0997 RMK WIND 1800FT 28020KT,ENNA,2025-08-16T01:20:00Z,70.059,24.971,13,13,280,7,,6+,29.44,,,,,,,,,,-RA,FEW,400,SCT,1100,OVC,1700,,,MVFR,,,,,,,,,,,,METAR,12
ENMS 160120Z AUTO 33016G26KT 9999 -RA FEW028/// BKN043/// 12/08 Q1007 RMK WIND 412FT 26006G17KT,ENMS,2025-08-16T01:20:00Z,65.784,13.218,12,8,330,16,26,6+,29.73,,,TRUE,,,,,,,-RA,FEW,2800,BKN,4300,,,,,VFR,,,,,,,,,,,,METAR,44
ENML 160120Z AUTO 26009KT 9999 FEW019/// SCT026/// OVC036/// 10/09 Q1022 RMK WIND 1587FT /////KT,ENML,2025-08-16T01:20:00Z,62.744,7.262,10,9,260,9,,6+,30.18,,,TRUE,,,,,,,,FEW,1900,SCT,2600,OVC,3600,,,VFR,,,,,,,,,,,,METAR,3
ENMH 160120Z AUTO 19010KT 9999 NCD 16/15 Q0996,ENMH,2025-08-16T01:20:00Z,71.029,27.829,16,15,190,10,,6+,29.41,,,TRUE,,,,,,,,CLR,,,,,,,,VFR,,,,,,,,,,,,METAR,10
ENLE 160120Z 31016KT 9999 SCT018 14/11 Q1027 W17/S4,ENLE,2025-08-16T01:20:00Z,56.535,3.205,14,11,310,16,,6+,30.32,,,,,,,,,,,SCT,1800,,,,,,,VFR,,,,,,,,,,,,METAR,10
ENLA 160120Z AUTO 32020KT 9999NDV SCT021/// SCT024/// 14/10 Q1026 W///S4,ENLA,2025-08-16T01:20:00Z,57.111,2.846,14,10,320,20,,,30.30,,,TRUE,,,,,,,,SCT,2100,SCT,2400,,,,,,,,,,,,,,,,,METAR,10
ENKR 160120Z AUTO 16006KT 9999 NCD 16/14 Q0998 RMK WIND 731FT 17015KT,ENKR,2025-08-16T01:20:00Z,69.725,29.898,16,14,160,6,,6+,29.47,,,TRUE,,,,,,,,CLR,,,,,,,,VFR,,,,,,,,,,,,METAR,86
ENKB 160120Z AUTO 26016KT 9999 FEW014/// BKN018/// BKN021/// 11/08 Q1021 RMK WIND 745FT 28023KT,ENKB,2025-08-16T01:20:00Z,63.109,7.816,11,8,260,16,,6+,30.15,,,TRUE,,,,,,,,FEW,1400,BKN,1800,BKN,2100,,,MVFR,,,,,,,,,,,,METAR,62
ENJS 160120Z 35019KT 9999 BKN029 12/07 Q1027 W14/S4,ENJS,2025-08-16T01:20:00Z,58.835,2.545,12,7,350,19,,6+,30.32,,,,,,,,,,,BKN,2900,,,,,,,MVFR,,,,,,,,,,,,METAR,
ENHV 160120Z AUTO 07007KT 9999 BKN003/// OVC007/// 13/13 Q0997,ENHV,2025-08-16T01:20:00Z,71.009,25.982,13,13,70,7,,6+,29.44,,,TRUE,,,,,,,,BKN,300,OVC,700,,,,,LIFR,,,,,,,,,,,,METAR,13
ENHK 160120Z AUTO 32013KT 9999 -RA FEW007/// SCT013/// OVC018/// 10/08 Q1001,ENHK,2025-08-16T01:20:00Z,70.487,22.14,10,8,320,13,,6+,29.56,,,TRUE,,,,,,,-RA,FEW,700,SCT,1300,OVC,1800,,,MVFR,,,,,,,,,,,,METAR,6
ENHF 160120Z 36013KT 310V030 3300 SHRA VV004 11/10 Q0999 RMK WIND 1253FT 34031KT,ENHF,2025-08-16T01:20:00Z,70.681,23.677,11,10,360,13,,2.05,29.50,,,,,,,,,,SHRA,OVX,0,,,,,,,LIFR,,,,,,,,,,,400,METAR,79
ENHD 160120Z AUTO 35016KT 9999 FEW013/// BKN024/// BKN040/// 12/09 Q1025,ENHD,2025-08-16T01:20:00Z,59.341,5.22,12,9,350,16,,6+,30.27,,,TRUE,,,,,,,,FEW,1300,BKN,2400,BKN,4000,,,MVFR,,,,,,,,,,,,METAR,22
ENGM 160120Z 36004KT 310V060 CAVOK 11/03 Q1018,ENGM,2025-08-16T01:20:00Z,60.201,11.08,11,3,360,4,,6+,30.06,,,,,,,,,,,CAVOK,,,,,,,,VFR,,,,,,,,,,,,METAR,204
ENGC 160120Z 30015KT 9999 BKN025 11/07 Q1026 W12/S4,ENGC,2025-08-16T01:20:00Z,61.033,2.033,11,7,300,15,,6+,30.30,,,,,,,,,,,BKN,2500,,,,,,,MVFR,,,,,,,,,,,,METAR,10
ENFL 160120Z AUTO 33009KT 9999NDV OVC044/// 12/07 Q1025,ENFL,2025-08-16T01:20:00Z,61.582,5.02,12,7,330,9,,,30.27,,,TRUE,,,,,,,,OVC,4400,,,,,,,,,,,,,,,,,,,METAR,1
ENFB 160120Z AUTO 29010KT 9999 BKN027/// 12/07 Q1027 W/////,ENFB,2025-08-16T01:20:00Z,61.206,1.829,12,7,290,10,,6+,30.32,,,TRUE,,,,,,,,BKN,2700,,,,,,,MVFR,,,,,,,,,,,,METAR,10
ENEV 160120Z 01013KT 9999 -RA FEW018 BKN043 11/10 Q1004 RMK WIND 1400FT 33024G34KT,ENEV,2025-08-16T01:20:00Z,68.491,16.683,11,10,10,13,,6+,29.65,,,,,,,,,,-RA,FEW,1800,BKN,4300,,,,,VFR,,,,,,,,,,,,METAR,26
ENDU 160120Z 30010KT 9999 -RA FEW010 SCT018 BKN020 10/08 Q1003 RMK WIND 1100FT 32012KT WIND 2200FT 35018KT,ENDU,2025-08-16T01:20:00Z,69.058,18.544,10,8,300,10,,6+,29.62,,,,,,,,,,-RA,FEW,1000,SCT,1800,BKN,2000,,,MVFR,,,,,,,,,,,,METAR,65
ENDR 160120Z AUTO 30031KT 9999NDV SCT015/// SCT036/// BKN042/// 12/09 Q1018 W///S5,ENDR,2025-08-16T01:20:00Z,64.349,7.78,12,9,300,31,,,30.06,,,TRUE,,,,,,,,SCT,1500,SCT,3600,BKN,4200,,,,,,,,,,,,,,,METAR,10
ENCN 160120Z AUTO 28003KT 240V350 9999 NCD 13/06 Q1020,ENCN,2025-08-16T01:20:00Z,58.2,8.077,13,6,280,3,,6+,30.12,,,TRUE,,,,,,,,CLR,,,,,,,,VFR,,,,,,,,,,,,METAR,17
ENBV 160120Z AUTO VRB01KT //// R24///// // FEW033/// BKN127/// 17/13 Q0997,ENBV,2025-08-16T01:20:00Z,70.871,29.032,17,13,VRB,1,,,29.44,,,TRUE,,,,,,,,FEW,3300,BKN,12700,,,,,,,,,,,,,,,,,METAR,13
ENBS 160120Z AUTO 18010KT 9999 NCD 17/13 Q0998,ENBS,2025-08-16T01:20:00Z,70.601,29.698,17,13,180,10,,6+,29.47,,,TRUE,,,,,,,,CLR,,,,,,,,VFR,,,,,,,,,,,,METAR,144
ENBR 160120Z AUTO 35007KT 310V020 9999 -RA OVC032/// 11/10 Q1025 RMK WIND 1200FT 34012KT,ENBR,2025-08-16T01:20:00Z,60.29,5.222,11,10,350,7,,6+,30.27,,,TRUE,,,,,,,-RA,OVC,3200,,,,,,,VFR,,,,,,,,,,,,METAR,49
ENBO 160120Z 33022G32KT 9999 4000NW -SHRA FEW010 SCT022 BKN030 12/11 Q1006,ENBO,2025-08-16T01:20:00Z,67.267,14.359,12,11,330,22,32,6+,29.70,,,,,,,,,,-SHRA,FEW,1000,SCT,2200,BKN,3000,,,MVFR,,,,,,,,,,,,METAR,13
ENBN 160120Z AUTO 31014KT 280V340 9999NDV FEW024/// SCT033/// OVC046/// 12/09 Q1011,ENBN,2025-08-16T01:20:00Z,65.458,12.216,12,9,310,14,,,29.85,,,TRUE,,,,,,,,FEW,2400,SCT,3300,OVC,4600,,,,,,,,,,,,,,,METAR,3
ENBL 160120Z AUTO 30008KT 9999 -DZ NCD 09/06 Q1024 REDZ,ENBL,2025-08-16T01:20:00Z,61.391,5.76,9,6,300,8,,6+,30.24,,,TRUE,,,,,,,-DZ,CLR,,,,,,,,VFR,,,,,,,,,,,,METAR,313
ENAT 160120Z AUTO 34017KT 9999 SCT018/// OVC022/// 13/11 Q0999 RERA RMK WIND 700FT 34014KT,ENAT,2025-08-16T01:20:00Z,69.978,23.358,13,11,340,17,,6+,29.50,,,TRUE,,,,,,,,SCT,1800,OVC,2200,,,,,MVFR,,,,,,,,,,,,METAR,3
ENAN 160120Z AUTO 34017KT 9999 FEW029/// OVC051/// 11/08 Q1006,ENAN,2025-08-16T01:20:00Z,69.307,16.131,11,8,340,17,,6+,29.70,,,TRUE,,,,,,,,FEW,2900,OVC,5100,,,,,VFR,,,,,,,,,,,,METAR,13
ENAL 160120Z AUTO 27007KT 9999 -RA BKN026/// BKN041/// OVC049/// 12/07 Q1023,ENAL,2025-08-16T01:20:00Z,62.562,6.115,12,7,270,7,,6+,30.21,,,TRUE,,,,,,,-RA,BKN,2600,BKN,4100,OVC,4900,,,MVFR,,,,,,,,,,,,METAR,21
ELLX 160120Z AUTO 03012KT 9999 NCD 19/14 Q1022 NOSIG,ELLX,2025-08-16T01:20:00Z,49.626,6.204,19,14,30,12,,6+,30.18,,,TRUE,,,TRUE,,,,,CLR,,,,,,,,VFR,,,,,,,,,,,,METAR,374
EKYT 160120Z AUTO 28006KT 9999 NCD 12/09 Q1018,EKYT,2025-08-16T01:20:00Z,57.093,9.879,12,9,280,6,,6+,30.06,,,TRUE,,,,,,,,CLR,,,,,,,,VFR,,,,,,,,,,,,METAR,2
EKVJ 160120Z AUTO 31015KT 9999 SCT018/// SCT023/// 15/11 Q1022,EKVJ,2025-08-16T01:20:00Z,55.991,8.354,15,11,310,15,,6+,30.18,,,TRUE,,,,,,,,SCT,1800,SCT,2300,,,,,VFR,,,,,,,,,,,,METAR,5
EKVG 160120Z AUTO 27019KT 9999 OVC005/// 12/12 Q1026 RMK OVC003/// WIND SKEID 28024KT,EKVG,2025-08-16T01:20:00Z,62.065,-7.282,12,12,270,19,,6+,30.30,,,TRUE,,,,,,,,OVC,500,,,,,,,IFR,,,,,,,,,,,,METAR,89
EKVD 160120Z AUTO 29007KT //// ///////// 13/11 Q1022,EKVD,2025-08-16T01:20:00Z,55.436,9.329,13,11,290,7,,,30.18,,,TRUE,,,,,,,,,,,,,,,,,,,,,,,,,,,,METAR,41
EKSP 160120Z 29010KT CAVOK 14/11 Q1022 RMK SKC,EKSP,2025-08-16T01:20:00Z,55.225,9.263,14,11,290,10,,6+,30.18,,,,,,,,,,,CAVOK,,,,,,,,VFR,,,,,,,,,,,,METAR,40
EKSB 160120Z AUTO 29011KT 9999 BKN017/// 16/12 Q1021,EKSB,2025-08-16T01:20:00Z,54.962,9.787,16,12,290,11,,6+,30.15,,,TRUE,,,,,,,,BKN,1700,,,,,,,MVFR,,,,,,,,,,,,METAR,23
EKRS 160120Z AUTO 30012KT 270V340 9999 SCT020/// 15/13 Q1019,EKRS,2025-08-16T01:20:00Z,55.426,11.807,15,13,300,12,,6+,30.09,,,TRUE,,,,,,,,SCT,2000,,,,,,,VFR,,,,,,,,,,,,METAR,34
EKRN 160120Z AUTO 30013KT 9999 NCD 19/16 Q1016,EKRN,2025-08-16T01:20:00Z,55.068,14.749,19,16,300,13,,6+,30.00,,,TRUE,,,,,,,,CLR,,,,,,,,VFR,,,,,,,,,,,,METAR,14
EKRK 160120Z AUTO 30012KT 9999 BKN018/// 15/12 Q1019,EKRK,2025-08-16T01:20:00Z,55.587,12.136,15,12,300,12,,6+,30.09,,,TRUE,,,,,,,,BKN,1800,,,,,,,MVFR,,,,,,,,,,,,METAR,40
EKOD 160120Z AUTO 30016KT 9999 NCD 15/12 Q1021,EKOD,2025-08-16T01:20:00Z,55.475,10.331,15,12,300,16,,6+,30.15,,,TRUE,,,,,,,,CLR,,,,,,,,VFR,,,,,,,,,,,,METAR,13
EKKA 160120Z AUTO 29006KT 9999 SCT023/// 12/10 Q1021,EKKA,2025-08-16T01:20:00Z,56.293,9.114,12,10,290,6,,6+,30.15,,,TRUE,,,,,,,,SCT,2300,,,,,,,VFR,,,,,,,,,,,,METAR,50
EKEB 160120Z AUTO 30011KT 9999 FEW025/// 14/11 Q1022,EKEB,2025-08-16T01:20:00Z,55.528,8.563,14,11,300,11,,6+,30.18,,,TRUE,,,,,,,,FEW,2500,,,,,,,VFR,,,,,,,,,,,,METAR,29
EKCH 160120Z AUTO 30013KT 9999 FEW019/// 16/12 Q1018 NOSIG,EKCH,2025-08-16T01:20:00Z,55.618,12.656,16,12,300,13,,6+,30.06,,,TRUE,,,TRUE,,,,,FEW,1900,,,,,,,VFR,,,,,,,,,,,,METAR,4
EKBI 160120Z AUTO 28008KT 9999 FEW025/// 13/11 Q1022,EKBI,2025-08-16T01:20:00Z,55.74,9.152,13,11,280,8,,6+,30.18,,,TRUE,,,,,,,,FEW,2500,,,,,,,VFR,,,,,,,,,,,,METAR,67
EKAH 160120Z AUTO 27011KT 9999 FEW300/// 14/11 Q1019,EKAH,2025-08-16T01:20:00Z,56.3,10.619,14,11,270,11,,6+,30.09,,,TRUE,,,,,,,,FEW,30000,,,,,,,VFR,,,,,,,,,,,,METAR,25
EGVN 160120Z 06008KT CAVOK 18/14 Q1027 NOSIG RMK BLU BLU,EGVN,2025-08-16T01:20:00Z,51.758,-1.578,18,14,60,8,,6+,30.32,,,,,,TRUE,,,,,CAVOK,,,,,,,,VFR,,,,,,,,,,,,METAR,83
EGSY 160120Z AUTO 04009KT 9999 NCD 19/13 Q1025,EGSY,2025-08-16T01:20:00Z,51.406,-3.434,19,13,40,9,,6+,30.27,,,TRUE,,,,,,,,CLR,,,,,,,,VFR,,,,,,,,,,,,METAR,46
EGSS 160120Z AUTO 03007KT 9999 OVC007 16/14 Q1028,EGSS,2025-08-16T01:20:00Z,51.881,0.223,16,14,30,7,,6+,30.35,,,TRUE,,,,,,,,OVC,700,,,,,,,IFR,,,,,,,,,,,,METAR,101
EGSH 160120Z AUTO 01005KT 350V060 7000 OVC011/// 17/15 Q1028,EGSH,2025-08-16T01:20:00Z,52.676,1.283,17,15,10,5,,4.35,30.35,,,TRUE,,,,,,,,OVC,1100,,,,,,,MVFR,,,,,,,,,,,,METAR,21
EGPU 160120Z AUTO 36008KT //// // ///////// ///// Q////,EGPU,2025-08-16T01:20:00Z,56.499,-6.872,,,360,8,,,0.00,,,TRUE,,,,,,,,,,,,,,,,,,,,,,,,,,,,METAR,12
EGPO 160120Z AUTO 00000KT 9999 OVC016/// 13/10 Q1031,EGPO,2025-08-16T01:20:00Z,58.215,-6.329,13,10,0,0,,6+,30.44,,,TRUE,,,,,,,,OVC,1600,,,,,,,MVFR,,,,,,,,,,,,METAR,10
EGPL 160120Z AUTO 35005KT 9999 SCT007/// 11/09 Q1031,EGPL,2025-08-16T01:20:00Z,57.475,-7.364,11,9,350,5,,6+,30.44,,,TRUE,,,,,,,,SCT,700,,,,,,,VFR,,,,,,,,,,,,METAR,3
EGPK 160120Z AUTO 06004KT 9999 NCD 13/12 Q1029,EGPK,2025-08-16T01:20:00Z,55.509,-4.587,13,12,60,4,,6+,30.38,,,TRUE,,,,,,,,CLR,,,,,,,,VFR,,,,,,,,,,,,METAR,14
EGPI 160120Z AUTO 02002KT 9999 NCD 10/09 Q1030,EGPI,2025-08-16T01:20:00Z,55.681,-6.25,10,9,20,2,,6+,30.41,,,TRUE,,,,,,,,CLR,,,,,,,,VFR,,,,,,,,,,,,METAR,17
EGPH 160120Z 05006KT 9999 FEW012 13/12 Q1030,EGPH,2025-08-16T01:20:00Z,55.952,-3.36,13,12,50,6,,6+,30.41,,,,,,,,,,,FEW,1200,,,,,,,VFR,,,,,,,,,,,,METAR,29
EGPF 160120Z AUTO 07009KT 9999 OVC009 15/15 Q1030,EGPF,2025-08-16T01:20:00Z,55.867,-4.433,15,15,70,9,,6+,30.41,,,TRUE,,,,,,,,OVC,900,,,,,,,IFR,,,,,,,,,,,,METAR,8
EGPD 160120Z AUTO 30004KT 9999 OVC025 14/09 Q1031 NOSIG,EGPD,2025-08-16T01:20:00Z,57.205,-2.205,14,9,300,4,,6+,30.44,,,TRUE,,,TRUE,,,,,OVC,2500,,,,,,,MVFR,,,,,,,,,,,,METAR,65
EGPC 160120Z AUTO 24003KT 9999 BKN026/// 10/09 Q1030,EGPC,2025-08-16T01:20:00Z,58.459,-3.093,10,9,240,3,,6+,30.41,,,TRUE,,,,,,,,BKN,2600,,,,,,,MVFR,,,,,,,,,,,,METAR,38
EGPB 160120Z AUTO 26007KT 9999 BKN009/// BKN022/// 13/11 Q1028,EGPB,2025-08-16T01:20:00Z,59.88,-1.296,13,11,260,7,,6+,30.35,,,TRUE,,,,,,,,BKN,900,BKN,2200,,,,,IFR,,,,,,,,,,,,METAR,2
EGPA 160120Z AUTO 25002KT 9999 NCD 10/08 Q1030,EGPA,2025-08-16T01:20:00Z,58.958,-2.905,10,8,250,2,,6+,30.41,,,TRUE,,,,,,,,CLR,,,,,,,,VFR,,,,,,,,,,,,METAR,15
EGNX 160120Z 06009KT 9999 BKN008 16/14 Q1029,EGNX,2025-08-16T01:20:00Z,52.833,-1.333,16,14,60,9,,6+,30.38,,,,,,,,,,,BKN,800,,,,,,,IFR,,,,,,,,,,,,METAR,91
EGNV 160120Z AUTO 05004KT 020V080 9999 -RA OVC011/// 16/14 Q1030,EGNV,2025-08-16T01:20:00Z,54.511,-1.418,16,14,50,4,,6+,30.41,,,TRUE,,,,,,,-RA,OVC,1100,,,,,,,MVFR,,,,,,,,,,,,METAR,36
EGNT 160120Z 08003KT 040V100 3500 -RA BKN004 14/14 Q1030,EGNT,2025-08-16T01:20:00Z,55.037,-1.702,14,14,80,3,,2.17,30.41,,,,,,,,,,-RA,BKN,400,,,,,,,LIFR,,,,,,,,,,,,METAR,77
EGNM 160120Z 05003KT 010V090 9999 FEW009 BKN010 15/13 Q1030,EGNM,2025-08-16T01:20:00Z,53.862,-1.665,15,13,50,3,,6+,30.41,,,,,,,,,,,FEW,900,BKN,1000,,,,,MVFR,,,,,,,,,,,,METAR,221
EGNJ 160120Z AUTO 05007KT 9999 OVC010/// 17/14 Q1029,EGNJ,2025-08-16T01:20:00Z,53.58,-0.341,17,14,50,7,,6+,30.38,,,TRUE,,,,,,,,OVC,1000,,,,,,,MVFR,,,,,,,,,,,,METAR,23
EGMD 160120Z AUTO 05015KT 9999 BKN012/// 18/16 Q1026,EGMD,2025-08-16T01:20:00Z,50.956,0.939,18,16,50,15,,6+,30.30,,,TRUE,,,,,,,,BKN,1200,,,,,,,MVFR,,,,,,,,,,,,METAR,4
EGLL 160120Z AUTO 04006KT 9999 BKN015 19/16 Q1027,EGLL,2025-08-16T01:20:00Z,51.477,-0.461,19,16,40,6,,6+,30.32,,,TRUE,,,,,,,,BKN,1500,,,,,,,MVFR,,,,,,,,,,,,METAR,26
EGLF 160120Z AUTO 06006KT 9999 NCD 18/15 Q1027,EGLF,2025-08-16T01:20:00Z,51.28,-0.773,18,15,60,6,,6+,30.32,,,TRUE,,,,,,,,CLR,,,,,,,,VFR,,,,,,,,,,,,METAR,65
EGLC 160120Z AUTO 04006KT 9999 BKN011 19/16 Q1027,EGLC,2025-08-16T01:20:00Z,51.505,0.055,19,16,40,6,,6+,30.32,,,TRUE,,,,,,,,BKN,1100,,,,,,,MVFR,,,,,,,,,,,,METAR,10
EGKK 160120Z 04008KT 9999 FEW011 18/16 Q1027,EGKK,2025-08-16T01:20:00Z,51.148,-0.19,18,16,40,8,,6+,30.32,,,,,,,,,,,FEW,1100,,,,,,,VFR,,,,,,,,,,,,METAR,58
EGKB 160120Z AUTO 04007KT 9999 OVC005/// 17/16 Q1027,EGKB,2025-08-16T01:20:00Z,51.33,0.033,17,16,40,7,,6+,30.32,,,TRUE,,,,,,,,OVC,500,,,,,,,IFR,,,,,,,,,,,,METAR,183
EGJJ 160120Z AUTO 09014KT 9999 NCD 19/16 Q1023,EGJJ,2025-08-16T01:20:00Z,49.21,-2.194,19,16,90,14,,6+,30.21,,,TRUE,,,,,,,,CLR,,,,,,,,VFR,,,,,,,,,,,,METAR,84
EGHQ 160120Z AUTO 08008KT 9999 NCD 17/15 Q1024,EGHQ,2025-08-16T01:20:00Z,50.438,-4.998,17,15,80,8,,6+,30.24,,,TRUE,,,,,,,,CLR,,,,,,,,VFR,,,,,,,,,,,,METAR,101
EGGW 160120Z AUTO 05010KT 9999 OVC005 15/14 Q1028,EGGW,2025-08-16T01:20:00Z,51.875,-0.368,15,14,50,10,,6+,30.35,,,TRUE,,,,,,,,OVC,500,,,,,,,IFR,,,,,,,,,,,,METAR,159
EGGP 160120Z 12003KT 9999 BKN028 14/13 Q1028,EGGP,2025-08-16T01:20:00Z,53.334,-2.85,14,13,120,3,,6+,30.35,,,,,,,,,,,BKN,2800,,,,,,,MVFR,,,,,,,,,,,,METAR,23
EGGD 160120Z AUTO 05012KT 9999 NCD 18/13 Q1026,EGGD,2025-08-16T01:20:00Z,51.383,-2.719,18,13,50,12,,6+,30.30,,,TRUE,,,,,,,,CLR,,,,,,,,VFR,,,,,,,,,,,,METAR,182
EGFF 160120Z AUTO 04013KT 9999 NCD 20/13 Q1026,EGFF,2025-08-16T01:20:00Z,51.397,-3.343,20,13,40,13,,6+,30.30,,,TRUE,,,,,,,,CLR,,,,,,,,VFR,,,,,,,,,,,,METAR,65
EGEC 160120Z 00000KT CAVOK 11/10 Q1029,EGEC,2025-08-16T01:20:00Z,55.437,-5.686,11,10,0,0,,6+,30.38,,,,,,,,,,,CAVOK,,,,,,,,VFR,,,,,,,,,,,,METAR,10
EGCK 160120Z AUTO 06006KT 9999 NCD 14/13 Q1027,EGCK,2025-08-16T01:20:00Z,53.104,-4.34,14,13,60,6,,6+,30.32,,,TRUE,,,,,,,,CLR,,,,,,,,VFR,,,,,,,,,,,,METAR,6
EGCC 160120Z AUTO 07004KT 9999 BKN037 15/13 Q1029 TEMPO BKN012,EGCC,2025-08-16T01:20:00Z,53.354,-2.275,15,13,70,4,,6+,30.38,,,TRUE,,,,,,,,BKN,3700,,,,,,,VFR,,,,,,,,,,,,METAR,78
EGBB 160120Z 04007KT CAVOK 17/15 Q1028,EGBB,2025-08-16T01:20:00Z,52.46,-1.758,17,15,40,7,,6+,30.35,,,,,,,,,,,CAVOK,,,,,,,,VFR,,,,,,,,,,,,METAR,91
EGAC 160120Z AUTO 36004KT 330V030 9999 NCD 16/13 Q1029,EGAC,2025-08-16T01:20:00Z,54.614,-5.873,16,13,360,4,,6+,30.38,,,TRUE,,,,,,,,CLR,,,,,,,,VFR,,,,,,,,,,,,METAR,2
EGAA 160120Z AUTO 02003KT 9999 BKN002 13/12 Q1029,EGAA,2025-08-16T01:20:00Z,54.654,-6.225,13,12,20,3,,6+,30.38,,,TRUE,,,,,,,,BKN,200,,,,,,,LIFR,,,,,,,,,,,,METAR,65
EFVA 160120Z AUTO 23004KT 9999 FEW033 OVC050 12/10 Q1001,EFVA,2025-08-16T01:20:00Z,63.051,21.762,12,10,230,4,,6+,29.56,,,TRUE,,,,,,,,FEW,3300,OVC,5000,,,,,VFR,,,,,,,,,,,,METAR,4
EFUT 160120Z AUTO 20009KT 9999 OVC004 17/16 Q1002,EFUT,2025-08-16T01:20:00Z,60.896,26.938,17,16,200,9,,6+,29.59,,,TRUE,,,,,,,,OVC,400,,,,,,,LIFR,,,,,,,,,,,,METAR,104
EFTU 160120Z AUTO 29006KT CAVOK 11/11 Q1006,EFTU,2025-08-16T01:20:00Z,60.514,22.263,11,11,290,6,,6+,29.70,,,TRUE,,,,,,,,CAVOK,,,,,,,,VFR,,,,,,,,,,,,METAR,47
EFTP 160120Z AUTO 26005KT 9999 BKN010 //////CB 12/11 Q1004,EFTP,2025-08-16T01:20:00Z,61.419,23.616,12,11,260,5,,6+,29.65,,,TRUE,,,,,,,,BKN,1000,,,,,,,MVFR,,,,,,,,,,,,METAR,111
EFSI 160120Z AUTO 22004KT 9999 SCT045 10/10 Q1002,EFSI,2025-08-16T01:20:00Z,62.693,22.83,10,10,220,4,,6+,29.59,,,TRUE,,,,,,,,SCT,4500,,,,,,,VFR,,,,,,,,,,,,METAR,90
EFSA 160120Z AUTO 18009KT 9999 -SHRA BKN012 //////CB 17/16 Q1002,EFSA,2025-08-16T01:20:00Z,61.943,28.945,17,16,180,9,,6+,29.59,,,TRUE,,,,,,,-SHRA,BKN,1200,,,,,,,MVFR,,,,,,,,,,,,METAR,90
EFRO 160120Z AUTO 21012KT 9999 -SHRA OVC009 14/12 Q0996,EFRO,2025-08-16T01:20:00Z,66.562,25.829,14,12,210,12,,6+,29.41,,,TRUE,,,,,,,-SHRA,OVC,900,,,,,,,IFR,,,,,,,,,,,,METAR,201
EFPO 160120Z AUTO 28012KT 240V310 9999 -SHRA BKN033 14/09 Q1004,EFPO,2025-08-16T01:20:00Z,61.462,21.8,14,9,280,12,,6+,29.65,,,TRUE,,,,,,,-SHRA,BKN,3300,,,,,,,VFR,,,,,,,,,,,,METAR,10
EFOU 160120Z AUTO 25006KT 200V280 9999 SHRA FEW041 13/11 Q0998,EFOU,2025-08-16T01:20:00Z,64.93,25.355,13,11,250,6,,6+,29.47,,,TRUE,,,,,,,SHRA,FEW,4100,,,,,,,VFR,,,,,,,,,,,,METAR,15
EFMI 160120Z AUTO 15006KT 9999 SHRA BKN006 BKN027 //////CB 17/16 Q1000,EFMI,2025-08-16T01:20:00Z,61.687,27.201,17,16,150,6,,6+,29.53,,,TRUE,,,,,,,SHRA,BKN,600,BKN,2700,,,,,IFR,,,,,,,,,,,,METAR,99
EFMA 160120Z AUTO 29006KT 260V330 CAVOK 13/11 Q1009,EFMA,2025-08-16T01:20:00Z,60.125,19.903,13,11,290,6,,6+,29.79,,,TRUE,,,,,,,,CAVOK,,,,,,,,VFR,,,,,,,,,,,,METAR,6
EFLP 160120Z AUTO 21007KT 9999 BKN007 17/16 Q1002,EFLP,2025-08-16T01:20:00Z,61.044,28.151,17,16,210,7,,6+,29.59,,,TRUE,,,,,,,,BKN,700,,,,,,,IFR,,,,,,,,,,,,METAR,102
EFKU 160120Z AUTO 18014KT 9999 BKN028 //////CB 18/15 Q0999,EFKU,2025-08-16T01:20:00Z,63.008,27.799,18,15,180,14,,6+,29.50,,,TRUE,,,,,,,,BKN,2800,,,,,,,MVFR,,,,,,,,,,,,METAR,92
EFKT 160120Z AUTO 16005KT 120V180 9999 -RA OVC011 16/14 Q0995,EFKT,2025-08-16T01:20:00Z,67.701,24.847,16,14,160,5,,6+,29.38,,,TRUE,,,,,,,-RA,OVC,1100,,,,,,,MVFR,,,,,,,,,,,,METAR,190
EFKS 160120Z AUTO 14009KT CAVOK 15/14 Q0999,EFKS,2025-08-16T01:20:00Z,65.992,29.236,15,14,140,9,,6+,29.50,,,TRUE,,,,,,,,CAVOK,,,,,,,,VFR,,,,,,,,,,,,METAR,270
EFKK 160120Z AUTO 19005KT 9999 BKN028 10/10 Q1000,EFKK,2025-08-16T01:20:00Z,63.721,23.143,10,10,190,5,,6+,29.53,,,TRUE,,,,,,,,BKN,2800,,,,,,,MVFR,,,,,,,,,,,,METAR,25
EFKI 160120Z AUTO 16007KT 9999 -SHRA OVC028 //////CB 17/15 Q0998,EFKI,2025-08-16T01:20:00Z,64.283,27.673,17,15,160,7,,6+,29.47,,,TRUE,,,,,,,-SHRA,OVC,2800,,,,,,,MVFR,,,,,,,,,,,,METAR,132
EFKE 160120Z AUTO 24006KT 9999 SCT019 13/10 Q0996,EFKE,2025-08-16T01:20:00Z,65.784,24.579,13,10,240,6,,6+,29.41,,,TRUE,,,,,,,,SCT,1900,,,,,,,VFR,,,,,,,,,,,,METAR,15
EFJY 160120Z AUTO 29011KT 9999 -SHRA SCT007 12/11 Q1001,EFJY,2025-08-16T01:20:00Z,62.404,25.675,12,11,290,11,,6+,29.56,,,TRUE,,,,,,,-SHRA,SCT,700,,,,,,,VFR,,,,,,,,,,,,METAR,139
EFJO 160120Z AUTO 20009KT 170V230 9999 -SHRA BKN018 OVC047 //////CB 18/15 Q1001,EFJO,2025-08-16T01:20:00Z,62.66,29.611,18,15,200,9,,6+,29.56,,,TRUE,,,,,,,-SHRA,BKN,1800,OVC,4700,,,,,MVFR,,,,,,,,,,,,METAR,118
EFIV 160120Z AUTO 14005KT 9999 BKN024 16/15 Q0996,EFIV,2025-08-16T01:20:00Z,68.607,27.405,16,15,140,5,,6+,29.41,,,TRUE,,,,,,,,BKN,2400,,,,,,,MVFR,,,,,,,,,,,,METAR,145
EFHK 160120Z 29017KT 9999 FEW007 SCT012 FEW020CB BKN030 15/13 Q1003 NOSIG,EFHK,2025-08-16T01:20:00Z,60.327,24.957,15,13,290,17,,6+,29.62,,,,,,TRUE,,,,,FEW,700,SCT,1200,FEW,2000,BKN,3000,MVFR,,,,,,,,,,,,METAR,56
EFHA 160120Z AUTO 28011KT 9999 -RA BKN007 11/10 Q1003,EFHA,2025-08-16T01:20:00Z,61.855,24.805,11,10,280,11,,6+,29.62,,,TRUE,,,,,,,-RA,BKN,700,,,,,,,IFR,,,,,,,,,,,,METAR,144
EFET 160120Z AUTO VRB01KT 9999 SCT006 OVC034 15/14 Q0995,EFET,2025-08-16T01:20:00Z,68.363,23.424,15,14,VRB,1,,6+,29.38,,,TRUE,,,,,,,,SCT,600,OVC,3400,,,,,VFR,,,,,,,,,,,,METAR,300
EETU 160120Z AUTO 20008KT 9999 SCT075/// BKN240/// 17/15 Q1006,EETU,2025-08-16T01:20:00Z,58.307,26.691,17,15,200,8,,6+,29.70,,,TRUE,,,,,,,,SCT,7500,BKN,24000,,,,,VFR,,,,,,,,,,,,METAR,67
EETN 160120Z 24010KT 9999 SCT009 BKN012 FEW020CB 18/17 Q1004,EETN,2025-08-16T01:20:00Z,59.413,24.801,18,17,240,10,,6+,29.65,,,,,,,,,,,SCT,900,BKN,1200,FEW,2000,,,MVFR,,,,,,,,,,,,METAR,41
EEPU 160120Z AUTO 25007KT 9999 BKN013/// BKN140/// BKN200/// 19/18 Q1005,EEPU,2025-08-16T01:20:00Z,58.419,24.473,19,18,250,7,,6+,29.68,,,TRUE,,,,,,,,BKN,1300,BKN,14000,BKN,20000,,,MVFR,,,,,,,,,,,,METAR,13
EEKE 160120Z AUTO 34008KT 9999 OVC081/// 16/15 Q1007,EEKE,2025-08-16T01:20:00Z,58.23,22.509,16,15,340,8,,6+,29.73,,,TRUE,,,,,,,,OVC,8100,,,,,,,VFR,,,,,,,,,,,,METAR,4
EEKA 160120Z AUTO 34015KT 9999 FEW070/// BKN081/// OVC140/// 17/13 Q1006,EEKA,2025-08-16T01:20:00Z,58.991,22.831,17,13,340,15,,6+,29.70,,,TRUE,,,,,,,,FEW,7000,BKN,8100,OVC,14000,,,VFR,,,,,,,,,,,,METAR,6
EDXW 160120Z AUTO 33017KT 9999 // BKN023/// 16/12 Q1023,EDXW,2025-08-16T01:20:00Z,54.913,8.341,16,12,330,17,,6+,30.21,,,TRUE,,,,,,,,BKN,2300,,,,,,,MVFR,,,,,,,,,,,,METAR,8
EDWE 160120Z AUTO 34005KT 9999 OVC013 18/15 Q1024,EDWE,2025-08-16T01:20:00Z,53.388,7.229,18,15,340,5,,6+,30.24,,,TRUE,,,,,,,,OVC,1300,,,,,,,MVFR,,,,,,,,,,,,METAR,
EDVK 160120Z AUTO 27003KT 9999 // FEW044/// 16/14 Q1022,EDVK,2025-08-16T01:20:00Z,51.421,9.388,16,14,270,3,,6+,30.18,,,TRUE,,,,,,,,FEW,4400,,,,,,,VFR,,,,,,,,,,,,METAR,262
EDVE 160120Z AUTO 29008KT 9999 OVC008 18/16 Q1022,EDVE,2025-08-16T01:20:00Z,52.319,10.558,18,16,290,8,,6+,30.18,,,TRUE,,,,,,,,OVC,800,,,,,,,IFR,,,,,,,,,,,,METAR,83
EDTY 160120Z AUTO 31002KT 9999 // NCD 21/17 Q1021,EDTY,2025-08-16T01:20:00Z,49.118,9.784,21,17,310,2,,6+,30.15,,,TRUE,,,,,,,,CLR,,,,,,,,VFR,,,,,,,,,,,,METAR,398
EDTL 160120Z AUTO 34006KT 9999 // NCD 22/17 Q1020,EDTL,2025-08-16T01:20:00Z,48.369,7.828,22,17,340,6,,6+,30.12,,,TRUE,,,,,,,,CLR,,,,,,,,VFR,,,,,,,,,,,,METAR,152
EDSB 160120Z AUTO 03007KT 9999 NCD 22/16 Q1020,EDSB,2025-08-16T01:20:00Z,48.779,8.081,22,16,30,7,,6+,30.12,,,TRUE,,,,,,,,CLR,,,,,,,,VFR,,,,,,,,,,,,METAR,122
EDQM 160120Z AUTO 36006KT 330V030 9999 // FEW081/// SCT100/// 20/14 Q1022,EDQM,2025-08-16T01:20:00Z,50.289,11.86,20,14,360,6,,6+,30.18,,,TRUE,,,,,,,,FEW,8100,SCT,10000,,,,,VFR,,,,,,,,,,,,METAR,578
EDNY 160120Z AUTO VRB01KT 9999 // NCD 18/18 Q1021,EDNY,2025-08-16T01:20:00Z,47.671,9.511,18,18,VRB,1,,6+,30.15,,,TRUE,,,,,,,,CLR,,,,,,,,VFR,,,,,,,,,,,,METAR,411
EDMO 160120Z AUTO 28003KT 240V340 9999 SHRA VCTS FEW057 BKN076 SCT///CB 20/18 Q1021,EDMO,2025-08-16T01:20:00Z,48.081,11.283,20,18,280,3,,6+,30.15,,,TRUE,,,,,,,SHRA VCTS,FEW,5700,BKN,7600,,,,,VFR,,,,,,,,,,,,METAR,587
EDMA 160120Z AUTO 17003KT 130V230 9999 // OVC082/// 20/18 Q1020,EDMA,2025-08-16T01:20:00Z,48.425,10.932,20,18,170,3,,6+,30.12,,,TRUE,,,,,,,,OVC,8200,,,,,,,VFR,,,,,,,,,,,,METAR,462
EDLW 160120Z AUTO 34004KT 300V030 9999 // SCT007/// BKN010/// 18/17 Q1023,EDLW,2025-08-16T01:20:00Z,51.518,7.612,18,17,340,4,,6+,30.21,,,TRUE,,,,,,,,SCT,700,BKN,1000,,,,,MVFR,,,,,,,,,,,,METAR,122
EDLV 160120Z AUTO 36003KT 300V090 9999 // OVC013/// 19/15 Q1024,EDLV,2025-08-16T01:20:00Z,51.602,6.142,19,15,360,3,,6+,30.24,,,TRUE,,,,,,,,OVC,1300,,,,,,,MVFR,,,,,,,,,,,,METAR,27
EDLN 160120Z AUTO 35008KT 9999 // OVC008/// 19/17 Q1023,EDLN,2025-08-16T01:20:00Z,51.23,6.504,19,17,350,8,,6+,30.21,,,TRUE,,,,,,,,OVC,800,,,,,,,IFR,,,,,,,,,,,,METAR,38
EDJA 160120Z AUTO 18007KT 9999 // NCD 18/16 Q1021,EDJA,2025-08-16T01:20:00Z,47.989,10.239,18,16,180,7,,6+,30.15,,,TRUE,,,,,,,,CLR,,,,,,,,VFR,,,,,,,,,,,,METAR,625
EDHL 160120Z AUTO 30005KT 270V330 9999 // OVC014/// 18/16 Q1021,EDHL,2025-08-16T01:20:00Z,53.805,10.719,18,16,300,5,,6+,30.15,,,TRUE,,,,,,,,OVC,1400,,,,,,,MVFR,,,,,,,,,,,,METAR,13
EDHK 160120Z AUTO 30010KT 9999 // BKN013/// 16/13 Q1022,EDHK,2025-08-16T01:20:00Z,54.376,10.143,16,13,300,10,,6+,30.18,,,TRUE,,,,,,,,BKN,1300,,,,,,,MVFR,,,,,,,,,,,,METAR,24
EDHI 160120Z AUTO 31009KT 280V340 9999 // OVC012/// 18/16 Q1022,EDHI,2025-08-16T01:20:00Z,53.536,9.837,18,16,310,9,,6+,30.18,,,TRUE,,,,,,,,OVC,1200,,,,,,,MVFR,,,,,,,,,,,,METAR,5
EDGS 160120Z AUTO VRB02KT 9999 // NCD 17/15 Q1024,EDGS,2025-08-16T01:20:00Z,50.708,8.083,17,15,VRB,2,,6+,30.24,,,TRUE,,,,,,,,CLR,,,,,,,,VFR,,,,,,,,,,,,METAR,595
EDFM 160120Z AUTO 34007KT 9999 // NCD 23/14 Q1020,EDFM,2025-08-16T01:20:00Z,49.474,8.515,23,14,340,7,,6+,30.12,,,TRUE,,,,,,,,CLR,,,,,,,,VFR,,,,,,,,,,,,METAR,94
EDFH 160120Z 02004KT CAVOK 18/13 Q1023,EDFH,2025-08-16T01:20:00Z,49.946,7.265,18,13,20,4,,6+,30.21,,,,,,,,,,,CAVOK,,,,,,,,VFR,,,,,,,,,,,,METAR,494
EDDW 160120Z AUTO 33007KT 300V010 9999 OVC017 19/16 Q1023,EDDW,2025-08-16T01:20:00Z,53.047,8.787,19,16,330,7,,6+,30.21,,,TRUE,,,,,,,,OVC,1700,,,,,,,MVFR,,,,,,,,,,,,METAR,5
EDDV 160120Z AUTO 31006KT 9999 OVC016 18/16 Q1022,EDDV,2025-08-16T01:20:00Z,52.466,9.68,18,16,310,6,,6+,30.18,,,TRUE,,,,,,,,OVC,1600,,,,,,,MVFR,,,,,,,,,,,,METAR,53
EDDS 160120Z AUTO VRB01KT CAVOK 21/17 Q1021,EDDS,2025-08-16T01:20:00Z,48.69,9.222,21,17,VRB,1,,6+,30.15,,,TRUE,,,,,,,,CAVOK,,,,,,,,VFR,,,,,,,,,,,,METAR,374
EDDR 160120Z AUTO 04006KT CAVOK 21/13 Q1021,EDDR,2025-08-16T01:20:00Z,49.213,7.108,21,13,40,6,,6+,30.15,,,TRUE,,,,,,,,CAVOK,,,,,,,,VFR,,,,,,,,,,,,METAR,317
EDDP 160120Z AUTO 29003KT CAVOK 19/15 Q1021 NOSIG,EDDP,2025-08-16T01:20:00Z,51.435,12.24,19,15,290,3,,6+,30.15,,,TRUE,,,TRUE,,,,,CAVOK,,,,,,,,VFR,,,,,,,,,,,,METAR,129
EDDN 160120Z AUTO 35005KT CAVOK 22/16 Q1020,EDDN,2025-08-16T01:20:00Z,49.503,11.055,22,16,350,5,,6+,30.12,,,TRUE,,,,,,,,CAVOK,,,,,,,,VFR,,,,,,,,,,,,METAR,312
EDDM 160120Z AUTO 25007KT 210V290 9999 -SHRA VCTS SCT///CB 21/18 Q1020 RESHRA TEMPO SHRA,EDDM,2025-08-16T01:20:00Z,48.348,11.813,21,18,250,7,,6+,30.12,,,TRUE,,,,,,,-SHRA VCTS,,,,,,,,,VFR,,,,,,,,,,,,METAR,445
EDDL 160120Z AUTO 36008KT 9999 BKN008 19/17 Q1023 TEMPO OVC010,EDDL,2025-08-16T01:20:00Z,51.296,6.769,19,17,360,8,,6+,30.21,,,TRUE,,,,,,,,BKN,800,,,,,,,IFR,,,,,,,,,,,,METAR,37
EDDK 160120Z AUTO 00000KT CAVOK 16/15 Q1023 NOSIG,EDDK,2025-08-16T01:20:00Z,50.865,7.157,16,15,0,0,,6+,30.21,,,TRUE,,,TRUE,,,,,CAVOK,,,,,,,,VFR,,,,,,,,,,,,METAR,92
EDDH 160120Z AUTO 31008KT 9999 OVC012 18/16 Q1022 NOSIG,EDDH,2025-08-16T01:20:00Z,53.633,9.988,18,16,310,8,,6+,30.18,,,TRUE,,,TRUE,,,,,OVC,1200,,,,,,,MVFR,,,,,,,,,,,,METAR,8
EDDG 160120Z AUTO 35006KT 320V020 9999 OVC016 19/15 Q1023 TEMPO OVC010,EDDG,2025-08-16T01:20:00Z,52.135,7.697,19,15,350,6,,6+,30.21,,,TRUE,,,,,,,,OVC,1600,,,,,,,MVFR,,,,,,,,,,,,METAR,46
EDDF 160120Z AUTO 01008KT CAVOK 21/15 Q1021 NOSIG,EDDF,2025-08-16T01:20:00Z,50.045,8.598,21,15,10,8,,6+,30.15,,,TRUE,,,TRUE,,,,,CAVOK,,,,,,,,VFR,,,,,,,,,,,,METAR,113
EDDE 160120Z AUTO VRB01KT CAVOK 19/14 Q1022,EDDE,2025-08-16T01:20:00Z,50.983,10.961,19,14,VRB,1,,6+,30.18,,,TRUE,,,,,,,,CAVOK,,,,,,,,VFR,,,,,,,,,,,,METAR,314
EDDC 160120Z AUTO 33004KT 200V360 9999 BKN031 21/15 Q1021,EDDC,2025-08-16T01:20:00Z,51.128,13.7543,21,15,330,4,,6+,30.15,,,TRUE,,,,,,,,BKN,3100,,,,,,,VFR,,,,,,,,,,,,METAR,227
EDDB 160120Z AUTO 30006KT CAVOK 20/15 Q1019 NOSIG,EDDB,2025-08-16T01:20:00Z,52.3807,13.5306,20,15,300,6,,6+,30.09,,,TRUE,,,TRUE,,,,,CAVOK,,,,,,,,VFR,,,,,,,,,,,,METAR,48
EDBC 160120Z AUTO 30007KT CAVOK 19/15 Q1021,EDBC,2025-08-16T01:20:00Z,51.856,11.42,19,15,300,7,,6+,30.15,,,TRUE,,,,,,,,CAVOK,,,,,,,,VFR,,,,,,,,,,,,METAR,178
EDAH 160120Z AUTO 29005KT 9999 // SCT010/// 17/17 Q1018,EDAH,2025-08-16T01:20:00Z,53.879,14.152,17,17,290,5,,6+,30.06,,,TRUE,,,,,,,,SCT,1000,,,,,,,VFR,,,,,,,,,,,,METAR,22
EDAC 160120Z AUTO 00000KT 9999 // FEW067/// SCT078/// BKN095/// 20/16 Q1021,EDAC,2025-08-16T01:20:00Z,50.982,12.506,20,16,0,0,,6+,30.15,,,TRUE,,,,,,,,FEW,6700,SCT,7800,BKN,9500,,,VFR,,,,,,,,,,,,METAR,193
EBOS 160120Z 01011KT 9999 BKN013 19/15 Q1026 TEMPO SCT012 BKN016,EBOS,2025-08-16T01:20:00Z,51.199,2.862,19,15,10,11,,6+,30.30,,,,,,,,,,,BKN,1300,,,,,,,MVFR,,,,,,,,,,,,METAR,5
EBLG 160120Z 35004KT 9999 FEW006 17/16 Q1024 BECMG BKN006,EBLG,2025-08-16T01:20:00Z,50.637,5.443,17,16,350,4,,6+,30.24,,,,,,,,,,,FEW,600,,,,,,,VFR,,,,,,,,,,,,METAR,187
EBCI 160120Z 36007KT CAVOK 18/16 Q1024 BECMG BKN005,EBCI,2025-08-16T01:20:00Z,50.459,4.454,18,16,360,7,,6+,30.24,,,,,,,,,,,CAVOK,,,,,,,,VFR,,,,,,,,,,,,METAR,176
EBBR 160120Z 02009KT 7000 BKN006 18/16 Q1025 BECMG 4000 BR,EBBR,2025-08-16T01:20:00Z,50.896,4.526,18,16,20,9,,4.35,30.27,,,,,,,,,,,BKN,600,,,,,,,IFR,,,,,,,,,,,,METAR,49
EBAW 160120Z AUTO 35006KT 320V030 9999 // OVC011/// 19/16 Q1025,EBAW,2025-08-16T01:20:00Z,51.189,4.46,19,16,350,6,,6+,30.27,,,TRUE,,,,,,,,OVC,1100,,,,,,,MVFR,,,,,,,,,,,,METAR,7
BGSF 160120Z AUTO 02004KT 9999NDV -RA BKN018/// BKN022/// OVC026/// 05/04 Q1010 RERA,BGSF,2025-08-16T01:20:00Z,67.013,-50.718,5,4,20,4,,,29.82,,,TRUE,,,,,,,-RA,BKN,1800,BKN,2200,OVC,2600,,,,,,,,,,,,,,,METAR,75
BGKK 160120Z AUTO 00000KT 9999NDV RA BKN021/// 05/04 Q1010,BGKK,2025-08-16T01:20:00Z,65.575,-37.133,5,4,0,0,,,29.82,,,TRUE,,,,,,,RA,BKN,2100,,,,,,,,,,,,,,,,,,,METAR,37
BGJN 160120Z AUTO 15007KT 9999NDV FEW010/// SCT053/// BKN085/// BKN120/// 04/02 Q1008,BGJN,2025-08-16T01:20:00Z,69.24,-51.064,4,2,150,7,,,29.76,,,TRUE,,,,,,,,FEW,1000,SCT,5300,BKN,8500,BKN,12000,,,,,,,,,,,,,METAR,22
BGGH 160120Z AUTO VRB07KT 9999 -RA OVC017/// 04/01 Q1014,BGGH,2025-08-16T01:20:00Z,64.191,-51.677,4,1,VRB,7,,6+,29.94,,,TRUE,,,,,,,-RA,OVC,1700,,,,,,,MVFR,,,,,,,,,,,,METAR,76
BGBW 160120Z AUTO 06004KT 6000NDV SCT010/// BKN018/// BKN023/// OVC030/// 08/07 Q1010,BGBW,2025-08-16T01:20:00Z,61.164,-45.42,8,7,60,4,,,29.82,,,TRUE,,,,,,,,SCT,1000,BKN,1800,BKN,2300,OVC,3000,,,,,,,,,,,,,METAR,49
ROTM 160119Z 07080KT 9999 -RA BKN025 BKN070 29/24 A2992 RMK SLP123 T02940239,ROTM,2025-08-16T01:19:00Z,26.271,127.754,29.4,23.9,70,80,,6+,29.92,1012.3,,,,,,,,,-RA,BKN,2500,BKN,7000,,,,,MVFR,,,,,,,,,,,,SPECI,80
KTCM 160119Z AUTO 18007KT 10SM OVC033 20/18 A2982 RMK AO2 RAE19 SLP100 $,KTCM,2025-08-16T01:19:00Z,47.149,-122.475,20,18,180,7,,10+,29.82,1010,,TRUE,TRUE,TRUE,,,,,,OVC,3300,,,,,,,VFR,,,,,,,,,,,,SPECI,87
KGRF 160119Z AUTO 13010KT 10SM -RA OVC030 20/18 A2980 RMK AO2 RAE13RAB19 SLP094 $,KGRF,2025-08-16T01:19:00Z,47.079,-122.58,20,18,130,10,,10+,29.80,1009.4,,TRUE,TRUE,TRUE,,,,,-RA,OVC,3000,,,,,,,MVFR,,,,,,,,,,,,SPECI,91
KFME 160119Z AUTO 10004KT 10SM BKN110 24/22 A3014 RMK AO1,KFME,2025-08-16T01:19:00Z,39.086,-76.757,24,22,100,4,,10+,30.14,,,TRUE,TRUE,,,,,,,BKN,11000,,,,,,,VFR,,,,,,,,,,,,METAR,43
KCFS 160119Z AUTO 11002KT 10SM SCT050 21/20 A3010 RMK AO2,KCFS,2025-08-16T01:19:00Z,43.4624,-83.4428,21,20,110,2,,10+,30.10,,,TRUE,TRUE,,,,,,,SCT,5000,,,,,,,VFR,,,,,,,,,,,,METAR,214
RODN 160118Z 03013G18KT 4SM -RA SCT021 BKN026 29/25 A2990 RMK AO2A VIS NE 3 RAB18 SLP125 FZRANO $,RODN,2025-08-16T01:18:00Z,26.356,127.768,29,25,30,13,18,4,29.90,1012.5,,,TRUE,TRUE,,,TRUE,,-RA,SCT,2100,BKN,2600,,,,,MVFR,,,,,,,,,,,,SPECI,38
PAUN 160118Z AUTO 26011KT 10SM SCT020 BKN025 OVC032 11/08 A3008 RMK AO2,PAUN,2025-08-16T01:18:00Z,63.885,-160.794,11,8,260,11,,10+,30.08,,,TRUE,TRUE,,,,,,,SCT,2000,BKN,2500,OVC,3200,,,MVFR,,,,,,,,,,,,SPECI,4
CYYT 160118Z 01015KT 12SM -DZ OVC002 15/15 A3006 RMK ST8 SLP182,CYYT,2025-08-16T01:18:00Z,47.627,-52.748,15,15,10,15,,12,30.06,1018.2,,,,,,,,,-DZ,OVC,200,,,,,,,LIFR,,,,,,,,,,,,SPECI,128
KNGU 160117Z 07009KT 10SM BKN014 BKN025 26/24 A3010 RMK AO2 T02610239,KNGU,2025-08-16T01:17:00Z,36.937,-76.281,26.1,23.9,70,9,,10+,30.10,,,,TRUE,,,,,,,BKN,1400,BKN,2500,,,,,MVFR,,,,,,,,,,,,SPECI,3
KGGP 160117Z AUTO 00000KT 10SM CLR 23/22 A3010 RMK AO2,KGGP,2025-08-16T01:17:00Z,40.7127,-86.3673,23,22,0,0,,10+,30.10,,,TRUE,TRUE,,,,,,,CLR,,,,,,,,VFR,,,,,,,,,,,,METAR,224
KEVM 160117Z AUTO 32004KT 10SM CLR 24/18 A3003 RMK AO2 T02350179,KEVM,2025-08-16T01:17:00Z,47.4274,-92.4972,23.5,17.9,320,4,,10+,30.03,,,TRUE,TRUE,,,,,,,CLR,,,,,,,,VFR,,,,,,,,,,,,METAR,419
KDUB 160117Z AUTO 26020G26KT 10SM SCT120 21/02 A3020 RMK AO2,KDUB,2025-08-16T01:17:00Z,43.5485,-109.684,21,2,260,20,26,10+,30.20,,,TRUE,TRUE,,,,,,,SCT,12000,,,,,,,VFR,,,,,,,,,,,,METAR,2205
SBRF 160116Z 24003KT 180V350 4500 -RA BR SCT009 BKN014 OVC050 23/22 Q1018,SBRF,2025-08-16T01:16:00Z,-8.126,-34.923,23,22,240,3,,2.8,30.06,,,,,,,,,,-RA BR,SCT,900,BKN,1400,OVC,5000,,,IFR,,,,,,,,,,,,SPECI,10
PFTO 160116Z AUTO 30011G18KT 10SM FEW009 BKN015 OVC036 06/05 A2981 RMK AO2 PNO $,PFTO,2025-08-16T01:16:00Z,63.329,-142.954,6,5,300,11,18,10+,29.81,,,TRUE,TRUE,TRUE,,,,,,FEW,900,BKN,1500,OVC,3600,,,MVFR,,,,,,,,,,,,SPECI,500
KQHY 160116Z AUTO 00000KT 10SM VCTS BKN140 OVC170 26/23 A3012 RMK AO2 TSE16 SLP206,KQHY,2025-08-16T01:16:00Z,-99.99,-99.99,26,23,0,0,,10+,30.12,1020.6,,TRUE,TRUE,,,,,,VCTS,BKN,14000,OVC,17000,,,,,VFR,,,,,,,,,,,,SPECI,9999
KP33 160116Z AUTO 35003KT 10SM CLR 28/12 A3012 RMK AO2,KP33,2025-08-16T01:16:00Z,32.245,-109.895,28,12,350,3,,10+,30.12,,,TRUE,TRUE,,,,,,,CLR,,,,,,,,VFR,,,,,,,,,,,,METAR,1276
KOCF 160116Z AUTO 36007G20KT 2SM +TSRA SCT009 BKN019 OVC028 26/23 A3013 RMK AO2 VIS 1V3 LTG DSNT ALQDS P0045,KOCF,2025-08-16T01:16:00Z,29.1636,-82.221,26,23,360,7,20,2,30.13,,,TRUE,TRUE,,,,,,+TSRA,SCT,900,BKN,1900,OVC,2800,,,IFR,,,,,,0.45,,,,,,SPECI,24
KMJQ 160116Z AUTO 10003KT 10SM 27/23 A2999 RMK AO2,KMJQ,2025-08-16T01:16:00Z,43.6496,-94.9885,27,23,100,3,,10+,29.99,,,TRUE,TRUE,,,,,,,,,,,,,,,VFR,,,,,,,,,,,,METAR,439
KIKK 160116Z AUTO 00000KT 10SM SCT110 26/24 A3009 RMK AO2,KIKK,2025-08-16T01:16:00Z,41.0687,-87.8537,26,24,0,0,,10+,30.09,,,TRUE,TRUE,,,,,,,SCT,11000,,,,,,,VFR,,,,,,,,,,,,METAR,188
KI69 160116Z AUTO 00000KT 10SM CLR 27/21 A3013 RMK AO1 T02740212,KI69,2025-08-16T01:16:00Z,39.078,-84.21,27.4,21.2,0,0,,10+,30.13,,,TRUE,TRUE,,,,,,,CLR,,,,,,,,VFR,,,,,,,,,,,,METAR,238
KGIF 160116Z AUTO 27003KT 10SM SCT050 29/24 A3008 RMK AO1 LTG DSNT NW T02890244,KGIF,2025-08-16T01:16:00Z,28.0614,-81.7568,28.9,24.4,270,3,,10+,30.08,,,TRUE,TRUE,,,,,,,SCT,5000,,,,,,,VFR,,,,,,,,,,,,SPECI,44
KCWA 160116Z 20007KT 10SM VCTS FEW075 BKN120 OVC160 26/22 A3005 RMK ONCL LTGIC TS DNST SW MOV W,KCWA,2025-08-16T01:16:00Z,44.7795,-89.671,26,22,200,7,,10+,30.05,,,,,,,,,,VCTS,FEW,7500,BKN,12000,OVC,16000,,,VFR,,,,,,,,,,,,SPECI,387
KCMY 160116Z AUTO 34010G20KT 8SM TS -RA SCT028 26/21 A3007 RMK AO2 RAB11 SLP181,KCMY,2025-08-16T01:16:00Z,43.9581,-90.7398,26,21,340,10,20,8,30.07,1018.1,,TRUE,TRUE,,,,,,TS -RA,SCT,2800,,,,,,,VFR,,,,,,,,,,,,SPECI,253
KAXS 160116Z AUTO 14013KT 10SM CLR 33/21 A2999 RMK AO2,KAXS,2025-08-16T01:16:00Z,34.6963,-99.3402,33,21,140,13,,10+,29.99,,,TRUE,TRUE,,,,,,,CLR,,,,,,,,VFR,,,,,,,,,,,,METAR,433
TJPS 160115Z AUTO 00000KT 10SM FEW029 FEW034 FEW041 26/25 A2995 RMK AO2,TJPS,2025-08-16T01:15:00Z,18.011,-66.567,26,25,0,0,,10+,29.95,,,TRUE,TRUE,,,,,,,FEW,2900,FEW,3400,FEW,4100,,,VFR,,,,,,,,,,,,METAR,12
PFSH 160115Z AUTO 24011KT 10SM BKN027 BKN032 OVC120 12/08 A3006 RMK AO2 TSNO PNO $,PFSH,2025-08-16T01:15:00Z,64.367,-161.217,12,8,240,11,,10+,30.06,,,TRUE,TRUE,TRUE,,TRUE,,,,BKN,2700,BKN,3200,OVC,12000,,,MVFR,,,,,,,,,,,,SPECI,6
PAKX 160115Z AUTO 00000KT 7SM OVC070 15/00 A2992 RMK AO2,PAKX,2025-08-16T01:15:00Z,60.198,-154.323,15,0,0,0,,7,29.92,,,TRUE,TRUE,,,,,,,OVC,7000,,,,,,,VFR,,,,,,,,,,,,METAR,88
PAAD 160115Z AUTO 30011KT 10SM OVC008 02/01 A3002 RMK AO2 T00180005 FZRANO,PAAD,2025-08-16T01:15:00Z,70.136,-146.29,1.8,0.5,300,11,,10+,30.02,,,TRUE,TRUE,,,,TRUE,,,OVC,800,,,,,,,IFR,,,,,,,,,,,,METAR,8
LMML 160115Z 28003KT 230V310 9999 FEW015 25/23 Q1013 NOSIG,LMML,2025-08-16T01:15:00Z,35.858,14.477,25,23,280,3,,6+,29.91,,,,,,TRUE,,,,,FEW,1500,,,,,,,VFR,,,,,,,,,,,,METAR,78
LHSN 160115Z VRB01KT CAVOK 21/15 Q1015 NOSIG RMK BLU,LHSN,2025-08-16T01:15:00Z,47.123,20.235,21,15,VRB,1,,6+,29.97,,,,,,TRUE,,,,,CAVOK,,,,,,,,VFR,,,,,,,,,,,,METAR,89
KZPH 160115Z AUTO 00000KT 10SM OVC040 27/26 A3009 RMK A02 T02720259,KZPH,2025-08-16T01:15:00Z,28.2268,-82.1564,27.2,25.9,0,0,,10+,30.09,,,TRUE,TRUE,,,,,,,OVC,4000,,,,,,,VFR,,,,,,,,,,,,METAR,26
KZER 160115Z AUTO 12004KT 10SM CLR 23/19 A3022 RMK AO2,KZER,2025-08-16T01:15:00Z,40.7072,-76.371,23,19,120,4,,10+,30.22,,,TRUE,TRUE,,,,,,,CLR,,,,,,,,VFR,,,,,,,,,,,,METAR,518
KY70 160115Z AUTO 14004KT 10SM CLR 23/20 A3009 RMK AO2,KY70,2025-08-16T01:15:00Z,42.9398,-85.0653,23,20,140,4,,10+,30.09,,,TRUE,TRUE,,,,,,,CLR,,,,,,,,VFR,,,,,,,,,,,,METAR,247
KY63 160115Z AUTO 07004KT 10SM SCT048 27/20 A2996 RMK AO2 T02700203,KY63,2025-08-16T01:15:00Z,45.9891,-95.9946,27,20.3,70,4,,10+,29.96,,,TRUE,TRUE,,,,,,,SCT,4800,,,,,,,VFR,,,,,,,,,,,,METAR,367
KY51 160115Z AUTO 27005KT 10SM SCT055 SCT075 SCT090 23/22 A3011 RMK AO1 T02340215,KY51,2025-08-16T01:15:00Z,43.5814,-90.8997,23.4,21.5,270,5,,10+,30.11,,,TRUE,TRUE,,,,,,,SCT,5500,SCT,7500,SCT,9000,,,VFR,,,,,,,,,,,,METAR,390
KY49 160115Z AUTO 00000KT 10SM CLR 21/18 A3001 RMK AO2 T02100183,KY49,2025-08-16T01:15:00Z,47.1599,-94.6433,21,18.3,0,0,,10+,30.01,,,TRUE,TRUE,,,,,,,CLR,,,,,,,,VFR,,,,,,,,,,,,METAR,413
KY31 160115Z AUTO 00000KT 10SM CLR 21/20 A3009 RMK AO2 T02100198,KY31,2025-08-16T01:15:00Z,44.2434,-84.18,21,19.8,0,0,,10+,30.09,,,TRUE,TRUE,,,,,,,CLR,,,,,,,,VFR,,,,,,,,,,,,METAR,264
KY23 160115Z AUTO 21008KT 170V230 10SM CLR 24/18 A3003 RMK AO2 T02360180,KY23,2025-08-16T01:15:00Z,45.311,-91.638,23.6,18,210,8,,10+,30.03,,,TRUE,TRUE,,,,,,,CLR,,,,,,,,VFR,,,,,,,,,,,,METAR,322
KY19 160115Z AUTO 08010KT 10SM 22/18 A2999 RMK AO2,KY19,2025-08-16T01:15:00Z,46.7648,-100.894,22,18,80,10,,10+,29.99,,,TRUE,TRUE,,,,,,,,,,,,,,,VFR,,,,,,,,,,,,METAR,591
KXSA 160115Z AUTO 00000KT 10SM CLR 25/24 A3011 RMK AO2 T02460243,KXSA,2025-08-16T01:15:00Z,37.8606,-76.9016,24.6,24.3,0,0,,10+,30.11,,,TRUE,TRUE,,,,,,,CLR,,,,,,,,VFR,,,,,,,,,,,,METAR,41
KXNX 160115Z AUTO 00000KT 10SM CLR 27/24 A3011 RMK A01,KXNX,2025-08-16T01:15:00Z,36.3745,-86.41,27,24,0,0,,10+,30.11,,,TRUE,TRUE,,,,,,,CLR,,,,,,,,VFR,,,,,,,,,,,,METAR,178
KXNI 160115Z AUTO VRB02KT 10SM CLR 22/10 A3027 RMK AO2,KXNI,2025-08-16T01:15:00Z,35.058,-108.941,22,10,VRB,2,,10+,30.27,,,TRUE,TRUE,,,,,,,CLR,,,,,,,,VFR,,,,,,,,,,,,METAR,1921
KXLL 160115Z AUTO 14007KT 10SM SCT120 27/20 A3016 RMK AO2 TSNO,KXLL,2025-08-16T01:15:00Z,40.5704,-75.4894,27,20,140,7,,10+,30.16,,,TRUE,TRUE,,,TRUE,,,,SCT,12000,,,,,,,VFR,,,,,,,,,,,,METAR,118
KXBP 160115Z AUTO 15005KT 10SM CLR 33/19 A3002 RMK AO2 T03250191,KXBP,2025-08-16T01:15:00Z,33.1729,-97.8268,32.5,19.1,150,5,,10+,30.02,,,TRUE,TRUE,,,,,,,CLR,,,,,,,,VFR,,,,,,,,,,,,METAR,256
KX60 160115Z AUTO 34010KT 10SM TS OVC035 26/23 A3012 RMK AO2 LTG DSNT ALQDS T02640229,KX60,2025-08-16T01:15:00Z,29.3524,-82.4743,26.4,22.9,340,10,,10+,30.12,,,TRUE,TRUE,,,,,,TS,OVC,3500,,,,,,,VFR,,,,,,,,,,,,METAR,21
KX59 160115Z AUTO 14003KT 10SM CLR 28/28 A3005 RMK AO2 T02840284 $,KX59,2025-08-16T01:15:00Z,27.9624,-80.561,28.4,28.4,140,3,,10+,30.05,,,TRUE,TRUE,TRUE,,,,,,CLR,,,,,,,,VFR,,,,,,,,,,,,METAR,8
KX26 160115Z AUTO 17004KT 10SM CLR 29/24 A3006 RMK AO2,KX26,2025-08-16T01:15:00Z,27.813,-80.497,29,24,170,4,,10+,30.06,,,TRUE,TRUE,,,,,,,CLR,,,,,,,,VFR,,,,,,,,,,,,METAR,5
KX21 160115Z AUTO 00000KT 10SM CLR 29/29 A3005 RMK AO2,KX21,2025-08-16T01:15:00Z,28.6195,-80.835,29,29,0,0,,10+,30.05,,,TRUE,TRUE,,,,,,,CLR,,,,,,,,VFR,,,,,,,,,,,,METAR,9
KWYS 160115Z AUTO 10SM 27/M01 A3011 RMK AO2,KWYS,2025-08-16T01:15:00Z,44.6811,-111.124,27,-1,,,,10+,30.11,,,TRUE,TRUE,,,,,,,,,,,,,,,VFR,,,,,,,,,,,,METAR,2025
KWWR 160115Z AUTO 18011G15KT 10SM CLR 32/15 A3003 RMK AO2,KWWR,2025-08-16T01:15:00Z,36.4374,-99.5234,32,15,180,11,15,10+,30.03,,,TRUE,TRUE,,,,,,,CLR,,,,,,,,VFR,,,,,,,,,,,,METAR,664
KWDR 160115Z AUTO 00000KT 10SM SCT003 SCT048 BKN065 22/21 A3017 RMK AO2 LTG DSNT E AND SE,KWDR,2025-08-16T01:15:00Z,33.981,-83.667,22,21,0,0,,10+,30.17,,,TRUE,TRUE,,,,,,,SCT,300,SCT,4800,BKN,6500,,,VFR,,,,,,,,,,,,METAR,280
KWBF 160115Z AUTO 00000KT 10SM CLR 31/28 A3009 RMK A01,KWBF,2025-08-16T01:15:00Z,26.9305,-90.5069,31,28,0,0,,10+,30.09,,,TRUE,TRUE,,,,,,,CLR,,,,,,,,VFR,,,,,,,,,,,,METAR,40
KW99 160115Z AUTO 00000KT 10SM CLR 22/22 A3014 RMK AO2 T02240220 $,KW99,2025-08-16T01:15:00Z,38.9947,-79.1421,22.4,22,0,0,,10+,30.14,,,TRUE,TRUE,TRUE,,,,,,CLR,,,,,,,,VFR,,,,,,,,,,,,METAR,288
KW96 160115Z AUTO 00000KT 10SM CLR 25/23 A3010 RMK AO1 T02500230,KW96,2025-08-16T01:15:00Z,37.5027,-77.126,25,23,0,0,,10+,30.10,,,TRUE,TRUE,,,,,,,CLR,,,,,,,,VFR,,,,,,,,,,,,METAR,35
KW81 160115Z AUTO 00000KT 10SM SCT041 BKN050 24/23 A3011 RMK AO1 T02420227,KW81,2025-08-16T01:15:00Z,37.1813,-78.0977,24.2,22.7,0,0,,10+,30.11,,,TRUE,TRUE,,,,,,,SCT,4100,BKN,5000,,,,,VFR,,,,,,,,,,,,METAR,121
KW78 160115Z AUTO 00000KT 10SM SCT050 26/24 A3010 RMK AO1 T02550235,KW78,2025-08-16T01:15:00Z,36.7087,-78.846,25.5,23.5,0,0,,10+,30.10,,,TRUE,TRUE,,,,,,,SCT,5000,,,,,,,VFR,,,,,,,,,,,,METAR,120
KW40 160115Z AUTO 03005KT 10SM CLR 26/23 A3008 RMK AO2 T02550233,KW40,2025-08-16T01:15:00Z,35.2211,-78.0404,25.5,23.3,30,5,,10+,30.08,,,TRUE,TRUE,,,,,,,CLR,,,,,,,,VFR,,,,,,,,,,,,METAR,50
KW31 160115Z AUTO 00000KT 10SM CLR 25/24 A3012 RMK AO1 T02450241,KW31,2025-08-16T01:15:00Z,36.9599,-78.1838,24.5,24.1,0,0,,10+,30.12,,,TRUE,TRUE,,,,,,,CLR,,,,,,,,VFR,,,,,,,,,,,,METAR,159
KW29 160115Z AUTO 11005KT 10SM CLR 27/23 A3012 RMK AO2 T02730230,KW29,2025-08-16T01:15:00Z,38.9777,-76.3276,27.3,23,110,5,,10+,30.12,,,TRUE,TRUE,,,,,,,CLR,,,,,,,,VFR,,,,,,,,,,,,METAR,1
KW22 160115Z AUTO 00000KT 10SM CLR 24/19 A3018 RMK AO2,KW22,2025-08-16T01:15:00Z,39.001,-80.2712,24,19,0,0,,10+,30.18,,,TRUE,TRUE,,,,,,,CLR,,,,,,,,VFR,,,,,,,,,,,,METAR,497
KVYS 160115Z AUTO 24003KT 10SM CLR 27/24 A3008 RMK AO2 T02650238 TSNO,KVYS,2025-08-16T01:15:00Z,41.3517,-89.1496,26.5,23.8,240,3,,10+,30.08,,,TRUE,TRUE,,,TRUE,,,,CLR,,,,,,,,VFR,,,,,,,,,,,,METAR,198
KVWU 160115Z AUTO 30006KT 10SM CLR 23/13 A3001 RMK AO2,KVWU,2025-08-16T01:15:00Z,48.1502,-94.512,23,13,300,6,,10+,30.01,,,TRUE,TRUE,,,,,,,CLR,,,,,,,,VFR,,,,,,,,,,,,METAR,359
KVVV 160115Z AUTO 00000KT 10SM CLR 26/24 A2995 RMK AO2,KVVV,2025-08-16T01:15:00Z,45.2994,-96.4256,26,24,0,0,,10+,29.95,,,TRUE,TRUE,,,,,,,CLR,,,,,,,,VFR,,,,,,,,,,,,METAR,334
KVUJ 160115Z AUTO 00000KT 10SM CLR 25/24 A3015 RMK AO2 T02530239,KVUJ,2025-08-16T01:15:00Z,35.4173,-80.1508,25.3,23.9,0,0,,10+,30.15,,,TRUE,TRUE,,,,,,,CLR,,,,,,,,VFR,,,,,,,,,,,,METAR,174
KVTI 160115Z AUTO 16004KT 10SM CLR 20/20 A3002 RMK AO2 T02030198,KVTI,2025-08-16T01:15:00Z,42.2176,-92.0248,20.3,19.8,160,4,,10+,30.02,,,TRUE,TRUE,,,,,,,CLR,,,,,,,,VFR,,,,,,,,,,,,METAR,256
KVPC 160115Z AUTO 27005KT 10SM CLR 26/23 A3013 RMK AO2,KVPC,2025-08-16T01:15:00Z,34.1158,-84.8507,26,23,270,5,,10+,30.13,,,TRUE,TRUE,,,,,,,CLR,,,,,,,,VFR,,,,,,,,,,,,METAR,234
KVOA 160115Z AUTO 33003KT 10SM CLR 30/25 A3012 RMK A01,KVOA,2025-08-16T01:15:00Z,29.2289,-87.7808,30,25,330,3,,10+,30.12,,,TRUE,TRUE,,,,,,,CLR,,,,,,,,VFR,,,,,,,,,,,,METAR,53
KVNW 160115Z AUTO 00000KT 10SM CLR 24/20 A3012 RMK AO2,KVNW,2025-08-16T01:15:00Z,40.8633,-84.613,24,20,0,0,,10+,30.12,,,TRUE,TRUE,,,,,,,CLR,,,,,,,,VFR,,,,,,,,,,,,METAR,238
KVMR 160115Z AUTO 00000G10KT 10SM CLR A2990 RMK AO2,KVMR,2025-08-16T01:15:00Z,42.7656,-96.9339,,,0,0,10,10+,29.90,,,TRUE,TRUE,,,,,,,CLR,,,,,,,,VFR,,,,,,,,,,,,METAR,349
KVLL 160115Z AUTO 13004KT 4SM HZ CLR 26/15 A3011 RMK AO2,KVLL,2025-08-16T01:15:00Z,42.543,-83.178,26,15,130,4,,4,30.11,,,TRUE,TRUE,,,,,,HZ,CLR,,,,,,,,MVFR,,,,,,,,,,,,METAR,214
KVKS 160115Z AUTO 25004KT 10SM CLR 28/25 A3006 RMK A01,KVKS,2025-08-16T01:15:00Z,32.2359,-90.9269,28,25,250,4,,10+,30.06,,,TRUE,TRUE,,,,,,,CLR,,,,,,,,VFR,,,,,,,,,,,,METAR,31
KVJI 160115Z AUTO 00000KT 10SM FEW050 24/19 A3019 RMK AO2,KVJI,2025-08-16T01:15:00Z,36.6871,-82.037,24,19,0,0,,10+,30.19,,,TRUE,TRUE,,,,,,,FEW,5000,,,,,,,VFR,,,,,,,,,,,,METAR,636
KVHN 160115Z AUTO 11005KT 10SM SCT110 31/14 A3012 RMK AO2 LTG DSNT SW T03070136,KVHN,2025-08-16T01:15:00Z,31.0602,-104.783,30.7,13.6,110,5,,10+,30.12,,,TRUE,TRUE,,,,,,,SCT,11000,,,,,,,VFR,,,,,,,,,,,,METAR,1200
KVGC 160115Z AUTO 00000KT 10SM CLR 18/13 A3020 RMK AO2,KVGC,2025-08-16T01:15:00Z,42.8444,-75.5637,18,13,0,0,,10+,30.20,,,TRUE,TRUE,,,,,,,CLR,,,,,,,,VFR,,,,,,,,,,,,METAR,346
KVER 160115Z AUTO 00000KT 10SM CLR 30/25 A3004 RMK AO2 T03020250,KVER,2025-08-16T01:15:00Z,38.9496,-92.6842,30.2,25,0,0,,10+,30.04,,,TRUE,TRUE,,,,,,,CLR,,,,,,,,VFR,,,,,,,,,,,,METAR,209
KVDI 160115Z AUTO 07005KT 10SM BKN055 BKN070 OVC080 29/24 A3005 RMK AO2 LTG DSNT N AND NW,KVDI,2025-08-16T01:15:00Z,32.1933,-82.3642,29,24,70,5,,10+,30.05,,,TRUE,TRUE,,,,,,,BKN,5500,BKN,7000,OVC,8000,,,VFR,,,,,,,,,,,,METAR,81
KVDF 160115Z AUTO 09003KT 10SM -DZ SCT039 BKN049 BKN060 28/26 A3009 RMK AO2,KVDF,2025-08-16T01:15:00Z,28.0198,-82.3415,28,26,90,3,,10+,30.09,,,TRUE,TRUE,,,,,,-DZ,SCT,3900,BKN,4900,BKN,6000,,,VFR,,,,,,,,,,,,METAR,5
KVBW 160115Z AUTO 00000KT 10SM CLR 22/20 A3015 RMK AO1 T02230200,KVBW,2025-08-16T01:15:00Z,38.366,-78.968,22.3,20,0,0,,10+,30.15,,,TRUE,TRUE,,,,,,,CLR,,,,,,,,VFR,,,,,,,,,,,,METAR,362
KVAF 160115Z 11012KT 9SM BKN019 BKN023 BKN032 29/26 A3004 RMK A01 WINDS UN-RELIABLE 350 TO 45 DEGREES,KVAF,2025-08-16T01:15:00Z,27.3536,-94.6253,29,26,110,12,,9,30.04,,,,TRUE,,,,,,,BKN,1900,BKN,2300,BKN,3200,,,MVFR,,,,,,,,,,,,METAR,38
KUXL 160115Z AUTO 00000KT 10SM CLR 28/24 A3006 RMK AO2 T02780235,KUXL,2025-08-16T01:15:00Z,30.135,-93.3767,27.8,23.5,0,0,,10+,30.06,,,TRUE,TRUE,,,,,,,CLR,,,,,,,,VFR,,,,,,,,,,,,METAR,2
KUWL 160115Z AUTO 00000KT 10SM CLR 25/22 A3012 RMK A01,KUWL,2025-08-16T01:15:00Z,39.8752,-85.3313,25,22,0,0,,10+,30.12,,,TRUE,TRUE,,,,,,,CLR,,,,,,,,VFR,,,,,,,,,,,,METAR,332
KUVA 160115Z AUTO 13014KT 10SM CLR 33/19 A2998 RMK AO2 T03270191,KUVA,2025-08-16T01:15:00Z,29.2135,-99.743,32.7,19.1,130,14,,10+,29.98,,,TRUE,TRUE,,,,,,,CLR,,,,,,,,VFR,,,,,,,,,,,,METAR,285
KUUV 160115Z AUTO 00000KT 10SM CLR 30/23 A3009 RMK AO2,KUUV,2025-08-16T01:15:00Z,38.2335,-91.1609,30,23,0,0,,10+,30.09,,,TRUE,TRUE,,,,,,,CLR,,,,,,,,VFR,,,,,,,,,,,,METAR,284
KUTA 160115Z AUTO 00000KT 8SM CLR 29/26 A3006 RMK AO2 T02850262 $,KUTA,2025-08-16T01:15:00Z,34.6766,-90.344,28.5,26.2,0,0,,8,30.06,,,TRUE,TRUE,TRUE,,,,,,CLR,,,,,,,,VFR,,,,,,,,,,,,METAR,58
KUSE 160115Z AUTO 00000KT 10SM CLR 23/21 A3011 RMK AO2,KUSE,2025-08-16T01:15:00Z,41.6118,-84.1275,23,21,0,0,,10+,30.11,,,TRUE,TRUE,,,,,,,CLR,,,,,,,,VFR,,,,,,,,,,,,METAR,237
KUNU 160115Z AUTO 00000KT 10SM CLR 25/22 A3008 RMK AO2 T02490215 TSNO,KUNU,2025-08-16T01:15:00Z,43.4285,-88.7017,24.9,21.5,0,0,,10+,30.08,,,TRUE,TRUE,,,TRUE,,,,CLR,,,,,,,,VFR,,,,,,,,,,,,METAR,281
KUNI 160115Z AUTO 00000KT 10SM CLR 23/20 A3013 RMK AO2 T02340199 TSNO,KUNI,2025-08-16T01:15:00Z,39.2129,-82.2204,23.4,19.9,0,0,,10+,30.13,,,TRUE,TRUE,,,TRUE,,,,CLR,,,,,,,,VFR,,,,,,,,,,,,METAR,232
KUMP 160115Z AUTO 15003KT 9SM FEW060 26/24 A3011 RMK AO2 T02650239 $,KUMP,2025-08-16T01:15:00Z,39.936,-86.0478,26.5,23.9,150,3,,9,30.11,,,TRUE,TRUE,TRUE,,,,,,FEW,6000,,,,,,,VFR,,,,,,,,,,,,METAR,247
KULS 160115Z AUTO 15011KT 10SM CLR 34/14 A2996 RMK AO2,KULS,2025-08-16T01:15:00Z,37.6037,-101.377,34,14,150,11,,10+,29.96,,,TRUE,TRUE,,,,,,,CLR,,,,,,,,VFR,,,,,,,,,,,,METAR,934
KUKT 160115Z AUTO 14004KT 10SM CLR 26/21 A3016 RMK AO2,KUKT,2025-08-16T01:15:00Z,40.4368,-75.3802,26,21,140,4,,10+,30.16,,,TRUE,TRUE,,,,,,,CLR,,,,,,,,VFR,,,,,,,,,,,,METAR,156
KUBE 160115Z AUTO 21010KT 10SM SCT090 SCT120 23/22 A3001 RMK AO2 LTG DSNT SE,KUBE,2025-08-16T01:15:00Z,45.5046,-91.978,23,22,210,10,,10+,30.01,,,TRUE,TRUE,,,,,,,SCT,9000,SCT,12000,,,,,VFR,,,,,,,,,,,,METAR,376
KU96 160115Z AUTO 00000KT 9SM CLR 23/13 A3014 RMK AO2 T02280127 $,KU96,2025-08-16T01:15:00Z,37.4395,-110.564,22.8,12.7,0,0,,9,30.14,,,TRUE,TRUE,TRUE,,,,,,CLR,,,,,,,,VFR,,,,,,,,,,,,METAR,1337
KU69 160115Z AUTO 22008KT 10SM FEW065 FEW075 23/06 A3016 RMK A01,KU69,2025-08-16T01:15:00Z,40.198,-110.387,23,6,220,8,,10+,30.16,,,TRUE,TRUE,,,,,,,FEW,6500,FEW,7500,,,,,VFR,,,,,,,,,,,,METAR,1776
KU68 160115Z AUTO 05008KT 10SM CLR 32/02 A2989 RMK AO2,KU68,2025-08-16T01:15:00Z,44.9113,-108.447,32,2,50,8,,10+,29.89,,,TRUE,TRUE,,,,,,,CLR,,,,,,,,VFR,,,,,,,,,,,,METAR,1244
KU64 160115Z AUTO 32010KT 9SM OVC075 19/07 A3033 RMK AO2 T01870072 $,KU64,2025-08-16T01:15:00Z,37.9333,-109.34,18.7,7.2,320,10,,9,30.33,,,TRUE,TRUE,TRUE,,,,,,OVC,7500,,,,,,,VFR,,,,,,,,,,,,METAR,2123
KU55 160115Z AUTO 16009KT 10SM CLR 20/08 A3026 RMK A01,KU55,2025-08-16T01:15:00Z,37.8511,-112.391,20,8,160,9,,10+,30.26,,,TRUE,TRUE,,,,,,,CLR,,,,,,,,VFR,,,,,,,,,,,,METAR,2060
KU52 160115Z AUTO 13015G26KT 8SM -RA BKN100 24/07 A3011 RMK AO2,KU52,2025-08-16T01:15:00Z,38.232,-112.672,24,7,130,15,26,8,30.11,,,TRUE,TRUE,,,,,,-RA,BKN,10000,,,,,,,VFR,,,,,,,,,,,,METAR,1787
KU14 160115Z AUTO 11016G24KT 10SM CLR 28/07 A3004 RMK AO2 PK WND 10028/40,KU14,2025-08-16T01:15:00Z,39.7381,-111.873,28,7,110,16,24,10+,30.04,,,TRUE,TRUE,,,,,,,CLR,,,,,,,,VFR,,,,,,,,,,,,METAR,1531
KTZR 160115Z AUTO 22005KT 10SM CLR 24/23 A3014 RMK AO2 T02390225,KTZR,2025-08-16T01:15:00Z,39.8988,-83.1357,23.9,22.5,220,5,,10+,30.14,,,TRUE,TRUE,,,,,,,CLR,,,,,,,,VFR,,,,,,,,,,,,METAR,275
KTYQ 160115Z AUTO 00000KT 10SM CLR 24/22 A3012 RMK AO2 T02400217,KTYQ,2025-08-16T01:15:00Z,40.0345,-86.2488,24,21.7,0,0,,10+,30.12,,,TRUE,TRUE,,,,,,,CLR,,,,,,,,VFR,,,,,,,,,,,,METAR,279
KTYL 160115Z AUTO 00000KT 10SM BKN120 24/08 A3024 RMK AO2,KTYL,2025-08-16T01:15:00Z,34.4577,-110.112,24,8,0,0,,10+,30.24,,,TRUE,TRUE,,,,,,,BKN,12000,,,,,,,VFR,,,,,,,,,,,,METAR,1748
KTXW 160115Z AUTO 12012KT 10SM CLR 27/24 A2997 RMK AO2 T02730243,KTXW,2025-08-16T01:15:00Z,26.1824,-97.9742,27.3,24.3,120,12,,10+,29.97,,,TRUE,TRUE,,,,,,,CLR,,,,,,,,VFR,,,,,,,,,,,,METAR,21
KTWT 160115Z AUTO 00000KT 10SM A3008 RMK AO2,KTWT,2025-08-16T01:15:00Z,37.5432,-87.9568,,,0,0,,10+,30.08,,,TRUE,TRUE,,,,,,,,,,,,,,,VFR,,,,,,,,,,,,METAR,113
KTWM 160115Z AUTO 00000KT 10SM CLR 22/21 A2999 RMK AO2 PWINO,KTWM,2025-08-16T01:15:00Z,47.0192,-91.7447,22,21,0,0,,10+,29.99,,,TRUE,TRUE,,,,,TRUE,,CLR,,,,,,,,VFR,,,,,,,,,,,,METAR,331
KTVY 160115Z AUTO 20014KT 10SM CLR 34/03 A2995 RMK AO2,KTVY,2025-08-16T01:15:00Z,40.6127,-112.354,34,3,200,14,,10+,29.95,,,TRUE,TRUE,,,,,,,CLR,,,,,,,,VFR,,,,,,,,,,,,METAR,1310
KTVK 160115Z AUTO 00000KT 10SM 27/26 A3007 RMK AO2,KTVK,2025-08-16T01:15:00Z,40.6832,-92.8984,27,26,0,0,,10+,30.07,,,TRUE,TRUE,,,,,,,,,,,,,,,VFR,,,,,,,,,,,,METAR,311
KTVI 160115Z AUTO 00000KT 10SM BKN120 23/22 A3006 RMK AO2,KTVI,2025-08-16T01:15:00Z,30.9026,-83.8826,23,22,0,0,,10+,30.06,,,TRUE,TRUE,,,,,,,BKN,12000,,,,,,,VFR,,,,,,,,,,,,METAR,74
KTTF 160115Z AUTO 10003KT 10SM CLR 23/19 A3011 RMK AO2,KTTF,2025-08-16T01:15:00Z,41.9371,-83.4332,23,19,100,3,,10+,30.11,,,TRUE,TRUE,,,,,,,CLR,,,,,,,,VFR,,,,,,,,,,,,METAR,186
KTTA 160115Z AUTO 13003KT 7SM CLR 24/24 A3010 RMK AO2 T02440244,KTTA,2025-08-16T01:15:00Z,35.5762,-79.1035,24.4,24.4,130,3,,7,30.10,,,TRUE,TRUE,,,,,,,CLR,,,,,,,,VFR,,,,,,,,,,,,METAR,71
KTSP 160115Z AUTO 30015KT 10SM CLR 27/02 A3005 RMK AO2,KTSP,2025-08-16T01:15:00Z,35.1387,-118.442,27,2,300,15,,10+,30.05,,,TRUE,TRUE,,,,,,,CLR,,,,,,,,VFR,,,,,,,,,,,,METAR,1209
KTQV 160115Z AUTO 00000KT 10SM CLR 29/23 A3010 RMK A01,KTQV,2025-08-16T01:15:00Z,36.007,-78.937,29,23,0,0,,10+,30.10,,,TRUE,TRUE,,,,,,,CLR,,,,,,,,VFR,,,,,,,,,,,,METAR,230
KTQK 160115Z AUTO 15011KT 10SM CLR 31/15 A2997 RMK AO2 T03090149,KTQK,2025-08-16T01:15:00Z,38.4782,-100.882,30.9,14.9,150,11,,10+,29.97,,,TRUE,TRUE,,,,,,,CLR,,,,,,,,VFR,,,,,,,,,,,,METAR,906
KTQH 160115Z AUTO 00000KT 10SM 30/21 RMK AO2,KTQH,2025-08-16T01:15:00Z,35.9304,-95.0025,30,21,0,0,,10+,0.00,,,TRUE,TRUE,,,,,,,,,,,,,,,VFR,,,,,,,,,,,,METAR,265
KTOC 160115Z AUTO 32005KT 10SM -RA BKN100 BKN120 22/22 A3016 RMK AO2 T02230219,KTOC,2025-08-16T01:15:00Z,34.588,-83.2974,22.3,21.9,320,5,,10+,30.16,,,TRUE,TRUE,,,,,,-RA,BKN,10000,BKN,12000,,,,,VFR,,,,,,,,,,,,METAR,292
KTOB 160115Z AUTO 11009G14KT 10SM SCT043 BKN050 OVC070 21/17 A3007 RMK AO2 LTG DSNT E,KTOB,2025-08-16T01:15:00Z,44.0202,-92.8295,21,17,110,9,14,10+,30.07,,,TRUE,TRUE,,,,,,,SCT,4300,BKN,5000,OVC,7000,,,VFR,,,,,,,,,,,,METAR,394
KTNU 160115Z AUTO 14010G15KT 10SM FEW110 24/21 A3002 RMK A01,KTNU,2025-08-16T01:15:00Z,41.6701,-93.019,24,21,140,10,15,10+,30.02,,,TRUE,TRUE,,,,,,,FEW,11000,,,,,,,VFR,,,,,,,,,,,,METAR,287
KTNB 160115Z AUTO 00000KT 10SM CLR 20/20 A3028 RMK AO2 T01970197,KTNB,2025-08-16T01:15:00Z,36.1988,-81.6515,19.7,19.7,0,0,,10+,30.28,,,TRUE,TRUE,,,,,,,CLR,,,,,,,,VFR,,,,,,,,,,,,METAR,958
KTMT 160115Z AUTO 36011KT 10SM CLR 27/01 A3006 RMK AO2 T02650005,KTMT,2025-08-16T01:15:00Z,39.4643,-117.197,26.5,0.5,360,11,,10+,30.06,,,TRUE,TRUE,,,,,,,CLR,,,,,,,,VFR,,,,,,,,,,,,METAR,1748
KTMK 160115Z AUTO 20007KT 1 1/2SM -RA BR OVC007 19/19 A2991 RMK AO2,KTMK,2025-08-16T01:15:00Z,45.421,-123.814,19,19,200,7,,1.5,29.91,,,TRUE,TRUE,,,,,,-RA BR,OVC,700,,,,,,,IFR,,,,,,,,,,,,METAR,8
KTME 160115Z AUTO 15011KT 8SM CLR 30/24 A3005 RMK AO2,KTME,2025-08-16T01:15:00Z,29.806,-95.903,30,24,150,11,,8,30.05,,,TRUE,TRUE,,,,,,,CLR,,,,,,,,VFR,,,,,,,,,,,,METAR,49
KTMA 160115Z AUTO 29006KT 10SM FEW210 28/25 A3008 RMK AO2 T02800251,KTMA,2025-08-16T01:15:00Z,31.4229,-83.4859,28,25.1,290,6,,10+,30.08,,,TRUE,TRUE,,,,,,,FEW,21000,,,,,,,VFR,,,,,,,,,,,,METAR,105
KTKX 160115Z AUTO 00000KT 10SM CLR 31/25 A3006 RMK AO2,KTKX,2025-08-16T01:15:00Z,36.2226,-90.0367,31,25,0,0,,10+,30.06,,,TRUE,TRUE,,,,,,,CLR,,,,,,,,VFR,,,,,,,,,,,,METAR,73
KTKV 160115Z 10SM CLR 25/20 A3005 RMK AO2 T02450204 PWINO,KTKV,2025-08-16T01:15:00Z,45.469,-89.805,24.5,20.4,,,,10+,30.05,,,,TRUE,,,,,TRUE,,CLR,,,,,,,,VFR,,,,,,,,,,,,METAR,449
KTKC 160115Z AUTO 00000KT 10SM OVC037 26/26 A2996 RMK AO2,KTKC,2025-08-16T01:15:00Z,44.25,-95.612,26,26,0,0,,10+,29.96,,,TRUE,TRUE,,,,,,,OVC,3700,,,,,,,VFR,,,,,,,,,,,,METAR,408
KTIP 160115Z AUTO 00000KT 10SM CLR 28/24 A3009 RMK AO2 T02780235,KTIP,2025-08-16T01:15:00Z,40.291,-88.146,27.8,23.5,0,0,,10+,30.09,,,TRUE,TRUE,,,,,,,CLR,,,,,,,,VFR,,,,,,,,,,,,METAR,224
KTIF 160115Z AUTO 14007KT 10SM CLR 30/22 A2995 RMK AO2 T03000220,KTIF,2025-08-16T01:15:00Z,41.9646,-100.569,30,22,140,7,,10+,29.95,,,TRUE,TRUE,,,,,,,CLR,,,,,,,,VFR,,,,,,,,,,,,METAR,888
KTHA 160115Z AUTO 19003KT 10SM CLR 24/22 A3013 RMK A01,KTHA,2025-08-16T01:15:00Z,35.3804,-86.2419,24,22,190,3,,10+,30.13,,,TRUE,TRUE,,,,,,,CLR,,,,,,,,VFR,,,,,,,,,,,,METAR,333
KTFP 160115Z AUTO 17010KT 10SM CLR 29/23 A2998 RMK AO1 T02850233,KTFP,2025-08-16T01:15:00Z,27.9132,-97.2132,28.5,23.3,170,10,,10+,29.98,,,TRUE,TRUE,,,,,,,CLR,,,,,,,,VFR,,,,,,,,,,,,METAR,5
KTEX 160115Z AUTO 27003KT 10SM SCT065 SCT080 BKN110 15/10 A3046 RMK AO2,KTEX,2025-08-16T01:15:00Z,37.954,-107.909,15,10,270,3,,10+,30.46,,,TRUE,TRUE,,,,,,,SCT,6500,SCT,8000,BKN,11000,,,VFR,,,,,,,,,,,,METAR,2760
KTEW 160115Z AUTO 00000KT 10SM CLR 23/20 A3011 RMK AO2 T02320195,KTEW,2025-08-16T01:15:00Z,42.5636,-84.4222,23.2,19.5,0,0,,10+,30.11,,,TRUE,TRUE,,,,,,,CLR,,,,,,,,VFR,,,,,,,,,,,,METAR,281
KTDF 160115Z AUTO 00000KT 10SM SCT048 25/24 A3014 RMK AO2,KTDF,2025-08-16T01:15:00Z,36.284,-78.9884,25,24,0,0,,10+,30.14,,,TRUE,TRUE,,,,,,,SCT,4800,,,,,,,VFR,,,,,,,,,,,,METAR,180
KTCY 160115Z AUTO 25018G23KT 10SM CLR 33/07 A2981 RMK A01,KTCY,2025-08-16T01:15:00Z,37.6919,-121.444,33,7,250,18,23,10+,29.81,,,TRUE,TRUE,,,,,,,CLR,,,,,,,,VFR,,,,,,,,,,,,METAR,51
KTBR 160115Z AUTO 16002KT 10SM CLR 26/24 A3005 RMK AO2 LTG DSNT W AND NW,KTBR,2025-08-16T01:15:00Z,32.48,-81.738,26,24,160,2,,10+,30.05,,,TRUE,TRUE,,,,,,,CLR,,,,,,,,VFR,,,,,,,,,,,,METAR,54
KTAH 160115Z AUTO VRB05KT 10SM CLR 32/24 A3007 RMK A01,KTAH,2025-08-16T01:15:00Z,27.3259,-90.7142,32,24,VRB,5,,10+,30.07,,,TRUE,TRUE,,,,,,,CLR,,,,,,,,VFR,,,,,,,,,,,,METAR,65
KT89 160115Z AUTO 03017G24KT 10SM CLR 28/17 A2998 RMK A01,KT89,2025-08-16T01:15:00Z,29.2774,-103.691,28,17,30,17,24,10+,29.98,,,TRUE,TRUE,,,,,,,CLR,,,,,,,,VFR,,,,,,,,,,,,METAR,801
KT82 160115Z AUTO 13007KT 10SM SCT048 SCT050 30/21 A3004 RMK AO2 T03020206,KT82,2025-08-16T01:15:00Z,30.239,-98.904,30.2,20.6,130,7,,10+,30.04,,,TRUE,TRUE,,,,,,,SCT,4800,SCT,5000,,,,,VFR,,,,,,,,,,,,METAR,509
KT78 160115Z AUTO 13010KT 8SM -RA FEW025 SCT036 BKN055 27/23 A3006 RMK AO2,KT78,2025-08-16T01:15:00Z,30.0754,-94.6996,27,23,130,10,,8,30.06,,,TRUE,TRUE,,,,,,-RA,FEW,2500,SCT,3600,BKN,5500,,,VFR,,,,,,,,,,,,METAR,21
KT74 160115Z AUTO 14005KT 10SM CLR 30/21 A3008 RMK AO2,KT74,2025-08-16T01:15:00Z,30.5704,-97.4447,30,21,140,5,,10+,30.08,,,TRUE,TRUE,,,,,,,CLR,,,,,,,,VFR,,,,,,,,,,,,METAR,169
KT69 160115Z AUTO 10SM FEW023 28/25 A2998 RMK A01,KT69,2025-08-16T01:15:00Z,28.0418,-97.541,28,25,,,,10+,29.98,,,TRUE,TRUE,,,,,,,FEW,2300,,,,,,,VFR,,,,,,,,,,,,METAR,15
KT35 160115Z AUTO 13008KT 10SM CLR 31/24 A3003 RMK AO2 T03100235 PWINO,KT35,2025-08-16T01:15:00Z,30.8789,-96.9704,31,23.5,130,8,,10+,30.03,,,TRUE,TRUE,,,,,TRUE,,CLR,,,,,,,,VFR,,,,,,,,,,,,METAR,122
KT20 160115Z AUTO 12009G15KT 10SM CLR 31/23 A3001 RMK AO2 T03050234,KT20,2025-08-16T01:15:00Z,29.5301,-97.463,30.5,23.4,120,9,15,10+,30.01,,,TRUE,TRUE,,,,,,,CLR,,,,,,,,VFR,,,,,,,,,,,,METAR,107
KSZT 160115Z AUTO 00000KT 10SM OVC060 22/11 A2991 RMK AO2,KSZT,2025-08-16T01:15:00Z,48.2945,-116.567,22,11,0,0,,10+,29.91,,,TRUE,TRUE,,,,,,,OVC,6000,,,,,,,VFR,,,,,,,,,,,,METAR,649
KSYN 160115Z AUTO 13008KT 10SM BKN090 22/20 A3003 RMK AO2 LTG DSNT N AND SE T02150195,KSYN,2025-08-16T01:15:00Z,44.474,-93.014,21.5,19.5,130,8,,10+,30.03,,,TRUE,TRUE,,,,,,,BKN,9000,,,,,,,VFR,,,,,,,,,,,,METAR,280
KSYM 160115Z AUTO 00000KT 10SM CLR 27/20 A3014 RMK AO2,KSYM,2025-08-16T01:15:00Z,38.2199,-83.5835,27,20,0,0,,10+,30.14,,,TRUE,TRUE,,,,,,,CLR,,,,,,,,VFR,,,,,,,,,,,,METAR,307
KSYI 160115Z AUTO 17003KT 10SM CLR 26/23 A3011 RMK A01,KSYI,2025-08-16T01:15:00Z,35.5594,-86.4406,26,23,170,3,,10+,30.11,,,TRUE,TRUE,,,,,,,CLR,,,,,,,,VFR,,,,,,,,,,,,METAR,244
KSYF 160115Z AUTO 15016G21KT 10SM CLR 32/13 A2992 RMK AO2 PK WND 17034/15,KSYF,2025-08-16T01:15:00Z,39.7583,-101.793,32,13,150,16,21,10+,29.92,,,TRUE,TRUE,,,,,,,CLR,,,,,,,,VFR,,,,,,,,,,,,METAR,1041
KSXU 160115Z AUTO 24010KT 10SM SCT110 28/12 A3012 RMK AO2,KSXU,2025-08-16T01:15:00Z,34.9355,-104.637,28,12,240,10,,10+,30.12,,,TRUE,TRUE,,,,,,,SCT,11000,,,,,,,VFR,,,,,,,,,,,,METAR,1465
KSXK 160115Z AUTO 14006KT 10SM CLR 27/26 A2991 RMK AO2,KSXK,2025-08-16T01:15:00Z,42.9895,-96.1645,27,26,140,6,,10+,29.91,,,TRUE,TRUE,,,,,,,CLR,,,,,,,,VFR,,,,,,,,,,,,METAR,430
KSWW 160115Z AUTO 14010G15KT 10SM 33/13 A3006 RMK AO2 T03310134,KSWW,2025-08-16T01:15:00Z,32.4688,-100.467,33.1,13.4,140,10,15,10+,30.06,,,TRUE,TRUE,,,,,,,,,,,,,,,VFR,,,,,,,,,,,,METAR,718
KSVR 160115Z AUTO 10003KT 10SM CLR 31/02 A2999 RMK AO2,KSVR,2025-08-16T01:15:00Z,40.6196,-111.99,31,2,100,3,,10+,29.99,,,TRUE,TRUE,,,,,,,CLR,,,,,,,,VFR,,,,,,,,,,,,METAR,1399
KSVH 160115Z AUTO 00000KT 10SM CLR 27/24 A3014 RMK AO2 T02670240,KSVH,2025-08-16T01:15:00Z,35.7635,-80.9473,26.7,24,0,0,,10+,30.14,,,TRUE,TRUE,,,,,,,CLR,,,,,,,,VFR,,,,,,,,,,,,METAR,286
KSVE 160115Z AUTO 30012G18KT 10SM CLR 31/05 A2997 RMK A01 P000,KSVE,2025-08-16T01:15:00Z,40.376,-120.574,31,5,300,12,18,10+,29.97,,,TRUE,TRUE,,,,,,,CLR,,,,,,,,VFR,,,,,,,,,,,,METAR,1263
KSVC 160115Z AUTO 30005KT 10SM CLR 25/11 A3020 RMK AO2 T02470108,KSVC,2025-08-16T01:15:00Z,32.631,-108.147,24.7,10.8,300,5,,10+,30.20,,,TRUE,TRUE,,,,,,,CLR,,,,,,,,VFR,,,,,,,,,,,,METAR,1638
KSUZ 160115Z AUTO 20004KT 9SM CLR 28/23 A3006 RMK A01,KSUZ,2025-08-16T01:15:00Z,34.5862,-92.4802,28,23,200,4,,9,30.06,,,TRUE,TRUE,,,,,,,CLR,,,,,,,,VFR,,,,,,,,,,,,METAR,114
KSUW 160115Z AUTO 32004KT 10SM CLR 24/22 A2998 RMK AO2 T02390221,KSUW,2025-08-16T01:15:00Z,46.6833,-92.0926,23.9,22.1,320,4,,10+,29.98,,,TRUE,TRUE,,,,,,,CLR,,,,,,,,VFR,,,,,,,,,,,,METAR,205
KSUT 160115Z AUTO 22001KT 10SM CLR 27/26 A3006 RMK AO2,KSUT,2025-08-16T01:15:00Z,33.9292,-78.0722,27,26,220,1,,10+,30.06,,,TRUE,TRUE,,,,,,,CLR,,,,,,,,VFR,,,,,,,,,,,,METAR,6
KSTF 160115Z AUTO 17004KT 10SM CLR 26/25 A3009 RMK AO2,KSTF,2025-08-16T01:15:00Z,33.4326,-88.8506,26,25,170,4,,10+,30.09,,,TRUE,TRUE,,,,,,,CLR,,,,,,,,VFR,,,,,,,,,,,,METAR,99
KSTE 160115Z AUTO 19006KT 10SM BKN075 28/22 A3007 RMK AO2 LTG DSNT W T02790216,KSTE,2025-08-16T01:15:00Z,44.5437,-89.5347,27.9,21.6,190,6,,10+,30.07,,,TRUE,TRUE,,,,,,,BKN,7500,,,,,,,VFR,,,,,,,,,,,,METAR,335
KSSI 160115Z AUTO 00000KT 10SM CLR 29/28 A3005 RMK AO2,KSSI,2025-08-16T01:15:00Z,31.1527,-81.3905,29,28,0,0,,10+,30.05,,,TRUE,TRUE,,,,,,,CLR,,,,,,,,VFR,,,,,,,,,,,,METAR,6
KSRR 160115Z AUTO 23009KT 6SM -RA FEW070 16/14 A3035 RMK AO2 P0001,KSRR,2025-08-16T01:15:00Z,33.4667,-105.528,16,14,230,9,,6,30.35,,,TRUE,TRUE,,,,,,-RA,FEW,7000,,,,,,,VFR,,,,,,0.01,,,,,,METAR,2063
KSRE 160115Z AUTO 15005KT 10SM CLR 31/20 A3001 RMK AO2,KSRE,2025-08-16T01:15:00Z,35.271,-96.675,31,20,150,5,,10+,30.01,,,TRUE,TRUE,,,,,,,CLR,,,,,,,,VFR,,,,,,,,,,,,METAR,306
KSRB 160115Z AUTO 00000KT 10SM CLR 25/25 A3013 RMK A01,KSRB,2025-08-16T01:15:00Z,36.0529,-85.536,25,25,0,0,,10+,30.13,,,TRUE,TRUE,,,,,,,CLR,,,,,,,,VFR,,,,,,,,,,,,METAR,303
KSPK 160115Z AUTO 11013G20KT 10SM CLR 29/07 A2999 RMK AO2,KSPK,2025-08-16T01:15:00Z,40.1497,-111.677,29,7,110,13,20,10+,29.99,,,TRUE,TRUE,,,,,,,CLR,,,,,,,,VFR,,,,,,,,,,,,METAR,1381
KSPF 160115Z AUTO 15010G24KT 8SM -TSRA FEW005 SCT031 BKN060 21/17 A3007 RMK AO2 LTG DSNT ALQDS,KSPF,2025-08-16T01:15:00Z,44.4811,-103.788,21,17,150,10,24,8,30.07,,,TRUE,TRUE,,,,,,-TSRA,FEW,500,SCT,3100,BKN,6000,,,VFR,,,,,,,,,,,,METAR,1191
KSPA 160115Z AUTO 13005KT 10SM BKN043 23/22 A3013 RMK AO2,KSPA,2025-08-16T01:15:00Z,34.9106,-81.9589,23,22,130,5,,10+,30.13,,,TRUE,TRUE,,,,,,,BKN,4300,,,,,,,VFR,,,,,,,,,,,,METAR,242
KSOW 160115Z AUTO 25003KT 10SM CLR 23/07 A3029 RMK AO2,KSOW,2025-08-16T01:15:00Z,34.2686,-110.002,23,7,250,3,,10+,30.29,,,TRUE,TRUE,,,,,,,CLR,,,,,,,,VFR,,,,,,,,,,,,METAR,1954
KSOA 160115Z AUTO 13005KT 10SM CLR 32/16 A3007 RMK AO2,KSOA,2025-08-16T01:15:00Z,30.5853,-100.651,32,16,130,5,,10+,30.07,,,TRUE,TRUE,,,,,,,CLR,,,,,,,,VFR,,,,,,,,,,,,METAR,654
KSNL 160115Z AUTO 17007KT 10SM CLR 33/19 A3001 RMK AO2 T03260185,KSNL,2025-08-16T01:15:00Z,35.3611,-96.9445,32.6,18.5,170,7,,10+,30.01,,,TRUE,TRUE,,,,,,,CLR,,,,,,,,VFR,,,,,,,,,,,,METAR,327
KSNK 160115Z AUTO 14009KT 10SM CLR 33/15 A3004 RMK AO2 T03310147,KSNK,2025-08-16T01:15:00Z,32.6917,-100.951,33.1,14.7,140,9,,10+,30.04,,,TRUE,TRUE,,,,,,,CLR,,,,,,,,VFR,,,,,,,,,,,,METAR,738
KSNC 160115Z AUTO 00000KT 10SM CLR 22/21 A3020 RMK AO2,KSNC,2025-08-16T01:15:00Z,41.383,-72.506,22,21,0,0,,10+,30.20,,,TRUE,TRUE,,,,,,,CLR,,,,,,,,VFR,,,,,,,,,,,,METAR,114
KSMS 160115Z AUTO 00000KT 10SM -DZ CLR 27/26 A3006 RMK AO2,KSMS,2025-08-16T01:15:00Z,34.0003,-80.3582,27,26,0,0,,10+,30.06,,,TRUE,TRUE,,,,,,-DZ,CLR,,,,,,,,VFR,,,,,,,,,,,,METAR,53
KSME 160115Z AUTO 35004KT 10SM BKN065 BKN070 BKN090 27/23 A3010 RMK AO2,KSME,2025-08-16T01:15:00Z,37.0529,-84.6141,27,23,350,4,,10+,30.10,,,TRUE,TRUE,,,,,,,BKN,6500,BKN,7000,BKN,9000,,,VFR,,,,,,,,,,,,METAR,279
KSMD 160115Z AUTO 00000KT 10SM CLR 28/20 A3012 RMK A01,KSMD,2025-08-16T01:15:00Z,41.144,-85.1492,28,20,0,0,,10+,30.12,,,TRUE,TRUE,,,,,,,CLR,,,,,,,,VFR,,,,,,,,,,,,METAR,252
KSLR 160115Z AUTO 14003KT 10SM CLR 33/20 A3005 RMK AO2 T03270201 PWINO,KSLR,2025-08-16T01:15:00Z,33.1615,-95.6189,32.7,20.1,140,3,,10+,30.05,,,TRUE,TRUE,,,,,TRUE,,CLR,,,,,,,,VFR,,,,,,,,,,,,METAR,144
KSLO 160115Z AUTO 13003KT 10SM CLR 30/23 A3007 RMK AO2 T02970230,KSLO,2025-08-16T01:15:00Z,38.6446,-88.9612,29.7,23,130,3,,10+,30.07,,,TRUE,TRUE,,,,,,,CLR,,,,,,,,VFR,,,,,,,,,,,,METAR,173
KSLH 160115Z AUTO 15003KT 10SM CLR 23/19 A3005 RMK AO2,KSLH,2025-08-16T01:15:00Z,45.6523,-84.5202,23,19,150,3,,10+,30.05,,,TRUE,TRUE,,,,,,,CLR,,,,,,,,VFR,,,,,,,,,,,,METAR,193
KSLB 160115Z AUTO 18009KT 10SM CLR 27/26 A2997 RMK AO2,KSLB,2025-08-16T01:15:00Z,42.5972,-95.2399,27,26,180,9,,10+,29.97,,,TRUE,TRUE,,,,,,,CLR,,,,,,,,VFR,,,,,,,,,,,,METAR,450
KSJX 160115Z AUTO 24009KT 10SM BKN085 23/19 A3006 RMK AO2,KSJX,2025-08-16T01:15:00Z,45.6928,-85.5662,23,19,240,9,,10+,30.06,,,TRUE,TRUE,,,,,,,BKN,8500,,,,,,,VFR,,,,,,,,,,,,METAR,202
KSJS 160115Z AUTO 00000KT 10SM CLR 25/20 A3015 RMK AO2 T02450201,KSJS,2025-08-16T01:15:00Z,37.7489,-82.6413,24.5,20.1,0,0,,10+,30.15,,,TRUE,TRUE,,,,,,,CLR,,,,,,,,VFR,,,,,,,,,,,,METAR,359
KSIK 160115Z AUTO 00000KT CLR 29/24 A3005 RMK AO2 T02930238 PWINO $,KSIK,2025-08-16T01:15:00Z,36.9027,-89.5577,29.3,23.8,0,0,,,30.05,,,TRUE,TRUE,TRUE,,,,TRUE,,CLR,,,,,,,,,,,,,,,,,,,,METAR,95
KSIF 160115Z AUTO 00000KT 5SM BR CLR 25/24 A3012 RMK AO2 T02450239,KSIF,2025-08-16T01:15:00Z,36.4408,-79.8544,24.5,23.9,0,0,,5,30.12,,,TRUE,TRUE,,,,,,BR,CLR,,,,,,,,MVFR,,,,,,,,,,,,METAR,206
KSHL 160115Z AUTO 17006KT 10SM CLR 27/25 A2993 RMK AO2,KSHL,2025-08-16T01:15:00Z,43.2082,-95.8354,27,25,170,6,,10+,29.93,,,TRUE,TRUE,,,,,,,CLR,,,,,,,,VFR,,,,,,,,,,,,METAR,430
KSHD 160115Z AUTO 00000KT 10SM CLR 23/20 A3018 RMK AO2 T02250195,KSHD,2025-08-16T01:15:00Z,38.2601,-78.9013,22.5,19.5,0,0,,10+,30.18,,,TRUE,TRUE,,,,,,,CLR,,,,,,,,VFR,,,,,,,,,,,,METAR,360
KSGS 160115Z AUTO 16006KT 10SM VCTS BKN034 OVC042 21/21 A3003 RMK AO2 LTG DSNT N AND NE T02050205,KSGS,2025-08-16T01:15:00Z,44.8601,-93.0321,20.5,20.5,160,6,,10+,30.03,,,TRUE,TRUE,,,,,,VCTS,BKN,3400,OVC,4200,,,,,VFR,,,,,,,,,,,,METAR,250
KSFQ 160115Z AUTO 00000KT 25/23 A3010 RMK AO2 T02480231 PWINO TSNO,KSFQ,2025-08-16T01:15:00Z,36.6825,-76.6013,24.8,23.1,0,0,,,30.10,,,TRUE,TRUE,,,TRUE,,TRUE,,,,,,,,,,,,,,,,,,,,,,METAR,19
KSEZ 160115Z AUTO 05018G25KT 10SM VCTS CLR 23/11 A3014 RMK AO2 LTG DSNT E,KSEZ,2025-08-16T01:15:00Z,34.8467,-111.788,23,11,50,18,25,10+,30.14,,,TRUE,TRUE,,,,,,VCTS,CLR,,,,,,,,VFR,,,,,,,,,,,,METAR,1455
KSEP 160115Z AUTO 13008KT 10SM CLR 31/20 A3006 RMK AO2 T03120199,KSEP,2025-08-16T01:15:00Z,32.215,-98.1793,31.2,19.9,130,8,,10+,30.06,,,TRUE,TRUE,,,,,,,CLR,,,,,,,,VFR,,,,,,,,,,,,METAR,399
KSEM 160115Z AUTO 27003KT 9SM FEW032 SCT042 OVC070 24/24 A3012 RMK AO2 LTG DSNT SW,KSEM,2025-08-16T01:15:00Z,32.3367,-86.9836,24,24,270,3,,9,30.12,,,TRUE,TRUE,,,,,,,FEW,3200,SCT,4200,OVC,7000,,,VFR,,,,,,,,,,,,METAR,48
KSEF 160115Z AUTO 36006KT 10SM BKN046 28/26 A3008 RMK AO2 T02830255,KSEF,2025-08-16T01:15:00Z,27.4553,-81.3415,28.3,25.5,360,6,,10+,30.08,,,TRUE,TRUE,,,,,,,BKN,4600,,,,,,,VFR,,,,,,,,,,,,METAR,17
KSDC 160115Z AUTO 00000KT 10SM CLR 20/13 A3015 RMK AO2,KSDC,2025-08-16T01:15:00Z,43.2355,-77.1201,20,13,0,0,,10+,30.15,,,TRUE,TRUE,,,,,,,CLR,,,,,,,,VFR,,,,,,,,,,,,METAR,127
KSDA 160115Z AUTO 15006KT 10SM CLR 29/25 A2996 RMK AO2,KSDA,2025-08-16T01:15:00Z,40.7533,-95.4112,29,25,150,6,,10+,29.96,,,TRUE,TRUE,,,,,,,CLR,,,,,,,,VFR,,,,,,,,,,,,METAR,293
KSCX 160115Z AUTO 00000KT 10SM CLR 24/24 A3013 RMK A01,KSCX,2025-08-16T01:15:00Z,36.4553,-84.584,24,24,0,0,,10+,30.13,,,TRUE,TRUE,,,,,,,CLR,,,,,,,,VFR,,,,,,,,,,,,METAR,462
KSCR 160115Z AUTO 00000KT 10SM CLR 24/24 A3011 RMK AO2 T02410235,KSCR,2025-08-16T01:15:00Z,35.7058,-79.5051,24.1,23.5,0,0,,10+,30.11,,,TRUE,TRUE,,,,,,,CLR,,,,,,,,VFR,,,,,,,,,,,,METAR,182
KSCD 160115Z AUTO 00000KT 23/22 A3015 RMK AO2 T02250221 PWINO,KSCD,2025-08-16T01:15:00Z,33.1732,-86.2933,22.5,22.1,0,0,,,30.15,,,TRUE,TRUE,,,,,TRUE,,,,,,,,,,,,,,,,,,,,,,METAR,164
KSBX 160115Z AUTO 32006G12KT 10SM CLR 27/06 A2992 RMK AO2,KSBX,2025-08-16T01:15:00Z,48.541,-111.871,27,6,320,6,12,10+,29.92,,,TRUE,TRUE,,,,,,,CLR,,,,,,,,VFR,,,,,,,,,,,,METAR,1049
KSBS 160115Z AUTO 08019G32KT 1 1/2SM SCT030 SCT048 OVC100 15/14 A3024 RMK AO1 VIS 1V3 T01480138,KSBS,2025-08-16T01:15:00Z,40.5153,-106.868,14.8,13.8,80,19,32,1.5,30.24,,,TRUE,TRUE,,,,,,,SCT,3000,SCT,4800,OVC,10000,,,IFR,,,,,,,,,,,,METAR,2097
KSAZ 160115Z AUTO 00000KT 10SM CLR 27/21 A2999 RMK AO2,KSAZ,2025-08-16T01:15:00Z,46.3785,-94.8017,27,21,0,0,,10+,29.99,,,TRUE,TRUE,,,,,,,CLR,,,,,,,,VFR,,,,,,,,,,,,METAR,391
KSAR 160115Z AUTO 15003KT 10SM CLR 32/22 A3008 RMK AO2 T03150220,KSAR,2025-08-16T01:15:00Z,38.1463,-89.7025,31.5,22,150,3,,10+,30.08,,,TRUE,TRUE,,,,,,,CLR,,,,,,,,VFR,,,,,,,,,,,,METAR,162
KSAA 160115Z AUTO 14009G21KT 10SM OVC090 19/09 A3026 RMK AO2,KSAA,2025-08-16T01:15:00Z,41.447,-106.815,19,9,140,9,21,10+,30.26,,,TRUE,TRUE,,,,,,,OVC,9000,,,,,,,VFR,,,,,,,,,,,,METAR,2093
KS52 160115Z AUTO 13013G17KT 10SM CLR 24/14 A2980 RMK AO2 T02440136,KS52,2025-08-16T01:15:00Z,48.4282,-120.15,24.4,13.6,130,13,17,10+,29.80,,,TRUE,TRUE,,,,,,,CLR,,,,,,,,VFR,,,,,,,,,,,,METAR,517
KS39 160115Z AUTO 29014KT 10SM BKN065 BKN120 24/11 A2998 RMK AO2,KS39,2025-08-16T01:15:00Z,44.2858,-120.901,24,11,290,14,,10+,29.98,,,TRUE,TRUE,,,,,,,BKN,6500,BKN,12000,,,,,VFR,,,,,,,,,,,,METAR,987
KS34 160115Z AUTO 31013KT 10SM CLR 28/10 A2987 RMK AO2,KS34,2025-08-16T01:15:00Z,47.4718,-114.901,28,10,310,13,,10+,29.87,,,TRUE,TRUE,,,,,,,CLR,,,,,,,,VFR,,,,,,,,,,,,METAR,750
KS33 160115Z AUTO 24013G16KT 10SM BKN075 23/11 A2997 RMK AO2,KS33,2025-08-16T01:15:00Z,44.6653,-121.157,23,11,240,13,16,10+,29.97,,,TRUE,TRUE,,,,,,,BKN,7500,,,,,,,VFR,,,,,,,,,,,,METAR,739
KS31 160115Z AUTO VRB06KT 4SM -RA BR BKN003 OVC008 17/17 A2975 RMK AO2 P0003 T01740171,KS31,2025-08-16T01:15:00Z,48.4854,-122.937,17.4,17.1,VRB,6,,4,29.75,,,TRUE,TRUE,,,,,,-RA BR,BKN,300,OVC,800,,,,,LIFR,,,,,,0.03,,,,,,METAR,64
KS25 160115Z AUTO 09008KT 10SM CLR 23/15 A2998 RMK AO2,KS25,2025-08-16T01:15:00Z,47.7954,-103.257,23,15,90,8,,10+,29.98,,,TRUE,TRUE,,,,,,,CLR,,,,,,,,VFR,,,,,,,,,,,,METAR,632
KS24 160115Z AUTO VRB03KT 10SM SCT055 25/21 A3011 RMK AO2,KS24,2025-08-16T01:15:00Z,41.296,-83.037,25,21,VRB,3,,10+,30.11,,,TRUE,TRUE,,,,,,,SCT,5500,,,,,,,VFR,,,,,,,,,,,,METAR,203
KS21 160115Z AUTO 29009G15KT 10SM CLR 22/11 A3008 RMK AO2,KS21,2025-08-16T01:15:00Z,43.8801,-121.454,22,11,290,9,15,10+,30.08,,,TRUE,TRUE,,,,,,,CLR,,,,,,,,VFR,,,,,,,,,,,,METAR,1269
KS12 160115Z AUTO 21006KT 10SM FEW031 BKN038 OVC075 23/17 A2992 RMK AO2,KS12,2025-08-16T01:15:00Z,44.6394,-123.058,23,17,210,6,,10+,29.92,,,TRUE,TRUE,,,,,,,FEW,3100,BKN,3800,OVC,7500,,,VFR,,,,,,,,,,,,METAR,69
KRZT 160115Z AUTO 00000KT 10SM CLR 23/23 A3013 RMK AO2 PWINO,KRZT,2025-08-16T01:15:00Z,39.4402,-83.0209,23,23,0,0,,10+,30.13,,,TRUE,TRUE,,,,,TRUE,,CLR,,,,,,,,VFR,,,,,,,,,,,,METAR,217
KRZR 160115Z AUTO 00000KT 10SM CLR 24/24 A3010 RMK A01,KRZR,2025-08-16T01:15:00Z,35.207,-84.8005,24,24,0,0,,10+,30.10,,,TRUE,TRUE,,,,,,,CLR,,,,,,,,VFR,,,,,,,,,,,,METAR,259
KRZN 160115Z AUTO 00000KT 10SM CLR 24/22 A3000 RMK AO2 T02440224,KRZN,2025-08-16T01:15:00Z,45.8229,-92.3706,24.4,22.4,0,0,,10+,30.00,,,TRUE,TRUE,,,,,,,CLR,,,,,,,,VFR,,,,,,,,,,,,METAR,301
KRZL 160115Z AUTO 00000KT 10SM CLR 25/23 A3011 RMK AO2,KRZL,2025-08-16T01:15:00Z,40.9488,-87.1851,25,23,0,0,,10+,30.11,,,TRUE,TRUE,,,,,,,CLR,,,,,,,,VFR,,,,,,,,,,,,METAR,210
KRYW 160115Z AUTO 14003KT 10SM CLR 28/22 A3009 RMK AO2 T02830217,KRYW,2025-08-16T01:15:00Z,30.498,-97.969,28.3,21.7,140,3,,10+,30.09,,,TRUE,TRUE,,,,,,,CLR,,,,,,,,VFR,,,,,,,,,,,,METAR,370
KRWV 160115Z AUTO 13008KT 10SM SCT039 BKN049 BKN060 A3004 RMK AO2 PWINO,KRWV,2025-08-16T01:15:00Z,30.5161,-96.7051,,,130,8,,10+,30.04,,,TRUE,TRUE,,,,,TRUE,,SCT,3900,BKN,4900,BKN,6000,,,VFR,,,,,,,,,,,,METAR,116
KRVL 160115Z AUTO 00000KT 10SM CLR 25/20 A3014 RMK AO2,KRVL,2025-08-16T01:15:00Z,40.6768,-77.6251,25,20,0,0,,10+,30.14,,,TRUE,TRUE,,,,,,,CLR,,,,,,,,VFR,,,,,,,,,,,,METAR,250
KRVJ 160115Z AUTO 10006KT 10SM CLR 28/23 A3006 RMK AO2 LTG DSNT NW T02780235,KRVJ,2025-08-16T01:15:00Z,32.059,-82.153,27.8,23.5,100,6,,10+,30.06,,,TRUE,TRUE,,,,,,,CLR,,,,,,,,VFR,,,,,,,,,,,,METAR,60
KRVF 160115Z AUTO 00000KT 10SM CLR 30/01 A2991 RMK AO2,KRVF,2025-08-16T01:15:00Z,45.534,-112.303,30,1,0,0,,10+,29.91,,,TRUE,TRUE,,,,,,,CLR,,,,,,,,VFR,,,,,,,,,,,,METAR,1445
KRUQ 160115Z AUTO 00000KT 10SM CLR 24/23 A3012 RMK AO2 T02420228,KRUQ,2025-08-16T01:15:00Z,35.6441,-80.5236,24.2,22.8,0,0,,10+,30.12,,,TRUE,TRUE,,,,,,,CLR,,,,,,,,VFR,,,,,,,,,,,,METAR,231
KRUG 160115Z AUTO 00000KT 10SM BKN110 20/13 A3002 RMK AO2,KRUG,2025-08-16T01:15:00Z,48.389,-100.025,20,13,0,0,,10+,30.02,,,TRUE,TRUE,,,,,,,BKN,11000,,,,,,,VFR,,,,,,,,,,,,METAR,469
KRTS 160115Z AUTO 29016G21KT 10SM CLR 28/02 A3002 RMK AO2,KRTS,2025-08-16T01:15:00Z,39.6658,-119.873,28,2,290,16,21,10+,30.02,,,TRUE,TRUE,,,,,,,CLR,,,,,,,,VFR,,,,,,,,,,,,METAR,1537
KRSN 160115Z AUTO 18005KT 10SM CLR 27/24 A3008 RMK AO2 T02680235,KRSN,2025-08-16T01:15:00Z,32.5159,-92.5899,26.8,23.5,180,5,,10+,30.08,,,TRUE,TRUE,,,,,,,CLR,,,,,,,,VFR,,,,,,,,,,,,METAR,86
KRRT 160115Z AUTO 29005KT 10SM CLR 19/12 A3002 RMK AO2,KRRT,2025-08-16T01:15:00Z,48.9318,-95.3405,19,12,290,5,,10+,30.02,,,TRUE,TRUE,,,,,,,CLR,,,,,,,,VFR,,,,,,,,,,,,METAR,327
KRRL 160115Z AUTO 00000KT 10SM CLR 26/22 A3004 RMK AO2 T02570218 TSNO,KRRL,2025-08-16T01:15:00Z,45.1985,-89.71,25.7,21.8,0,0,,10+,30.04,,,TRUE,TRUE,,,TRUE,,,,CLR,,,,,,,,VFR,,,,,,,,,,,,METAR,397
KRQO 160115Z AUTO 17010KT 10SM CLR 31/20 A3001 RMK AO2,KRQO,2025-08-16T01:15:00Z,35.4709,-98.0061,31,20,170,10,,10+,30.01,,,TRUE,TRUE,,,,,,,CLR,,,,,,,,VFR,,,,,,,,,,,,METAR,431
KRQB 160115Z AUTO 25003KT 10SM CLR 24/17 A3010 RMK AO2 T02370172,KRQB,2025-08-16T01:15:00Z,43.722,-85.498,23.7,17.2,250,3,,10+,30.10,,,TRUE,TRUE,,,,,,,CLR,,,,,,,,VFR,,,,,,,,,,,,METAR,282
KRPJ 160115Z AUTO 18004KT 10SM CLR 24/22 A3009 RMK AO2 T02370221,KRPJ,2025-08-16T01:15:00Z,41.8906,-89.0817,23.7,22.1,180,4,,10+,30.09,,,TRUE,TRUE,,,,,,,CLR,,,,,,,,VFR,,,,,,,,,,,,METAR,234
KRPH 160115Z AUTO VRB04KT 10SM CLR 32/19 A2998 RMK AO2 T03210187,KRPH,2025-08-16T01:15:00Z,33.1096,-98.5537,32.1,18.7,VRB,4,,10+,29.98,,,TRUE,TRUE,,,,,,,CLR,,,,,,,,VFR,,,,,,,,,,,,METAR,341
KRPD 160115Z AUTO 18009KT 10SM CLR 24/20 A3003 RMK AO2 LTG DSNT SE T02370196,KRPD,2025-08-16T01:15:00Z,45.4186,-91.7764,23.7,19.6,180,9,,10+,30.03,,,TRUE,TRUE,,,,,,,CLR,,,,,,,,VFR,,,,,,,,,,,,METAR,334
KROX 160115Z AUTO 30004KT 10SM CLR 18/12 A3002 RMK AO2,KROX,2025-08-16T01:15:00Z,48.856,-95.6949,18,12,300,4,,10+,30.02,,,TRUE,TRUE,,,,,,,CLR,,,,,,,,VFR,,,,,,,,,,,,METAR,320
KROS 160115Z AUTO 17005KT 10SM SCT021 24/22 A2999 RMK AO2 LTG DSNT SE,KROS,2025-08-16T01:15:00Z,45.6962,-92.9543,24,22,170,5,,10+,29.99,,,TRUE,TRUE,,,,,,,SCT,2100,,,,,,,VFR,,,,,,,,,,,,METAR,282
KRNV 160115Z AUTO 24003KT 10SM CLR 30/27 A3006 RMK AO2 LTG DSNT SE T02980268 $,KRNV,2025-08-16T01:15:00Z,33.762,-90.759,29.8,26.8,240,3,,10+,30.06,,,TRUE,TRUE,TRUE,,,,,,CLR,,,,,,,,VFR,,,,,,,,,,,,METAR,42
KRNP 160115Z AUTO 00000KT 10SM CLR 23/19 A3010 RMK AO2 T02310190,KRNP,2025-08-16T01:15:00Z,42.9937,-84.1347,23.1,19,0,0,,10+,30.10,,,TRUE,TRUE,,,,,,,CLR,,,,,,,,VFR,,,,,,,,,,,,METAR,224
KRNC 160115Z AUTO 24005KT 4SM BR FEW003 SCT028 BKN037 25/23 A3013 RMK A01,KRNC,2025-08-16T01:15:00Z,35.6991,-85.8402,25,23,240,5,,4,30.13,,,TRUE,TRUE,,,,,,BR,FEW,300,SCT,2800,BKN,3700,,,MVFR,,,,,,,,,,,,METAR,310
KRMY 160115Z AUTO 00000KT 10SM CLR 23/19 A3011 RMK AO2 T02250193,KRMY,2025-08-16T01:15:00Z,42.2524,-84.9526,22.5,19.3,0,0,,10+,30.11,,,TRUE,TRUE,,,,,,,CLR,,,,,,,,VFR,,,,,,,,,,,,METAR,285
KRMN 160115Z AUTO 00000KT 10SM CLR 26/22 A3011 RMK AO2 T02560218 PWINO TSNO,KRMN,2025-08-16T01:15:00Z,38.3941,-77.4523,25.6,21.8,0,0,,10+,30.11,,,TRUE,TRUE,,,TRUE,,TRUE,,CLR,,,,,,,,VFR,,,,,,,,,,,,METAR,50
KRLD 160115Z AUTO 23008KT 10SM SCT120 30/14 A2980 RMK AO2 T03000140,KRLD,2025-08-16T01:15:00Z,46.3086,-119.306,30,14,230,8,,10+,29.80,,,TRUE,TRUE,,,,,,,SCT,12000,,,,,,,VFR,,,,,,,,,,,,METAR,118
KRKW 160115Z AUTO 25003KT 10SM CLR 24/24 A3015 RMK A01,KRKW,2025-08-16T01:15:00Z,35.922,-84.689,24,24,250,3,,10+,30.15,,,TRUE,TRUE,,,,,,,CLR,,,,,,,,VFR,,,,,,,,,,,,METAR,505
KRKR 160115Z AUTO 14005KT 10SM CLR 30/25 A3003 RMK AO2,KRKR,2025-08-16T01:15:00Z,35.0187,-94.6202,30,25,140,5,,10+,30.03,,,TRUE,TRUE,,,,,,,CLR,,,,,,,,VFR,,,,,,,,,,,,METAR,136
KRID 160115Z AUTO 00000KT 10SM CLR 23/21 A3014 RMK AO2,KRID,2025-08-16T01:15:00Z,39.7579,-84.8359,23,21,0,0,,10+,30.14,,,TRUE,TRUE,,,,,,,CLR,,,,,,,,VFR,,,,,,,,,,,,METAR,346
KRGK 160115Z AUTO 00000KT 10SM BKN110 20/18 A3002 RMK AO2 LTG DSNT SE S AND NW,KRGK,2025-08-16T01:15:00Z,44.5927,-92.4844,20,18,0,0,,10+,30.02,,,TRUE,TRUE,,,,,,,BKN,11000,,,,,,,VFR,,,,,,,,,,,,METAR,238
KRGA 160115Z AUTO 00000KT 10SM SCT085 26/23 A3014 RMK AO2,KRGA,2025-08-16T01:15:00Z,37.6305,-84.329,26,23,0,0,,10+,30.14,,,TRUE,TRUE,,,,,,,SCT,8500,,,,,,,VFR,,,,,,,,,,,,METAR,301
KRFI 160115Z AUTO 00000KT 10SM CLR 33/22 A3006 RMK AO2 T03250216,KRFI,2025-08-16T01:15:00Z,32.1441,-94.8539,32.5,21.6,0,0,,10+,30.06,,,TRUE,TRUE,,,,,,,CLR,,,,,,,,VFR,,,,,,,,,,,,METAR,133
KREG 160115Z AUTO 00000KT 10SM SCT005 BKN009 25/24 A3006 RMK AO2 T02490243,KREG,2025-08-16T01:15:00Z,30.1756,-90.9397,24.9,24.3,0,0,,10+,30.06,,,TRUE,TRUE,,,,,,,SCT,500,BKN,900,,,,,IFR,,,,,,,,,,,,METAR,3
KRCX 160115Z AUTO 00000KT 10SM BKN033 BKN039 BKN065 24/23 A3004 RMK AO2 LTG DSNT S T02430230,KRCX,2025-08-16T01:15:00Z,45.4935,-90.9985,24.3,23,0,0,,10+,30.04,,,TRUE,TRUE,,,,,,,BKN,3300,BKN,3900,BKN,6500,,,VFR,,,,,,,,,,,,METAR,373
KRCV 160115Z AUTO 00000KT 10SM -RA SCT080 OVC090 22/07 A3033 RMK AO2 T02150067,KRCV,2025-08-16T01:15:00Z,37.7092,-106.355,21.5,6.7,0,0,,10+,30.33,,,TRUE,TRUE,,,,,,-RA,SCT,8000,OVC,9000,,,,,VFR,,,,,,,,,,,,METAR,2418
KRCR 160115Z AUTO 15005KT 10SM CLR 28/25 A3009 RMK AO2,KRCR,2025-08-16T01:15:00Z,41.0651,-86.1864,28,25,150,5,,10+,30.09,,,TRUE,TRUE,,,,,,,CLR,,,,,,,,VFR,,,,,,,,,,,,METAR,240
KRCE 160115Z AUTO 16009KT 10SM CLR 31/21 A3000 RMK AO2,KRCE,2025-08-16T01:15:00Z,35.4971,-97.8255,31,21,160,9,,10+,30.00,,,TRUE,TRUE,,,,,,,CLR,,,,,,,,VFR,,,,,,,,,,,,METAR,412
KRBW 160115Z AUTO 00000KT 10SM CLR 25/25 A3007 RMK AO2,KRBW,2025-08-16T01:15:00Z,32.921,-80.64,25,25,0,0,,10+,30.07,,,TRUE,TRUE,,,,,,,CLR,,,,,,,,VFR,,,,,,,,,,,,METAR,30
KRBO 160115Z AUTO 15011G16KT 10SM SCT025 BKN042 OVC050 28/24 A2998 RMK AO2 T02820235,KRBO,2025-08-16T01:15:00Z,27.7781,-97.6878,28.2,23.5,150,11,16,10+,29.98,,,TRUE,TRUE,,,,,,,SCT,2500,BKN,4200,OVC,5000,,,VFR,,,,,,,,,,,,METAR,24
KRAW 160115Z AUTO 00000KT 10SM CLR 29/23 A3005 RMK AO2 T02910233,KRAW,2025-08-16T01:15:00Z,38.3484,-93.3436,29.1,23.3,0,0,,10+,30.05,,,TRUE,TRUE,,,,,,,CLR,,,,,,,,VFR,,,,,,,,,,,,METAR,285
KRAS 160115Z AUTO 13011KT 10SM CLR A3001 RMK AO2,KRAS,2025-08-16T01:15:00Z,27.8083,-97.0853,,,130,11,,10+,30.01,,,TRUE,TRUE,,,,,,,CLR,,,,,,,,VFR,,,,,,,,,,,,METAR,3
KPZZ 160115Z AUTO 10013KT 10SM CLR 30/24 A3006 RMK A01,KPZZ,2025-08-16T01:15:00Z,28.4344,-91.0344,30,24,100,13,,10+,30.06,,,TRUE,TRUE,,,,,,,CLR,,,,,,,,VFR,,,,,,,,,,,,METAR,25
KPZQ 160115Z AUTO 30003KT 10SM CLR 24/18 A3008 RMK AO2 T02370182,KPZQ,2025-08-16T01:15:00Z,45.4085,-83.812,23.7,18.2,300,3,,10+,30.08,,,TRUE,TRUE,,,,,,,CLR,,,,,,,,VFR,,,,,,,,,,,,METAR,199
KPYX 160115Z AUTO 17018G22KT 10SM 34/15 A3002 RMK AO2 T03350154,KPYX,2025-08-16T01:15:00Z,36.4103,-100.751,33.5,15.4,170,18,22,10+,30.02,,,TRUE,TRUE,,,,,,,,,,,,,,,VFR,,,,,,,,,,,,METAR,890
KPWD 160115Z AUTO 09011G16KT 10SM CLR 21/10 A2998 RMK AO2,KPWD,2025-08-16T01:15:00Z,48.7912,-104.525,21,10,90,11,16,10+,29.98,,,TRUE,TRUE,,,,,,,CLR,,,,,,,,VFR,,,,,,,,,,,,METAR,690
KPWC 160115Z AUTO 01003KT 10SM SCT042 24/18 A3004 RMK AO2,KPWC,2025-08-16T01:15:00Z,46.7266,-94.3849,24,18,10,3,,10+,30.04,,,TRUE,TRUE,,,,,,,SCT,4200,,,,,,,VFR,,,,,,,,,,,,METAR,394
KPVW 160115Z AUTO 16007KT 10SM 29/14 A3008 RMK AO2 T02920138,KPVW,2025-08-16T01:15:00Z,34.169,-101.723,29.2,13.8,160,7,,10+,30.08,,,TRUE,TRUE,,,,,,,,,,,,,,,VFR,,,,,,,,,,,,METAR,1029
KPVJ 160115Z AUTO 00000KT 10SM CLR 30/20 A3004 RMK AO2 T03000200,KPVJ,2025-08-16T01:15:00Z,34.7041,-97.2211,30,20,0,0,,10+,30.04,,,TRUE,TRUE,,,,,,,CLR,,,,,,,,VFR,,,,,,,,,,,,METAR,287
KPVF 160115Z AUTO 00000KT 10SM CLR 30/06 A2997 RMK AO1,KPVF,2025-08-16T01:15:00Z,38.7222,-120.757,30,6,0,0,,10+,29.97,,,TRUE,TRUE,,,,,,,CLR,,,,,,,,VFR,,,,,,,,,,,,METAR,788
KPVB 160115Z AUTO 29009KT 10SM SCT039 SCT050 SCT090 26/24 A3008 RMK AO1 T02560244,KPVB,2025-08-16T01:15:00Z,42.6909,-90.4413,25.6,24.4,290,9,,10+,30.08,,,TRUE,TRUE,,,,,,,SCT,3900,SCT,5000,SCT,9000,,,VFR,,,,,,,,,,,,METAR,311
KPUJ 160115Z AUTO 00000KT 10SM CLR 24/22 A3015 RMK AO2,KPUJ,2025-08-16T01:15:00Z,33.9085,-84.9369,24,22,0,0,,10+,30.15,,,TRUE,TRUE,,,,,,,CLR,,,,,,,,VFR,,,,,,,,,,,,METAR,385
KPTT 160115Z AUTO 16009KT 10SM CLR 34/19 A2997 RMK AO2 T03350190,KPTT,2025-08-16T01:15:00Z,37.7069,-98.7453,33.5,19,160,9,,10+,29.97,,,TRUE,TRUE,,,,,,,CLR,,,,,,,,VFR,,,,,,,,,,,,METAR,594
KPTS 160115Z AUTO 20003KT 10SM CLR 29/24 A3001 RMK AO2,KPTS,2025-08-16T01:15:00Z,37.4512,-94.7322,29,24,200,3,,10+,30.01,,,TRUE,TRUE,,,,,,,CLR,,,,,,,,VFR,,,,,,,,,,,,METAR,286
KPTN 160115Z AUTO 11003KT 10SM FEW002 24/24 A3008 RMK AO2 $,KPTN,2025-08-16T01:15:00Z,29.71,-91.3381,24,24,110,3,,10+,30.08,,,TRUE,TRUE,TRUE,,,,,,FEW,200,,,,,,,VFR,,,,,,,,,,,,SPECI,2
KPTD 160115Z AUTO 00000KT 10SM FEW060 20/14 A3017 RMK AO2 PNO,KPTD,2025-08-16T01:15:00Z,44.6757,-74.9469,20,14,0,0,,10+,30.17,,,TRUE,TRUE,,,,,,,FEW,6000,,,,,,,VFR,,,,,,,,,,,,METAR,144
KPSO 160115Z AUTO VRB04KT 10SM SCT050 SCT065 OVC080 17/10 A3039 RMK AO2 PK WND 17031/25,KPSO,2025-08-16T01:15:00Z,37.291,-107.056,17,10,VRB,4,,10+,30.39,,,TRUE,TRUE,,,,,,,SCT,5000,SCT,6500,OVC,8000,,,VFR,,,,,,,,,,,,METAR,2332
KPSN 160115Z AUTO 9SM 31/24 A3003 RMK AO2,KPSN,2025-08-16T01:15:00Z,31.7784,-95.7048,31,24,,,,9,30.03,,,TRUE,TRUE,,,,,,,,,,,,,,,VFR,,,,,,,,,,,,METAR,124
KPSK 160115Z AUTO 22003KT 10SM BKN048 BKN060 BKN070 24/20 A3021 RMK AO2 T02440196,KPSK,2025-08-16T01:15:00Z,37.1337,-80.6789,24.4,19.6,220,3,,10+,30.21,,,TRUE,TRUE,,,,,,,BKN,4800,BKN,6000,BKN,7000,,,VFR,,,,,,,,,,,,METAR,629
KPRS 160115Z AUTO 02014G21KT 10SM CLR 30/18 A3003 RMK AO2 LTG DSNT W T02970176,KPRS,2025-08-16T01:15:00Z,29.6346,-104.358,29.7,17.6,20,14,21,10+,30.03,,,TRUE,TRUE,,,,,,,CLR,,,,,,,,VFR,,,,,,,,,,,,METAR,890
KPRO 160115Z AUTO 17006KT 9SM CLR 28/26 A2998 RMK AO2 T02770256,KPRO,2025-08-16T01:15:00Z,41.8278,-94.1637,27.7,25.6,170,6,,9,29.98,,,TRUE,TRUE,,,,,,,CLR,,,,,,,,VFR,,,,,,,,,,,,METAR,308
KPRG 160115Z AUTO 19003KT 10SM CLR 25/25 A3010 RMK AO2 T02520246,KPRG,2025-08-16T01:15:00Z,39.6982,-87.6669,25.2,24.6,190,3,,10+,30.10,,,TRUE,TRUE,,,,,,,CLR,,,,,,,,VFR,,,,,,,,,,,,METAR,197
KPPQ 160115Z AUTO 00000KT 10SM CLR 29/28 A3007 RMK AO2 T02860278,KPPQ,2025-08-16T01:15:00Z,39.6391,-90.7818,28.6,27.8,0,0,,10+,30.07,,,TRUE,TRUE,,,,,,,CLR,,,,,,,,VFR,,,,,,,,,,,,METAR,215
KPPO 160115Z AUTO 23002KT 10SM CLR 24/24 A3009 RMK AO2,KPPO,2025-08-16T01:15:00Z,41.5705,-86.7333,24,24,230,2,,10+,30.09,,,TRUE,TRUE,,,,,,,CLR,,,,,,,,VFR,,,,,,,,,,,,METAR,242
KPOY 160115Z AUTO 14006KT 10SM CLR 30/M01 A2997 RMK AO2,KPOY,2025-08-16T01:15:00Z,44.8641,-108.79,30,-1,140,6,,10+,29.97,,,TRUE,TRUE,,,,,,,CLR,,,,,,,,VFR,,,,,,,,,,,,METAR,1547
KPOV 160115Z AUTO 02003KT 7SM CLR 20/19 A3016 RMK AO2 T02030187 PWINO,KPOV,2025-08-16T01:15:00Z,41.209,-81.2479,20.3,18.7,20,3,,7,30.16,,,TRUE,TRUE,,,,,TRUE,,CLR,,,,,,,,VFR,,,,,,,,,,,,METAR,363
KPNT 160115Z AUTO 00000KT 10SM CLR 26/25 A3009 RMK AO2 T02600249,KPNT,2025-08-16T01:15:00Z,40.9233,-88.6213,26,24.9,0,0,,10+,30.09,,,TRUE,TRUE,,,,,,,CLR,,,,,,,,VFR,,,,,,,,,,,,METAR,199
KPNM 160115Z AUTO 15007KT 10SM SCT016 26/23 A3000 RMK AO2,KPNM,2025-08-16T01:15:00Z,45.556,-93.608,26,23,150,7,,10+,30.00,,,TRUE,TRUE,,,,,,,SCT,1600,,,,,,,VFR,,,,,,,,,,,,METAR,298
KPNA 160115Z AUTO 24006KT 10SM CLR 22/03 A3024 RMK AO2,KPNA,2025-08-16T01:15:00Z,42.7929,-109.805,22,3,240,6,,10+,30.24,,,TRUE,TRUE,,,,,,,CLR,,,,,,,,VFR,,,,,,,,,,,,METAR,2158
KPMV 160115Z AUTO 15009KT 10SM CLR 29/25 A2996 RMK AO2 T02910247,KPMV,2025-08-16T01:15:00Z,40.9446,-95.9124,29.1,24.7,150,9,,10+,29.96,,,TRUE,TRUE,,,,,,,CLR,,,,,,,,VFR,,,,,,,,,,,,METAR,365
KPMU 160115Z AUTO 00000KT 10SM CLR 28/23 A3007 RMK AO2,KPMU,2025-08-16T01:15:00Z,34.3656,-89.8904,28,23,0,0,,10+,30.07,,,TRUE,TRUE,,,,,,,CLR,,,,,,,,VFR,,,,,,,,,,,,METAR,67
KPLR 160115Z AUTO 00000KT 10SM FEW009 FEW046 24/24 A3014 RMK A01,KPLR,2025-08-16T01:15:00Z,33.5608,-86.2463,24,24,0,0,,10+,30.14,,,TRUE,TRUE,,,,,,,FEW,900,FEW,4600,,,,,VFR,,,,,,,,,,,,METAR,145
KPLD 160115Z AUTO 00000KT 7SM CLR 26/18 A3012 RMK AO2 T02550179,KPLD,2025-08-16T01:15:00Z,40.4532,-84.9848,25.5,17.9,0,0,,7,30.12,,,TRUE,TRUE,,,,,,,CLR,,,,,,,,VFR,,,,,,,,,,,,METAR,282
KPKV 160115Z AUTO 15008KT 10SM CLR 30/24 A3002 RMK AO2 T02960240,KPKV,2025-08-16T01:15:00Z,28.6499,-96.6799,29.6,24,150,8,,10+,30.02,,,TRUE,TRUE,,,,,,,CLR,,,,,,,,VFR,,,,,,,,,,,,METAR,8
KPJC 160115Z AUTO 00000KT 10SM CLR 20/17 A3012 RMK AO2,KPJC,2025-08-16T01:15:00Z,40.8009,-80.1624,20,17,0,0,,10+,30.12,,,TRUE,TRUE,,,,,,,CLR,,,,,,,,VFR,,,,,,,,,,,,METAR,273
KPIM 160115Z AUTO VRB02KT 10SM CLR 25/25 A3013 RMK AO2,KPIM,2025-08-16T01:15:00Z,32.8421,-84.8766,25,25,VRB,2,,10+,30.13,,,TRUE,TRUE,,,,,,,CLR,,,,,,,,VFR,,,,,,,,,,,,METAR,274
KPHT 160115Z AUTO 00000KT 10SM CLR 27/23 A3007 RMK A01,KPHT,2025-08-16T01:15:00Z,36.3322,-88.3871,27,23,0,0,,10+,30.07,,,TRUE,TRUE,,,,,,,CLR,,,,,,,,VFR,,,,,,,,,,,,METAR,172
KPHN 160115Z AUTO 00000KT 10SM CLR 20/18 A3012 RMK AO2,KPHN,2025-08-16T01:15:00Z,42.9103,-82.5332,20,18,0,0,,10+,30.12,,,TRUE,TRUE,,,,,,,CLR,,,,,,,,VFR,,,,,,,,,,,,METAR,195
KPHG 160115Z AUTO 15009KT 10SM CLR 32/20 A2991 RMK AO2,KPHG,2025-08-16T01:15:00Z,39.7343,-99.3179,32,20,150,9,,10+,29.91,,,TRUE,TRUE,,,,,,,CLR,,,,,,,,VFR,,,,,,,,,,,,METAR,579
KPGV 160115Z AUTO 01003KT 10SM CLR 25/25 A3008 RMK AO2,KPGV,2025-08-16T01:15:00Z,35.6374,-77.3851,25,25,10,3,,10+,30.08,,,TRUE,TRUE,,,,,,,CLR,,,,,,,,VFR,,,,,,,,,,,,METAR,6
KPEZ 160115Z AUTO 14009G21KT 10SM CLR 31/20 A2999 RMK AO2 T03110204,KPEZ,2025-08-16T01:15:00Z,28.9561,-98.5184,31.1,20.4,140,9,21,10+,29.99,,,TRUE,TRUE,,,,,,,CLR,,,,,,,,VFR,,,,,,,,,,,,METAR,126
KPEX 160115Z AUTO 00000KT 10SM SCT033 23/22 A2999 RMK AO2,KPEX,2025-08-16T01:15:00Z,45.3725,-94.7388,23,22,0,0,,10+,29.99,,,TRUE,TRUE,,,,,,,SCT,3300,,,,,,,VFR,,,,,,,,,,,,METAR,359
KPEQ 160115Z AUTO 17013G17KT 10SM CLR 32/15 A3000 RMK AO2 T03150146 PWINO,KPEQ,2025-08-16T01:15:00Z,31.382,-103.512,31.5,14.6,170,13,17,10+,30.00,,,TRUE,TRUE,,,,,TRUE,,CLR,,,,,,,,VFR,,,,,,,,,,,,METAR,794
KPEA 160115Z AUTO 10008KT 10SM SCT046 BKN060 BKN065 24/20 A3006 RMK AO2 T02350198,KPEA,2025-08-16T01:15:00Z,41.3989,-92.9431,23.5,19.8,100,8,,10+,30.06,,,TRUE,TRUE,,,,,,,SCT,4600,BKN,6000,BKN,6500,,,VFR,,,,,,,,,,,,METAR,264
KPDC 160115Z AUTO 00000KT 10SM -RA SCT090 SCT120 23/21 A3004 RMK AO2 P0001 T02260207,KPDC,2025-08-16T01:15:00Z,43.0194,-91.1212,22.6,20.7,0,0,,10+,30.04,,,TRUE,TRUE,,,,,,-RA,SCT,9000,SCT,12000,,,,,VFR,,,,,,0.01,,,,,,METAR,201
KPCZ 160115Z AUTO 00000KT 10SM SCT080 27/21 A3009 RMK AO2 T02690210,KPCZ,2025-08-16T01:15:00Z,44.3342,-89.0203,26.9,21,0,0,,10+,30.09,,,TRUE,TRUE,,,,,,,SCT,8000,,,,,,,VFR,,,,,,,,,,,,METAR,248
KPCW 160115Z AUTO 10005KT 10SM FEW055 25/21 A3011 RMK AO2,KPCW,2025-08-16T01:15:00Z,41.5188,-82.8692,25,21,100,5,,10+,30.11,,,TRUE,TRUE,,,,,,,FEW,5500,,,,,,,VFR,,,,,,,,,,,,METAR,179
KPCM 160115Z AUTO 08003KT 10SM SCT100 SCT120 28/26 A3010 RMK AO2,KPCM,2025-08-16T01:15:00Z,28.0013,-82.1593,28,26,80,3,,10+,30.10,,,TRUE,TRUE,,,,,,,SCT,10000,SCT,12000,,,,,VFR,,,,,,,,,,,,METAR,43
KPCD 160115Z AUTO 14005KT 10SM CLR 30/24 A3005 RMK AO2 T02950239 TSNO,KPCD,2025-08-16T01:15:00Z,37.8749,-89.8582,29.5,23.9,140,5,,10+,30.05,,,TRUE,TRUE,,,TRUE,,,,CLR,,,,,,,,VFR,,,,,,,,,,,,METAR,112
KPBX 160115Z AUTO 04004KT 10SM CLR 27/19 A3016 RMK AO2 T02710187,KPBX,2025-08-16T01:15:00Z,37.5587,-82.5674,27.1,18.7,40,4,,10+,30.16,,,TRUE,TRUE,,,,,,,CLR,,,,,,,,VFR,,,,,,,,,,,,METAR,447
KPBM 160115Z AUTO VRB04G10KT 10SM CLR 29/27 A3007 RMK A01,KPBM,2025-08-16T01:15:00Z,-99.99,-99.99,29,27,VRB,4,10,10+,30.07,,,TRUE,TRUE,,,,,,,CLR,,,,,,,,VFR,,,,,,,,,,,,METAR,9999
KPBH 160115Z AUTO 00000KT 10SM CLR 24/23 A3003 RMK AO2 LTG DSNT S T02390229,KPBH,2025-08-16T01:15:00Z,45.7064,-90.4052,23.9,22.9,0,0,,10+,30.03,,,TRUE,TRUE,,,,,,,CLR,,,,,,,,VFR,,,,,,,,,,,,METAR,445
KPAN 160115Z AUTO 05008KT 10SM CLR 26/12 A3018 RMK AO2 LTG DSNT N,KPAN,2025-08-16T01:15:00Z,34.2551,-111.338,26,12,50,8,,10+,30.18,,,TRUE,TRUE,,,,,,,CLR,,,,,,,,VFR,,,,,,,,,,,,METAR,1575
KP52 160115Z AUTO 22008KT 10SM CLR 31/13 A3001 RMK AO2 LTG DSNT NE AND E,KP52,2025-08-16T01:15:00Z,34.7263,-112.034,31,13,220,8,,10+,30.01,,,TRUE,TRUE,,,,,,,CLR,,,,,,,,VFR,,,,,,,,,,,,METAR,1085
KP08 160115Z AUTO 20005KT 10SM CLR 33/17 A2987 RMK AO2,KP08,2025-08-16T01:15:00Z,32.9359,-111.427,33,17,200,5,,10+,29.87,,,TRUE,TRUE,,,,,,,CLR,,,,,,,,VFR,,,,,,,,,,,,METAR,477
KOZW 160115Z AUTO 14005KT 10SM CLR 25/18 A3011 RMK AO2,KOZW,2025-08-16T01:15:00Z,42.6327,-83.9854,25,18,140,5,,10+,30.11,,,TRUE,TRUE,,,,,,,CLR,,,,,,,,VFR,,,,,,,,,,,,METAR,288
KOZS 160115Z AUTO 00000KT 10SM CLR 31/18 A3006 RMK AO2,KOZS,2025-08-16T01:15:00Z,37.9745,-92.6897,31,18,0,0,,10+,30.06,,,TRUE,TRUE,,,,,,,CLR,,,,,,,,VFR,,,,,,,,,,,,METAR,321
KOZA 160115Z AUTO 15009KT 10SM SCT085 32/12 A3005 RMK AO2,KOZA,2025-08-16T01:15:00Z,30.7312,-101.203,32,12,150,9,,10+,30.05,,,TRUE,TRUE,,,,,,,SCT,8500,,,,,,,VFR,,,,,,,,,,,,METAR,721
KOYM 160115Z AUTO 00000KT 10SM OVC095 23/13 A3022 RMK AO2 PWINO,KOYM,2025-08-16T01:15:00Z,41.4118,-78.5131,23,13,0,0,,10+,30.22,,,TRUE,TRUE,,,,,TRUE,,OVC,9500,,,,,,,VFR,,,,,,,,,,,,METAR,582
KOXV 160115Z AUTO 08011G19KT 10SM BKN048 BKN055 26/21 A3005 RMK AO2,KOXV,2025-08-16T01:15:00Z,41.2984,-93.1114,26,21,80,11,19,10+,30.05,,,TRUE,TRUE,,,,,,,BKN,4800,BKN,5500,,,,,VFR,,,,,,,,,,,,METAR,280
KOXI 160115Z AUTO 00000KT 10SM CLR 25/21 A3008 RMK AO1 PNO,KOXI,2025-08-16T01:15:00Z,41.3275,-86.665,25,21,0,0,,10+,30.08,,,TRUE,TRUE,,,,,,,CLR,,,,,,,,VFR,,,,,,,,,,,,METAR,208
KOXD 160115Z AUTO 00000KT 10SM CLR 26/21 A3013 RMK AO2 T02610208,KOXD,2025-08-16T01:15:00Z,39.5047,-84.7838,26.1,20.8,0,0,,10+,30.13,,,TRUE,TRUE,,,,,,,CLR,,,,,,,,VFR,,,,,,,,,,,,METAR,317
KOWX 160115Z AUTO 12002KT 10SM CLR 23/23 A3013 RMK AO2,KOWX,2025-08-16T01:15:00Z,41.0341,-83.9862,23,23,120,2,,10+,30.13,,,TRUE,TRUE,,,,,,,CLR,,,,,,,,VFR,,,,,,,,,,,,METAR,232
KOWP 160115Z AUTO 17004KT 5SM CLR 33/20 A3003 RMK AO2 T03260195,KOWP,2025-08-16T01:15:00Z,36.1721,-96.1536,32.6,19.5,170,4,,5,30.03,,,TRUE,TRUE,,,,,,,CLR,,,,,,,,MVFR,,,,,,,,,,,,METAR,267
KOWA 160115Z AUTO 13009KT 9SM OVC037 24/21 A3002 RMK AO2 LTG DSNT E T02390209 $,KOWA,2025-08-16T01:15:00Z,44.1191,-93.2569,23.9,20.9,130,9,,9,30.02,,,TRUE,TRUE,TRUE,,,,,,OVC,3700,,,,,,,VFR,,,,,,,,,,,,METAR,345
KOVL 160115Z AUTO 12003KT 10SM CLR 27/23 A2997 RMK AO2,KOVL,2025-08-16T01:15:00Z,44.7792,-95.0304,27,23,120,3,,10+,29.97,,,TRUE,TRUE,,,,,,,CLR,,,,,,,,VFR,,,,,,,,,,,,METAR,329
KOSC 160115Z AUTO 16005KT 10SM CLR 25/18 A3009 RMK AO2,KOSC,2025-08-16T01:15:00Z,44.453,-83.396,25,18,160,5,,10+,30.09,,,TRUE,TRUE,,,,,,,CLR,,,,,,,,VFR,,,,,,,,,,,,METAR,191
KOSA 160115Z AUTO 15003KT 7SM CLR 31/24 A3003 RMK AO2 T03120237,KOSA,2025-08-16T01:15:00Z,33.0936,-94.9601,31.2,23.7,150,3,,7,30.03,,,TRUE,TRUE,,,,,,,CLR,,,,,,,,VFR,,,,,,,,,,,,METAR,108
KORS 160115Z AUTO 18008KT 3SM -RA BR OVC011 18/18 A2975 RMK AO2,KORS,2025-08-16T01:15:00Z,48.7081,-122.909,18,18,180,8,,3,29.75,,,TRUE,TRUE,,,,,,-RA BR,OVC,1100,,,,,,,MVFR,,,,,,,,,,,,METAR,7
KORK 160115Z AUTO 21008G13KT 10SM CLR 30/22 A3005 RMK AO2,KORK,2025-08-16T01:15:00Z,34.833,-92.2557,30,22,210,8,13,10+,30.05,,,TRUE,TRUE,,,,,,,CLR,,,,,,,,VFR,,,,,,,,,,,,METAR,166
KORG 160115Z AUTO 15006KT 10SM SCT019 SCT030 SCT034 29/26 A3007 RMK AO2 T02930256 PWINO,KORG,2025-08-16T01:15:00Z,30.068,-93.8043,29.3,25.6,150,6,,10+,30.07,,,TRUE,TRUE,,,,,TRUE,,SCT,1900,SCT,3000,SCT,3400,,,VFR,,,,,,,,,,,,METAR,2
KOQN 160115Z AUTO 14005KT 10SM SCT085 SCT110 26/22 A3016 RMK AO2,KOQN,2025-08-16T01:15:00Z,39.9889,-75.5803,26,22,140,5,,10+,30.16,,,TRUE,TRUE,,,,,,,SCT,8500,SCT,11000,,,,,VFR,,,,,,,,,,,,METAR,141
KOPN 160115Z AUTO 35005KT 10SM OVC003 26/23 A3013 RMK AO2,KOPN,2025-08-16T01:15:00Z,32.954,-84.2595,26,23,350,5,,10+,30.13,,,TRUE,TRUE,,,,,,,OVC,300,,,,,,,LIFR,,,,,,,,,,,,METAR,241
KOPL 160115Z AUTO 00000KT 10SM SCT003 24/23 A3004 RMK AO2 P0001 T02380232,KOPL,2025-08-16T01:15:00Z,30.5643,-92.1021,23.8,23.2,0,0,,10+,30.04,,,TRUE,TRUE,,,,,,,SCT,300,,,,,,,VFR,,,,,,0.01,,,,,,METAR,22
KOOA 160115Z AUTO 08008KT 5SM CLR 24/20 A3009 RMK AO2 T02350203,KOOA,2025-08-16T01:15:00Z,41.2273,-92.4919,23.5,20.3,80,8,,5,30.09,,,TRUE,TRUE,,,,,,,CLR,,,,,,,,MVFR,,,,,,,,,,,,METAR,256
KONZ 160115Z AUTO 14003KT 10SM CLR 24/20 A3011 RMK AO2,KONZ,2025-08-16T01:15:00Z,42.0991,-83.161,24,20,140,3,,10+,30.11,,,TRUE,TRUE,,,,,,,CLR,,,,,,,,VFR,,,,,,,,,,,,METAR,179
KONX 160115Z AUTO 05007KT 10SM BKN012 OVC018 26/24 A3008 RMK AO2 T02610238,KONX,2025-08-16T01:15:00Z,36.399,-76.014,26.1,23.8,50,7,,10+,30.08,,,TRUE,TRUE,,,,,,,BKN,1200,OVC,1800,,,,,MVFR,,,,,,,,,,,,METAR,4
KONP 160115Z AUTO 19014G23KT 1 3/4SM -RA OVC003 17/17 A2996 RMK AO2 P0001,KONP,2025-08-16T01:15:00Z,44.5825,-124.057,17,17,190,14,23,1.75,29.96,,,TRUE,TRUE,,,,,,-RA,OVC,300,,,,,,,LIFR,,,,,,0.01,,,,,,METAR,43
KONM 160115Z AUTO 19006KT 10SM OVC100 26/12 A3016 RMK AO2 T02570117,KONM,2025-08-16T01:15:00Z,34.0263,-106.904,25.7,11.7,190,6,,10+,30.16,,,TRUE,TRUE,,,,,,,OVC,10000,,,,,,,VFR,,,,,,,,,,,,METAR,1467
KONL 160115Z AUTO 15008KT 10SM CLR 28/25 A2993 RMK AO2 T02810248,KONL,2025-08-16T01:15:00Z,42.4691,-98.6903,28.1,24.8,150,8,,10+,29.93,,,TRUE,TRUE,,,,,,,CLR,,,,,,,,VFR,,,,,,,,,,,,METAR,619
KONA 160115Z AUTO 10003KT 10SM OVC090 20/18 A3005 RMK AO2 TSNO,KONA,2025-08-16T01:15:00Z,44.076,-91.707,20,18,100,3,,10+,30.05,,,TRUE,TRUE,,,TRUE,,,,OVC,9000,,,,,,,VFR,,,,,,,,,,,,METAR,200
KOMH 160115Z AUTO 00000KT 10SM SCT070 SCT080 OVC110 23/23 A3012 RMK AO2,KOMH,2025-08-16T01:15:00Z,38.2487,-78.0454,23,23,0,0,,10+,30.12,,,TRUE,TRUE,,,,,,,SCT,7000,SCT,8000,OVC,11000,,,VFR,,,,,,,,,,,,METAR,136
KOLZ 160115Z AUTO 13007KT 10SM CLR 20/19 A3003 RMK A01,KOLZ,2025-08-16T01:15:00Z,42.6831,-91.976,20,19,130,7,,10+,30.03,,,TRUE,TRUE,,,,,,,CLR,,,,,,,,VFR,,,,,,,,,,,,METAR,328
KOLG 160115Z AUTO 00000KT 10SM CLR 25/21 A2999 RMK AO1,KOLG,2025-08-16T01:15:00Z,46.3153,-91.8183,25,21,0,0,,10+,29.99,,,TRUE,TRUE,,,,,,,CLR,,,,,,,,VFR,,,,,,,,,,,,METAR,334
KOLE 160115Z AUTO 00000KT 10SM BKN065 22/14 A3021 RMK AO2,KOLE,2025-08-16T01:15:00Z,42.2429,-78.3721,22,14,0,0,,10+,30.21,,,TRUE,TRUE,,,,,,,BKN,6500,,,,,,,VFR,,,,,,,,,,,,METAR,651
KOKV 160115Z AUTO 12003KT 10SM CLR 25/21 A3012 RMK AO2,KOKV,2025-08-16T01:15:00Z,39.1406,-78.1391,25,21,120,3,,10+,30.12,,,TRUE,TRUE,,,,,,,CLR,,,,,,,,VFR,,,,,,,,,,,,METAR,213
KOKM 160115Z AUTO 12005KT 10SM CLR 31/23 A3001 RMK AO2 T03060231,KOKM,2025-08-16T01:15:00Z,35.6713,-95.9514,30.6,23.1,120,5,,10+,30.01,,,TRUE,TRUE,,,,,,,CLR,,,,,,,,VFR,,,,,,,,,,,,METAR,215
KOIN 160115Z AUTO 17013G18KT 10SM CLR 34/15 A2991 RMK AO2,KOIN,2025-08-16T01:15:00Z,39.8298,-100.538,34,15,170,13,18,10+,29.91,,,TRUE,TRUE,,,,,,,CLR,,,,,,,,VFR,,,,,,,,,,,,METAR,810
KOIC 160115Z AUTO 28002KT 9SM CLR 20/13 A3019 RMK AO2,KOIC,2025-08-16T01:15:00Z,42.5642,-75.5269,20,13,280,2,,9,30.19,,,TRUE,TRUE,,,,,,,CLR,,,,,,,,VFR,,,,,,,,,,,,METAR,311
KOGS 160115Z AUTO 00000KT 10SM CLR 16/13 A3013 RMK AO2,KOGS,2025-08-16T01:15:00Z,44.68,-75.4641,16,13,0,0,,10+,30.13,,,TRUE,TRUE,,,,,,,CLR,,,,,,,,VFR,,,,,,,,,,,,METAR,88
KOGA 160115Z AUTO 10005KT 10SM CLR 33/20 A2991 RMK AO2 T03290203,KOGA,2025-08-16T01:15:00Z,41.1164,-101.768,32.9,20.3,100,5,,10+,29.91,,,TRUE,TRUE,,,,,,,CLR,,,,,,,,VFR,,,,,,,,,,,,METAR,991
KOEO 160115Z AUTO 20004KT 10SM CLR 22/20 A3003 RMK AO2 T02200198 PWINO,KOEO,2025-08-16T01:15:00Z,45.3108,-92.6948,22,19.8,200,4,,10+,30.03,,,TRUE,TRUE,,,,,TRUE,,CLR,,,,,,,,VFR,,,,,,,,,,,,METAR,269
KOEL 160115Z AUTO 17015KT 10SM CLR 33/13 A2996 RMK AO1 T03270128,KOEL,2025-08-16T01:15:00Z,39.1139,-100.819,32.7,12.8,170,15,,10+,29.96,,,TRUE,TRUE,,,,,,,CLR,,,,,,,,VFR,,,,,,,,,,,,METAR,924
KOEB 160115Z AUTO 13003KT 4SM BR CLR 23/21 A3011 RMK AO2,KOEB,2025-08-16T01:15:00Z,41.9308,-85.0544,23,21,130,3,,4,30.11,,,TRUE,TRUE,,,,,,BR,CLR,,,,,,,,MVFR,,,,,,,,,,,,METAR,291
KOCQ 160115Z AUTO 18003KT 10SM SCT080 25/22 A3005 RMK AO1 T02530218,KOCQ,2025-08-16T01:15:00Z,44.8749,-87.9084,25.3,21.8,180,3,,10+,30.05,,,TRUE,TRUE,,,,,,,SCT,8000,,,,,,,VFR,,,,,,,,,,,,METAR,181
KOBE 160115Z AUTO 00000KT 10SM 28/25 A3005 RMK AO2,KOBE,2025-08-16T01:15:00Z,27.2663,-80.8487,28,25,0,0,,10+,30.05,,,TRUE,TRUE,,,,,,,,,,,,,,,VFR,,,,,,,,,,,,METAR,11
KOAR 160115Z AUTO 26016G22KT 10SM OVC005 16/15 A2998 RMK AO2,KOAR,2025-08-16T01:15:00Z,36.6815,-121.757,16,15,260,16,22,10+,29.98,,,TRUE,TRUE,,,,,,,OVC,500,,,,,,,IFR,,,,,,,,,,,,METAR,41
KO86 160115Z AUTO 16011KT 10SM CLR 31/10 A2988 RMK A01,KO86,2025-08-16T01:15:00Z,40.9845,-122.693,31,10,160,11,,10+,29.88,,,TRUE,TRUE,,,,,,,CLR,,,,,,,,VFR,,,,,,,,,,,,METAR,729
KO69 160115Z AUTO 27011KT 10SM CLR 23/13 A2988 RMK A01,KO69,2025-08-16T01:15:00Z,38.2601,-122.607,23,13,270,11,,10+,29.88,,,TRUE,TRUE,,,,,,,CLR,,,,,,,,VFR,,,,,,,,,,,,METAR,26
KO32 160115Z AUTO 25006KT 9SM CLR 34/11 A2980 RMK AO2 T03370106 $,KO32,2025-08-16T01:15:00Z,36.6691,-119.453,33.7,10.6,250,6,,9,29.80,,,TRUE,TRUE,TRUE,,,,,,CLR,,,,,,,,VFR,,,,,,,,,,,,METAR,117
KO26 160115Z AUTO 17010KT 10SM CLR 29/M04 A2997 RMK A01,KO26,2025-08-16T01:15:00Z,36.59,-118.05,29,-4,170,10,,10+,29.97,,,TRUE,TRUE,,,,,,,CLR,,,,,,,,VFR,,,,,,,,,,,,METAR,1122
KO22 160115Z AUTO 22007KT 10SM CLR 32/08 A2993 RMK A01,KO22,2025-08-16T01:15:00Z,38.03,-120.415,32,8,220,7,,10+,29.93,,,TRUE,TRUE,,,,,,,CLR,,,,,,,,VFR,,,,,,,,,,,,METAR,637
KO05 160115Z AUTO 27011KT 10SM CLR 28/00 A3003 RMK A01,KO05,2025-08-16T01:15:00Z,40.2865,-121.243,28,0,270,11,,10+,30.03,,,TRUE,TRUE,,,,,,,CLR,,,,,,,,VFR,,,,,,,,,,,,METAR,1380
KNY0 160115Z AUTO 11005KT 10SM CLR 21/13 A3019 RMK AO2 T02060128,KNY0,2025-08-16T01:15:00Z,42.999,-74.3292,20.6,12.8,110,5,,10+,30.19,,,TRUE,TRUE,,,,,,,CLR,,,,,,,,VFR,,,,,,,,,,,,METAR,266
KNUQ 160115Z AUTO 34012G17KT 10SM CLR 24/14 A2992 RMK AO2,KNUQ,2025-08-16T01:15:00Z,37.4059,-122.049,24,14,340,12,17,10+,29.92,,,TRUE,TRUE,,,,,,,CLR,,,,,,,,VFR,,,,,,,,,,,,METAR,9
KN79 160115Z AUTO 06003KT 10SM FEW100 24/23 A3014 RMK AO2 T02400225,KN79,2025-08-16T01:15:00Z,40.8371,-76.546,24,22.5,60,3,,10+,30.14,,,TRUE,TRUE,,,,,,,FEW,10000,,,,,,,VFR,,,,,,,,,,,,METAR,269
KN24 160115Z AUTO 18018G23KT 10SM CLR 18/06 A3039 RMK AO2 T01840064,KN24,2025-08-16T01:15:00Z,36.8001,-105.598,18.4,6.4,180,18,23,10+,30.39,,,TRUE,TRUE,,,,,,,CLR,,,,,,,,VFR,,,,,,,,,,,,METAR,2347
KN03 160115Z AUTO 00000KT 10SM CLR 20/14 A3019 RMK AO2,KN03,2025-08-16T01:15:00Z,42.5929,-76.2174,20,14,0,0,,10+,30.19,,,TRUE,TRUE,,,,,,,CLR,,,,,,,,VFR,,,,,,,,,,,,METAR,361
KMZZ 160115Z AUTO 00000KT 7SM CLR 24/21 A3012 RMK AO2 T02390209,KMZZ,2025-08-16T01:15:00Z,40.4863,-85.6859,23.9,20.9,0,0,,7,30.12,,,TRUE,TRUE,,,,,,,CLR,,,,,,,,VFR,,,,,,,,,,,,METAR,260
KMZJ 160115Z AUTO 24008KT 10SM CLR 34/14 A2992 RMK AO2 LTG DSNT S AND SW,KMZJ,2025-08-16T01:15:00Z,32.5147,-111.335,34,14,240,8,,10+,29.92,,,TRUE,TRUE,,,,,,,CLR,,,,,,,,VFR,,,,,,,,,,,,METAR,574
KMZH 160115Z AUTO 00000KT 10SM CLR 25/22 A3000 RMK AO2,KMZH,2025-08-16T01:15:00Z,46.4163,-92.8049,25,22,0,0,,10+,30.00,,,TRUE,TRUE,,,,,,,CLR,,,,,,,,VFR,,,,,,,,,,,,METAR,331
KMYZ 160115Z AUTO 16006KT 10SM CLR 30/21 A2995 RMK AO2,KMYZ,2025-08-16T01:15:00Z,39.8544,-96.6279,30,21,160,6,,10+,29.95,,,TRUE,TRUE,,,,,,,CLR,,,,,,,,VFR,,,,,,,,,,,,METAR,388
KMYP 160115Z AUTO 32007G11KT 10SM SCT070 OVC080 12/01 A3074 RMK AO2,KMYP,2025-08-16T01:15:00Z,38.4972,-106.32,12,1,320,7,11,10+,30.74,,,TRUE,TRUE,,,,,,,SCT,7000,OVC,8000,,,,,VFR,,,,,,,,,,,,METAR,3629
KMYJ 160115Z AUTO 00000KT 10SM CLR 27/25 A3005 RMK AO2,KMYJ,2025-08-16T01:15:00Z,39.1561,-91.8129,27,25,0,0,,10+,30.05,,,TRUE,TRUE,,,,,,,CLR,,,,,,,,VFR,,,,,,,,,,,,METAR,249
KMXO 160115Z AUTO 30003KT 10SM FEW075 SCT095 20/20 A3004 RMK AO2,KMXO,2025-08-16T01:15:00Z,42.2203,-91.1604,20,20,300,3,,10+,30.04,,,TRUE,TRUE,,,,,,,FEW,7500,SCT,9500,,,,,VFR,,,,,,,,,,,,METAR,251
KMWS 160115Z 28002KT 20/08 ,KMWS,2025-08-16T01:15:00Z,34.226,-118.057,20,8,280,2,,,0.00,,,,,,,,,,,,,,,,,,,,,,,,,,,,,,,METAR,1745
KMWO 160115Z AUTO 19003KT 10SM BKN055 27/23 A3011 RMK AO2,KMWO,2025-08-16T01:15:00Z,39.5324,-84.3973,27,23,190,3,,10+,30.11,,,TRUE,TRUE,,,,,,,BKN,5500,,,,,,,VFR,,,,,,,,,,,,METAR,197
KMWM 160115Z AUTO 10003KT 10SM SCT024 SCT032 OVC041 28/24 A2999 RMK AO2,KMWM,2025-08-16T01:15:00Z,43.91,-95.1073,28,24,100,3,,10+,29.99,,,TRUE,TRUE,,,,,,,SCT,2400,SCT,3200,OVC,4100,,,VFR,,,,,,,,,,,,METAR,427
KMWK 160115Z AUTO 00000KT 10SM CLR 23/23 A3018 RMK AO2 T02300228,KMWK,2025-08-16T01:15:00Z,36.4568,-80.5548,23,22.8,0,0,,10+,30.18,,,TRUE,TRUE,,,,,,,CLR,,,,,,,,VFR,,,,,,,,,,,,METAR,374
KMWA 160115Z AUTO 00000KT 10SM CLR 29/22 A3008 RMK AO2 T02900215,KMWA,2025-08-16T01:15:00Z,37.7544,-89.0118,29,21.5,0,0,,10+,30.08,,,TRUE,TRUE,,,,,,,CLR,,,,,,,,VFR,,,,,,,,,,,,METAR,142
KMVH 160115Z AUTO 08004KT 10SM CLR 25/14 A2997 RMK AO2,KMVH,2025-08-16T01:15:00Z,46.838,-108.936,25,14,80,4,,10+,29.97,,,TRUE,TRUE,,,,,,,CLR,,,,,,,,VFR,,,,,,,,,,,,METAR,1352
KMVE 160115Z AUTO 08003KT 10SM CLR 26/25 A2996 RMK AO2,KMVE,2025-08-16T01:15:00Z,44.9675,-95.7116,26,25,80,3,,10+,29.96,,,TRUE,TRUE,,,,,,,CLR,,,,,,,,VFR,,,,,,,,,,,,METAR,319
KMUT 160115Z AUTO 00000KT 10SM SCT055 SCT070 BKN095 22/21 A3011 RMK AO2,KMUT,2025-08-16T01:15:00Z,41.367,-91.1406,22,21,0,0,,10+,30.11,,,TRUE,TRUE,,,,,,,SCT,5500,SCT,7000,BKN,9500,,,VFR,,,,,,,,,,,,METAR,166
KMTV 160115Z AUTO 00000KT 10SM CLR 24/22 A3016 RMK AO2 T02350220,KMTV,2025-08-16T01:15:00Z,36.6272,-80.0134,23.5,22,0,0,,10+,30.16,,,TRUE,TRUE,,,,,,,CLR,,,,,,,,VFR,,,,,,,,,,,,METAR,276
KMTK 160115Z AUTO 00000KT CLR 29/23 A3009 RMK A01,KMTK,2025-08-16T01:15:00Z,28.6967,-89.3958,29,23,0,0,,,30.09,,,TRUE,TRUE,,,,,,,CLR,,,,,,,,,,,,,,,,,,,,METAR,50
KMRJ 160115Z AUTO 33004KT 10SM CLR 25/21 A3010 RMK AO2 PWINO,KMRJ,2025-08-16T01:15:00Z,42.8875,-90.2315,25,21,330,4,,10+,30.10,,,TRUE,TRUE,,,,,TRUE,,CLR,,,,,,,,VFR,,,,,,,,,,,,METAR,350
KMQS 160115Z AUTO VRB03KT 10SM CLR 26/26 A3016 RMK AO2,KMQS,2025-08-16T01:15:00Z,39.9773,-75.8605,26,26,VRB,3,,10+,30.16,,,TRUE,TRUE,,,,,,,CLR,,,,,,,,VFR,,,,,,,,,,,,METAR,200
KMQJ 160115Z AUTO 14004KT 9SM CLR 24/24 A3011 RMK AO2 T02430243 $,KMQJ,2025-08-16T01:15:00Z,39.8402,-85.894,24.3,24.3,140,4,,9,30.11,,,TRUE,TRUE,TRUE,,,,,,CLR,,,,,,,,VFR,,,,,,,,,,,,METAR,262
KMQI 160115Z AUTO 05007KT 10SM SCT008 25/24 A3007 RMK AO2 T02510237,KMQI,2025-08-16T01:15:00Z,35.9188,-75.6989,25.1,23.7,50,7,,10+,30.07,,,TRUE,TRUE,,,,,,,SCT,800,,,,,,,VFR,,,,,,,,,,,,METAR,3
KMQB 160115Z AUTO 35005KT 10SM BKN120 28/25 A3011 RMK AO2 T02840252,KMQB,2025-08-16T01:15:00Z,40.5176,-90.6481,28.4,25.2,350,5,,10+,30.11,,,TRUE,TRUE,,,,,,,BKN,12000,,,,,,,VFR,,,,,,,,,,,,METAR,205
KMPZ 160115Z AUTO 04008G15KT 10SM CLR 21/20 A3012 RMK AO2,KMPZ,2025-08-16T01:15:00Z,40.9453,-91.5122,21,20,40,8,15,10+,30.12,,,TRUE,TRUE,,,,,,,CLR,,,,,,,,VFR,,,,,,,,,,,,METAR,222
KMPE 160115Z AUTO 00000KT 10SM FEW036 SCT047 BKN055 A3009 RMK AO2 LTG DSNT SW AND W,KMPE,2025-08-16T01:15:00Z,32.7975,-89.125,,,0,0,,10+,30.09,,,TRUE,TRUE,,,,,,,FEW,3600,SCT,4700,BKN,5500,,,VFR,,,,,,,,,,,,METAR,134
KMOX 160115Z AUTO 06003KT 10SM BKN028 OVC044 26/26 A2993 RMK AO2 TSNO,KMOX,2025-08-16T01:15:00Z,45.5677,-95.9659,26,26,60,3,,10+,29.93,,,TRUE,TRUE,,,TRUE,,,,BKN,2800,OVC,4400,,,,,MVFR,,,,,,,,,,,,METAR,346
KMOP 160115Z AUTO 00000KT 10SM CLR 23/17 A3009 RMK AO2 T02320171,KMOP,2025-08-16T01:15:00Z,43.6229,-84.743,23.2,17.1,0,0,,10+,30.09,,,TRUE,TRUE,,,,,,,CLR,,,,,,,,VFR,,,,,,,,,,,,METAR,229
KMNZ 160115Z AUTO 15011KT 10SM CLR 30/22 A3004 RMK AO2,KMNZ,2025-08-16T01:15:00Z,31.6697,-98.1462,30,22,150,11,,10+,30.04,,,TRUE,TRUE,,,,,,,CLR,,,,,,,,VFR,,,,,,,,,,,,METAR,397
KMNI 160115Z AUTO 00000KT 10SM CLR 26/25 A3006 RMK AO2,KMNI,2025-08-16T01:15:00Z,33.5882,-80.2059,26,25,0,0,,10+,30.06,,,TRUE,TRUE,,,,,,,CLR,,,,,,,,VFR,,,,,,,,,,,,METAR,29
KMNH 160115Z AUTO 32004KT 10SM CLR 23/05 A3024 RMK AO2,KMNH,2025-08-16T01:15:00Z,39.2232,-104.642,23,5,320,4,,10+,30.24,,,TRUE,TRUE,,,,,,,CLR,,,,,,,,VFR,,,,,,,,,,,,METAR,2152
KMNE 160115Z AUTO 15006KT 10SM CLR 30/21 A3007 RMK AO2,KMNE,2025-08-16T01:15:00Z,32.6433,-93.2972,30,21,150,6,,10+,30.07,,,TRUE,TRUE,,,,,,,CLR,,,,,,,,VFR,,,,,,,,,,,,METAR,84
KMMI 160115Z AUTO 00000KT 10SM CLR 26/24 A3014 RMK A01,KMMI,2025-08-16T01:15:00Z,35.3952,-84.5612,26,24,0,0,,10+,30.14,,,TRUE,TRUE,,,,,,,CLR,,,,,,,,VFR,,,,,,,,,,,,METAR,252
KMMH 160115Z AUTO 09015G25KT 10SM OVC090 20/04 A3020 RMK AO2,KMMH,2025-08-16T01:15:00Z,37.6253,-118.838,20,4,90,15,25,10+,30.20,,,TRUE,TRUE,,,,,,,OVC,9000,,,,,,,VFR,,,,,,,,,,,,METAR,2167
KMLJ 160115Z AUTO 00000KT 10SM VCTS BKN050 BKN060 28/25 A3007 RMK AO2 LTG DSNT NE-SE,KMLJ,2025-08-16T01:15:00Z,33.153,-83.242,28,25,0,0,,10+,30.07,,,TRUE,TRUE,,,,,,VCTS,BKN,5000,BKN,6000,,,,,VFR,,,,,,,,,,,,METAR,115
KMLE 160115Z AUTO 14009KT 10SM CLR 30/25 A2995 RMK AO2 T03000252,KMLE,2025-08-16T01:15:00Z,41.1981,-96.1131,30,25.2,140,9,,10+,29.95,,,TRUE,TRUE,,,,,,,CLR,,,,,,,,VFR,,,,,,,,,,,,METAR,318
KMKV 160115Z AUTO 05005KT 10SM FEW002 24/24 A3006 RMK AO2 T02410237 $,KMKV,2025-08-16T01:15:00Z,31.0935,-92.0723,24.1,23.7,50,5,,10+,30.06,,,TRUE,TRUE,TRUE,,,,,,FEW,200,,,,,,,VFR,,,,,,,,,,,,METAR,24
KMKS 160115Z AUTO 00000KT 10SM CLR 26/25 A3006 RMK AO2,KMKS,2025-08-16T01:15:00Z,33.1874,-80.0363,26,25,0,0,,10+,30.06,,,TRUE,TRUE,,,,,,,CLR,,,,,,,,VFR,,,,,,,,,,,,METAR,22
KMKQ 160115Z AUTO 07008KT 10SM CLR 31/24 A3008 RMK A01,KMKQ,2025-08-16T01:15:00Z,27.5197,-90.0981,31,24,70,8,,10+,30.08,,,TRUE,TRUE,,,,,,,CLR,,,,,,,,VFR,,,,,,,,,,,,METAR,40
KMKN 160115Z AUTO 15009G15KT 10SM CLR 33/20 A3004 RMK AO2 T03250196,KMKN,2025-08-16T01:15:00Z,31.924,-98.5978,32.5,19.6,150,9,15,10+,30.04,,,TRUE,TRUE,,,,,,,CLR,,,,,,,,VFR,,,,,,,,,,,,METAR,428
KMKJ 160115Z AUTO 00000KT 10SM SCT049 SCT055 BKN080 23/20 A3026 RMK AO2 T02260202,KMKJ,2025-08-16T01:15:00Z,36.8944,-81.3449,22.6,20.2,0,0,,10+,30.26,,,TRUE,TRUE,,,,,,,SCT,4900,SCT,5500,BKN,8000,,,VFR,,,,,,,,,,,,METAR,777
KMIO 160115Z AUTO 19005KT 10SM CLR A3001 RMK A01,KMIO,2025-08-16T01:15:00Z,36.9128,-94.8893,,,190,5,,10+,30.01,,,TRUE,TRUE,,,,,,,CLR,,,,,,,,VFR,,,,,,,,,,,,METAR,245
KMHR 160115Z AUTO 21011KT 10SM CLR A2978 RMK AO2,KMHR,2025-08-16T01:15:00Z,38.56,-121.284,,,210,11,,10+,29.78,,,TRUE,TRUE,,,,,,,CLR,,,,,,,,VFR,,,,,,,,,,,,METAR,30
KMHP 160115Z AUTO 30005KT 10SM SCT050 27/23 A3008 RMK AO2 LTG DSNT W AND NW T02730234,KMHP,2025-08-16T01:15:00Z,32.374,-82.079,27.3,23.4,300,5,,10+,30.08,,,TRUE,TRUE,,,,,,,SCT,5000,,,,,,,VFR,,,,,,,,,,,,METAR,60
KMHL 160115Z AUTO 11003KT 10SM CLR 28/25 A3003 RMK AO2,KMHL,2025-08-16T01:15:00Z,39.093,-93.2024,28,25,110,3,,10+,30.03,,,TRUE,TRUE,,,,,,,CLR,,,,,,,,VFR,,,,,,,,,,,,METAR,236
KMGR 160115Z AUTO 31004KT 10SM CLR 25/24 A3007 RMK AO2 T02520243 $,KMGR,2025-08-16T01:15:00Z,31.0835,-83.8035,25.2,24.3,310,4,,10+,30.07,,,TRUE,TRUE,TRUE,,,,,,CLR,,,,,,,,VFR,,,,,,,,,,,,METAR,86
KMGN 160115Z AUTO 00000KT 10SM CLR 22/13 A3007 RMK AO2 T02290137,KMGN,2025-08-16T01:15:00Z,45.4241,-84.913,22.9,13.7,0,0,,10+,30.07,,,TRUE,TRUE,,,,,,,CLR,,,,,,,,VFR,,,,,,,,,,,,METAR,205
KMGG 160115Z AUTO 12007KT 10SM OVC025 26/22 A3000 RMK AO2 T02600215,KMGG,2025-08-16T01:15:00Z,45.2354,-93.9896,26,21.5,120,7,,10+,30.00,,,TRUE,TRUE,,,,,,,OVC,2500,,,,,,,MVFR,,,,,,,,,,,,METAR,310
KMGC 160115Z AUTO 00000KT 10SM CLR 25/21 A3010 RMK AO2,KMGC,2025-08-16T01:15:00Z,41.7048,-86.8183,25,21,0,0,,10+,30.10,,,TRUE,TRUE,,,,,,,CLR,,,,,,,,VFR,,,,,,,,,,,,METAR,199
KMEZ 160115Z AUTO 00000KT 10SM VCTS FEW060 25/24 A3009 RMK AO2 T02460240 $,KMEZ,2025-08-16T01:15:00Z,34.5414,-94.1918,24.6,24,0,0,,10+,30.09,,,TRUE,TRUE,TRUE,,,,,VCTS,FEW,6000,,,,,,,VFR,,,,,,,,,,,,METAR,320
KMEV 160115Z AUTO 28016KT 10SM CLR 29/05 A3000 RMK AO2,KMEV,2025-08-16T01:15:00Z,38.9963,-119.75,29,5,280,16,,10+,30.00,,,TRUE,TRUE,,,,,,,CLR,,,,,,,,VFR,,,,,,,,,,,,METAR,1437
KMDZ 160115Z AUTO 18007KT 10SM SCT034 SCT055 SCT070 25/22 A3004 RMK AO2 LTG DSNT SW AND W T02470224 PWINO,KMDZ,2025-08-16T01:15:00Z,45.1013,-90.3064,24.7,22.4,180,7,,10+,30.04,,,TRUE,TRUE,,,,,TRUE,,SCT,3400,SCT,5500,SCT,7000,,,VFR,,,,,,,,,,,,METAR,446
KMDS 160115Z AUTO 10006KT 10SM FEW024 25/25 A2994 RMK AO2 TSNO,KMDS,2025-08-16T01:15:00Z,44.0141,-97.0817,25,25,100,6,,10+,29.94,,,TRUE,TRUE,,,TRUE,,,,FEW,2400,,,,,,,VFR,,,,,,,,,,,,METAR,524
KMDQ 160115Z AUTO 13005KT 10SM CLR 25/22 A3014 RMK A02 T02520219,KMDQ,2025-08-16T01:15:00Z,34.866,-86.559,25.2,21.9,130,5,,10+,30.14,,,TRUE,TRUE,,,,,,,CLR,,,,,,,,VFR,,,,,,,,,,,,METAR,221
KMDD 160115Z AUTO 15013KT 10SM CLR 33/13 A3004 RMK AO2 T03350128,KMDD,2025-08-16T01:15:00Z,32.0359,-102.1,33.5,12.8,150,13,,10+,30.04,,,TRUE,TRUE,,,,,,,CLR,,,,,,,,VFR,,,,,,,,,,,,METAR,853
KMCZ 160115Z AUTO 00000KT 10SM CLR 24/24 A3009 RMK AO2 T02400237,KMCZ,2025-08-16T01:15:00Z,35.862,-77.178,24,23.7,0,0,,10+,30.09,,,TRUE,TRUE,,,,,,,CLR,,,,,,,,VFR,,,,,,,,,,,,METAR,23
KMCJ 160115Z AUTO 15012G17KT 120V210 10SM CLR 30/24 A3003 RMK A01,KMCJ,2025-08-16T01:15:00Z,29.7139,-95.3967,30,24,150,12,17,10+,30.03,,,TRUE,TRUE,,,,,,,CLR,,,,,,,,VFR,,,,,,,,,,,,METAR,70
KMCD 160115Z AUTO 25007KT 10SM CLR 22/18 A3006 RMK AO2,KMCD,2025-08-16T01:15:00Z,45.866,-84.634,22,18,250,7,,10+,30.06,,,TRUE,TRUE,,,,,,,CLR,,,,,,,,VFR,,,,,,,,,,,,METAR,228
KMCC 160115Z AUTO 18012KT 10SM CLR 34/10 A2978 RMK AO2,KMCC,2025-08-16T01:15:00Z,38.678,-121.403,34,10,180,12,,10+,29.78,,,TRUE,TRUE,,,,,,,CLR,,,,,,,,VFR,,,,,,,,,,,,METAR,21
KMBY 160115Z AUTO 00000KT 10SM CLR 28/25 A3005 RMK AO2,KMBY,2025-08-16T01:15:00Z,39.464,-92.4244,28,25,0,0,,10+,30.05,,,TRUE,TRUE,,,,,,,CLR,,,,,,,,VFR,,,,,,,,,,,,METAR,263
KMBT 160115Z AUTO 17005KT 10SM CLR 29/23 A3008 RMK A01,KMBT,2025-08-16T01:15:00Z,35.8767,-86.3793,29,23,170,5,,10+,30.08,,,TRUE,TRUE,,,,,,,CLR,,,,,,,,VFR,,,,,,,,,,,,METAR,187
KMAW 160115Z AUTO 20004KT 10SM CLR 30/25 A3008 RMK AO1,KMAW,2025-08-16T01:15:00Z,36.5945,-89.9865,30,25,200,4,,10+,30.08,,,TRUE,TRUE,,,,,,,CLR,,,,,,,,VFR,,,,,,,,,,,,METAR,88
KMAO 160115Z AUTO 00000KT 10SM CLR 26/26 A3007 RMK AO2,KMAO,2025-08-16T01:15:00Z,34.1852,-79.3341,26,26,0,0,,10+,30.07,,,TRUE,TRUE,,,,,,,CLR,,,,,,,,VFR,,,,,,,,,,,,METAR,27
KMAN 160115Z AUTO 35006KT 8SM CLR 32/09 A2985 RMK A01,KMAN,2025-08-16T01:15:00Z,43.582,-116.521,32,9,350,6,,8,29.85,,,TRUE,TRUE,,,,,,,CLR,,,,,,,,VFR,,,,,,,,,,,,METAR,773
KM91 160115Z AUTO 00000KT 10SM CLR 27/24 A3008 RMK A01,KM91,2025-08-16T01:15:00Z,36.5363,-86.919,27,24,0,0,,10+,30.08,,,TRUE,TRUE,,,,,,,CLR,,,,,,,,VFR,,,,,,,,,,,,METAR,214
KM75 160115Z AUTO 12008KT 10SM CLR 28/14 A2983 RMK A01,KM75,2025-08-16T01:15:00Z,48.3686,-107.919,28,14,120,8,,10+,29.83,,,TRUE,TRUE,,,,,,,CLR,,,,,,,,VFR,,,,,,,,,,,,METAR,687
KM40 160115Z AUTO 15003KT 10SM CLR 27/26 A3011 RMK AO2,KM40,2025-08-16T01:15:00Z,33.8755,-88.4872,27,26,150,3,,10+,30.11,,,TRUE,TRUE,,,,,,,CLR,,,,,,,,VFR,,,,,,,,,,,,METAR,68
KM30 160115Z AUTO 00000KT 10SM CLR 28/22 A3007 RMK AO2 T02790217,KM30,2025-08-16T01:15:00Z,37.1824,-88.7487,27.9,21.7,0,0,,10+,30.07,,,TRUE,TRUE,,,,,,,CLR,,,,,,,,VFR,,,,,,,,,,,,METAR,116
KM25 160115Z AUTO 10003KT 10SM CLR 29/24 A3007 RMK AO2 T02850240,KM25,2025-08-16T01:15:00Z,36.764,-88.5829,28.5,24,100,3,,10+,30.07,,,TRUE,TRUE,,,,,,,CLR,,,,,,,,VFR,,,,,,,,,,,,METAR,157
KM21 160115Z AUTO 00000KT 10SM CLR 27/25 A3008 RMK AO2 T02650253,KM21,2025-08-16T01:15:00Z,37.2291,-87.1542,26.5,25.3,0,0,,10+,30.08,,,TRUE,TRUE,,,,,,,CLR,,,,,,,,VFR,,,,,,,,,,,,METAR,127
KM02 160115Z AUTO 00000KT 10SM CLR 27/22 A3009 RMK A01,KM02,2025-08-16T01:15:00Z,36.1289,-87.4283,27,22,0,0,,10+,30.09,,,TRUE,TRUE,,,,,,,CLR,,,,,,,,VFR,,,,,,,,,,,,METAR,268
KM01 160115Z AUTO 00000KT 9SM CLR 30/23 A3004 RMK AO2 T02990232 $,KM01,2025-08-16T01:15:00Z,35.2004,-90.0548,29.9,23.2,0,0,,9,30.04,,,TRUE,TRUE,TRUE,,,,,,CLR,,,,,,,,VFR,,,,,,,,,,,,METAR,68
KLYV 160115Z AUTO 00000KT 10SM CLR 27/25 A2996 RMK AO2,KLYV,2025-08-16T01:15:00Z,43.6217,-96.214,27,25,0,0,,10+,29.96,,,TRUE,TRUE,,,,,,,CLR,,,,,,,,VFR,,,,,,,,,,,,METAR,435
KLYO 160115Z AUTO 16009KT 10SM CLR 30/22 A2996 RMK AO2 T03000218,KLYO,2025-08-16T01:15:00Z,38.343,-98.2266,30,21.8,160,9,,10+,29.96,,,TRUE,TRUE,,,,,,,CLR,,,,,,,,VFR,,,,,,,,,,,,METAR,515
KLXY 160115Z AUTO 15005KT 10SM CLR 29/19 A3005 RMK AO2 T02910193 TSNO,KLXY,2025-08-16T01:15:00Z,31.6446,-96.5122,29.1,19.3,150,5,,10+,30.05,,,TRUE,TRUE,,,TRUE,,,,CLR,,,,,,,,VFR,,,,,,,,,,,,METAR,164
KLXN 160115Z AUTO 15008KT 10SM CLR 31/20 A2992 RMK AO2 T03070204,KLXN,2025-08-16T01:15:00Z,40.7915,-99.775,30.7,20.4,150,8,,10+,29.92,,,TRUE,TRUE,,,,,,,CLR,,,,,,,,VFR,,,,,,,,,,,,METAR,734
KLXL 160115Z AUTO 00000KT 10SM SCT040 24/22 A2998 RMK AO2,KLXL,2025-08-16T01:15:00Z,45.9509,-94.3441,24,22,0,0,,10+,29.98,,,TRUE,TRUE,,,,,,,SCT,4000,,,,,,,VFR,,,,,,,,,,,,METAR,335
KLWA 160115Z AUTO 15001KT 10SM CLR 24/21 A3007 RMK AO2,KLWA,2025-08-16T01:15:00Z,42.3476,-86.2578,24,21,150,1,,10+,30.07,,,TRUE,TRUE,,,,,,,CLR,,,,,,,,VFR,,,,,,,,,,,,METAR,199
KLVN 160115Z AUTO 11004KT 10SM BKN070 21/20 A3004 RMK AO2 LTG DSNT N AND NE,KLVN,2025-08-16T01:15:00Z,44.6252,-93.2273,21,20,110,4,,10+,30.04,,,TRUE,TRUE,,,,,,,BKN,7000,,,,,,,VFR,,,,,,,,,,,,METAR,292
KLVL 160115Z AUTO 00000KT 10SM CLR 24/23 A3011 RMK AO1 T02420230,KLVL,2025-08-16T01:15:00Z,36.7723,-77.7925,24.2,23,0,0,,10+,30.11,,,TRUE,TRUE,,,,,,,CLR,,,,,,,,VFR,,,,,,,,,,,,METAR,98
KLUX 160115Z AUTO 28005KT 10SM SCT007 SCT011 SCT048 23/22 A3014 RMK AO2 LTG DSNT SW AND W,KLUX,2025-08-16T01:15:00Z,34.508,-81.949,23,22,280,5,,10+,30.14,,,TRUE,TRUE,,,,,,,SCT,700,SCT,1100,SCT,4800,,,VFR,,,,,,,,,,,,METAR,213
KLUV 160115Z AUTO 15009KT 10SM BKN090 OVC110 32/13 A3006 RMK AO2,KLUV,2025-08-16T01:15:00Z,32.7481,-101.913,32,13,150,9,,10+,30.06,,,TRUE,TRUE,,,,,,,BKN,9000,OVC,11000,,,,,VFR,,,,,,,,,,,,METAR,910
KLUM 160115Z AUTO 00000KT 10SM SCT100 SCT120 19/19 A3003 RMK AO2 LTG DSNT E THRU SW T01920192 PWINO,KLUM,2025-08-16T01:15:00Z,44.8936,-91.8665,19.2,19.2,0,0,,10+,30.03,,,TRUE,TRUE,,,,,TRUE,,SCT,10000,SCT,12000,,,,,VFR,,,,,,,,,,,,METAR,271
KLUL 160115Z AUTO 18003KT 10SM CLR 27/25 A3011 RMK A02 T02740254,KLUL,2025-08-16T01:15:00Z,31.6682,-89.1705,27.4,25.4,180,3,,10+,30.11,,,TRUE,TRUE,,,,,,,CLR,,,,,,,,VFR,,,,,,,,,,,,METAR,74
KLUG 160115Z AUTO 15005KT 10SM CLR 26/22 A3011 RMK A01,KLUG,2025-08-16T01:15:00Z,35.5082,-86.8055,26,22,150,5,,10+,30.11,,,TRUE,TRUE,,,,,,,CLR,,,,,,,,VFR,,,,,,,,,,,,METAR,218
KLUD 160115Z AUTO 17008KT 7SM CLR 33/19 A3002 RMK AO2 T03300190,KLUD,2025-08-16T01:15:00Z,33.2568,-97.5826,33,19,170,8,,7,30.02,,,TRUE,TRUE,,,,,,,CLR,,,,,,,,VFR,,,,,,,,,,,,METAR,319
KLUA 160115Z AUTO 00000KT 10SM CLR 25/21 A3014 RMK AO2,KLUA,2025-08-16T01:15:00Z,38.667,-78.501,25,21,0,0,,10+,30.14,,,TRUE,TRUE,,,,,,,CLR,,,,,,,,VFR,,,,,,,,,,,,METAR,273
KLSB 160115Z AUTO 28010KT 10SM CLR 27/11 A3012 RMK AO2 LTG DSNT SW,KLSB,2025-08-16T01:15:00Z,32.334,-108.696,27,11,280,10,,10+,30.12,,,TRUE,TRUE,,,,,,,CLR,,,,,,,,VFR,,,,,,,,,,,,METAR,1308
KLRY 160115Z AUTO 00000KT 10SM CLR 30/24 A3003 RMK AO2,KLRY,2025-08-16T01:15:00Z,38.6074,-94.3453,30,24,0,0,,10+,30.03,,,TRUE,TRUE,,,,,,,CLR,,,,,,,,VFR,,,,,,,,,,,,METAR,272
KLRU 160115Z AUTO 26009KT 10SM CLR 27/12 A3014 RMK AO2 T02700115,KLRU,2025-08-16T01:15:00Z,32.2884,-106.913,27,11.5,260,9,,10+,30.14,,,TRUE,TRUE,,,,,,,CLR,,,,,,,,VFR,,,,,,,,,,,,METAR,1355
KLRO 160115Z AUTO 00000KT 9SM CLR 27/27 A3006 RMK AO2,KLRO,2025-08-16T01:15:00Z,32.8982,-79.7796,27,27,0,0,,9,30.06,,,TRUE,TRUE,,,,,,,CLR,,,,,,,,VFR,,,,,,,,,,,,METAR,3
KLRJ 160115Z AUTO 13005KT 9SM CLR A2992 RMK AO2,KLRJ,2025-08-16T01:15:00Z,42.7771,-96.195,,,130,5,,9,29.92,,,TRUE,TRUE,,,,,,,CLR,,,,,,,,VFR,,,,,,,,,,,,METAR,363
KLQK 160115Z AUTO 00000KT 10SM -RA BKN110 22/21 A3015 RMK AO2 P0001 T02210210,KLQK,2025-08-16T01:15:00Z,34.8069,-82.7047,22.1,21,0,0,,10+,30.15,,,TRUE,TRUE,,,,,,-RA,BKN,11000,,,,,,,VFR,,,,,,0.01,,,,,,METAR,291
KLOT 160115Z AUTO 17003KT 10SM CLR 28/22 A3008 RMK AO2,KLOT,2025-08-16T01:15:00Z,41.6031,-88.1017,28,22,170,3,,10+,30.08,,,TRUE,TRUE,,,,,,,CLR,,,,,,,,VFR,,,,,,,,,,,,METAR,205
KLOM 160115Z AUTO 09005KT 10SM SCT120 25/20 A3016 RMK AO2 T02540199,KLOM,2025-08-16T01:15:00Z,40.1376,-75.2684,25.4,19.9,90,5,,10+,30.16,,,TRUE,TRUE,,,,,,,SCT,12000,,,,,,,VFR,,,,,,,,,,,,METAR,87
KLNP 160115Z AUTO 00000KT 10SM CLR 23/17 A3025 RMK AO2,KLNP,2025-08-16T01:15:00Z,36.9884,-82.524,23,17,0,0,,10+,30.25,,,TRUE,TRUE,,,,,,,CLR,,,,,,,,VFR,,,,,,,,,,,,METAR,817
KLNN 160115Z AUTO 00000KT 10SM CLR 24/13 A3012 RMK AO1 T02360130,KLNN,2025-08-16T01:15:00Z,41.6839,-81.3896,23.6,13,0,0,,10+,30.12,,,TRUE,TRUE,,,,,,,CLR,,,,,,,,VFR,,,,,,,,,,,,METAR,190
KLNL 160115Z AUTO 00000KT 10SM CLR 25/20 A3006 RMK AO2 T02460200,KLNL,2025-08-16T01:15:00Z,46.1515,-89.2108,24.6,20,0,0,,10+,30.06,,,TRUE,TRUE,,,,,,,CLR,,,,,,,,VFR,,,,,,,,,,,,METAR,517
KLNC 160115Z AUTO 13005KT 10SM CLR 32/22 A3002 RMK AO2 T03160215,KLNC,2025-08-16T01:15:00Z,32.5832,-96.7209,31.6,21.5,130,5,,10+,30.02,,,TRUE,TRUE,,,,,,,CLR,,,,,,,,VFR,,,,,,,,,,,,METAR,152
KLNA 160115Z AUTO 11006KT 10SM CLR 30/20 A3008 RMK AO2 T03010201,KLNA,2025-08-16T01:15:00Z,26.5925,-80.0848,30.1,20.1,110,6,,10+,30.08,,,TRUE,TRUE,,,,,,,CLR,,,,,,,,VFR,,,,,,,,,,,,METAR,3
KLMS 160115Z AUTO 21005KT 10SM CLR 27/22 A3014 RMK AO2,KLMS,2025-08-16T01:15:00Z,33.15,-89.063,27,22,210,5,,10+,30.14,,,TRUE,TRUE,,,,,,,CLR,,,,,,,,VFR,,,,,,,,,,,,METAR,169
KLMO 160115Z AUTO 00000KT 7SM CLR 29/10 A3006 RMK AO2 T02870096,KLMO,2025-08-16T01:15:00Z,40.1612,-105.16,28.7,9.6,0,0,,7,30.06,,,TRUE,TRUE,,,,,,,CLR,,,,,,,,VFR,,,,,,,,,,,,METAR,1535
KLLN 160115Z AUTO 15010G15KT 10SM FEW120 31/12 A3009 RMK AO2,KLLN,2025-08-16T01:15:00Z,33.556,-102.375,31,12,150,10,15,10+,30.09,,,TRUE,TRUE,,,,,,,FEW,12000,,,,,,,VFR,,,,,,,,,,,,METAR,1071
KLKU 160115Z AUTO 00000KT 10SM SCT075 24/23 A3012 RMK AO2 T02370229,KLKU,2025-08-16T01:15:00Z,38.0085,-77.9681,23.7,22.9,0,0,,10+,30.12,,,TRUE,TRUE,,,,,,,SCT,7500,,,,,,,VFR,,,,,,,,,,,,METAR,146
KLKR 160115Z AUTO 32005KT 10SM SCT041 BKN060 BKN075 26/22 A3009 RMK AO2,KLKR,2025-08-16T01:15:00Z,34.7266,-80.8532,26,22,320,5,,10+,30.09,,,TRUE,TRUE,,,,,,,SCT,4100,BKN,6000,BKN,7500,,,VFR,,,,,,,,,,,,METAR,166
KLKP 160115Z AUTO 22002KT 10SM CLR 17/11 A3023 RMK AO2,KLKP,2025-08-16T01:15:00Z,44.2641,-73.9642,17,11,220,2,,10+,30.23,,,TRUE,TRUE,,,,,,,CLR,,,,,,,,VFR,,,,,,,,,,,,METAR,533
KLHZ 160115Z AUTO 00000KT 10SM CLR 24/23 A3011 RMK AO2,KLHZ,2025-08-16T01:15:00Z,36.0229,-78.3341,24,23,0,0,,10+,30.11,,,TRUE,TRUE,,,,,,,CLR,,,,,,,,VFR,,,,,,,,,,,,METAR,104
KLHM 160115Z AUTO 21010KT 10SM CLR 35/11 A2978 RMK AO1,KLHM,2025-08-16T01:15:00Z,38.9148,-121.352,35,11,210,10,,10+,29.78,,,TRUE,TRUE,,,,,,,CLR,,,,,,,,VFR,,,,,,,,,,,,METAR,36
KLHB 160115Z AUTO VRB04KT 10SM CLR 31/25 A3002 RMK AO2,KLHB,2025-08-16T01:15:00Z,30.8693,-96.6207,31,25,VRB,4,,10+,30.02,,,TRUE,TRUE,,,,,,,CLR,,,,,,,,VFR,,,,,,,,,,,,METAR,83
KLDM 160115Z AUTO 19003KT 10SM FEW095 23/18 A3008 RMK AO2,KLDM,2025-08-16T01:15:00Z,43.9614,-86.4107,23,18,190,3,,10+,30.08,,,TRUE,TRUE,,,,,,,FEW,9500,,,,,,,VFR,,,,,,,,,,,,METAR,194
KLDJ 160115Z AUTO 13003KT 10SM SCT110 25/21 A3016 RMK AO2 T02480208,KLDJ,2025-08-16T01:15:00Z,40.6162,-74.2451,24.8,20.8,130,3,,10+,30.16,,,TRUE,TRUE,,,,,,,SCT,11000,,,,,,,VFR,,,,,,,,,,,,METAR,6
KLCQ 160115Z AUTO 25003KT 10SM CLR 27/22 A3009 RMK AO2 LTG DSNT SE AND S,KLCQ,2025-08-16T01:15:00Z,30.1838,-82.5684,27,22,250,3,,10+,30.09,,,TRUE,TRUE,,,,,,,CLR,,,,,,,,VFR,,,,,,,,,,,,METAR,59
KLCG 160115Z AUTO 13007KT 10SM CLR 28/26 A2993 RMK AO2 T02810264,KLCG,2025-08-16T01:15:00Z,42.2423,-96.983,28.1,26.4,130,7,,10+,29.93,,,TRUE,TRUE,,,,,,,CLR,,,,,,,,VFR,,,,,,,,,,,,METAR,434
KLBO 160115Z AUTO 13003KT 10SM CLR 32/20 A3008 RMK AO2,KLBO,2025-08-16T01:15:00Z,37.6449,-92.6544,32,20,130,3,,10+,30.08,,,TRUE,TRUE,,,,,,,CLR,,,,,,,,VFR,,,,,,,,,,,,METAR,399
KLAM 160115Z AUTO VRB05KT 8SM BKN140 OVC180 22/08 A3033 RMK AO2 T02170082 $,KLAM,2025-08-16T01:15:00Z,35.8789,-106.262,21.7,8.2,VRB,5,,8,30.33,,,TRUE,TRUE,TRUE,,,,,,BKN,14000,OVC,18000,,,,,VFR,,,,,,,,,,,,METAR,2166
KL35 160115Z AUTO 27010KT 10SM CLR 21/M01 A3023 RMK AO2,KL35,2025-08-16T01:15:00Z,34.2626,-116.855,21,-1,270,10,,10+,30.23,,,TRUE,TRUE,,,,,,,CLR,,,,,,,,VFR,,,,,,,,,,,,METAR,2062
KL18 160115Z AUTO 25005KT 10SM CLR 20/15 A2996 RMK AO2,KL18,2025-08-16T01:15:00Z,33.3551,-117.249,20,15,250,5,,10+,29.96,,,TRUE,TRUE,,,,,,,CLR,,,,,,,,VFR,,,,,,,,,,,,METAR,215
KL08 160115Z AUTO 24010KT 10SM CLR 40/M01 A2974 RMK AO2,KL08,2025-08-16T01:15:00Z,33.2604,-116.323,40,-1,240,10,,10+,29.74,,,TRUE,TRUE,,,,,,,CLR,,,,,,,,VFR,,,,,,,,,,,,METAR,156
KKY8 160115Z AUTO 00000KT 10SM CLR 27/24 A3008 RMK A01,KKY8,2025-08-16T01:15:00Z,37.953,-86.8592,27,24,0,0,,10+,30.08,,,TRUE,TRUE,,,,,,,CLR,,,,,,,,VFR,,,,,,,,,,,,METAR,124
KK88 160115Z AUTO 15005KT 10SM CLR 29/27 A3000 RMK AO2,KK88,2025-08-16T01:15:00Z,37.8692,-95.384,29,27,150,5,,10+,30.00,,,TRUE,TRUE,,,,,,,CLR,,,,,,,,VFR,,,,,,,,,,,,METAR,308
KK83 160115Z AUTO 16007KT 10SM CLR 28/23 A3000 RMK AO2 T02840228,KK83,2025-08-16T01:15:00Z,39.9053,-95.7747,28.4,22.8,160,7,,10+,30.00,,,TRUE,TRUE,,,,,,,CLR,,,,,,,,VFR,,,,,,,,,,,,METAR,405
KK82 160115Z AUTO 15010KT 10SM CLR 30/22 A2994 RMK AO2 T03040222,KK82,2025-08-16T01:15:00Z,39.7606,-98.7957,30.4,22.2,150,10,,10+,29.94,,,TRUE,TRUE,,,,,,,CLR,,,,,,,,VFR,,,,,,,,,,,,METAR,548
KK70 160115Z AUTO VRB06G11KT 10SM SCT023 30/26 A3005 RMK AO2,KK70,2025-08-16T01:15:00Z,25.322,-80.277,30,26,VRB,6,11,10+,30.05,,,TRUE,TRUE,,,,,,,SCT,2300,,,,,,,VFR,,,,,,,,,,,,METAR,20
KK62 160115Z AUTO 00000KT 10SM CLR 25/23 A3012 RMK AO2,KK62,2025-08-16T01:15:00Z,38.7018,-84.3964,25,23,0,0,,10+,30.12,,,TRUE,TRUE,,,,,,,CLR,,,,,,,,VFR,,,,,,,,,,,,METAR,274
KJZI 160115Z AUTO 00000KT 10SM CLR 27/25 A3007 RMK AO2,KJZI,2025-08-16T01:15:00Z,32.7025,-80.0058,27,25,0,0,,10+,30.07,,,TRUE,TRUE,,,,,,,CLR,,,,,,,,VFR,,,,,,,,,,,,METAR,5
KJYR 160115Z AUTO 15006KT 10SM CLR 29/25 A2994 RMK AO2,KJYR,2025-08-16T01:15:00Z,40.8942,-97.6258,29,25,150,6,,10+,29.94,,,TRUE,TRUE,,,,,,,CLR,,,,,,,,VFR,,,,,,,,,,,,METAR,508
KJYM 160115Z AUTO 09002KT 8SM FEW110 22/19 A3013 RMK AO2,KJYM,2025-08-16T01:15:00Z,41.9197,-84.5853,22,19,90,2,,8,30.13,,,TRUE,TRUE,,,,,,,FEW,11000,,,,,,,VFR,,,,,,,,,,,,METAR,357
KJYL 160115Z AUTO 00000KT 10SM 26/26 A3008 RMK AO2 LTG DSNT W AND NW T02600257,KJYL,2025-08-16T01:15:00Z,32.6459,-81.5894,26,25.7,0,0,,10+,30.08,,,TRUE,TRUE,,,,,,,,,,,,,,,VFR,,,,,,,,,,,,METAR,54
KJYG 160115Z AUTO 14004KT 9SM FEW028 SCT035 BKN041 27/24 A2998 RMK AO2,KJYG,2025-08-16T01:15:00Z,43.9855,-94.5527,27,24,140,4,,9,29.98,,,TRUE,TRUE,,,,,,,FEW,2800,SCT,3500,BKN,4100,,,VFR,,,,,,,,,,,,METAR,323
KJXI 160115Z AUTO 14003KT 10SM CLR 33/19 A3004 RMK AO2 T03250189,KJXI,2025-08-16T01:15:00Z,32.7036,-94.9471,32.5,18.9,140,3,,10+,30.04,,,TRUE,TRUE,,,,,,,CLR,,,,,,,,VFR,,,,,,,,,,,,METAR,130
KJWY 160115Z AUTO 14004KT 10SM CLR 31/23 A3003 RMK AO2 T03130226,KJWY,2025-08-16T01:15:00Z,32.456,-96.914,31.3,22.6,140,4,,10+,30.03,,,TRUE,TRUE,,,,,,,CLR,,,,,,,,VFR,,,,,,,,,,,,METAR,211
KJWG 160115Z AUTO 17013G16KT 10SM CLR 33/19 A3003 RMK AO2 T03260189,KJWG,2025-08-16T01:15:00Z,35.863,-98.423,32.6,18.9,170,13,16,10+,30.03,,,TRUE,TRUE,,,,,,,CLR,,,,,,,,VFR,,,,,,,,,,,,METAR,469
KJVY 160115Z AUTO 11005KT 6SM BR FEW002 26/25 A3008 RMK AO2,KJVY,2025-08-16T01:15:00Z,38.3692,-85.7366,26,25,110,5,,6,30.08,,,TRUE,TRUE,,,,,,BR,FEW,200,,,,,,,VFR,,,,,,,,,,,,METAR,141
KJVW 160115Z AUTO 21003KT 26/26 A3009 RMK AO2,KJVW,2025-08-16T01:15:00Z,32.3069,-90.412,26,26,210,3,,,30.09,,,TRUE,TRUE,,,,,,,,,,,,,,,,,,,,,,,,,,,METAR,73
KJTC 160115Z AUTO 36003KT 10SM CLR 20/12 A3033 RMK AO2,KJTC,2025-08-16T01:15:00Z,34.1292,-109.309,20,12,360,3,,10+,30.33,,,TRUE,TRUE,,,,,,,CLR,,,,,,,,VFR,,,,,,,,,,,,METAR,2148
KJSY 160115Z AUTO 00000KT 10SM BKN090 27/06 A2998 RMK AO2 T02650058,KJSY,2025-08-16T01:15:00Z,45.3556,-117.254,26.5,5.8,0,0,,10+,29.98,,,TRUE,TRUE,,,,,,,BKN,9000,,,,,,,VFR,,,,,,,,,,,,METAR,1256
KJSV 160115Z AUTO 11004KT 10SM CLR 30/28 A3002 RMK AO2,KJSV,2025-08-16T01:15:00Z,35.4381,-94.8012,30,28,110,4,,10+,30.02,,,TRUE,TRUE,,,,,,,CLR,,,,,,,,VFR,,,,,,,,,,,,METAR,158
KJSO 160115Z AUTO 15005KT 10SM CLR 31/23 A3002 RMK AO2 T03150233 $,KJSO,2025-08-16T01:15:00Z,31.869,-95.2145,31.5,23.3,150,5,,10+,30.02,,,TRUE,TRUE,TRUE,,,,,,CLR,,,,,,,,VFR,,,,,,,,,,,,METAR,204
KJRO 160115Z AUTO 36002KT 9SM CLR 23/23 A3011 RMK AO2,KJRO,2025-08-16T01:15:00Z,38.9861,-82.5756,23,23,360,2,,9,30.11,,,TRUE,TRUE,,,,,,,CLR,,,,,,,,VFR,,,,,,,,,,,,METAR,224
KJPX 160115Z AUTO 11004KT 10SM CLR 21/20 A3018 RMK AO2 T02110197,KJPX,2025-08-16T01:15:00Z,40.9605,-72.2511,21.1,19.7,110,4,,10+,30.18,,,TRUE,TRUE,,,,,,,CLR,,,,,,,,VFR,,,,,,,,,,,,METAR,10
KJOT 160115Z AUTO 00000KT 10SM CLR 26/22 A3008 RMK AO2 T02590224,KJOT,2025-08-16T01:15:00Z,41.5176,-88.179,25.9,22.4,0,0,,10+,30.08,,,TRUE,TRUE,,,,,,,CLR,,,,,,,,VFR,,,,,,,,,,,,METAR,175
KJMR 160115Z AUTO 00000KT 10SM CLR 25/22 A3002 RMK AO2,KJMR,2025-08-16T01:15:00Z,45.8885,-93.269,25,22,0,0,,10+,30.02,,,TRUE,TRUE,,,,,,,CLR,,,,,,,,VFR,,,,,,,,,,,,METAR,301
KJKJ 160115Z AUTO 01005KT 10SM CLR 21/15 A2999 RMK AO2,KJKJ,2025-08-16T01:15:00Z,46.8404,-96.6545,21,15,10,5,,10+,29.99,,,TRUE,TRUE,,,,,,,CLR,,,,,,,,VFR,,,,,,,,,,,,METAR,280
KJHN 160115Z AUTO 15011KT 10SM CLR 33/13 A2997 RMK AO2,KJHN,2025-08-16T01:15:00Z,37.5782,-101.73,33,13,150,11,,10+,29.97,,,TRUE,TRUE,,,,,,,CLR,,,,,,,,VFR,,,,,,,,,,,,METAR,1013
KJGG 160115Z AUTO 11004KT 10SM CLR A3009 RMK AO2 $,KJGG,2025-08-16T01:15:00Z,37.24,-76.718,,,110,4,,10+,30.09,,,TRUE,TRUE,TRUE,,,,,,CLR,,,,,,,,VFR,,,,,,,,,,,,METAR,13
KJFZ 160115Z AUTO 00000KT 10SM CLR 24/17 A3024 RMK AO2 T02350173,KJFZ,2025-08-16T01:15:00Z,37.0634,-81.7969,23.5,17.3,0,0,,10+,30.24,,,TRUE,TRUE,,,,,,,CLR,,,,,,,,VFR,,,,,,,,,,,,METAR,809
KJFX 160115Z AUTO 00000KT 10SM CLR 23/22 A3013 RMK AO2 LTG DSNT W,KJFX,2025-08-16T01:15:00Z,33.9008,-87.3092,23,22,0,0,,10+,30.13,,,TRUE,TRUE,,,,,,,CLR,,,,,,,,VFR,,,,,,,,,,,,METAR,144
KJES 160115Z AUTO 00000KT 10SM CLR 28/26 A3008 RMK AO2,KJES,2025-08-16T01:15:00Z,31.5521,-81.8896,28,26,0,0,,10+,30.08,,,TRUE,TRUE,,,,,,,CLR,,,,,,,,VFR,,,,,,,,,,,,METAR,26
KJDD 160115Z AUTO 00000KT 9SM CLR 30/23 A3002 RMK AO2 T03040234 $,KJDD,2025-08-16T01:15:00Z,32.7403,-95.4945,30.4,23.4,0,0,,9,30.02,,,TRUE,TRUE,TRUE,,,,,,CLR,,,,,,,,VFR,,,,,,,,,,,,METAR,127
KJCA 160115Z AUTO 10004KT 7SM -RA SCT006 SCT020 BKN100 23/ A3017 RMK AO2 P0002 T0226////,KJCA,2025-08-16T01:15:00Z,34.1739,-83.5583,22.6,,100,4,,7,30.17,,,TRUE,TRUE,,,,,,-RA,SCT,600,SCT,2000,BKN,10000,,,VFR,,,,,,0.02,,,,,,METAR,287
KJAS 160115Z AUTO 08003KT 10SM FEW020 27/25 A3005 RMK AO2,KJAS,2025-08-16T01:15:00Z,30.8904,-94.0332,27,25,80,3,,10+,30.05,,,TRUE,TRUE,,,,,,,FEW,2000,,,,,,,VFR,,,,,,,,,,,,METAR,60
KJAQ 160115Z AUTO 27004G14KT 10SM CLR 31/10 A2991 RMK AO1 T03140099,KJAQ,2025-08-16T01:15:00Z,38.3742,-120.794,31.4,9.9,270,4,14,10+,29.91,,,TRUE,TRUE,,,,,,,CLR,,,,,,,,VFR,,,,,,,,,,,,METAR,518
KIZA 160115Z AUTO 28008KT 10SM CLR 22/14 A2995 RMK AO2,KIZA,2025-08-16T01:15:00Z,34.6059,-120.076,22,14,280,8,,10+,29.95,,,TRUE,TRUE,,,,,,,CLR,,,,,,,,VFR,,,,,,,,,,,,METAR,200
KIXA 160115Z AUTO 00000KT 10SM CLR 23/23 A3010 RMK AO2,KIXA,2025-08-16T01:15:00Z,36.331,-77.6333,23,23,0,0,,10+,30.10,,,TRUE,TRUE,,,,,,,CLR,,,,,,,,VFR,,,,,,,,,,,,METAR,43
KIUA 160115Z AUTO 00000KT 10SM CLR 20/13 A3016 RMK AO2 T02000126,KIUA,2025-08-16T01:15:00Z,42.9058,-77.3227,20,12.6,0,0,,10+,30.16,,,TRUE,TRUE,,,,,,,CLR,,,,,,,,VFR,,,,,,,,,,,,METAR,248
KISQ 160115Z AUTO 21005KT 7SM -RA 22/21 A3007 RMK AO2 P0001 T02180213,KISQ,2025-08-16T01:15:00Z,45.9729,-86.1728,21.8,21.3,210,5,,7,30.07,,,TRUE,TRUE,,,,,,-RA,,,,,,,,,VFR,,,,,,0.01,,,,,,METAR,206
KIRS 160115Z AUTO 18003KT 10SM CLR 25/20 A3010 RMK AO2,KIRS,2025-08-16T01:15:00Z,41.8154,-85.4376,25,20,180,3,,10+,30.10,,,TRUE,TRUE,,,,,,,CLR,,,,,,,,VFR,,,,,,,,,,,,METAR,282
KIPJ 160115Z AUTO 00000KT 10SM CLR 25/24 A3013 RMK AO2 T02540237,KIPJ,2025-08-16T01:15:00Z,35.4861,-81.1564,25.4,23.7,0,0,,10+,30.13,,,TRUE,TRUE,,,,,,,CLR,,,,,,,,VFR,,,,,,,,,,,,METAR,266
KIOB 160115Z AUTO 00000KT 10SM CLR 25/22 A3015 RMK AO2 PWINO,KIOB,2025-08-16T01:15:00Z,38.0574,-83.9829,25,22,0,0,,10+,30.15,,,TRUE,TRUE,,,,,TRUE,,CLR,,,,,,,,VFR,,,,,,,,,,,,METAR,301
KINJ 160115Z AUTO 15009KT CLR 32/22 A3001 RMK AO2 T03200221 PWINO,KINJ,2025-08-16T01:15:00Z,32.0844,-97.0959,32,22.1,150,9,,,30.01,,,TRUE,TRUE,,,,,TRUE,,CLR,,,,,,,,,,,,,,,,,,,,METAR,208
KINF 160115Z AUTO 36003KT 10SM 29/26 A3009 RMK AO2 LTG DSNT NW THRU NE,KINF,2025-08-16T01:15:00Z,28.8062,-82.319,29,26,360,3,,10+,30.09,,,TRUE,TRUE,,,,,,,,,,,,,,,VFR,,,,,,,,,,,,METAR,14
KIMS 160115Z AUTO 00000KT 10SM CLR 25/24 A3013 RMK AO2,KIMS,2025-08-16T01:15:00Z,38.7515,-85.4689,25,24,0,0,,10+,30.13,,,TRUE,TRUE,,,,,,,CLR,,,,,,,,VFR,,,,,,,,,,,,METAR,244
KIMM 160115Z AUTO 11005KT 10SM SCT050 29/26 A3005 RMK AO2,KIMM,2025-08-16T01:15:00Z,26.4321,-81.4073,29,26,110,5,,10+,30.05,,,TRUE,TRUE,,,,,,,SCT,5000,,,,,,,VFR,,,,,,,,,,,,METAR,11
KIKW 160115Z AUTO 00000KT 10SM CLR 23/19 A3008 RMK AO2,KIKW,2025-08-16T01:15:00Z,43.6643,-84.2613,23,19,0,0,,10+,30.08,,,TRUE,TRUE,,,,,,,CLR,,,,,,,,VFR,,,,,,,,,,,,METAR,190
KIKV 160115Z AUTO 13011KT 10SM CLR 25/21 A3003 RMK AO2,KIKV,2025-08-16T01:15:00Z,41.6878,-93.5695,25,21,130,11,,10+,30.03,,,TRUE,TRUE,,,,,,,CLR,,,,,,,,VFR,,,,,,,,,,,,METAR,270
KIKG 160115Z AUTO 14006KT 10SM CLR 29/22 A2997 RMK AO2 T02850221,KIKG,2025-08-16T01:15:00Z,27.5464,-98.0292,28.5,22.1,140,6,,10+,29.97,,,TRUE,TRUE,,,,,,,CLR,,,,,,,,VFR,,,,,,,,,,,,METAR,37
KIIY 160115Z AUTO 07010G14KT 050V110 7SM -RA SCT031 SCT044 OVC080 22/22 A3014 RMK AO2 LTG DSNT ALQDS T02250225,KIIY,2025-08-16T01:15:00Z,33.7797,-82.8135,22.5,22.5,70,10,14,7,30.14,,,TRUE,TRUE,,,,,,-RA,SCT,3100,SCT,4400,OVC,8000,,,VFR,,,,,,,,,,,,METAR,192
KIIB 160115Z AUTO 17006KT 10SM CLR 20/19 A3005 RMK AO2 T02030187,KIIB,2025-08-16T01:15:00Z,42.4544,-91.9504,20.3,18.7,170,6,,10+,30.05,,,TRUE,TRUE,,,,,,,CLR,,,,,,,,VFR,,,,,,,,,,,,METAR,294
KIGQ 160115Z AUTO 21003KT 10SM CLR 27/23 A3009 RMK AO2 T02670226,KIGQ,2025-08-16T01:15:00Z,41.5412,-87.5282,26.7,22.6,210,3,,10+,30.09,,,TRUE,TRUE,,,,,,,CLR,,,,,,,,VFR,,,,,,,,,,,,METAR,187
KIER 160115Z AUTO 00000KT 10SM CLR 25/23 A3006 RMK AO2 T02530231,KIER,2025-08-16T01:15:00Z,31.736,-93.1003,25.3,23.1,0,0,,10+,30.06,,,TRUE,TRUE,,,,,,,CLR,,,,,,,,VFR,,,,,,,,,,,,METAR,35
KIDP 160115Z AUTO 16007KT 10SM CLR 31/23 A2999 RMK AO2,KIDP,2025-08-16T01:15:00Z,37.1566,-95.7792,31,23,160,7,,10+,29.99,,,TRUE,TRUE,,,,,,,CLR,,,,,,,,VFR,,,,,,,,,,,,METAR,252
KIDI 160115Z AUTO 10004KT 10SM SCT055 20/17 A3017 RMK A01,KIDI,2025-08-16T01:15:00Z,40.6337,-79.1036,20,17,100,4,,10+,30.17,,,TRUE,TRUE,,,,,,,SCT,5500,,,,,,,VFR,,,,,,,,,,,,METAR,425
KICL 160115Z AUTO 00000KT 10SM CLR 28/26 A3000 RMK AO2,KICL,2025-08-16T01:15:00Z,40.7242,-95.0222,28,26,0,0,,10+,30.00,,,TRUE,TRUE,,,,,,,CLR,,,,,,,,VFR,,,,,,,,,,,,METAR,299
KIBM 160115Z AUTO 20025G45KT 5SM +TSRA BKN075 BKN090 19/16 A3010 RMK AO2 LTG DSNT ALQS P0002 T01910160,KIBM,2025-08-16T01:15:00Z,41.1894,-103.671,19.1,16,200,25,45,5,30.10,,,TRUE,TRUE,,,,,,+TSRA,BKN,7500,BKN,9000,,,,,MVFR,,,,,,0.02,,,,,,METAR,1494
KI95 160115Z AUTO 00000KT 9SM CLR 23/22 A3012 RMK A01,KI95,2025-08-16T01:15:00Z,40.6142,-83.6374,23,22,0,0,,9,30.12,,,TRUE,TRUE,,,,,,,CLR,,,,,,,,VFR,,,,,,,,,,,,METAR,312
KI93 160115Z AUTO 00000KT 10SM CLR 28/24 A3009 RMK AO2,KI93,2025-08-16T01:15:00Z,37.7836,-86.443,28,24,0,0,,10+,30.09,,,TRUE,TRUE,,,,,,,CLR,,,,,,,,VFR,,,,,,,,,,,,METAR,224
KI75 160115Z AUTO 10004KT 10SM CLR 28/25 A3004 RMK AO2 T02800246,KI75,2025-08-16T01:15:00Z,41.0472,-93.6876,28,24.6,100,4,,10+,30.04,,,TRUE,TRUE,,,,,,,CLR,,,,,,,,VFR,,,,,,,,,,,,METAR,336
KI74 160115Z AUTO 00000KT 10SM CLR 22/21 A3014 RMK AO2,KI74,2025-08-16T01:15:00Z,40.1314,-83.757,22,21,0,0,,10+,30.14,,,TRUE,TRUE,,,,,,,CLR,,,,,,,,VFR,,,,,,,,,,,,METAR,322
KI68 160115Z AUTO 00000KT 10SM SCT055 28/26 A3011 RMK AO2,KI68,2025-08-16T01:15:00Z,39.4664,-84.2532,28,26,0,0,,10+,30.11,,,TRUE,TRUE,,,,,,,SCT,5500,,,,,,,VFR,,,,,,,,,,,,METAR,274
KI67 160115Z AUTO 00000KT 10SM CLR 26/23 A3011 RMK AO1,KI67,2025-08-16T01:15:00Z,39.2565,-84.7753,26,23,0,0,,10+,30.11,,,TRUE,TRUE,,,,,,,CLR,,,,,,,,VFR,,,,,,,,,,,,METAR,177
KI63 160115Z AUTO 00000KT 10SM CLR 28/25 A3008 RMK AO2 LTG DSNT N AND NE T02800245,KI63,2025-08-16T01:15:00Z,39.9883,-90.8023,28,24.5,0,0,,10+,30.08,,,TRUE,TRUE,,,,,,,CLR,,,,,,,,VFR,,,,,,,,,,,,METAR,221
KI40 160115Z AUTO 00000KT 10SM CLR 23/19 A3016 RMK AO2,KI40,2025-08-16T01:15:00Z,40.3101,-81.8544,23,19,0,0,,10+,30.16,,,TRUE,TRUE,,,,,,,CLR,,,,,,,,VFR,,,,,,,,,,,,METAR,303
KI35 160115Z AUTO 00000KT 7SM CLR 25/25 A3016 RMK AO2 T02500247,KI35,2025-08-16T01:15:00Z,36.8577,-83.3586,25,24.7,0,0,,7,30.16,,,TRUE,TRUE,,,,,,,CLR,,,,,,,,VFR,,,,,,,,,,,,METAR,467
KI23 160115Z AUTO 00000KT 10SM CLR 24/22 A3013 RMK AO1,KI23,2025-08-16T01:15:00Z,39.5697,-83.4239,24,22,0,0,,10+,30.13,,,TRUE,TRUE,,,,,,,CLR,,,,,,,,VFR,,,,,,,,,,,,METAR,298
KI16 160115Z AUTO 10SM CLR 22/22 A3023 RMK AO2 T02230217,KI16,2025-08-16T01:15:00Z,37.5998,-81.5589,22.3,21.7,,,,10+,30.23,,,TRUE,TRUE,,,,,,,CLR,,,,,,,,VFR,,,,,,,,,,,,METAR,528
KHZX 160115Z AUTO 19003KT 10SM SCT025 25/22 A3000 RMK AO2,KHZX,2025-08-16T01:15:00Z,46.6189,-93.3128,25,22,190,3,,10+,30.00,,,TRUE,TRUE,,,,,,,SCT,2500,,,,,,,VFR,,,,,,,,,,,,METAR,374
KHZR 160115Z AUTO 00000KT 10SM CLR 24/24 A3005 RMK AO2 T02430235,KHZR,2025-08-16T01:15:00Z,30.718,-91.48,24.3,23.5,0,0,,10+,30.05,,,TRUE,TRUE,,,,,,,CLR,,,,,,,,VFR,,,,,,,,,,,,METAR,11
KHZE 160115Z AUTO 08008KT 10SM CLR 23/12 A2999 RMK AO2,KHZE,2025-08-16T01:15:00Z,47.288,-101.577,23,12,80,8,,10+,29.99,,,TRUE,TRUE,,,,,,,CLR,,,,,,,,VFR,,,,,,,,,,,,METAR,542
KHZD 160115Z AUTO 17004KT 10SM SCT060 29/23 A3007 RMK A01,KHZD,2025-08-16T01:15:00Z,36.089,-88.4654,29,23,170,4,,10+,30.07,,,TRUE,TRUE,,,,,,,SCT,6000,,,,,,,VFR,,,,,,,,,,,,METAR,147
KHYX 160115Z AUTO 13006KT 10SM CLR 25/19 A3008 RMK AO2,KHYX,2025-08-16T01:15:00Z,43.4319,-83.8648,25,19,130,6,,10+,30.08,,,TRUE,TRUE,,,,,,,CLR,,,,,,,,VFR,,,,,,,,,,,,METAR,181
KHYW 160115Z AUTO 00000KT 10SM CLR 26/26 A3007 RMK AO2,KHYW,2025-08-16T01:15:00Z,33.8256,-79.1259,26,26,0,0,,10+,30.07,,,TRUE,TRUE,,,,,,,CLR,,,,,,,,VFR,,,,,,,,,,,,METAR,10
KHXD 160115Z AUTO 00000KT 10SM CLR 27/23 A3007 RMK AO2,KHXD,2025-08-16T01:15:00Z,32.2263,-80.6949,27,23,0,0,,10+,30.07,,,TRUE,TRUE,,,,,,,CLR,,,,,,,,VFR,,,,,,,,,,,,METAR,5
KHWY 160115Z AUTO 00000KT 10SM OVC090 25/23 A3012 RMK AO2 T02460230,KHWY,2025-08-16T01:15:00Z,38.5876,-77.715,24.6,23,0,0,,10+,30.12,,,TRUE,TRUE,,,,,,,OVC,9000,,,,,,,VFR,,,,,,,,,,,,METAR,93
KHVS 160115Z AUTO 04003KT 10SM BKN049 OVC055 28/23 A3007 RMK AO2 LTG DSNT SW AND W,KHVS,2025-08-16T01:15:00Z,34.4065,-80.1198,28,23,40,3,,10+,30.07,,,TRUE,TRUE,,,,,,,BKN,4900,OVC,5500,,,,,VFR,,,,,,,,,,,,METAR,110
KHVC 160115Z AUTO 00000KT 10SM CLR 26/24 A3008 RMK AO2,KHVC,2025-08-16T01:15:00Z,36.8603,-87.4478,26,24,0,0,,10+,30.08,,,TRUE,TRUE,,,,,,,CLR,,,,,,,,VFR,,,,,,,,,,,,METAR,171
KHSP 160115Z AUTO 10004KT 10SM SCT044 22/16 A3031 RMK AO2 T02160159,KHSP,2025-08-16T01:15:00Z,37.9531,-79.8285,21.6,15.9,100,4,,10+,30.31,,,TRUE,TRUE,,,,,,,SCT,4400,,,,,,,VFR,,,,,,,,,,,,METAR,1148
KHSG 160115Z AUTO 18013G19KT 10SM CLR 28/04 A2998 RMK AO2 T02820036,KHSG,2025-08-16T01:15:00Z,43.7178,-108.385,28.2,3.6,180,13,19,10+,29.98,,,TRUE,TRUE,,,,,,,CLR,,,,,,,,VFR,,,,,,,,,,,,METAR,1497
KHSB 160115Z AUTO 00000KT 10SM CLR 27/22 A3008 RMK AO2 T02690224,KHSB,2025-08-16T01:15:00Z,37.8128,-88.5449,26.9,22.4,0,0,,10+,30.08,,,TRUE,TRUE,,,,,,,CLR,,,,,,,,VFR,,,,,,,,,,,,METAR,118
KHRX 160115Z AUTO 20009KT 10SM CLR 32/13 A3009 RMK AO2 T03150127 TSNO,KHRX,2025-08-16T01:15:00Z,34.8628,-102.32,31.5,12.7,200,9,,10+,30.09,,,TRUE,TRUE,,,TRUE,,,,CLR,,,,,,,,VFR,,,,,,,,,,,,METAR,1153
KHRF 160115Z AUTO 02010KT 10SM CLR 29/08 A2987 RMK AO2,KHRF,2025-08-16T01:15:00Z,46.2575,-114.127,29,8,20,10,,10+,29.87,,,TRUE,TRUE,,,,,,,CLR,,,,,,,,VFR,,,,,,,,,,,,METAR,1112
KHQU 160115Z AUTO 33013G19KT 7SM +TSRA BR SCT012 BKN033 OVC075 25/23 A3019 RMK AO2 LTG DSNT ALQDS P0005,KHQU,2025-08-16T01:15:00Z,33.5279,-82.518,25,23,330,13,19,7,30.19,,,TRUE,TRUE,,,,,,+TSRA BR,SCT,1200,BKN,3300,OVC,7500,,,VFR,,,,,,0.05,,,,,,METAR,141
KHPT 160115Z AUTO 17007KT 10SM CLR 23/20 A3001 RMK AO2,KHPT,2025-08-16T01:15:00Z,42.7175,-93.2244,23,20,170,7,,10+,30.01,,,TRUE,TRUE,,,,,,,CLR,,,,,,,,VFR,,,,,,,,,,,,METAR,354
KHOE 160115Z AUTO 00000KT 10SM CLR 25/23 A3006 RMK AO2 T02570238,KHOE,2025-08-16T01:15:00Z,31.0561,-82.7726,25.7,23.8,0,0,,10+,30.06,,,TRUE,TRUE,,,,,,,CLR,,,,,,,,VFR,,,,,,,,,,,,METAR,56
KHOB 160115Z AUTO 28013KT 10SM OVC085 28/16 A3010 RMK AO2 LTG DSNT SW-NW,KHOB,2025-08-16T01:15:00Z,32.6797,-103.222,28,16,280,13,,10+,30.10,,,TRUE,TRUE,,,,,,,OVC,8500,,,,,,,VFR,,,,,,,,,,,,METAR,1112
KHNZ 160115Z AUTO 00000KT 7SM CLR 24/24 A3011 RMK AO2 T02400238,KHNZ,2025-08-16T01:15:00Z,36.3635,-78.5289,24,23.8,0,0,,7,30.11,,,TRUE,TRUE,,,,,,,CLR,,,,,,,,VFR,,,,,,,,,,,,METAR,158
KHNR 160115Z AUTO 15004G10KT 5SM HZ CLR 28/25 A2997 RMK A01,KHNR,2025-08-16T01:15:00Z,41.5841,-95.3358,28,25,150,4,10,5,29.97,,,TRUE,TRUE,,,,,,HZ,CLR,,,,,,,,MVFR,,,,,,,,,,,,METAR,364
KHMZ 160115Z AUTO 00000KT 10SM BKN070 OVC090 24/20 A3015 RMK AO2 T02360199,KHMZ,2025-08-16T01:15:00Z,40.0863,-78.5167,23.6,19.9,0,0,,10+,30.15,,,TRUE,TRUE,,,,,,,BKN,7000,OVC,9000,,,,,VFR,,,,,,,,,,,,METAR,351
KHMT 160115Z AUTO 22011KT 10SM CLR 26/14 A2994 RMK AO2,KHMT,2025-08-16T01:15:00Z,33.7303,-117.027,26,14,220,11,,10+,29.94,,,TRUE,TRUE,,,,,,,CLR,,,,,,,,VFR,,,,,,,,,,,,METAR,462
KHMP 160115Z AUTO 00000KT 10SM CLR 24/23 A3016 RMK AO2 T02380233,KHMP,2025-08-16T01:15:00Z,33.3916,-84.3312,23.8,23.3,0,0,,10+,30.16,,,TRUE,TRUE,,,,,,,CLR,,,,,,,,VFR,,,,,,,,,,,,METAR,263
KHLX 160115Z AUTO 19004KT 10SM SCT060 22/20 A3024 RMK AO2,KHLX,2025-08-16T01:15:00Z,36.7637,-80.8211,22,20,190,4,,10+,30.24,,,TRUE,TRUE,,,,,,,SCT,6000,,,,,,,VFR,,,,,,,,,,,,METAR,819
KHLB 160115Z AUTO 00000KT 10SM CLR 24/22 A3012 RMK A01,KHLB,2025-08-16T01:15:00Z,39.3463,-85.2602,24,22,0,0,,10+,30.12,,,TRUE,TRUE,,,,,,,CLR,,,,,,,,VFR,,,,,,,,,,,,METAR,297
KHJH 160115Z AUTO 17003KT 10SM CLR 29/22 A2994 RMK AO2 T02860223,KHJH,2025-08-16T01:15:00Z,40.1493,-97.5872,28.6,22.3,170,3,,10+,29.94,,,TRUE,TRUE,,,,,,,CLR,,,,,,,,VFR,,,,,,,,,,,,METAR,449
KHII 160115Z AUTO 14019G25KT 10SM CLR 38/12 A2976 RMK AO2,KHII,2025-08-16T01:15:00Z,34.5659,-114.352,38,12,140,19,25,10+,29.76,,,TRUE,TRUE,,,,,,,CLR,,,,,,,,VFR,,,,,,,,,,,,METAR,241
KHHW 160115Z AUTO 00000KT 10SM CLR 31/22 A3003 RMK AO2,KHHW,2025-08-16T01:15:00Z,34.0308,-95.5401,31,22,0,0,,10+,30.03,,,TRUE,TRUE,,,,,,,CLR,,,,,,,,VFR,,,,,,,,,,,,METAR,178
KHHV 160115Z AUTO 10SM FEW019 A3001 RMK A01,KHHV,2025-08-16T01:15:00Z,26.9392,-94.6886,,,,,,10+,30.01,,,TRUE,TRUE,,,,,,,FEW,1900,,,,,,,VFR,,,,,,,,,,,,METAR,25
KHFJ 160115Z AUTO 16004KT 10SM CLR 31/21 A3006 RMK AO2,KHFJ,2025-08-16T01:15:00Z,36.9105,-94.0099,31,21,160,4,,10+,30.06,,,TRUE,TRUE,,,,,,,CLR,,,,,,,,VFR,,,,,,,,,,,,METAR,398
KHEQ 160115Z AUTO 14007KT 10SM CLR 28/15 A2993 RMK AO2,KHEQ,2025-08-16T01:15:00Z,40.5715,-102.277,28,15,140,7,,10+,29.93,,,TRUE,TRUE,,,,,,,CLR,,,,,,,,VFR,,,,,,,,,,,,METAR,1136
KHEG 160115Z AUTO 00000KT 10SM SCT090 26/25 A3009 RMK AO2 TSNO,KHEG,2025-08-16T01:15:00Z,30.2771,-81.8087,26,25,0,0,,10+,30.09,,,TRUE,TRUE,,,TRUE,,,,SCT,9000,,,,,,,VFR,,,,,,,,,,,,METAR,25
KHDE 160115Z AUTO 16010KT 10SM CLR 29/21 A2993 RMK AO2 T02910211,KHDE,2025-08-16T01:15:00Z,40.4496,-99.3363,29.1,21.1,160,10,,10+,29.93,,,TRUE,TRUE,,,,,,,CLR,,,,,,,,VFR,,,,,,,,,,,,METAR,703
KHDC 160115Z AUTO 00000KT 10SM CLR 24/24 A3010 RMK AO2 T02440236,KHDC,2025-08-16T01:15:00Z,30.5237,-90.4176,24.4,23.6,0,0,,10+,30.10,,,TRUE,TRUE,,,,,,,CLR,,,,,,,,VFR,,,,,,,,,,,,METAR,12
KHCR 160115Z AUTO 15005KT 10SM FEW130 26/06 A3008 RMK AO2 T02560060 $,KHCR,2025-08-16T01:15:00Z,40.4774,-111.433,25.6,6,150,5,,10+,30.08,,,TRUE,TRUE,TRUE,,,,,,FEW,13000,,,,,,,VFR,,,,,,,,,,,,METAR,1708
KHCO 160115Z AUTO 36005KT 10SM SCT070 21/13 A3000 RMK AO2,KHCO,2025-08-16T01:15:00Z,48.7524,-96.9376,21,13,360,5,,10+,30.00,,,TRUE,TRUE,,,,,,,SCT,7000,,,,,,,VFR,,,,,,,,,,,,METAR,250
KHCD 160115Z AUTO 11004KT 10SM OVC048 27/24 A2999 RMK AO2 T02660242,KHCD,2025-08-16T01:15:00Z,44.8597,-94.3855,26.6,24.2,110,4,,10+,29.99,,,TRUE,TRUE,,,,,,,OVC,4800,,,,,,,VFR,,,,,,,,,,,,METAR,320
KHBV 160115Z AUTO 13007KT 10SM CLR 28/25 A2996 RMK AO2 T02770249 $,KHBV,2025-08-16T01:15:00Z,27.3516,-98.7415,27.7,24.9,130,7,,10+,29.96,,,TRUE,TRUE,TRUE,,,,,,CLR,,,,,,,,VFR,,,,,,,,,,,,METAR,200
KHAI 160115Z AUTO 13002KT 10SM CLR 25/22 A3009 RMK AO2,KHAI,2025-08-16T01:15:00Z,41.9591,-85.5933,25,22,130,2,,10+,30.09,,,TRUE,TRUE,,,,,,,CLR,,,,,,,,VFR,,,,,,,,,,,,METAR,250
KHAF 160115Z AUTO 32006KT 3/4SM BR OVC005 16/16 A2998 RMK AO2,KHAF,2025-08-16T01:15:00Z,37.5136,-122.5,16,16,320,6,,0.75,29.98,,,TRUE,TRUE,,,,,,BR,OVC,500,,,,,,,LIFR,,,,,,,,,,,,METAR,11
KHAE 160115Z AUTO 00000KT 10SM CLR 27/25 A3007 RMK AO2,KHAE,2025-08-16T01:15:00Z,39.7262,-91.4425,27,25,0,0,,10+,30.07,,,TRUE,TRUE,,,,,,,CLR,,,,,,,,VFR,,,,,,,,,,,,METAR,230
KGZS 160115Z AUTO 17005KT 10SM CLR 23/23 A3012 RMK A01,KGZS,2025-08-16T01:15:00Z,35.1533,-87.0543,23,23,170,5,,10+,30.12,,,TRUE,TRUE,,,,,,,CLR,,,,,,,,VFR,,,,,,,,,,,,METAR,198
KGZN 160115Z AUTO 15010KT 10SM CLR 32/18 A3001 RMK AO2,KGZN,2025-08-16T01:15:00Z,32.3682,-99.026,32,18,150,10,,10+,30.01,,,TRUE,TRUE,,,,,,,CLR,,,,,,,,VFR,,,,,,,,,,,,METAR,522
KGZL 160115Z AUTO 11006KT 10SM CLR 31/25 A3000 RMK AO2,KGZL,2025-08-16T01:15:00Z,35.2913,-95.0956,31,25,110,6,,10+,30.00,,,TRUE,TRUE,,,,,,,CLR,,,,,,,,VFR,,,,,,,,,,,,METAR,176
KGYL 160115Z AUTO 00000KT 10SM BKN024 OVC030 27/25 A2998 RMK AO2 T02700246,KGYL,2025-08-16T01:15:00Z,44.7588,-94.0905,27,24.6,0,0,,10+,29.98,,,TRUE,TRUE,,,,,,,BKN,2400,OVC,3000,,,,,MVFR,,,,,,,,,,,,METAR,304
KGYI 160115Z AUTO 14007KT 10SM CLR 32/21 A3003 RMK AO2 T03180208,KGYI,2025-08-16T01:15:00Z,33.7231,-96.6714,31.8,20.8,140,7,,10+,30.03,,,TRUE,TRUE,,,,,,,CLR,,,,,,,,VFR,,,,,,,,,,,,METAR,227
KGYH 160115Z AUTO 25003KT 10SM SCT004 23/23 A3015 RMK AO2,KGYH,2025-08-16T01:15:00Z,34.763,-82.375,23,23,250,3,,10+,30.15,,,TRUE,TRUE,,,,,,,SCT,400,,,,,,,VFR,,,,,,,,,,,,METAR,283
KGYF 160115Z AUTO 10021KT 10SM SCT016 SCT021 BKN026 29/26 A3003 RMK AO2 PWINO T02920256,KGYF,2025-08-16T01:15:00Z,26.1292,-94.8981,29.2,25.6,100,21,,10+,30.03,,,TRUE,TRUE,,,,,TRUE,,SCT,1600,SCT,2100,BKN,2600,,,MVFR,,,,,,,,,,,,METAR,65
KGYB 160115Z AUTO 14008KT 10SM CLR 30/22 A3006 RMK AO2 T02990220,KGYB,2025-08-16T01:15:00Z,30.1714,-96.9785,29.9,22,140,8,,10+,30.06,,,TRUE,TRUE,,,,,,,CLR,,,,,,,,VFR,,,,,,,,,,,,METAR,140
KGWR 160115Z AUTO 04007KT 10SM FEW041 21/21 A2997 RMK A01,KGWR,2025-08-16T01:15:00Z,46.2185,-97.6396,21,21,40,7,,10+,29.97,,,TRUE,TRUE,,,,,,,FEW,4100,,,,,,,VFR,,,,,,,,,,,,METAR,381
KGWB 160115Z AUTO 00000KT 10SM CLR 25/21 A3010 RMK AO2,KGWB,2025-08-16T01:15:00Z,41.3061,-85.0585,25,21,0,0,,10+,30.10,,,TRUE,TRUE,,,,,,,CLR,,,,,,,,VFR,,,,,,,,,,,,METAR,268
KGVW 160115Z AUTO 10015KT 10SM CLR 30/24 A3005 RMK A01,KGVW,2025-08-16T01:15:00Z,29.1303,-94.5466,30,24,100,15,,10+,30.05,,,TRUE,TRUE,,,,,,,CLR,,,,,,,,VFR,,,,,,,,,,,,METAR,37
KGVT 160115Z AUTO 14006KT 10SM CLR 31/23 A3003 RMK AO2,KGVT,2025-08-16T01:15:00Z,33.0669,-96.0614,31,23,140,6,,10+,30.03,,,TRUE,TRUE,,,,,,,CLR,,,,,,,,VFR,,,,,,,,,,,,METAR,165
KGRN 160115Z AUTO 00000KT 10SM CLR 29/17 A2994 RMK AO2 T02910167,KGRN,2025-08-16T01:15:00Z,42.8039,-102.181,29.1,16.7,0,0,,10+,29.94,,,TRUE,TRUE,,,,,,,CLR,,,,,,,,VFR,,,,,,,,,,,,METAR,1080
KGPM 160115Z AUTO 14005KT 10SM CLR 33/20 A3002 RMK AO2 T03300197,KGPM,2025-08-16T01:15:00Z,32.6928,-97.0485,33,19.7,140,5,,10+,30.02,,,TRUE,TRUE,,,,,,,CLR,,,,,,,,VFR,,,,,,,,,,,,METAR,178
KGPC 160115Z AUTO 00000KT 10SM CLR 25/24 A3011 RMK AO2 T02510241,KGPC,2025-08-16T01:15:00Z,39.635,-86.816,25.1,24.1,0,0,,10+,30.11,,,TRUE,TRUE,,,,,,,CLR,,,,,,,,VFR,,,,,,,,,,,,METAR,254
KGOO 160115Z AUTO 00000KT 10SM CLR 29/06 A2997 RMK A01,KGOO,2025-08-16T01:15:00Z,39.224,-121.003,29,6,0,0,,10+,29.97,,,TRUE,TRUE,,,,,,,CLR,,,,,,,,VFR,,,,,,,,,,,,METAR,950
KGNT 160115Z AUTO 31010KT 10SM BKN110 23/06 A3029 RMK AO2 T02300062,KGNT,2025-08-16T01:15:00Z,35.1653,-107.902,23,6.2,310,10,,10+,30.29,,,TRUE,TRUE,,,,,,,BKN,11000,,,,,,,VFR,,,,,,,,,,,,METAR,1988
KGNG 160115Z AUTO 10SM CLR 30/09 A2994 RMK AO2,KGNG,2025-08-16T01:15:00Z,42.9155,-114.765,30,9,,,,10+,29.94,,,TRUE,TRUE,,,,,,,CLR,,,,,,,,VFR,,,,,,,,,,,,METAR,1128
KGNC 160115Z AUTO 15008KT 10SM CLR 33/13 A3010 RMK AO2 T03260126,KGNC,2025-08-16T01:15:00Z,32.678,-102.65,32.6,12.6,150,8,,10+,30.10,,,TRUE,TRUE,,,,,,,CLR,,,,,,,,VFR,,,,,,,,,,,,METAR,1002
KGNB 160115Z AUTO 00000KT 10SM BKN110 21/06 A3036 RMK AO2 T02080055,KGNB,2025-08-16T01:15:00Z,40.0904,-105.911,20.8,5.5,0,0,,10+,30.36,,,TRUE,TRUE,,,,,,,BKN,11000,,,,,,,VFR,,,,,,,,,,,,METAR,2500
KGMJ 160115Z AUTO 18004KT 10SM CLR 31/23 A3002 RMK AO2 TSNO,KGMJ,2025-08-16T01:15:00Z,36.607,-94.7369,31,23,180,4,,10+,30.02,,,TRUE,TRUE,,,TRUE,,,,CLR,,,,,,,,VFR,,,,,,,,,,,,METAR,251
KGLY 160115Z AUTO 00000KT 9SM CLR 30/25 A3002 RMK AO2,KGLY,2025-08-16T01:15:00Z,38.3572,-93.6774,30,25,0,0,,9,30.02,,,TRUE,TRUE,,,,,,,CLR,,,,,,,,VFR,,,,,,,,,,,,METAR,247
KGLX 160115Z AUTO 06003KT 10SM CLR 29/24 A3011 RMK A01,KGLX,2025-08-16T01:15:00Z,28.2347,-88.9843,29,24,60,3,,10+,30.11,,,TRUE,TRUE,,,,,,,CLR,,,,,,,,VFR,,,,,,,,,,,,METAR,32
KGLW 160115Z AUTO 00000KT 10SM CLR 26/24 A3010 RMK AO2 T02630237,KGLW,2025-08-16T01:15:00Z,37.0337,-85.9523,26.3,23.7,0,0,,10+,30.10,,,TRUE,TRUE,,,,,,,CLR,,,,,,,,VFR,,,,,,,,,,,,METAR,216
KGKT 160115Z AUTO 20003KT 10SM SCT050 27/24 A3012 RMK A01,KGKT,2025-08-16T01:15:00Z,35.8568,-83.5333,27,24,200,3,,10+,30.12,,,TRUE,TRUE,,,,,,,SCT,5000,,,,,,,VFR,,,,,,,,,,,,METAR,305
KGIC 160115Z AUTO 04008KT 10SM CLR 26/08 A2993 RMK AO1,KGIC,2025-08-16T01:15:00Z,45.9411,-116.133,26,8,40,8,,10+,29.93,,,TRUE,TRUE,,,,,,,CLR,,,,,,,,VFR,,,,,,,,,,,,METAR,1002
KGHW 160115Z AUTO 09003KT 10SM CLR 26/23 A3000 RMK AO2,KGHW,2025-08-16T01:15:00Z,45.6456,-95.3187,26,23,90,3,,10+,30.00,,,TRUE,TRUE,,,,,,,CLR,,,,,,,,VFR,,,,,,,,,,,,METAR,423
KGHG 160115Z AUTO 00000KT 10SM 17/15 A3020 RMK AO2,KGHG,2025-08-16T01:15:00Z,42.0961,-70.6769,17,15,0,0,,10+,30.20,,,TRUE,TRUE,,,,,,,,,,,,,,,VFR,,,,,,,,,,,,METAR,3
KGGI 160115Z AUTO 14014KT 7SM -RA SCT017 SCT030 BKN065 24/22 A3000 RMK AO2 P0008 T02420221,KGGI,2025-08-16T01:15:00Z,41.7097,-92.7332,24.2,22.1,140,14,,7,30.00,,,TRUE,TRUE,,,,,,-RA,SCT,1700,SCT,3000,BKN,6500,,,VFR,,,,,,0.08,,,,,,METAR,305
KGGF 160115Z AUTO 13006KT 10SM CLR 28/19 A2991 RMK AO2,KGGF,2025-08-16T01:15:00Z,40.871,-101.734,28,19,130,6,,10+,29.91,,,TRUE,TRUE,,,,,,,CLR,,,,,,,,VFR,,,,,,,,,,,,METAR,1044
KGGE 160115Z AUTO 00000KT 10SM CLR 26/25 A3007 RMK AO2,KGGE,2025-08-16T01:15:00Z,33.3138,-79.3187,26,25,0,0,,10+,30.07,,,TRUE,TRUE,,,,,,,CLR,,,,,,,,VFR,,,,,,,,,,,,METAR,9
KGEV 160115Z AUTO 20003KT 10SM CLR 22/19 A3028 RMK AO2 T02190190,KGEV,2025-08-16T01:15:00Z,36.4312,-81.4206,21.9,19,200,3,,10+,30.28,,,TRUE,TRUE,,,,,,,CLR,,,,,,,,VFR,,,,,,,,,,,,METAR,961
KGDJ 160115Z AUTO 15006KT CLR 33/21 A3002 RMK AO2 T03300205 PWINO,KGDJ,2025-08-16T01:15:00Z,32.4469,-97.817,33,20.5,150,6,,,30.02,,,TRUE,TRUE,,,,,TRUE,,CLR,,,,,,,,,,,,,,,,,,,,METAR,235
KGDB 160115Z AUTO 11004KT 10SM CLR 28/24 A2997 RMK AO2 T02800237,KGDB,2025-08-16T01:15:00Z,44.7521,-95.5591,28,23.7,110,4,,10+,29.97,,,TRUE,TRUE,,,,,,,CLR,,,,,,,,VFR,,,,,,,,,,,,METAR,316
KGDA 160115Z AUTO 00000KT 10SM CLR 28/21 A3009 RMK AO2 T02750211,KGDA,2025-08-16T01:15:00Z,37.3344,-88.1095,27.5,21.1,0,0,,10+,30.09,,,TRUE,TRUE,,,,,,,CLR,,,,,,,,VFR,,,,,,,,,,,,METAR,199
KGCY 160115Z AUTO 15003KT 10SM FEW050 26/21 A3015 RMK A01,KGCY,2025-08-16T01:15:00Z,36.1924,-82.8135,26,21,150,3,,10+,30.15,,,TRUE,TRUE,,,,,,,FEW,5000,,,,,,,VFR,,,,,,,,,,,,METAR,488
KGCM 160115Z AUTO 14006KT 10SM CLR 30/27 A3000 RMK AO2,KGCM,2025-08-16T01:15:00Z,36.2918,-95.4825,30,27,140,6,,10+,30.00,,,TRUE,TRUE,,,,,,,CLR,,,,,,,,VFR,,,,,,,,,,,,METAR,215
KGCD 160115Z AUTO 28011G16KT 10SM CLR 29/08 A2994 RMK AO2 T02860076,KGCD,2025-08-16T01:15:00Z,44.4029,-118.967,28.6,7.6,280,11,16,10+,29.94,,,TRUE,TRUE,,,,,,,CLR,,,,,,,,VFR,,,,,,,,,,,,METAR,1122
KGBG 160115Z AUTO 02010G22KT 7SM -RA SCT038 BKN050 OVC110 22/19 A3013 RMK AO2 P0005 T02150192,KGBG,2025-08-16T01:15:00Z,40.9329,-90.4334,21.5,19.2,20,10,22,7,30.13,,,TRUE,TRUE,,,,,,-RA,SCT,3800,BKN,5000,OVC,11000,,,VFR,,,,,,0.05,,,,,,METAR,230
KGAO 160115Z AUTO 00000KT 10SM CLR 25/23 A3009 RMK AO2 P0001 T02450226,KGAO,2025-08-16T01:15:00Z,29.4352,-90.2599,24.5,22.6,0,0,,10+,30.09,,,TRUE,TRUE,,,,,,,CLR,,,,,,,,VFR,,,,,,0.01,,,,,,METAR,
KGAF 160115Z AUTO 33003KT 6SM HZ CLR 22/12 A3001 RMK AO2,KGAF,2025-08-16T01:15:00Z,48.4081,-97.3694,22,12,330,3,,6,30.01,,,TRUE,TRUE,,,,,,HZ,CLR,,,,,,,,VFR,,,,,,,,,,,,METAR,250
KFZG 160115Z AUTO 00000KT 10SM SCT050 30/26 A3007 RMK AO2 LTG DSNT NE T02950261,KFZG,2025-08-16T01:15:00Z,31.684,-83.2712,29.5,26.1,0,0,,10+,30.07,,,TRUE,TRUE,,,,,,,SCT,5000,,,,,,,VFR,,,,,,,,,,,,METAR,105
KFYM 160115Z AUTO 26003KT 10SM CLR 24/23 A3015 RMK A01,KFYM,2025-08-16T01:15:00Z,35.0603,-86.5656,24,23,260,3,,10+,30.15,,,TRUE,TRUE,,,,,,,CLR,,,,,,,,VFR,,,,,,,,,,,,METAR,297
KFYJ 160115Z AUTO 25/23 A3010 RMK AO1 T02480230,KFYJ,2025-08-16T01:15:00Z,37.5224,-76.7663,24.8,23,,,,,30.10,,,TRUE,TRUE,,,,,,,,,,,,,,,,,,,,,,,,,,,METAR,3
KFYG 160115Z AUTO 00000KT 10SM CLR 29/24 A3003 RMK AO2,KFYG,2025-08-16T01:15:00Z,38.5877,-90.9915,29,24,0,0,,10+,30.03,,,TRUE,TRUE,,,,,,,CLR,,,,,,,,VFR,,,,,,,,,,,,METAR,147
KFYE 160115Z AUTO 00000KT 10SM CLR 28/24 A3007 RMK A01,KFYE,2025-08-16T01:15:00Z,35.2061,-89.3929,28,24,0,0,,10+,30.07,,,TRUE,TRUE,,,,,,,CLR,,,,,,,,VFR,,,,,,,,,,,,METAR,133
KFXY 160115Z AUTO 10003KT 10SM CLR 23/21 A3002 RMK AO2,KFXY,2025-08-16T01:15:00Z,43.2323,-93.6237,23,21,100,3,,10+,30.02,,,TRUE,TRUE,,,,,,,CLR,,,,,,,,VFR,,,,,,,,,,,,METAR,366
KFWS 160115Z AUTO 13005KT 10SM CLR 31/22 A3002 RMK AO2 T03070221 $,KFWS,2025-08-16T01:15:00Z,32.558,-97.308,30.7,22.1,130,5,,10+,30.02,,,TRUE,TRUE,TRUE,,,,,,CLR,,,,,,,,VFR,,,,,,,,,,,,METAR,211
KFWC 160115Z AUTO 14003KT 10SM CLR 28/23 A3008 RMK AO2 T02820229,KFWC,2025-08-16T01:15:00Z,38.3796,-88.4135,28.2,22.9,140,3,,10+,30.08,,,TRUE,TRUE,,,,,,,CLR,,,,,,,,VFR,,,,,,,,,,,,METAR,131
KFWB 160115Z AUTO 00000KT 9SM UP CLR 31/20 A3006 RMK AO2,KFWB,2025-08-16T01:15:00Z,36.6933,-93.4049,31,20,0,0,,9,30.06,,,TRUE,TRUE,,,,,,UP,CLR,,,,,,,,VFR,,,,,,,,,,,,METAR,392
KFVX 160115Z AUTO 00000KT 10SM CLR 27/25 A3009 RMK AO2 T02650254,KFVX,2025-08-16T01:15:00Z,37.363,-78.4372,26.5,25.4,0,0,,10+,30.09,,,TRUE,TRUE,,,,,,,CLR,,,,,,,,VFR,,,,,,,,,,,,METAR,129
KFSW 160115Z AUTO 35017G23KT 10SM FEW050 27/23 A3010 RMK AO2 PRESRR,KFSW,2025-08-16T01:15:00Z,40.6615,-91.3267,27,23,350,17,23,10+,30.10,,,TRUE,TRUE,,,,,,,FEW,5000,,,,,,,VFR,,,,,,,,,,,,METAR,219
KFSO 160115Z AUTO 00000KT 10SM CLR 16/12 A3017 RMK AO2 T01630121,KFSO,2025-08-16T01:15:00Z,44.9411,-73.0997,16.3,12.1,0,0,,10+,30.17,,,TRUE,TRUE,,,,,,,CLR,,,,,,,,VFR,,,,,,,,,,,,METAR,70
KFSK 160115Z AUTO 18006KT 10SM CLR 30/24 A3002 RMK AO2 T03020237,KFSK,2025-08-16T01:15:00Z,37.796,-94.7676,30.2,23.7,180,6,,10+,30.02,,,TRUE,TRUE,,,,,,,CLR,,,,,,,,VFR,,,,,,,,,,,,METAR,276
KFSE 160115Z AUTO 36003KT 10SM 18/15 A3002 RMK AO2,KFSE,2025-08-16T01:15:00Z,47.589,-95.773,18,15,360,3,,10+,30.02,,,TRUE,TRUE,,,,,,,,,,,,,,,VFR,,,,,,,,,,,,METAR,389
KFRR 160115Z AUTO 00000KT 10SM SCT065 26/22 A3011 RMK AO1,KFRR,2025-08-16T01:15:00Z,38.9169,-78.2487,26,22,0,0,,10+,30.11,,,TRUE,TRUE,,,,,,,SCT,6500,,,,,,,VFR,,,,,,,,,,,,METAR,213
KFRH 160115Z AUTO 00000KT 10SM CLR 26/22 A3011 RMK AO1,KFRH,2025-08-16T01:15:00Z,38.5034,-86.6442,26,22,0,0,,10+,30.11,,,TRUE,TRUE,,,,,,,CLR,,,,,,,,VFR,,,,,,,,,,,,METAR,241
KFQD 160115Z AUTO 02003KT 10SM CLR 25/25 A3015 RMK AO2,KFQD,2025-08-16T01:15:00Z,35.43,-81.936,25,25,20,3,,10+,30.15,,,TRUE,TRUE,,,,,,,CLR,,,,,,,,VFR,,,,,,,,,,,,METAR,325
KFPY 160115Z AUTO 00000KT 10SM CLR 26/23 A3006 RMK AO2 LTG DSNT E AND SE T02620225,KFPY,2025-08-16T01:15:00Z,30.0719,-83.5731,26.2,22.5,0,0,,10+,30.06,,,TRUE,TRUE,,,,,,,CLR,,,,,,,,VFR,,,,,,,,,,,,METAR,12
KFPK 160115Z AUTO VRB01KT 10SM CLR 22/19 A3010 RMK AO2,KFPK,2025-08-16T01:15:00Z,42.5764,-84.8125,22,19,VRB,1,,10+,30.10,,,TRUE,TRUE,,,,,,,CLR,,,,,,,,VFR,,,,,,,,,,,,METAR,269
KFOT 160115Z AUTO 29013G17KT 10SM FEW030 19/18 A3003 RMK AO1,KFOT,2025-08-16T01:15:00Z,40.5529,-124.134,19,18,290,13,17,10+,30.03,,,TRUE,TRUE,,,,,,,FEW,3000,,,,,,,VFR,,,,,,,,,,,,METAR,118
KFOM 160115Z AUTO 16012G17KT 10SM CLR 31/02 A3002 RMK AO2,KFOM,2025-08-16T01:15:00Z,38.9618,-112.36,31,2,160,12,17,10+,30.02,,,TRUE,TRUE,,,,,,,CLR,,,,,,,,VFR,,,,,,,,,,,,METAR,1519
KFOA 160115Z AUTO 14004KT 10SM CLR 27/25 A3008 RMK AO2,KFOA,2025-08-16T01:15:00Z,38.6673,-88.4527,27,25,140,4,,10+,30.08,,,TRUE,TRUE,,,,,,,CLR,,,,,,,,VFR,,,,,,,,,,,,METAR,141
KFMM 160115Z AUTO 11014G20KT 10SM FEW100 SCT120 29/09 A2998 RMK AO2,KFMM,2025-08-16T01:15:00Z,40.3315,-103.807,29,9,110,14,20,10+,29.98,,,TRUE,TRUE,,,,,,,FEW,10000,SCT,12000,,,,,VFR,,,,,,,,,,,,METAR,1376
KFLY 160115Z AUTO 14003KT 10SM 26/04 A3022 RMK AO2 T02570041,KFLY,2025-08-16T01:15:00Z,38.9439,-104.568,25.7,4.1,140,3,,10+,30.22,,,TRUE,TRUE,,,,,,,,,,,,,,,VFR,,,,,,,,,,,,METAR,2096
KFKS 160115Z AUTO 00000KT 10SM CLR 23/19 A3008 RMK AO2 T02300193,KFKS,2025-08-16T01:15:00Z,44.6246,-86.1985,23,19.3,0,0,,10+,30.08,,,TRUE,TRUE,,,,,,,CLR,,,,,,,,VFR,,,,,,,,,,,,METAR,189
KFKR 160115Z AUTO 16004KT 10SM FEW049 FEW060 25/25 A3009 RMK AO2,KFKR,2025-08-16T01:15:00Z,40.2748,-86.5644,25,25,160,4,,10+,30.09,,,TRUE,TRUE,,,,,,,FEW,4900,FEW,6000,,,,,VFR,,,,,,,,,,,,METAR,260
KFKN 160115Z AUTO 06003KT 10SM CLR 25/22 A3010 RMK AO2 T02500221,KFKN,2025-08-16T01:15:00Z,36.6984,-76.9032,25,22.1,60,3,,10+,30.10,,,TRUE,TRUE,,,,,,,CLR,,,,,,,,VFR,,,,,,,,,,,,METAR,9
KFKA 160115Z AUTO 07008G14KT 10SM BKN090 BKN110 22/22 A3008 RMK AO2 LTG DSNT NW-NE,KFKA,2025-08-16T01:15:00Z,43.677,-92.174,22,22,70,8,14,10+,30.08,,,TRUE,TRUE,,,,,,,BKN,9000,BKN,11000,,,,,VFR,,,,,,,,,,,,METAR,388
KFHB 160115Z AUTO 00000KT 10SM CLR 28/25 A3007 RMK AO2,KFHB,2025-08-16T01:15:00Z,30.6131,-81.4623,28,25,0,0,,10+,30.07,,,TRUE,TRUE,,,,,,,CLR,,,,,,,,VFR,,,,,,,,,,,,METAR,4
KFGX 160115Z AUTO 00000KT 10SM CLR 27/20 A3013 RMK AO2 T02680196,KFGX,2025-08-16T01:15:00Z,38.5383,-83.7467,26.8,19.6,0,0,,10+,30.13,,,TRUE,TRUE,,,,,,,CLR,,,,,,,,VFR,,,,,,,,,,,,METAR,279
KFGN 160115Z AUTO 32011KT 10SM CLR 21/10 A3001 RMK AO2,KFGN,2025-08-16T01:15:00Z,49.318,-94.902,21,10,320,11,,10+,30.01,,,TRUE,TRUE,,,,,,,CLR,,,,,,,,VFR,,,,,,,,,,,,METAR,327
KFFX 160115Z AUTO 28002KT 9SM CLR 24/18 A3008 RMK AO2 PRESRR,KFFX,2025-08-16T01:15:00Z,43.4417,-85.9936,24,18,280,2,,9,30.08,,,TRUE,TRUE,,,,,,,CLR,,,,,,,,VFR,,,,,,,,,,,,METAR,234
KFFM 160115Z AUTO 02007KT 10SM CLR 23/21 A2997 RMK AO2,KFFM,2025-08-16T01:15:00Z,46.2865,-96.1534,23,21,20,7,,10+,29.97,,,TRUE,TRUE,,,,,,,CLR,,,,,,,,VFR,,,,,,,,,,,,METAR,362
KFFL 160115Z AUTO 05010KT 10SM SCT043 22/20 A3009 RMK A01,KFFL,2025-08-16T01:15:00Z,41.0521,-91.9834,22,20,50,10,,10+,30.09,,,TRUE,TRUE,,,,,,,SCT,4300,,,,,,,VFR,,,,,,,,,,,,METAR,240
KFET 160115Z AUTO 14007KT 10SM CLR 30/24 A2994 RMK AO2 T03040240,KFET,2025-08-16T01:15:00Z,41.4489,-96.5237,30.4,24,140,7,,10+,29.94,,,TRUE,TRUE,,,,,,,CLR,,,,,,,,VFR,,,,,,,,,,,,METAR,366
KFDW 160115Z AUTO 36005KT 10SM SCT046 27/23 A3009 RMK AO1,KFDW,2025-08-16T01:15:00Z,34.3151,-81.1119,27,23,360,5,,10+,30.09,,,TRUE,TRUE,,,,,,,SCT,4600,,,,,,,VFR,,,,,,,,,,,,METAR,174
KFCH 160115Z AUTO 30006KT 10SM CLR 34/09 A2983 RMK A01,KFCH,2025-08-16T01:15:00Z,36.7338,-119.82,34,9,300,6,,10+,29.83,,,TRUE,TRUE,,,,,,,CLR,,,,,,,,VFR,,,,,,,,,,,,METAR,85
KFBR 160115Z AUTO 19015G20KT 10SM BKN075 OVC090 21/04 A3026 RMK AO2 T02100042,KFBR,2025-08-16T01:15:00Z,41.3941,-110.406,21,4.2,190,15,20,10+,30.26,,,TRUE,TRUE,,,,,,,BKN,7500,OVC,9000,,,,,VFR,,,,,,,,,,,,METAR,2140
KFBL 160115Z AUTO 11007KT 10SM BKN038 26/21 A3003 RMK AO2 LTG DSNT N THRU E,KFBL,2025-08-16T01:15:00Z,44.3298,-93.3119,26,21,110,7,,10+,30.03,,,TRUE,TRUE,,,,,,,BKN,3800,,,,,,,VFR,,,,,,,,,,,,METAR,318
KF70 160115Z AUTO 21005KT 10SM CLR 25/14 A2995 RMK AO2,KF70,2025-08-16T01:15:00Z,33.577,-117.126,25,14,210,5,,10+,29.95,,,TRUE,TRUE,,,,,,,CLR,,,,,,,,VFR,,,,,,,,,,,,METAR,406
KF46 160115Z AUTO 15005KT 10SM CLR 32/22 A3003 RMK AO2 T03200221,KF46,2025-08-16T01:15:00Z,32.9322,-96.4349,32,22.1,150,5,,10+,30.03,,,TRUE,TRUE,,,,,,,CLR,,,,,,,,VFR,,,,,,,,,,,,METAR,175
KF45 160115Z AUTO 00000KT 10SM CLR 27/25 A3006 RMK AO2,KF45,2025-08-16T01:15:00Z,26.8419,-80.224,27,25,0,0,,10+,30.06,,,TRUE,TRUE,,,,,,,CLR,,,,,,,,VFR,,,,,,,,,,,,METAR,6
KF17 160115Z AUTO 14003KT 10SM CLR 28/22 A3006 RMK AO2,KF17,2025-08-16T01:15:00Z,31.8277,-94.154,28,22,140,3,,10+,30.06,,,TRUE,TRUE,,,,,,,CLR,,,,,,,,VFR,,,,,,,,,,,,METAR,93
KF05 160115Z AUTO 15009KT 10SM CLR 34/18 A2999 RMK AO2 T03410182,KF05,2025-08-16T01:15:00Z,34.2283,-99.2834,34.1,18.2,150,9,,10+,29.99,,,TRUE,TRUE,,,,,,,CLR,,,,,,,,VFR,,,,,,,,,,,,METAR,384
KF00 160115Z AUTO 14006KT 10SM CLR 31/21 A3002 RMK AO2,KF00,2025-08-16T01:15:00Z,33.6158,-96.1809,31,21,140,6,,10+,30.02,,,TRUE,TRUE,,,,,,,CLR,,,,,,,,VFR,,,,,,,,,,,,METAR,189
KEZS 160115Z AUTO 00000KT 10SM 27/20 A3006 RMK AO2 T02730201,KEZS,2025-08-16T01:15:00Z,44.787,-88.5639,27.3,20.1,0,0,,10+,30.06,,,TRUE,TRUE,,,,,,,,,,,,,,,VFR,,,,,,,,,,,,METAR,247
KEZF 160115Z AUTO 00000KT 10SM CLR 26/24 A3009 RMK AO2 T02600243,KEZF,2025-08-16T01:15:00Z,38.2685,-77.448,26,24.3,0,0,,10+,30.09,,,TRUE,TRUE,,,,,,,CLR,,,,,,,,VFR,,,,,,,,,,,,METAR,26
KEYF 160115Z AUTO 00000KT 10SM CLR 27/26 A3008 RMK AO2 T02680256,KEYF,2025-08-16T01:15:00Z,34.6042,-78.579,26.8,25.6,0,0,,10+,30.08,,,TRUE,TRUE,,,,,,,CLR,,,,,,,,VFR,,,,,,,,,,,,METAR,39
KEXX 160115Z AUTO 00000KT 10SM CLR 25/25 A3012 RMK AO2 T02500250,KEXX,2025-08-16T01:15:00Z,35.7804,-80.3084,25,25,0,0,,10+,30.12,,,TRUE,TRUE,,,,,,,CLR,,,,,,,,VFR,,,,,,,,,,,,METAR,221
KEVU 160115Z AUTO 15006KT 7SM CLR 29/27 A2999 RMK AO2 T02950275,KEVU,2025-08-16T01:15:00Z,40.3524,-94.9137,29.5,27.5,150,6,,7,29.99,,,TRUE,TRUE,,,,,,,CLR,,,,,,,,VFR,,,,,,,,,,,,METAR,351
KETO 160115Z AUTO 09004KT 10SM CLR 31/24 A3010 RMK A01,KETO,2025-08-16T01:15:00Z,28.0336,-89.1008,31,24,90,4,,10+,30.10,,,TRUE,TRUE,,,,,,,CLR,,,,,,,,VFR,,,,,,,,,,,,METAR,42
KETN 160115Z AUTO 13009KT 10SM CLR 32/18 A3002 RMK AO2 T03240180,KETN,2025-08-16T01:15:00Z,32.4164,-98.8113,32.4,18,130,9,,10+,30.02,,,TRUE,TRUE,,,,,,,CLR,,,,,,,,VFR,,,,,,,,,,,,METAR,445
KETC 160115Z AUTO 00000KT 3SM BR CLR 24/24 A3008 RMK AO2 VIS 1V5 T02440240,KETC,2025-08-16T01:15:00Z,35.9363,-77.5416,24.4,24,0,0,,3,30.08,,,TRUE,TRUE,,,,,,BR,CLR,,,,,,,,MVFR,,,,,,,,,,,,METAR,15
KETB 160115Z AUTO 00000KT 10SM CLR 26/22 A3008 RMK AO2,KETB,2025-08-16T01:15:00Z,43.4225,-88.1326,26,22,0,0,,10+,30.08,,,TRUE,TRUE,,,,,,,CLR,,,,,,,,VFR,,,,,,,,,,,,METAR,269
KERY 160115Z AUTO 21009KT 10SM BKN080 22/17 A3005 RMK AO2,KERY,2025-08-16T01:15:00Z,46.3151,-85.4568,22,17,210,9,,10+,30.05,,,TRUE,TRUE,,,,,,,BKN,8000,,,,,,,VFR,,,,,,,,,,,,METAR,261
KERV 160115Z AUTO 12006KT 10SM CLR 30/20 RMK AO2 T03000196,KERV,2025-08-16T01:15:00Z,29.9779,-99.0872,30,19.6,120,6,,10+,0.00,,,TRUE,TRUE,,,,,,,CLR,,,,,,,,VFR,,,,,,,,,,,,METAR,483
KEQA 160115Z AUTO 15007KT 10SM CLR 31/22 A3000 RMK AO2,KEQA,2025-08-16T01:15:00Z,37.7753,-96.8145,31,22,150,7,,10+,30.00,,,TRUE,TRUE,,,,,,,CLR,,,,,,,,VFR,,,,,,,,,,,,METAR,422
KEOK 160115Z AUTO 05004KT 10SM BKN060 BKN070 29/25 A3007 RMK A01,KEOK,2025-08-16T01:15:00Z,40.4615,-91.4274,29,25,50,4,,10+,30.07,,,TRUE,TRUE,,,,,,,BKN,6000,BKN,7000,,,,,VFR,,,,,,,,,,,,METAR,206
KEOE 160115Z AUTO 31005KT 10SM CLR 27/21 A3014 RMK AO2 LTG DSNT SE THRU W,KEOE,2025-08-16T01:15:00Z,34.3062,-81.6413,27,21,310,5,,10+,30.14,,,TRUE,TRUE,,,,,,,CLR,,,,,,,,VFR,,,,,,,,,,,,METAR,166
KENL 160115Z AUTO 14003KT 10SM CLR 28/24 A3007 RMK AO2 T02770235,KENL,2025-08-16T01:15:00Z,38.5095,-89.09,27.7,23.5,140,3,,10+,30.07,,,TRUE,TRUE,,,,,,,CLR,,,,,,,,VFR,,,,,,,,,,,,METAR,161
KEMV 160115Z AUTO 00000KT 10SM CLR 25/24 A3011 RMK AO2 T02470243,KEMV,2025-08-16T01:15:00Z,36.6858,-77.485,24.7,24.3,0,0,,10+,30.11,,,TRUE,TRUE,,,,,,,CLR,,,,,,,,VFR,,,,,,,,,,,,METAR,35
KEMM 160115Z AUTO 20006KT 10SM 21/02 A3025 RMK AO2,KEMM,2025-08-16T01:15:00Z,41.8224,-110.555,21,2,200,6,,10+,30.25,,,TRUE,TRUE,,,,,,,,,,,,,,,VFR,,,,,,,,,,,,METAR,2219
KELO 160115Z AUTO 00000KT 10SM CLR 21/13 A3001 RMK AO2,KELO,2025-08-16T01:15:00Z,47.8287,-91.8371,21,13,0,0,,10+,30.01,,,TRUE,TRUE,,,,,,,CLR,,,,,,,,VFR,,,,,,,,,,,,METAR,438
KELK 160115Z AUTO 17013KT 7SM CLR 32/19 A3001 RMK AO2 T03230188 $,KELK,2025-08-16T01:15:00Z,35.4261,-99.3926,32.3,18.8,170,13,,7,30.01,,,TRUE,TRUE,TRUE,,,,,,CLR,,,,,,,,VFR,,,,,,,,,,,,METAR,603
KELA 160115Z AUTO 14005KT 10SM CLR 27/24 A3002 RMK AO2 T02740240,KELA,2025-08-16T01:15:00Z,29.602,-96.3239,27.4,24,140,5,,10+,30.02,,,TRUE,TRUE,,,,,,,CLR,,,,,,,,VFR,,,,,,,,,,,,METAR,56
KEKX 160115Z AUTO 09004KT 10SM CLR 28/22 A3010 RMK AO2 T02780222,KEKX,2025-08-16T01:15:00Z,37.6924,-85.9204,27.8,22.2,90,4,,10+,30.10,,,TRUE,TRUE,,,,,,,CLR,,,,,,,,VFR,,,,,,,,,,,,METAR,234
KEKM 160115Z AUTO 00000KT 8SM -RA CLR 27/21 A3008 RMK AO2 RAB0110 P0000 T02690212 $,KEKM,2025-08-16T01:15:00Z,41.7222,-86,26.9,21.2,0,0,,8,30.08,,,TRUE,TRUE,TRUE,,,,,-RA,CLR,,,,,,,,VFR,,,,,,0.005,,,,,,METAR,236
KEKE 160115Z AUTO 09011KT 10SM CLR A2999 RMK A01,KEKE,2025-08-16T01:15:00Z,28.4971,-91.5702,,,90,11,,10+,29.99,,,TRUE,TRUE,,,,,,,CLR,,,,,,,,VFR,,,,,,,,,,,,METAR,31
KEIK 160115Z AUTO VRB04KT 10SM SCT150 OVC170 30/06 A3002 RMK AO2 T03000062,KEIK,2025-08-16T01:15:00Z,40.0117,-105.05,30,6.2,VRB,4,,10+,30.02,,,TRUE,TRUE,,,,,,,SCT,15000,OVC,17000,,,,,VFR,,,,,,,,,,,,METAR,1551
KEHY 160115Z AUTO 10006KT 10SM BKN090 24/M03 A3022 RMK AO2 PWINO,KEHY,2025-08-16T01:15:00Z,41.725,-106.459,24,-3,100,6,,10+,30.22,,,TRUE,TRUE,,,,,TRUE,,BKN,9000,,,,,,,VFR,,,,,,,,,,,,METAR,2239
KEHO 160115Z AUTO 17007KT 10SM BKN045 BKN055 26/23 A3013 RMK AO2 T02630234,KEHO,2025-08-16T01:15:00Z,35.2556,-81.5986,26.3,23.4,170,7,,10+,30.13,,,TRUE,TRUE,,,,,,,BKN,4500,BKN,5500,,,,,VFR,,,,,,,,,,,,METAR,261
KEHA 160115Z AUTO 19010KT 10SM CLR 30/13 A3005 RMK AO2 T03030126,KEHA,2025-08-16T01:15:00Z,37.0011,-101.88,30.3,12.6,190,10,,10+,30.05,,,TRUE,TRUE,,,,,,,CLR,,,,,,,,VFR,,,,,,,,,,,,METAR,1103
KEGV 160115Z AUTO 00000KT 10SM BKN060 24/20 A3005 RMK AO2 T02440199,KEGV,2025-08-16T01:15:00Z,45.9309,-89.267,24.4,19.9,0,0,,10+,30.05,,,TRUE,TRUE,,,,,,,BKN,6000,,,,,,,VFR,,,,,,,,,,,,METAR,499
KEGT 160115Z AUTO 15004KT 10SM CLR 31/21 A2998 RMK AO2 T03100214,KEGT,2025-08-16T01:15:00Z,37.3251,-97.3901,31,21.4,150,4,,10+,29.98,,,TRUE,TRUE,,,,,,,CLR,,,,,,,,VFR,,,,,,,,,,,,METAR,387
KEFT 160115Z AUTO 16007KT 10SM CLR 26/22 A3005 RMK AO2 T02600222,KEFT,2025-08-16T01:15:00Z,42.6196,-89.5931,26,22.2,160,7,,10+,30.05,,,TRUE,TRUE,,,,,,,CLR,,,,,,,,VFR,,,,,,,,,,,,METAR,332
KEFK 160115Z AUTO 00000KT 10SM CLR 18/12 A3022 RMK AO2 T01780117,KEFK,2025-08-16T01:15:00Z,44.8886,-72.2296,17.8,11.7,0,0,,10+,30.22,,,TRUE,TRUE,,,,,,,CLR,,,,,,,,VFR,,,,,,,,,,,,METAR,282
KEDU 160115Z AUTO 19011KT 10SM CLR 32/13 A2979 RMK AO1,KEDU,2025-08-16T01:15:00Z,38.53,-121.788,32,13,190,11,,10+,29.79,,,TRUE,TRUE,,,,,,,CLR,,,,,,,,VFR,,,,,,,,,,,,METAR,20
KEDN 160115Z AUTO 00000KT 10SM CLR 25/22 A3012 RMK AO1 LTG DSNT SW T02490220,KEDN,2025-08-16T01:15:00Z,31.299,-85.9,24.9,22,0,0,,10+,30.12,,,TRUE,TRUE,,,,,,,CLR,,,,,,,,VFR,,,,,,,,,,,,METAR,103
KEDE 160115Z AUTO 00000KT 10SM CLR 26/26 A3009 RMK AO2 T02570257,KEDE,2025-08-16T01:15:00Z,36.0286,-76.5668,25.7,25.7,0,0,,10+,30.09,,,TRUE,TRUE,,,,,,,CLR,,,,,,,,VFR,,,,,,,,,,,,METAR,4
KEDC 160115Z AUTO 13008G13KT 7SM CLR 30/23 A3001 RMK AO2,KEDC,2025-08-16T01:15:00Z,30.3926,-97.5621,30,23,130,8,13,7,30.01,,,TRUE,TRUE,,,,,,,CLR,,,,,,,,VFR,,,,,,,,,,,,METAR,184
KECU 160115Z AUTO 13008G16KT 10SM 30/18 A3009 RMK AO2,KECU,2025-08-16T01:15:00Z,29.948,-100.174,30,18,130,8,16,10+,30.09,,,TRUE,TRUE,,,,,,,,,,,,,,,VFR,,,,,,,,,,,,METAR,725
KECS 160115Z AUTO 09008KT 10SM CLR 24/11 A3001 RMK AO2,KECS,2025-08-16T01:15:00Z,43.8845,-104.312,24,11,90,8,,10+,30.01,,,TRUE,TRUE,,,,,,,CLR,,,,,,,,VFR,,,,,,,,,,,,METAR,1273
KEBG 160115Z AUTO 14007KT 10SM BKN120 27/24 A2996 RMK AO2 TSNO,KEBG,2025-08-16T01:15:00Z,26.4433,-98.1255,27,24,140,7,,10+,29.96,,,TRUE,TRUE,,,TRUE,,,,BKN,12000,,,,,,,VFR,,,,,,,,,,,,METAR,21
KEBA 160115Z AUTO 12003KT 10SM -RA SCT100 SCT120 22/22 A3013 RMK AO2 LTG DSNT SE AND S T02230222,KEBA,2025-08-16T01:15:00Z,34.0957,-82.8121,22.3,22.2,120,3,,10+,30.13,,,TRUE,TRUE,,,,,,-RA,SCT,10000,SCT,12000,,,,,VFR,,,,,,,,,,,,METAR,180
KE77 160115Z AUTO 00000KT 10SM CLR 31/12 A3009 RMK AO2,KE77,2025-08-16T01:15:00Z,32.634,-110.647,31,12,0,0,,10+,30.09,,,TRUE,TRUE,,,,,,,CLR,,,,,,,,VFR,,,,,,,,,,,,METAR,989
KE57 160115Z AUTO 16009G15KT 10SM CLR 32/11 A3008 RMK AO2,KE57,2025-08-16T01:15:00Z,32.976,-102.843,32,11,160,9,15,10+,30.08,,,TRUE,TRUE,,,,,,,CLR,,,,,,,,VFR,,,,,,,,,,,,METAR,1090
KE42 160115Z AUTO 17014KT 10SM CLR A3004 RMK AO2,KE42,2025-08-16T01:15:00Z,36.2193,-101.194,,,170,14,,10+,30.04,,,TRUE,TRUE,,,,,,,CLR,,,,,,,,VFR,,,,,,,,,,,,METAR,942
KE41 160115Z AUTO 15009KT 10SM CLR 32/14 A3005 RMK AO2 T03240143,KE41,2025-08-16T01:15:00Z,31.1945,-101.473,32.4,14.3,150,9,,10+,30.05,,,TRUE,TRUE,,,,,,,CLR,,,,,,,,VFR,,,,,,,,,,,,METAR,825
KE38 160115Z AUTO 28003KT 10SM BKN120 23/19 A3021 RMK AO2 T02300185,KE38,2025-08-16T01:15:00Z,30.3851,-103.68,23,18.5,280,3,,10+,30.21,,,TRUE,TRUE,,,,,,,BKN,12000,,,,,,,VFR,,,,,,,,,,,,METAR,1372
KE16 160115Z AUTO 12012KT 10SM CLR 22/14 A2994 RMK AO2,KE16,2025-08-16T01:15:00Z,37.0797,-121.598,22,14,120,12,,10+,29.94,,,TRUE,TRUE,,,,,,,CLR,,,,,,,,VFR,,,,,,,,,,,,METAR,84
KE11 160115Z AUTO 16009KT 10SM CLR 32/13 A3006 RMK AO2 T03230126,KE11,2025-08-16T01:15:00Z,32.3281,-102.528,32.3,12.6,160,9,,10+,30.06,,,TRUE,TRUE,,,,,,,CLR,,,,,,,,VFR,,,,,,,,,,,,METAR,966
KE01 160115Z AUTO 15012KT 10SM CLR 34/13 A2999 RMK AO2,KE01,2025-08-16T01:15:00Z,31.5804,-102.908,34,13,150,12,,10+,29.99,,,TRUE,TRUE,,,,,,,CLR,,,,,,,,VFR,,,,,,,,,,,,METAR,796
KDZJ 160115Z AUTO 00000KT 10SM CLR 22/21 A3020 RMK AO2 T02180210,KDZJ,2025-08-16T01:15:00Z,34.8552,-84.0014,21.8,21,0,0,,10+,30.20,,,TRUE,TRUE,,,,,,,CLR,,,,,,,,VFR,,,,,,,,,,,,METAR,578
KDZB 160115Z AUTO 14008KT CLR 30/20 A3004 RMK AO2 T02980201 PWINO,KDZB,2025-08-16T01:15:00Z,30.521,-98.3574,29.8,20.1,140,8,,,30.04,,,TRUE,TRUE,,,,,TRUE,,CLR,,,,,,,,,,,,,,,,,,,,METAR,329
KDYT 160115Z AUTO 30007KT 10SM SCT033 25/23 A2995 RMK AO2,KDYT,2025-08-16T01:15:00Z,46.7231,-92.0438,25,23,300,7,,10+,29.95,,,TRUE,TRUE,,,,,,,SCT,3300,,,,,,,VFR,,,,,,,,,,,,METAR,185
KDYB 160115Z AUTO 00000KT 10SM CLR 26/26 A3006 RMK AO2,KDYB,2025-08-16T01:15:00Z,33.062,-80.28,26,26,0,0,,10+,30.06,,,TRUE,TRUE,,,,,,,CLR,,,,,,,,VFR,,,,,,,,,,,,METAR,15
KDYA 160115Z AUTO 10006KT 10SM OVC041 26/22 A3012 RMK AO2 T02630221,KDYA,2025-08-16T01:15:00Z,32.4641,-87.9504,26.3,22.1,100,6,,10+,30.12,,,TRUE,TRUE,,,,,,,OVC,4100,,,,,,,VFR,,,,,,,,,,,,METAR,33
KDXX 160115Z AUTO 06003KT 10SM CLR 25/25 A2996 RMK AO2,KDXX,2025-08-16T01:15:00Z,44.9839,-96.1789,25,25,60,3,,10+,29.96,,,TRUE,TRUE,,,,,,,CLR,,,,,,,,VFR,,,,,,,,,,,,METAR,327
KDWX 160115Z AUTO 21006KT 10SM SCT065 SCT100 27/05 A3020 RMK AO2 T02690050,KDWX,2025-08-16T01:15:00Z,41.037,-107.5,26.9,5,210,6,,10+,30.20,,,TRUE,TRUE,,,,,,,SCT,6500,SCT,10000,,,,,VFR,,,,,,,,,,,,METAR,1974
KDWA 160115Z AUTO 17009G15KT 10SM CLR 34/14 A2979 RMK AO2,KDWA,2025-08-16T01:15:00Z,38.5803,-121.854,34,14,170,9,15,10+,29.79,,,TRUE,TRUE,,,,,,,CLR,,,,,,,,VFR,,,,,,,,,,,,METAR,28
KDVO 160115Z AUTO 29009G14KT 260V360 10SM CLR 29/14 A2984 RMK AO2,KDVO,2025-08-16T01:15:00Z,38.1417,-122.555,29,14,290,9,14,10+,29.84,,,TRUE,TRUE,,,,,,,CLR,,,,,,,,VFR,,,,,,,,,,,,METAR,1
KDVK 160115Z AUTO 00000KT 10SM SCT090 23/22 A3014 RMK AO2,KDVK,2025-08-16T01:15:00Z,37.5764,-84.7641,23,22,0,0,,10+,30.14,,,TRUE,TRUE,,,,,,,SCT,9000,,,,,,,VFR,,,,,,,,,,,,METAR,309
KDUX 160115Z AUTO 16010KT 10SM CLR 32/11 A3007 RMK AO2 T03190105,KDUX,2025-08-16T01:15:00Z,35.8608,-102.009,31.9,10.5,160,10,,10+,30.07,,,TRUE,TRUE,,,,,,,CLR,,,,,,,,VFR,,,,,,,,,,,,METAR,1129
KDUH 160115Z AUTO 00000KT 10SM CLR 24/21 A3011 RMK AO2 T02430207,KDUH,2025-08-16T01:15:00Z,41.7375,-83.6493,24.3,20.7,0,0,,10+,30.11,,,TRUE,TRUE,,,,,,,CLR,,,,,,,,VFR,,,,,,,,,,,,METAR,203
KDUC 160115Z AUTO 14010KT 10SM CLR 32/20 A3001 RMK AO2,KDUC,2025-08-16T01:15:00Z,34.4778,-97.9616,32,20,140,10,,10+,30.01,,,TRUE,TRUE,,,,,,,CLR,,,,,,,,VFR,,,,,,,,,,,,METAR,339
KDUA 160115Z AUTO 14005KT 10SM CLR 30/24 A3004 RMK AO2,KDUA,2025-08-16T01:15:00Z,33.9427,-96.3967,30,24,140,5,,10+,30.04,,,TRUE,TRUE,,,,,,,CLR,,,,,,,,VFR,,,,,,,,,,,,METAR,209
KDTL 160115Z AUTO 02007KT 10SM CLR 23/16 A2999 RMK AO2,KDTL,2025-08-16T01:15:00Z,46.8286,-95.8857,23,16,20,7,,10+,29.99,,,TRUE,TRUE,,,,,,,CLR,,,,,,,,VFR,,,,,,,,,,,,METAR,425
KDTA 160115Z AUTO 20008KT 160V220 10SM CLR 32/00 A2998 RMK AO1,KDTA,2025-08-16T01:15:00Z,39.3879,-112.504,32,0,200,8,,10+,29.98,,,TRUE,TRUE,,,,,,,CLR,,,,,,,,VFR,,,,,,,,,,,,METAR,1452
KDRP 160115Z AUTO 00000KT 10SM CLR 30/24 A3004 RMK AO2,KDRP,2025-08-16T01:15:00Z,35.1213,-90.8246,30,24,0,0,,10+,30.04,,,TRUE,TRUE,,,,,,,CLR,,,,,,,,VFR,,,,,,,,,,,,METAR,73
KDRM 160115Z AUTO 00000KT 10SM CLR 22/20 A3006 RMK AO2 T02200198,KDRM,2025-08-16T01:15:00Z,46.009,-83.743,22,19.8,0,0,,10+,30.06,,,TRUE,TRUE,,,,,,,CLR,,,,,,,,VFR,,,,,,,,,,,,METAR,201
KDRI 160115Z AUTO 24003KT 10SM CLR 25/25 A3005 RMK AO2 T02500247 $,KDRI,2025-08-16T01:15:00Z,30.8344,-93.3359,25,24.7,240,3,,10+,30.05,,,TRUE,TRUE,TRUE,,,,,,CLR,,,,,,,,VFR,,,,,,,,,,,,METAR,59
KDPL 160115Z AUTO 00000KT 7SM CLR 25/24 A3007 RMK AO2,KDPL,2025-08-16T01:15:00Z,34.9994,-77.9799,25,24,0,0,,7,30.07,,,TRUE,TRUE,,,,,,,CLR,,,,,,,,VFR,,,,,,,,,,,,METAR,39
KDNV 160115Z AUTO 00000KT 10SM CLR 27/24 A3010 RMK AO2 T02650240,KDNV,2025-08-16T01:15:00Z,40.2032,-87.5897,26.5,24,0,0,,10+,30.10,,,TRUE,TRUE,,,,,,,CLR,,,,,,,,VFR,,,,,,,,,,,,METAR,208
KDNS 160115Z AUTO 15010KT 10SM CLR 28/25 A2998 RMK AO2,KDNS,2025-08-16T01:15:00Z,41.9842,-95.38,28,25,150,10,,10+,29.98,,,TRUE,TRUE,,,,,,,CLR,,,,,,,,VFR,,,,,,,,,,,,METAR,382
KDNN 160115Z AUTO 00000KT 10SM CLR 25/24 A3010 RMK AO2 T02470240,KDNN,2025-08-16T01:15:00Z,34.727,-84.8733,24.7,24,0,0,,10+,30.10,,,TRUE,TRUE,,,,,,,CLR,,,,,,,,VFR,,,,,,,,,,,,METAR,216
KDNA 160115Z AUTO 27006KT 10SM CLR 29/13 A3011 RMK AO2,KDNA,2025-08-16T01:15:00Z,31.875,-106.694,29,13,270,6,,10+,30.11,,,TRUE,TRUE,,,,,,,CLR,,,,,,,,VFR,,,,,,,,,,,,METAR,1254
KDMW 160115Z AUTO 00000KT 10SM SCT110 28/22 A3015 RMK AO2,KDMW,2025-08-16T01:15:00Z,39.61,-77.007,28,22,0,0,,10+,30.15,,,TRUE,TRUE,,,,,,,SCT,11000,,,,,,,VFR,,,,,,,,,,,,METAR,239
KDLZ 160115Z AUTO 33001KT 10SM CLR 25/22 A3013 RMK AO2,KDLZ,2025-08-16T01:15:00Z,40.281,-83.114,25,22,330,1,,10+,30.13,,,TRUE,TRUE,,,,,,,CLR,,,,,,,,VFR,,,,,,,,,,,,METAR,287
KDLO 160115Z AUTO 36006KT 10SM CLR 34/08 A2982 RMK AO2 T03400084,KDLO,2025-08-16T01:15:00Z,35.7449,-119.239,34,8.4,360,6,,10+,29.82,,,TRUE,TRUE,,,,,,,CLR,,,,,,,,VFR,,,,,,,,,,,,METAR,97
KDLL 160115Z AUTO 18003KT 10SM CLR 26/22 A3006 RMK AO2 LTG DSNT NW T02550221,KDLL,2025-08-16T01:15:00Z,43.5236,-89.7736,25.5,22.1,180,3,,10+,30.06,,,TRUE,TRUE,,,,,,,CLR,,,,,,,,VFR,,,,,,,,,,,,METAR,297
KDKX 160115Z AUTO VRB03KT 10SM CLR 26/25 A3010 RMK A01,KDKX,2025-08-16T01:15:00Z,35.9658,-83.8717,26,25,VRB,3,,10+,30.10,,,TRUE,TRUE,,,,,,,CLR,,,,,,,,VFR,,,,,,,,,,,,METAR,253
KDKR 160115Z AUTO 00000KT 10SM CLR 30/26 A3003 RMK AO2,KDKR,2025-08-16T01:15:00Z,31.3097,-95.4039,30,26,0,0,,10+,30.03,,,TRUE,TRUE,,,,,,,CLR,,,,,,,,VFR,,,,,,,,,,,,METAR,105
KDKB 160115Z AUTO 24003KT 10SM CLR 27/20 A3009 RMK AO2 T02730200,KDKB,2025-08-16T01:15:00Z,41.9338,-88.7066,27.3,20,240,3,,10+,30.09,,,TRUE,TRUE,,,,,,,CLR,,,,,,,,VFR,,,,,,,,,,,,METAR,277
KDEH 160115Z AUTO VRB05G17KT 10SM FEW080 FEW095 22/20 A3008 RMK AO2,KDEH,2025-08-16T01:15:00Z,43.2755,-91.7433,22,20,VRB,5,17,10+,30.08,,,TRUE,TRUE,,,,,,,FEW,8000,FEW,9500,,,,,VFR,,,,,,,,,,,,METAR,348
KDED 160115Z AUTO 00000KT 10SM CLR 29/26 A3008 RMK AO2 LTG DSNT W AND NW T02900256,KDED,2025-08-16T01:15:00Z,29.075,-81.286,29,25.6,0,0,,10+,30.08,,,TRUE,TRUE,,,,,,,CLR,,,,,,,,VFR,,,,,,,,,,,,METAR,21
KDCY 160115Z AUTO 00000KT 10SM CLR 25/23 A3009 RMK AO2 T02500230,KDCY,2025-08-16T01:15:00Z,38.6953,-87.1314,25,23,0,0,,10+,30.09,,,TRUE,TRUE,,,,,,,CLR,,,,,,,,VFR,,,,,,,,,,,,METAR,143
KDCM 160115Z AUTO 31004KT 10SM -RA SCT028 23/23 A3012 RMK AO2 LTG DSNT SE AND SW,KDCM,2025-08-16T01:15:00Z,34.7908,-81.1987,23,23,310,4,,10+,30.12,,,TRUE,TRUE,,,,,,-RA,SCT,2800,,,,,,,VFR,,,,,,,,,,,,METAR,191
KDBN 160115Z AUTO 08008KT 10SM VCTS FEW070 28/26 A3007 RMK AO2 T02840265 $,KDBN,2025-08-16T01:15:00Z,32.5632,-82.9855,28.4,26.5,80,8,,10+,30.07,,,TRUE,TRUE,TRUE,,,,,VCTS,FEW,7000,,,,,,,VFR,,,,,,,,,,,,METAR,90
KD95 160115Z AUTO 00000KT 10SM CLR 23/18 A3013 RMK AO2,KD95,2025-08-16T01:15:00Z,43.0675,-83.2702,23,18,0,0,,10+,30.13,,,TRUE,TRUE,,,,,,,CLR,,,,,,,,VFR,,,,,,,,,,,,METAR,253
KD73 160115Z AUTO 10SM -RA SCT007 BKN050 OVC090 23/ A3015 RMK AO2 T0227////,KD73,2025-08-16T01:15:00Z,33.7826,-83.6948,22.7,,,,,10+,30.15,,,TRUE,TRUE,,,,,,-RA,SCT,700,BKN,5000,OVC,9000,,,VFR,,,,,,,,,,,,METAR,254
KD60 160115Z AUTO 08009KT 10SM BKN080 20/13 A3002 RMK AO2,KD60,2025-08-16T01:15:00Z,48.3834,-102.898,20,13,80,9,,10+,30.02,,,TRUE,TRUE,,,,,,,BKN,8000,,,,,,,VFR,,,,,,,,,,,,METAR,682
KD57 160115Z AUTO 09010KT 10SM CLR 23/13 A2995 RMK AO2,KD57,2025-08-16T01:15:00Z,46.814,-101.864,23,13,90,10,,10+,29.95,,,TRUE,TRUE,,,,,,,CLR,,,,,,,,VFR,,,,,,,,,,,,METAR,636
KD55 160115Z AUTO 36006KT 10SM SCT110 20/14 A3004 RMK AO2,KD55,2025-08-16T01:15:00Z,48.7519,-98.3971,20,14,360,6,,10+,30.04,,,TRUE,TRUE,,,,,,,SCT,11000,,,,,,,VFR,,,,,,,,,,,,METAR,488
KD50 160115Z AUTO 08007KT 10SM BKN090 19/12 A3000 RMK AO2,KD50,2025-08-16T01:15:00Z,48.9248,-103.296,19,12,80,7,,10+,30.00,,,TRUE,TRUE,,,,,,,BKN,9000,,,,,,,VFR,,,,,,,,,,,,METAR,591
KD39 160115Z AUTO 08003KT 10SM SCT016 BKN025 OVC085 25/24 A2999 RMK AO2 T02500243,KD39,2025-08-16T01:15:00Z,45.7057,-94.9308,25,24.3,80,3,,10+,29.99,,,TRUE,TRUE,,,,,,,SCT,1600,BKN,2500,OVC,8500,,,MVFR,,,,,,,,,,,,METAR,378
KD25 160115Z AUTO 17004KT 10SM CLR 24/22 A3004 RMK AO2 T02370223,KD25,2025-08-16T01:15:00Z,46.1203,-89.88,23.7,22.3,170,4,,10+,30.04,,,TRUE,TRUE,,,,,,,CLR,,,,,,,,VFR,,,,,,,,,,,,METAR,490
KD09 160115Z AUTO 00000KT 3SM HZ BKN110 20/14 A3001 RMK AO2,KD09,2025-08-16T01:15:00Z,48.83,-100.417,20,14,0,0,,3,30.01,,,TRUE,TRUE,,,,,,HZ,BKN,11000,,,,,,,MVFR,,,,,,,,,,,,METAR,512
KCZL 160115Z AUTO 00000KT 10SM CLR 27/25 A3011 RMK AO2,KCZL,2025-08-16T01:15:00Z,34.45,-84.936,27,25,0,0,,10+,30.11,,,TRUE,TRUE,,,,,,,CLR,,,,,,,,VFR,,,,,,,,,,,,METAR,197
KCXW 160115Z AUTO 18006KT 10SM CLR 32/26 A3003 RMK A01,KCXW,2025-08-16T01:15:00Z,35.0217,-92.5506,32,26,180,6,,10+,30.03,,,TRUE,TRUE,,,,,,,CLR,,,,,,,,VFR,,,,,,,,,,,,METAR,84
KCXU 160115Z AUTO VRB02KT 4SM BR CLR 25/25 A3007 RMK AO2,KCXU,2025-08-16T01:15:00Z,31.2141,-84.2358,25,25,VRB,2,,4,30.07,,,TRUE,TRUE,,,,,,BR,CLR,,,,,,,,MVFR,,,,,,,,,,,,METAR,48
KCXP 160115Z AUTO 28010G17KT 10SM CLR 29/03 A3000 RMK AO2,KCXP,2025-08-16T01:15:00Z,39.1905,-119.732,29,3,280,10,17,10+,30.00,,,TRUE,TRUE,,,,,,,CLR,,,,,,,,VFR,,,,,,,,,,,,METAR,1431
KCXE 160115Z AUTO 00000KT 10SM CLR 25/24 A3012 RMK AO1 T02510239,KCXE,2025-08-16T01:15:00Z,36.7923,-78.5027,25.1,23.9,0,0,,10+,30.12,,,TRUE,TRUE,,,,,,,CLR,,,,,,,,VFR,,,,,,,,,,,,METAR,154
KCWC 160115Z AUTO 16007KT 10SM CLR 32/21 A3001 RMK AO2 T03150210,KCWC,2025-08-16T01:15:00Z,33.8629,-98.4914,31.5,21,160,7,,10+,30.01,,,TRUE,TRUE,,,,,,,CLR,,,,,,,,VFR,,,,,,,,,,,,METAR,304
KCVX 160115Z AUTO 00000KT 10SM CLR 22/18 A3006 RMK AO2,KCVX,2025-08-16T01:15:00Z,45.304,-85.2689,22,18,0,0,,10+,30.06,,,TRUE,TRUE,,,,,,,CLR,,,,,,,,VFR,,,,,,,,,,,,METAR,196
KCVH 160115Z AUTO 26010G17KT 10SM CLR 20/14 A2995 RMK A01,KCVH,2025-08-16T01:15:00Z,36.8919,-121.41,20,14,260,10,17,10+,29.95,,,TRUE,TRUE,,,,,,,CLR,,,,,,,,VFR,,,,,,,,,,,,METAR,68
KCVC 160115Z AUTO 03007G15KT 360V060 10SM BKN050 BKN075 OVC100 25/22 A3013 RMK AO2,KCVC,2025-08-16T01:15:00Z,33.6312,-83.8482,25,22,30,7,15,10+,30.13,,,TRUE,TRUE,,,,,,,BKN,5000,BKN,7500,OVC,10000,,,VFR,,,,,,,,,,,,METAR,240
KCVB 160115Z AUTO 12009G16KT 10SM CLR 33/20 A2997 RMK AO2,KCVB,2025-08-16T01:15:00Z,29.343,-98.8497,33,20,120,9,16,10+,29.97,,,TRUE,TRUE,,,,,,,CLR,,,,,,,,VFR,,,,,,,,,,,,METAR,234
KCUH 160115Z AUTO 16004KT 10SM CLR 31/21 A2999 RMK AO2 T03140212,KCUH,2025-08-16T01:15:00Z,35.949,-96.768,31.4,21.2,160,4,,10+,29.99,,,TRUE,TRUE,,,,,,,CLR,,,,,,,,VFR,,,,,,,,,,,,METAR,274
KCTZ 160115Z AUTO 00000KT 10SM CLR 26/26 A3008 RMK AO2 T02600260,KCTZ,2025-08-16T01:15:00Z,34.9752,-78.3627,26,26,0,0,,10+,30.08,,,TRUE,TRUE,,,,,,,CLR,,,,,,,,VFR,,,,,,,,,,,,METAR,43
KCTJ 160115Z AUTO 00000KT 10SM SCT120 22/21 A3019 RMK AO2 T02220214,KCTJ,2025-08-16T01:15:00Z,33.6313,-85.1538,22.2,21.4,0,0,,10+,30.19,,,TRUE,TRUE,,,,,,,SCT,12000,,,,,,,VFR,,,,,,,,,,,,METAR,351
KCSQ 160115Z AUTO 12007KT 10SM CLR 27/25 A3003 RMK AO2,KCSQ,2025-08-16T01:15:00Z,41.0188,-94.361,27,25,120,7,,10+,30.03,,,TRUE,TRUE,,,,,,,CLR,,,,,,,,VFR,,,,,,,,,,,,METAR,394
KCSB 160115Z AUTO 15008KT 10SM 33/16 A2989 RMK AO2,KCSB,2025-08-16T01:15:00Z,40.307,-100.162,33,16,150,8,,10+,29.89,,,TRUE,TRUE,,,,,,,,,,,,,,,VFR,,,,,,,,,,,,METAR,736
KCRX 160115Z AUTO 25008KT 10SM OVC047 28/24 A3010 RMK AO2 TSNO,KCRX,2025-08-16T01:15:00Z,34.9209,-88.6071,28,24,250,8,,10+,30.10,,,TRUE,TRUE,,,TRUE,,,,OVC,4700,,,,,,,VFR,,,,,,,,,,,,METAR,128
KCQW 160115Z AUTO 00000KT 10SM BKN050 OVC055 27/25 A3007 RMK AO2,KCQW,2025-08-16T01:15:00Z,34.7128,-79.9622,27,25,0,0,,10+,30.07,,,TRUE,TRUE,,,,,,,BKN,5000,OVC,5500,,,,,VFR,,,,,,,,,,,,METAR,67
KCQM 160115Z AUTO 00000KT 10SM CLR 20/18 A3000 RMK AO2,KCQM,2025-08-16T01:15:00Z,47.8199,-92.6817,20,18,0,0,,10+,30.00,,,TRUE,TRUE,,,,,,,CLR,,,,,,,,VFR,,,,,,,,,,,,METAR,406
KCQF 160115Z AUTO 06005KT 1 1/4SM BR BKN028 26/24 A3012 RMK AO2,KCQF,2025-08-16T01:15:00Z,30.4618,-87.8791,26,24,60,5,,1.25,30.12,,,TRUE,TRUE,,,,,,BR,BKN,2800,,,,,,,IFR,,,,,,,,,,,,METAR,21
KCPW 160115Z AUTO 24018G26KT 10SM -RA BKN046 BKN060 BKN070 08/05 A3067 RMK AO2,KCPW,2025-08-16T01:15:00Z,37.464,-106.804,8,5,240,18,26,10+,30.67,,,TRUE,TRUE,,,,,,-RA,BKN,4600,BKN,6000,BKN,7000,,,VFR,,,,,,,,,,,,METAR,3570
KCPU 160115Z AUTO 29006KT 10SM CLR 33/10 A2988 RMK AO2 T03260100,KCPU,2025-08-16T01:15:00Z,38.1445,-120.645,32.6,10,290,6,,10+,29.88,,,TRUE,TRUE,,,,,,,CLR,,,,,,,,VFR,,,,,,,,,,,,METAR,400
KCPT 160115Z AUTO 13012KT 10SM CLR 32/23 A2998 RMK AO2 T03160229 $,KCPT,2025-08-16T01:15:00Z,32.3526,-97.435,31.6,22.9,130,12,,10+,29.98,,,TRUE,TRUE,TRUE,,,,,,CLR,,,,,,,,VFR,,,,,,,,,,,,METAR,260
KCPP 160115Z AUTO 35011G18KT 9SM -RA FEW003 SCT014 BKN050 23/23 A3013 RMK AO2 LTG DSNT E-S,KCPP,2025-08-16T01:15:00Z,33.5991,-83.1401,23,23,350,11,18,9,30.13,,,TRUE,TRUE,,,,,,-RA,FEW,300,SCT,1400,BKN,5000,,,VFR,,,,,,,,,,,,METAR,207
KCPK 160115Z AUTO 06003KT 10SM SCT024 25/23 A3008 RMK AO2 T02460226,KCPK,2025-08-16T01:15:00Z,36.6631,-76.3264,24.6,22.6,60,3,,10+,30.08,,,TRUE,TRUE,,,,,,,SCT,2400,,,,,,,VFR,,,,,,,,,,,,METAR,4
KCPF 160115Z AUTO 00000KT 10SM CLR 23/20 A3015 RMK AO2,KCPF,2025-08-16T01:15:00Z,37.3869,-83.2593,23,20,0,0,,10+,30.15,,,TRUE,TRUE,,,,,,,CLR,,,,,,,,VFR,,,,,,,,,,,,METAR,382
KCPC 160115Z AUTO 00000KT 10SM CLR 27/25 A3008 RMK AO2 T02680248,KCPC,2025-08-16T01:15:00Z,34.2753,-78.7146,26.8,24.8,0,0,,10+,30.08,,,TRUE,TRUE,,,,,,,CLR,,,,,,,,VFR,,,,,,,,,,,,METAR,27
KCOQ 160115Z AUTO 10SM CLR 23/22 A3000 RMK AO2 TSNO,KCOQ,2025-08-16T01:15:00Z,46.6986,-92.5034,23,22,,,,10+,30.00,,,TRUE,TRUE,,,TRUE,,,,CLR,,,,,,,,VFR,,,,,,,,,,,,METAR,390
KCOM 160115Z AUTO 14008KT 10SM CLR 33/16 A3003 RMK AO2 T03270156 PWINO,KCOM,2025-08-16T01:15:00Z,31.8415,-99.4058,32.7,15.6,140,8,,10+,30.03,,,TRUE,TRUE,,,,,TRUE,,CLR,,,,,,,,VFR,,,,,,,,,,,,METAR,516
KCNI 160115Z AUTO 11004KT 10SM CLR 24/21 A3018 RMK AO2 LTG DSNT SE T02410207,KCNI,2025-08-16T01:15:00Z,34.31,-84.424,24.1,20.7,110,4,,10+,30.18,,,TRUE,TRUE,,,,,,,CLR,,,,,,,,VFR,,,,,,,,,,,,METAR,371
KCNC 160115Z AUTO 13005KT 10SM CLR 28/28 A3003 RMK AO2,KCNC,2025-08-16T01:15:00Z,41.0185,-93.3608,28,28,130,5,,10+,30.03,,,TRUE,TRUE,,,,,,,CLR,,,,,,,,VFR,,,,,,,,,,,,METAR,319
KCNB 160115Z AUTO 00000KT 7SM CLR 26/24 A2995 RMK AO2 T02600241,KCNB,2025-08-16T01:15:00Z,44.7297,-96.2623,26,24.1,0,0,,7,29.95,,,TRUE,TRUE,,,,,,,CLR,,,,,,,,VFR,,,,,,,,,,,,METAR,363
KCMR 160115Z AUTO 07006G13KT 10SM SCT060 SCT065 BKN080 15/11 A3029 RMK AO2,KCMR,2025-08-16T01:15:00Z,35.3016,-112.197,15,11,70,6,13,10+,30.29,,,TRUE,TRUE,,,,,,,SCT,6000,SCT,6500,BKN,8000,,,VFR,,,,,,,,,,,,METAR,2039
KCMD 160115Z AUTO 35004KT 10SM FEW060 23/23 A3015 RMK AO2,KCMD,2025-08-16T01:15:00Z,34.2722,-86.8583,23,23,350,4,,10+,30.15,,,TRUE,TRUE,,,,,,,FEW,6000,,,,,,,VFR,,,,,,,,,,,,METAR,294
KCLW 160115Z AUTO 30004KT 10SM CLR 30/25 A3006 RMK AO2,KCLW,2025-08-16T01:15:00Z,27.9741,-82.7563,30,25,300,4,,10+,30.06,,,TRUE,TRUE,,,,,,,CLR,,,,,,,,VFR,,,,,,,,,,,,METAR,21
KCLS 160115Z AUTO 19010KT 9SM BKN036 BKN042 20/20 A2985 RMK AO2,KCLS,2025-08-16T01:15:00Z,46.6774,-122.986,20,20,190,10,,9,29.85,,,TRUE,TRUE,,,,,,,BKN,3600,BKN,4200,,,,,VFR,,,,,,,,,,,,METAR,52
KCLK 160115Z AUTO 17012KT 10SM CLR 32/17 A3002 RMK AO2,KCLK,2025-08-16T01:15:00Z,35.5381,-98.9336,32,17,170,12,,10+,30.02,,,TRUE,TRUE,,,,,,,CLR,,,,,,,,VFR,,,,,,,,,,,,METAR,489
KCKZ 160115Z AUTO 00000KT 10SM CLR 25/20 A3017 RMK AO2,KCKZ,2025-08-16T01:15:00Z,40.3864,-75.2953,25,20,0,0,,10+,30.17,,,TRUE,TRUE,,,,,,,CLR,,,,,,,,VFR,,,,,,,,,,,,METAR,160
KCKP 160115Z AUTO 16006KT 10SM CLR 28/26 A2995 RMK AO2,KCKP,2025-08-16T01:15:00Z,42.7304,-95.5538,28,26,160,6,,10+,29.95,,,TRUE,TRUE,,,,,,,CLR,,,,,,,,VFR,,,,,,,,,,,,METAR,369
KCKN 160115Z AUTO 34003KT 10SM CLR 22/14 A3001 RMK AO2,KCKN,2025-08-16T01:15:00Z,47.8404,-96.6201,22,14,340,3,,10+,30.01,,,TRUE,TRUE,,,,,,,CLR,,,,,,,,VFR,,,,,,,,,,,,METAR,272
KCKM 160115Z AUTO 16004KT 10SM A3006 RMK A01,KCKM,2025-08-16T01:15:00Z,34.2945,-90.5146,,,160,4,,10+,30.06,,,TRUE,TRUE,,,,,,,,,,,,,,,VFR,,,,,,,,,,,,METAR,52
KCKI 160115Z AUTO 00000KT 10SM CLR 26/24 A3006 RMK AO2,KCKI,2025-08-16T01:15:00Z,33.7187,-79.8567,26,24,0,0,,10+,30.06,,,TRUE,TRUE,,,,,,,CLR,,,,,,,,VFR,,,,,,,,,,,,METAR,19
KCKF 160115Z AUTO 30003KT 10SM CLR 28/27 A3008 RMK AO2 LTG DSNT NE T02760272,KCKF,2025-08-16T01:15:00Z,31.9889,-83.7739,27.6,27.2,300,3,,10+,30.08,,,TRUE,TRUE,,,,,,,CLR,,,,,,,,VFR,,,,,,,,,,,,METAR,92
KCKC 160115Z 00000KT 10SM CLR A3001 RMK AO2,KCKC,2025-08-16T01:15:00Z,47.8366,-90.3864,,,0,0,,10+,30.01,,,,TRUE,,,,,,,CLR,,,,,,,,VFR,,,,,,,,,,,,METAR,544
KCJR 160115Z AUTO 00000KT 3SM BR BKN090 24/24 A3013 RMK AO2 T02440235,KCJR,2025-08-16T01:15:00Z,38.5261,-77.8574,24.4,23.5,0,0,,3,30.13,,,TRUE,TRUE,,,,,,BR,BKN,9000,,,,,,,MVFR,,,,,,,,,,,,METAR,90
KCIR 160115Z AUTO 00000KT 10SM CLR 27/24 A3007 RMK AO2 T02650243,KCIR,2025-08-16T01:15:00Z,37.0639,-89.2232,26.5,24.3,0,0,,10+,30.07,,,TRUE,TRUE,,,,,,,CLR,,,,,,,,VFR,,,,,,,,,,,,METAR,96
KCIN 160115Z AUTO 16007KT 10SM CLR 27/25 A2998 RMK AO2,KCIN,2025-08-16T01:15:00Z,42.0444,-94.7888,27,25,160,7,,10+,29.98,,,TRUE,TRUE,,,,,,,CLR,,,,,,,,VFR,,,,,,,,,,,,METAR,365
KCHK 160115Z AUTO 15008KT 10SM CLR 32/21 A2998 RMK AO2 T03160206,KCHK,2025-08-16T01:15:00Z,35.0927,-97.9709,31.6,20.6,150,8,,10+,29.98,,,TRUE,TRUE,,,,,,,CLR,,,,,,,,VFR,,,,,,,,,,,,METAR,346
KCGS 160115Z AUTO 00000KT 10SM CLR 26/24 A3012 RMK AO2 T02590236,KCGS,2025-08-16T01:15:00Z,38.9806,-76.9251,25.9,23.6,0,0,,10+,30.12,,,TRUE,TRUE,,,,,,,CLR,,,,,,,,VFR,,,,,,,,,,,,METAR,15
KCGE 160115Z AUTO 08004KT 10SM CLR 25/23 A3012 RMK A01,KCGE,2025-08-16T01:15:00Z,38.5372,-76.0309,25,23,80,4,,10+,30.12,,,TRUE,TRUE,,,,,,,CLR,,,,,,,,VFR,,,,,,,,,,,,METAR,5
KCGC 160115Z AUTO 30005KT 10SM CLR A3009 RMK AO2 LTG DSNT N THRU E,KCGC,2025-08-16T01:15:00Z,28.866,-82.5741,,,300,5,,10+,30.09,,,TRUE,TRUE,,,,,,,CLR,,,,,,,,VFR,,,,,,,,,,,,METAR,3
KCFJ 160115Z AUTO 16004KT 10SM CLR A3010 RMK AO2,KCFJ,2025-08-16T01:15:00Z,39.9767,-86.9148,,,160,4,,10+,30.10,,,TRUE,TRUE,,,,,,,CLR,,,,,,,,VFR,,,,,,,,,,,,METAR,243
KCFE 160115Z AUTO 11011G16KT 10SM SCT023 BKN028 OVC060 25/22 A2999 RMK AO2,KCFE,2025-08-16T01:15:00Z,45.1601,-93.846,25,22,110,11,16,10+,29.99,,,TRUE,TRUE,,,,,,,SCT,2300,BKN,2800,OVC,6000,,,MVFR,,,,,,,,,,,,METAR,292
KCFD 160115Z AUTO 15009G14KT 10SM CLR 30/24 A3006 RMK AO2 T03000235,KCFD,2025-08-16T01:15:00Z,30.7171,-96.3347,30,23.5,150,9,14,10+,30.06,,,TRUE,TRUE,,,,,,,CLR,,,,,,,,VFR,,,,,,,,,,,,METAR,106
KCEY 160115Z AUTO 00000KT 10SM CLR 28/23 A3009 RMK A01,KCEY,2025-08-16T01:15:00Z,36.664,-88.372,28,23,0,0,,10+,30.09,,,TRUE,TRUE,,,,,,,CLR,,,,,,,,VFR,,,,,,,,,,,,METAR,172
KCDN 160115Z AUTO 11011KT 10SM OVC045 28/28 A3008 RMK AO2 LTG DSNT ALQDS,KCDN,2025-08-16T01:15:00Z,34.2815,-80.5636,28,28,110,11,,10+,30.08,,,TRUE,TRUE,,,,,,,OVC,4500,,,,,,,VFR,,,,,,,,,,,,METAR,90
KCDI 160115Z AUTO 00000KT 10SM CLR 22/21 A3014 RMK AO2 T02190209,KCDI,2025-08-16T01:15:00Z,39.976,-81.577,21.9,20.9,0,0,,10+,30.14,,,TRUE,TRUE,,,,,,,CLR,,,,,,,,VFR,,,,,,,,,,,,METAR,241
KCDH 160115Z AUTO 00000KT 10SM CLR 29/25 A3004 RMK AO2,KCDH,2025-08-16T01:15:00Z,33.619,-92.765,29,25,0,0,,10+,30.04,,,TRUE,TRUE,,,,,,,CLR,,,,,,,,VFR,,,,,,,,,,,,METAR,38
KCDA 160115Z AUTO 00000KT 10SM CLR 18/10 A3023 RMK AO2 T01810103,KCDA,2025-08-16T01:15:00Z,44.5677,-72.0191,18.1,10.3,0,0,,10+,30.23,,,TRUE,TRUE,,,,,,,CLR,,,,,,,,VFR,,,,,,,,,,,,METAR,357
KCCY 160115Z AUTO 05005KT 10SM FEW160 FEW200 20/20 A3003 RMK AO2,KCCY,2025-08-16T01:15:00Z,43.073,-92.6132,20,20,50,5,,10+,30.03,,,TRUE,TRUE,,,,,,,FEW,16000,FEW,20000,,,,,VFR,,,,,,,,,,,,METAR,340
KCCU 160115Z AUTO 00000KT 10SM -RA BKN060 OVC070 13/04 A3067 RMK AO2,KCCU,2025-08-16T01:15:00Z,39.475,-106.152,13,4,0,0,,10+,30.67,,,TRUE,TRUE,,,,,,-RA,BKN,6000,OVC,7000,,,,,VFR,,,,,,,,,,,,METAR,3672
KCCO 160115Z AUTO 35004KT 10SM CLR 23/22 A3016 RMK AO2 T02330215,KCCO,2025-08-16T01:15:00Z,33.3107,-84.7713,23.3,21.5,350,4,,10+,30.16,,,TRUE,TRUE,,,,,,,CLR,,,,,,,,VFR,,,,,,,,,,,,METAR,290
KCCB 160115Z AUTO 26011G18KT 10SM CLR 25/15 A2993 RMK AO2,KCCB,2025-08-16T01:15:00Z,34.1118,-117.685,25,15,260,11,18,10+,29.93,,,TRUE,TRUE,,,,,,,CLR,,,,,,,,VFR,,,,,,,,,,,,METAR,440
KCCA 160115Z AUTO 00000KT 10SM CLR 30/23 A3005 RMK AO2,KCCA,2025-08-16T01:15:00Z,35.5946,-92.4455,30,23,0,0,,10+,30.05,,,TRUE,TRUE,,,,,,,CLR,,,,,,,,VFR,,,,,,,,,,,,METAR,152
KCBK 160115Z AUTO 15015KT 10SM CLR 33/13 A2997 RMK AO2 T03300135,KCBK,2025-08-16T01:15:00Z,39.4301,-101.051,33,13.5,150,15,,10+,29.97,,,TRUE,TRUE,,,,,,,CLR,,,,,,,,VFR,,,,,,,,,,,,METAR,970
KCBG 160115Z AUTO 17009KT 10SM CLR 24/21 A2999 RMK AO2,KCBG,2025-08-16T01:15:00Z,45.557,-93.264,24,21,170,9,,10+,29.99,,,TRUE,TRUE,,,,,,,CLR,,,,,,,,VFR,,,,,,,,,,,,METAR,285
KCBF 160115Z AUTO 16011KT 10SM CLR 29/25 A2994 RMK AO2,KCBF,2025-08-16T01:15:00Z,41.2611,-95.7604,29,25,160,11,,10+,29.94,,,TRUE,TRUE,,,,,,,CLR,,,,,,,,VFR,,,,,,,,,,,,METAR,379
KCBE 160115Z AUTO 32006KT 10SM BKN080 BKN090 26/19 A3017 RMK AO2 T02560188,KCBE,2025-08-16T01:15:00Z,39.6182,-78.7598,25.6,18.8,320,6,,10+,30.17,,,TRUE,TRUE,,,,,,,BKN,8000,BKN,9000,,,,,VFR,,,,,,,,,,,,METAR,226
KCAV 160115Z AUTO 15009G15KT 10SM CLR 23/22 A2999 RMK A01,KCAV,2025-08-16T01:15:00Z,42.743,-93.7592,23,22,150,9,15,10+,29.99,,,TRUE,TRUE,,,,,,,CLR,,,,,,,,VFR,,,,,,,,,,,,METAR,352
KCAD 160115Z AUTO 21002KT 10SM CLR 24/16 A3011 RMK AO2,KCAD,2025-08-16T01:15:00Z,44.2785,-85.4207,24,16,210,2,,10+,30.11,,,TRUE,TRUE,,,,,,,CLR,,,,,,,,VFR,,,,,,,,,,,,METAR,397
KC83 160115Z AUTO 22022G28KT 10SM CLR 28/13 A2983 RMK AO2,KC83,2025-08-16T01:15:00Z,37.8276,-121.624,28,13,220,22,28,10+,29.83,,,TRUE,TRUE,,,,,,,CLR,,,,,,,,VFR,,,,,,,,,,,,METAR,16
KC75 160115Z AUTO 00000KT 10SM CLR 28/25 A3007 RMK AO2 LTG DSNT SW AND W T02750248,KC75,2025-08-16T01:15:00Z,41.0231,-89.3886,27.5,24.8,0,0,,10+,30.07,,,TRUE,TRUE,,,,,,,CLR,,,,,,,,VFR,,,,,,,,,,,,METAR,166
KC65 160115Z AUTO 00000KT 10SM CLR 26/23 A3008 RMK A01,KC65,2025-08-16T01:15:00Z,41.3636,-86.2998,26,23,0,0,,10+,30.08,,,TRUE,TRUE,,,,,,,CLR,,,,,,,,VFR,,,,,,,,,,,,METAR,241
KC62 160115Z AUTO 00000KT 10SM CLR 23/20 A3012 RMK AO2 T02350200,KC62,2025-08-16T01:15:00Z,41.4739,-85.2541,23.5,20,0,0,,10+,30.12,,,TRUE,TRUE,,,,,,,CLR,,,,,,,,VFR,,,,,,,,,,,,METAR,304
KC35 160115Z AUTO 00000KT 10SM CLR 27/22 A3006 RMK AO2 T02670220 PWINO,KC35,2025-08-16T01:15:00Z,43.5261,-89.9809,26.7,22,0,0,,10+,30.06,,,TRUE,TRUE,,,,,TRUE,,CLR,,,,,,,,VFR,,,,,,,,,,,,METAR,272
KC29 160115Z AUTO 16003KT 10SM CLR 28/22 A3006 RMK AO1 T02800217,KC29,2025-08-16T01:15:00Z,43.1153,-89.5312,28,21.7,160,3,,10+,30.06,,,TRUE,TRUE,,,,,,,CLR,,,,,,,,VFR,,,,,,,,,,,,METAR,282
KC09 160115Z AUTO 17003KT 10SM CLR 27/23 A3006 RMK AO2 T02680230,KC09,2025-08-16T01:15:00Z,41.4317,-88.4152,26.8,23,170,3,,10+,30.06,,,TRUE,TRUE,,,,,,,CLR,,,,,,,,VFR,,,,,,,,,,,,METAR,179
KC08 160115Z AUTO 16007KT 10SM BKN110 21/04 A3035 RMK AO2,KC08,2025-08-16T01:15:00Z,38.0138,-105.373,21,4,160,7,,10+,30.35,,,TRUE,TRUE,,,,,,,BKN,11000,,,,,,,VFR,,,,,,,,,,,,METAR,2527
KC07 160115Z AUTO 00000KT 5SM RA SCT022 BKN044 OVC070 11/08 A3055 RMK AO2 P0001,KC07,2025-08-16T01:15:00Z,40.3544,-106.699,11,8,0,0,,5,30.55,,,TRUE,TRUE,,,,,,RA,SCT,2200,BKN,4400,OVC,7000,,,MVFR,,,,,,0.01,,,,,,METAR,3224
KBYY 160115Z AUTO 10005KT 10SM CLR 28/27 A2999 RMK AO2 T02810269,KBYY,2025-08-16T01:15:00Z,28.9717,-95.8584,28.1,26.9,100,5,,10+,29.99,,,TRUE,TRUE,,,,,,,CLR,,,,,,,,VFR,,,,,,,,,,,,METAR,12
KBYL 160115Z AUTO 35003KT 10SM 25/23 A3013 RMK AO1,KBYL,2025-08-16T01:15:00Z,36.7954,-84.2013,25,23,350,3,,10+,30.13,,,TRUE,TRUE,,,,,,,,,,,,,,,VFR,,,,,,,,,,,,METAR,355
KBXM 160115Z AUTO 16003KT 10SM CLR 17/14 A3021 RMK AO2,KBXM,2025-08-16T01:15:00Z,43.8848,-69.9354,17,14,160,3,,10+,30.21,,,TRUE,TRUE,,,,,,,CLR,,,,,,,,VFR,,,,,,,,,,,,METAR,16
KBXK 160115Z AUTO 18006KT 9SM -RA CLR 29/20 A2982 RMK AO2,KBXK,2025-08-16T01:15:00Z,33.4178,-112.688,29,20,180,6,,9,29.82,,,TRUE,TRUE,,,,,,-RA,CLR,,,,,,,,VFR,,,,,,,,,,,,METAR,303
KBXA 160115Z AUTO 00000KT 10SM CLR 26/24 A3010 RMK AO2 T02620237,KBXA,2025-08-16T01:15:00Z,30.8104,-89.8627,26.2,23.7,0,0,,10+,30.10,,,TRUE,TRUE,,,,,,,CLR,,,,,,,,VFR,,,,,,,,,,,,METAR,35
KBWW 160115Z AUTO 13010KT 10SM CLR 27/15 A2995 RMK AO2,KBWW,2025-08-16T01:15:00Z,46.1656,-103.296,27,15,130,10,,10+,29.95,,,TRUE,TRUE,,,,,,,CLR,,,,,,,,VFR,,,,,,,,,,,,METAR,911
KBWP 160115Z AUTO 02008KT 10SM CLR 24/22 A2995 RMK AO2,KBWP,2025-08-16T01:15:00Z,46.2444,-96.6046,24,22,20,8,,10+,29.95,,,TRUE,TRUE,,,,,,,CLR,,,,,,,,VFR,,,,,,,,,,,,METAR,294
KBWD 160115Z AUTO 14012G17KT 10SM SCT320 32/20 A3001 RMK AO2 T03240201 $,KBWD,2025-08-16T01:15:00Z,31.7898,-98.9522,32.4,20.1,140,12,17,10+,30.01,,,TRUE,TRUE,TRUE,,,,,,SCT,32000,,,,,,,VFR,,,,,,,,,,,,METAR,420
KBVU 160115Z AUTO 18017KT 10SM CLR 37/06 A2982 RMK AO2,KBVU,2025-08-16T01:15:00Z,35.9489,-114.863,37,6,180,17,,10+,29.82,,,TRUE,TRUE,,,,,,,CLR,,,,,,,,VFR,,,,,,,,,,,,METAR,654
KBVS 160115Z AUTO 17010G15KT 140V200 3SM BR BKN015 OVC020 19/19 A2978 RMK A01,KBVS,2025-08-16T01:15:00Z,48.4696,-122.419,19,19,170,10,15,3,29.78,,,TRUE,TRUE,,,,,,BR,BKN,1500,OVC,2000,,,,,MVFR,,,,,,,,,,,,METAR,31
KBVN 160115Z AUTO 08006KT 10SM CLR 29/26 A2993 RMK AO2 T02850260,KBVN,2025-08-16T01:15:00Z,41.7301,-98.0546,28.5,26,80,6,,10+,29.93,,,TRUE,TRUE,,,,,,,CLR,,,,,,,,VFR,,,,,,,,,,,,METAR,547
KBTN 160115Z AUTO 05008KT 10SM CLR 23/21 A2995 RMK AO2,KBTN,2025-08-16T01:15:00Z,45.8186,-97.7457,23,21,50,8,,10+,29.95,,,TRUE,TRUE,,,,,,,CLR,,,,,,,,VFR,,,,,,,,,,,,METAR,400
KBTA 160115Z AUTO 16007G14KT 10SM CLR 30/25 A2996 RMK AO2 T02960250,KBTA,2025-08-16T01:15:00Z,41.415,-96.109,29.6,25,160,7,14,10+,29.96,,,TRUE,TRUE,,,,,,,CLR,,,,,,,,VFR,,,,,,,,,,,,METAR,400
KBRY 160115Z AUTO 00000KT 10SM CLR 27/23 A3009 RMK AO2 T02700230 $,KBRY,2025-08-16T01:15:00Z,37.8079,-85.5011,27,23,0,0,,10+,30.09,,,TRUE,TRUE,TRUE,,,,,,CLR,,,,,,,,VFR,,,,,,,,,,,,METAR,192
KBRG 160115Z AUTO 12006KT 10SM SCT110 25/11 A3019 RMK AO2 T02450105,KBRG,2025-08-16T01:15:00Z,34.6477,-106.833,24.5,10.5,120,6,,10+,30.19,,,TRUE,TRUE,,,,,,,SCT,11000,,,,,,,VFR,,,,,,,,,,,,METAR,1585
KBQX 160115Z AUTO 00000KT 10SM SCT022 SCT028 29/27 A3006 RMK A01,KBQX,2025-08-16T01:15:00Z,28.314,-95.62,29,27,0,0,,10+,30.06,,,TRUE,TRUE,,,,,,,SCT,2200,SCT,2800,,,,,VFR,,,,,,,,,,,,METAR,34
KBQK 160115Z AUTO 21006KT 10SM CLR 28/26 A3006 RMK AO2 T02850264,KBQK,2025-08-16T01:15:00Z,31.2567,-81.4754,28.5,26.4,210,6,,10+,30.06,,,TRUE,TRUE,,,,,,,CLR,,,,,,,,VFR,,,,,,,,,,,,METAR,7
KBPG 160115Z AUTO 13012KT 10SM CLR 33/15 A3003 RMK AO2 T03280148,KBPG,2025-08-16T01:15:00Z,32.2097,-101.525,32.8,14.8,130,12,,10+,30.03,,,TRUE,TRUE,,,,,,,CLR,,,,,,,,VFR,,,,,,,,,,,,METAR,782
KBPC 160115Z AUTO 17015G20KT 10SM CLR 32/13 A3003 RMK AO2,KBPC,2025-08-16T01:15:00Z,35.8913,-101.027,32,13,170,15,20,10+,30.03,,,TRUE,TRUE,,,,,,,CLR,,,,,,,,VFR,,,,,,,,,,,,METAR,844
KBOW 160115Z AUTO 00000KT SCT055 SCT070 BKN080 28/25 A3007 RMK AO2 PWINO,KBOW,2025-08-16T01:15:00Z,27.9471,-81.7811,28,25,0,0,,,30.07,,,TRUE,TRUE,,,,,TRUE,,SCT,5500,SCT,7000,BKN,8000,,,,,,,,,,,,,,,METAR,38
KBNW 160115Z AUTO 16012KT 10SM CLR 25/25 A2998 RMK AO2,KBNW,2025-08-16T01:15:00Z,42.0486,-93.8486,25,25,160,12,,10+,29.98,,,TRUE,TRUE,,,,,,,CLR,,,,,,,,VFR,,,,,,,,,,,,METAR,350
KBNL 160115Z AUTO 00000KT 10SM CLR 27/25 A3008 RMK AO2 LTG DSNT N AND W,KBNL,2025-08-16T01:15:00Z,33.2601,-81.387,27,25,0,0,,10+,30.08,,,TRUE,TRUE,,,,,,,CLR,,,,,,,,VFR,,,,,,,,,,,,METAR,76
KBMT 160115Z AUTO 15004KT 10SM SCT029 SCT042 SCT055 29/24 A3006 RMK AO2 LTG DSNT W T02880238,KBMT,2025-08-16T01:15:00Z,30.0686,-94.2155,28.8,23.8,150,4,,10+,30.06,,,TRUE,TRUE,,,,,,,SCT,2900,SCT,4200,SCT,5500,,,VFR,,,,,,,,,,,,METAR,8
KBMC 160115Z AUTO 17007KT 10SM CLR 32/05 A2994 RMK AO2,KBMC,2025-08-16T01:15:00Z,41.5463,-112.06,32,5,170,7,,10+,29.94,,,TRUE,TRUE,,,,,,,CLR,,,,,,,,VFR,,,,,,,,,,,,METAR,1289
KBKS 160115Z AUTO 15007KT 9SM FEW085 28/22 A2996 RMK AO2 T02840224 $,KBKS,2025-08-16T01:15:00Z,27.2064,-98.1216,28.4,22.4,150,7,,9,29.96,,,TRUE,TRUE,TRUE,,,,,,FEW,8500,,,,,,,VFR,,,,,,,,,,,,METAR,34
KBKN 160115Z AUTO 16010KT 9SM CLR 34/19 A2997 RMK AO2,KBKN,2025-08-16T01:15:00Z,36.7431,-97.3479,34,19,160,10,,9,29.97,,,TRUE,TRUE,,,,,,,CLR,,,,,,,,VFR,,,,,,,,,,,,METAR,208
KBKD 160115Z AUTO 14009KT CLR 34/17 A3000 RMK AO2 T03430171,KBKD,2025-08-16T01:15:00Z,32.7206,-98.8931,34.3,17.1,140,9,,,30.00,,,TRUE,TRUE,,,,,,,CLR,,,,,,,,,,,,,,,,,,,,METAR,383
KBJI 160115Z AUTO 36004KT 10SM CLR 21/14 A3003 RMK AO2 T02050140,KBJI,2025-08-16T01:15:00Z,47.5076,-94.9279,20.5,14,360,4,,10+,30.03,,,TRUE,TRUE,,,,,,,CLR,,,,,,,,VFR,,,,,,,,,,,,METAR,422
KBIJ 160115Z AUTO 00000KT 10SM SCT024 23/22 A3010 RMK AO2,KBIJ,2025-08-16T01:15:00Z,31.4,-84.8939,23,22,0,0,,10+,30.10,,,TRUE,TRUE,,,,,,,SCT,2400,,,,,,,VFR,,,,,,,,,,,,METAR,63
KBIE 160115Z AUTO 16007KT 10SM CLR 32/22 A2995 RMK AO2 T03150216,KBIE,2025-08-16T01:15:00Z,40.3005,-96.7517,31.5,21.6,160,7,,10+,29.95,,,TRUE,TRUE,,,,,,,CLR,,,,,,,,VFR,,,,,,,,,,,,METAR,398
KBHC 160115Z AUTO 00000KT 10SM CLR 28/24 A3006 RMK AO2 LTG DSNT N PNO,KBHC,2025-08-16T01:15:00Z,31.712,-82.3902,28,24,0,0,,10+,30.06,,,TRUE,TRUE,,,,,,,CLR,,,,,,,,VFR,,,,,,,,,,,,METAR,61
KBGF 160115Z AUTO 10SM CLR 23/21 A3013 RMK A01,KBGF,2025-08-16T01:15:00Z,35.174,-86.0678,23,21,,,,10+,30.13,,,TRUE,TRUE,,,,,,,CLR,,,,,,,,VFR,,,,,,,,,,,,METAR,295
KBGE 160115Z AUTO 31011KT 10SM SCT006 24/ A3010 RMK AO2 T0243////,KBGE,2025-08-16T01:15:00Z,30.9709,-84.6344,24.3,,310,11,,10+,30.10,,,TRUE,TRUE,,,,,,,SCT,600,,,,,,,VFR,,,,,,,,,,,,METAR,40
KBFZ 160115Z AUTO VRB04KT 10SM CLR 24/24 A3015 RMK AO2,KBFZ,2025-08-16T01:15:00Z,34.2316,-86.2481,24,24,VRB,4,,10+,30.15,,,TRUE,TRUE,,,,,,,CLR,,,,,,,,VFR,,,,,,,,,,,,METAR,313
KBFR 160115Z AUTO 13001KT 10SM 27/24 A3010 RMK AO2,KBFR,2025-08-16T01:15:00Z,38.8383,-86.446,27,24,130,1,,10+,30.10,,,TRUE,TRUE,,,,,,,,,,,,,,,VFR,,,,,,,,,,,,METAR,223
KBFA 160115Z AUTO 00000KT 10SM CLR 23/18 A3007 RMK AO2,KBFA,2025-08-16T01:15:00Z,45.166,-84.924,23,18,0,0,,10+,30.07,,,TRUE,TRUE,,,,,,,CLR,,,,,,,,VFR,,,,,,,,,,,,METAR,219
KBEA 160115Z AUTO 13011G16KT 10SM SCT034 28/20 A2998 RMK AO2 T02800203,KBEA,2025-08-16T01:15:00Z,28.3692,-97.7953,28,20.3,130,11,16,10+,29.98,,,TRUE,TRUE,,,,,,,SCT,3400,,,,,,,VFR,,,,,,,,,,,,METAR,83
KBDU 160115Z AUTO 12003KT 10SM CLR 29/05 A3006 RMK AO2,KBDU,2025-08-16T01:15:00Z,40.0377,-105.227,29,5,120,3,,10+,30.06,,,TRUE,TRUE,,,,,,,CLR,,,,,,,,VFR,,,,,,,,,,,,METAR,1614
KBDN 160115Z AUTO 28011KT 10SM FEW065 26/10 A2997 RMK AO2,KBDN,2025-08-16T01:15:00Z,44.1006,-121.198,26,10,280,11,,10+,29.97,,,TRUE,TRUE,,,,,,,FEW,6500,,,,,,,VFR,,,,,,,,,,,,METAR,1044
KBDH 160115Z AUTO 09006KT 8SM CLR 25/25 A2996 RMK AO2,KBDH,2025-08-16T01:15:00Z,45.1111,-95.1258,25,25,90,6,,8,29.96,,,TRUE,TRUE,,,,,,,CLR,,,,,,,,VFR,,,,,,,,,,,,METAR,341
KBDG 160115Z AUTO 19007KT 9SM BKN085 OVC110 24/07 A3022 RMK AO2 T02400068,KBDG,2025-08-16T01:15:00Z,37.587,-109.481,24,6.8,190,7,,9,30.22,,,TRUE,TRUE,,,,,,,BKN,8500,OVC,11000,,,,,VFR,,,,,,,,,,,,METAR,1778
KBCK 160115Z AUTO 05005KT 1SM +TSRA 20/19 A3009 RMK AO2 LTG DSNT ALQDS P0039 T01970188,KBCK,2025-08-16T01:15:00Z,44.2499,-90.85,19.7,18.8,50,5,,1,30.09,,,TRUE,TRUE,,,,,,+TSRA,,,,,,,,,IFR,,,,,,0.39,,,,,,METAR,256
KBCB 160115Z AUTO 00000KT 10SM SCT050 SCT060 24/21 A3024 RMK AO2 T02380211 PWINO,KBCB,2025-08-16T01:15:00Z,37.208,-80.4127,23.8,21.1,0,0,,10+,30.24,,,TRUE,TRUE,,,,,TRUE,,SCT,5000,SCT,6000,,,,,VFR,,,,,,,,,,,,METAR,642
KBBP 160115Z AUTO 05003KT 10SM SCT050 26/25 A3007 RMK AO2,KBBP,2025-08-16T01:15:00Z,34.6228,-79.7354,26,25,50,3,,10+,30.07,,,TRUE,TRUE,,,,,,,SCT,5000,,,,,,,VFR,,,,,,,,,,,,METAR,44
KBBD 160115Z AUTO 13011G18KT 10SM CLR 30/20 A3003 RMK AO2,KBBD,2025-08-16T01:15:00Z,31.1766,-99.3229,30,20,130,11,18,10+,30.03,,,TRUE,TRUE,,,,,,,CLR,,,,,,,,VFR,,,,,,,,,,,,METAR,554
KBBB 160115Z AUTO 00000KT 10SM FEW034 26/25 A2995 RMK AO2,KBBB,2025-08-16T01:15:00Z,45.331,-95.6469,26,25,0,0,,10+,29.95,,,TRUE,TRUE,,,,,,,FEW,3400,,,,,,,VFR,,,,,,,,,,,,METAR,315
KBAX 160115Z AUTO 00000KT 10SM CLR 21/17 A3012 RMK AO2 T02110169,KBAX,2025-08-16T01:15:00Z,43.7774,-82.9828,21.1,16.9,0,0,,10+,30.12,,,TRUE,TRUE,,,,,,,CLR,,,,,,,,VFR,,,,,,,,,,,,METAR,229
KBAM 160115Z AUTO 25003KT 10SM SCT110 30/02 A2999 RMK AO1,KBAM,2025-08-16T01:15:00Z,40.6048,-116.872,30,2,250,3,,10+,29.99,,,TRUE,TRUE,,,,,,,SCT,11000,,,,,,,VFR,,,,,,,,,,,,METAR,1381
KBAC 160115Z AUTO 08005KT 10SM CLR 21/14 A3002 RMK AO2,KBAC,2025-08-16T01:15:00Z,46.9419,-98.0179,21,14,80,5,,10+,30.02,,,TRUE,TRUE,,,,,,,CLR,,,,,,,,VFR,,,,,,,,,,,,METAR,423
KAZC 160115Z AUTO 11013KT 10SM SCT110 22/11 A3015 RMK AO2 LTG DSNT S,KAZC,2025-08-16T01:15:00Z,36.959,-113.013,22,11,110,13,,10+,30.15,,,TRUE,TRUE,,,,,,,SCT,11000,,,,,,,VFR,,,,,,,,,,,,METAR,1476
KAYS 160115Z AUTO 19006KT 10SM CLR 29/29 A3007 RMK AO2 T02920285,KAYS,2025-08-16T01:15:00Z,31.2466,-82.4014,29.2,28.5,190,6,,10+,30.07,,,TRUE,TRUE,,,,,,,CLR,,,,,,,,VFR,,,,,,,,,,,,METAR,42
KAXX 160115Z AUTO 28005KT 10SM OVC120 17/05 A3044 RMK AO2 T01710046,KAXX,2025-08-16T01:15:00Z,36.422,-105.29,17.1,4.6,280,5,,10+,30.44,,,TRUE,TRUE,,,,,,,OVC,12000,,,,,,,VFR,,,,,,,,,,,,METAR,2543
KAXV 160115Z AUTO 00000KT 10SM CLR 24/21 A3012 RMK AO2,KAXV,2025-08-16T01:15:00Z,40.4959,-84.2929,24,21,0,0,,10+,30.12,,,TRUE,TRUE,,,,,,,CLR,,,,,,,,VFR,,,,,,,,,,,,METAR,278
KAXH 160115Z AUTO 14003KT 10SM CLR 29/24 A3005 RMK AO2 T02940240,KAXH,2025-08-16T01:15:00Z,29.505,-95.476,29.4,24,140,3,,10+,30.05,,,TRUE,TRUE,,,,,,,CLR,,,,,,,,VFR,,,,,,,,,,,,METAR,18
KAXA 160115Z AUTO 11004KT 10SM CLR 25/24 A2998 RMK A01,KAXA,2025-08-16T01:15:00Z,43.0796,-94.2723,25,24,110,4,,10+,29.98,,,TRUE,TRUE,,,,,,,CLR,,,,,,,,VFR,,,,,,,,,,,,METAR,371
KAWG 160115Z AUTO 04007KT 10SM BKN110 22/20 A3009 RMK AO2,KAWG,2025-08-16T01:15:00Z,41.2749,-91.6746,22,20,40,7,,10+,30.09,,,TRUE,TRUE,,,,,,,BKN,11000,,,,,,,VFR,,,,,,,,,,,,METAR,229
KAVQ 160115Z AUTO 24011KT 10SM CLR 33/14 A2992 RMK AO2 LTG DSNT S AND SW,KAVQ,2025-08-16T01:15:00Z,32.4112,-111.216,33,14,240,11,,10+,29.92,,,TRUE,TRUE,,,,,,,CLR,,,,,,,,VFR,,,,,,,,,,,,METAR,618
KAVK 160115Z AUTO 17017G23KT 10SM CLR A2994 RMK A01,KAVK,2025-08-16T01:15:00Z,36.7765,-98.6724,,,170,17,23,10+,29.94,,,TRUE,TRUE,,,,,,,CLR,,,,,,,,VFR,,,,,,,,,,,,METAR,450
KAVC 160115Z AUTO 00000KT 10SM OVC110 24/24 A3017 RMK AO2 T02400238,KAVC,2025-08-16T01:15:00Z,36.6854,-78.0523,24,23.8,0,0,,10+,30.17,,,TRUE,TRUE,,,,,,,OVC,11000,,,,,,,VFR,,,,,,,,,,,,METAR,119
KAUN 160115Z AUTO 24007KT 9SM CLR 32/06 A2988 RMK A01,KAUN,2025-08-16T01:15:00Z,38.9553,-121.087,32,6,240,7,,9,29.88,,,TRUE,TRUE,,,,,,,CLR,,,,,,,,VFR,,,,,,,,,,,,METAR,453
KAUM 160115Z AUTO 08005KT 10SM BKN060 OVC110 22/20 A3006 RMK AO2 LTG DSNT N AND NE,KAUM,2025-08-16T01:15:00Z,43.6688,-92.9321,22,20,80,5,,10+,30.06,,,TRUE,TRUE,,,,,,,BKN,6000,OVC,11000,,,,,VFR,,,,,,,,,,,,METAR,376
KATS 160115Z AUTO 14012KT 10SM FEW120 29/14 A3009 RMK AO2 LTG DSNT SE,KATS,2025-08-16T01:15:00Z,32.8524,-104.464,29,14,140,12,,10+,30.09,,,TRUE,TRUE,,,,,,,FEW,12000,,,,,,,VFR,,,,,,,,,,,,METAR,1073
KATP 160115Z AUTO 08007KT 9SM CLR 30/24 A3009 RMK A01,KATP,2025-08-16T01:15:00Z,27.1956,-90.0269,30,24,80,7,,9,30.09,,,TRUE,TRUE,,,,,,,CLR,,,,,,,,VFR,,,,,,,,,,,,METAR,50
KASW 160115Z AUTO 12003KT 10SM CLR 25/21 A3010 RMK AO2 T02520211,KASW,2025-08-16T01:15:00Z,41.274,-85.842,25.2,21.1,120,3,,10+,30.10,,,TRUE,TRUE,,,,,,,CLR,,,,,,,,VFR,,,,,,,,,,,,METAR,253
KASN 160115Z AUTO 20003KT 10SM CLR 23/23 A3011 RMK AO2,KASN,2025-08-16T01:15:00Z,33.569,-86.0519,23,23,200,3,,10+,30.11,,,TRUE,TRUE,,,,,,,CLR,,,,,,,,VFR,,,,,,,,,,,,METAR,159
KASL 160115Z AUTO 17004KT 9SM CLR 30/25 A3003 RMK AO2 T03040250 $,KASL,2025-08-16T01:15:00Z,32.5207,-94.3066,30.4,25,170,4,,9,30.03,,,TRUE,TRUE,TRUE,,,,,,CLR,,,,,,,,VFR,,,,,,,,,,,,METAR,104
KASJ 160115Z AUTO 00000KT 10SM BKN024 BKN029 24/24 A3008 RMK AO2 T02380238,KASJ,2025-08-16T01:15:00Z,36.2941,-77.1724,23.8,23.8,0,0,,10+,30.08,,,TRUE,TRUE,,,,,,,BKN,2400,BKN,2900,,,,,MVFR,,,,,,,,,,,,METAR,20
KARW 160115Z AUTO 00000KT 10SM CLR 25/24 A3006 RMK AO2,KARW,2025-08-16T01:15:00Z,32.4104,-80.6335,25,24,0,0,,10+,30.06,,,TRUE,TRUE,,,,,,,CLR,,,,,,,,VFR,,,,,,,,,,,,METAR,2
KARV 160115Z AUTO 00000KT 10SM SCT050 24/22 A3005 RMK AO2 T02370215,KARV,2025-08-16T01:15:00Z,45.9264,-89.7307,23.7,21.5,0,0,,10+,30.05,,,TRUE,TRUE,,,,,,,SCT,5000,,,,,,,VFR,,,,,,,,,,,,METAR,494
KARM 160115Z AUTO 11006KT 7SM CLR 28/25 A3004 RMK AO2 T02800245 TSNO,KARM,2025-08-16T01:15:00Z,29.2515,-96.1508,28,24.5,110,6,,7,30.04,,,TRUE,TRUE,,,TRUE,,,,CLR,,,,,,,,VFR,,,,,,,,,,,,METAR,29
KAQX 160115Z AUTO 00000KT 10SM CLR 26/26 A3006 RMK AO2 LTG DSNT N AND W,KAQX,2025-08-16T01:15:00Z,32.9941,-81.271,26,26,0,0,,10+,30.06,,,TRUE,TRUE,,,,,,,CLR,,,,,,,,VFR,,,,,,,,,,,,METAR,48
KAQO 160115Z AUTO 11008G15KT 060V130 10SM CLR 30/21 A3004 RMK AO2,KAQO,2025-08-16T01:15:00Z,30.7873,-98.6608,30,21,110,8,15,10+,30.04,,,TRUE,TRUE,,,,,,,CLR,,,,,,,,VFR,,,,,,,,,,,,METAR,334
KAPY 160115Z AUTO 14009G18KT 10SM CLR 30/21 A2996 RMK AO2 T02950209,KAPY,2025-08-16T01:15:00Z,26.969,-99.249,29.5,20.9,140,9,18,10+,29.96,,,TRUE,TRUE,,,,,,,CLR,,,,,,,,VFR,,,,,,,,,,,,METAR,129
KAPS 160115Z AUTO 00000KT 10SM CLR 24/24 A3007 RMK AO2 T02390236,KAPS,2025-08-16T01:15:00Z,30.086,-90.584,23.9,23.6,0,0,,10+,30.07,,,TRUE,TRUE,,,,,,,CLR,,,,,,,,VFR,,,,,,,,,,,,METAR,1
KANW 160115Z AUTO 13008KT 10SM CLR 28/23 A2994 RMK AO2 T02830231,KANW,2025-08-16T01:15:00Z,42.5748,-99.9984,28.3,23.1,130,8,,10+,29.94,,,TRUE,TRUE,,,,,,,CLR,,,,,,,,VFR,,,,,,,,,,,,METAR,788
KANQ 160115Z AUTO 00000KT 10SM CLR 23/22 A3012 RMK AO2,KANQ,2025-08-16T01:15:00Z,41.6404,-85.0852,23,22,0,0,,10+,30.12,,,TRUE,TRUE,,,,,,,CLR,,,,,,,,VFR,,,,,,,,,,,,METAR,299
KANK 160115Z AUTO 32004KT 10SM FEW100 OVC120 22/08 A3025 RMK AO2 RAE0054 P0000 T02160079 $,KANK,2025-08-16T01:15:00Z,38.538,-106.049,21.6,7.9,320,4,,10+,30.25,,,TRUE,TRUE,TRUE,,,,,,FEW,10000,OVC,12000,,,,,VFR,,,,,,0.005,,,,,,METAR,2293
KAMN 160115Z AUTO 17001KT 5SM HZ CLR 22/19 A3009 RMK AO2,KAMN,2025-08-16T01:15:00Z,43.3209,-84.6871,22,19,170,1,,5,30.09,,,TRUE,TRUE,,,,,,HZ,CLR,,,,,,,,MVFR,,,,,,,,,,,,METAR,228
KALX 160115Z AUTO 30004KT 10SM CLR 23/23 A3013 RMK AO2 T02290229,KALX,2025-08-16T01:15:00Z,32.916,-85.964,22.9,22.9,300,4,,10+,30.13,,,TRUE,TRUE,,,,,,,CLR,,,,,,,,VFR,,,,,,,,,,,,METAR,198
KALM 160115Z AUTO 10013G23KT 7SM BKN085 BKN110 28/13 A3011 RMK AO2,KALM,2025-08-16T01:15:00Z,32.8351,-105.994,28,13,100,13,23,7,30.11,,,TRUE,TRUE,,,,,,,BKN,8500,BKN,11000,,,,,VFR,,,,,,,,,,,,METAR,1267
KAJZ 160115Z AUTO 15006KT 10SM SCT120 28/10 A3011 RMK AO2 T02800100,KAJZ,2025-08-16T01:15:00Z,38.7869,-108.066,28,10,150,6,,10+,30.11,,,TRUE,TRUE,,,,,,,SCT,12000,,,,,,,VFR,,,,,,,,,,,,METAR,1583
KAJR 160115Z AUTO 04004KT 10SM -DZ SCT003 SCT120 A3017 RMK AO2,KAJR,2025-08-16T01:15:00Z,34.5006,-83.5519,,,40,4,,10+,30.17,,,TRUE,TRUE,,,,,,-DZ,SCT,300,SCT,12000,,,,,VFR,,,,,,,,,,,,METAR,441
KAJG 160115Z AUTO 10SM CLR 28/25 A3009 RMK AO2 T02770248,KAJG,2025-08-16T01:15:00Z,38.6093,-87.7251,27.7,24.8,,,,10+,30.09,,,TRUE,TRUE,,,,,,,CLR,,,,,,,,VFR,,,,,,,,,,,,METAR,130
KAIT 160115Z AUTO 21003KT 10SM CLR 24/22 A3000 RMK AO2,KAIT,2025-08-16T01:15:00Z,46.5483,-93.6754,24,22,210,3,,10+,30.00,,,TRUE,TRUE,,,,,,,CLR,,,,,,,,VFR,,,,,,,,,,,,METAR,367
KAIO 160115Z AUTO 15007G12KT 10SM CLR 29/26 A2997 RMK AO2,KAIO,2025-08-16T01:15:00Z,41.4059,-95.0465,29,26,150,7,12,10+,29.97,,,TRUE,TRUE,,,,,,,CLR,,,,,,,,VFR,,,,,,,,,,,,METAR,349
KAIK 160115Z AUTO 16003KT 10SM CLR 27/25 A3009 RMK AO2 LTG DSNT ALQDS T02750252,KAIK,2025-08-16T01:15:00Z,33.651,-81.6821,27.5,25.2,160,3,,10+,30.09,,,TRUE,TRUE,,,,,,,CLR,,,,,,,,VFR,,,,,,,,,,,,METAR,155
KAIG 160115Z AUTO 17005KT 10SM SCT055 SCT065 24/21 A3008 RMK AO2 T02380210,KAIG,2025-08-16T01:15:00Z,45.1566,-89.1115,23.8,21,170,5,,10+,30.08,,,TRUE,TRUE,,,,,,,SCT,5500,SCT,6500,,,,,VFR,,,,,,,,,,,,METAR,462
KAID 160115Z AUTO 00000KT 10SM CLR 24/21 A3011 RMK AO2 T02410210,KAID,2025-08-16T01:15:00Z,40.1061,-85.6097,24.1,21,0,0,,10+,30.11,,,TRUE,TRUE,,,,,,,CLR,,,,,,,,VFR,,,,,,,,,,,,METAR,277
KAHQ 160115Z AUTO 13006KT 10SM CLR 29/26 A2994 RMK AO2 T02850257,KAHQ,2025-08-16T01:15:00Z,41.241,-96.594,28.5,25.7,130,6,,10+,29.94,,,TRUE,TRUE,,,,,,,CLR,,,,,,,,VFR,,,,,,,,,,,,METAR,372
KAGO 160115Z AUTO 00000KT 10SM CLR 29/26 A3004 RMK A01,KAGO,2025-08-16T01:15:00Z,33.2266,-93.2154,29,26,0,0,,10+,30.04,,,TRUE,TRUE,,,,,,,CLR,,,,,,,,VFR,,,,,,,,,,,,METAR,91
KAFO 160115Z AUTO 36013KT 10SM SCT060 SCT075 OVC090 19/08 A3020 RMK AO2,KAFO,2025-08-16T01:15:00Z,42.7139,-110.944,19,8,360,13,,10+,30.20,,,TRUE,TRUE,,,,,,,SCT,6000,SCT,7500,OVC,9000,,,VFR,,,,,,,,,,,,METAR,1881
KAFK 160115Z AUTO 16005KT 10SM CLR 28/25 A2997 RMK AO2 T02820252,KAFK,2025-08-16T01:15:00Z,40.6065,-95.8635,28.2,25.2,160,5,,10+,29.97,,,TRUE,TRUE,,,,,,,CLR,,,,,,,,VFR,,,,,,,,,,,,METAR,353
KAEL 160115Z AUTO 11006KT 10SM SCT045 SCT050 BKN060 22/20 A3005 RMK AO2 TSNO,KAEL,2025-08-16T01:15:00Z,43.6823,-93.3722,22,20,110,6,,10+,30.05,,,TRUE,TRUE,,,TRUE,,,,SCT,4500,SCT,5000,BKN,6000,,,VFR,,,,,,,,,,,,METAR,382
KAEJ 160115Z AUTO 05005KT BKN100 BKN120 22/03 A3032 RMK AO2 T02160033 PWINO,KAEJ,2025-08-16T01:15:00Z,38.8116,-106.121,21.6,3.3,50,5,,,30.32,,,TRUE,TRUE,,,,,TRUE,,BKN,10000,BKN,12000,,,,,,,,,,,,,,,,,METAR,2420
KADU 160115Z AUTO 14004KT 10SM SCT036 SCT048 BKN070 27/25 A3000 RMK AO2,KADU,2025-08-16T01:15:00Z,41.6993,-94.9204,27,25,140,4,,10+,30.00,,,TRUE,TRUE,,,,,,,SCT,3600,SCT,4800,BKN,7000,,,VFR,,,,,,,,,,,,METAR,391
KADH 160115Z AUTO 14006KT 10SM CLR 31/24 A3003 RMK AO2,KADH,2025-08-16T01:15:00Z,34.8021,-96.6701,31,24,140,6,,10+,30.03,,,TRUE,TRUE,,,,,,,CLR,,,,,,,,VFR,,,,,,,,,,,,METAR,301
KADC 160115Z AUTO 03006KT 10SM CLR 25/20 A2999 RMK AO2,KADC,2025-08-16T01:15:00Z,46.4502,-95.2135,25,20,30,6,,10+,29.99,,,TRUE,TRUE,,,,,,,CLR,,,,,,,,VFR,,,,,,,,,,,,METAR,416
KACZ 160115Z AUTO 00000KT 10SM CLR 25/25 A3006 RMK AO2 T02490246,KACZ,2025-08-16T01:15:00Z,34.718,-78.005,24.9,24.6,0,0,,10+,30.06,,,TRUE,TRUE,,,,,,,CLR,,,,,,,,VFR,,,,,,,,,,,,METAR,30
KACQ 160115Z AUTO 12004KT 10SM BKN033 BKN039 OVC055 24/21 A3004 RMK AO2 LTG DSNT E,KACQ,2025-08-16T01:15:00Z,44.0702,-93.5535,24,21,120,4,,10+,30.04,,,TRUE,TRUE,,,,,,,BKN,3300,BKN,3900,OVC,5500,,,VFR,,,,,,,,,,,,METAR,339
KACP 160115Z AUTO 00000KT 10SM CLR 24/22 A3002 RMK AO2,KACP,2025-08-16T01:15:00Z,30.7469,-92.687,24,22,0,0,,10+,30.02,,,TRUE,TRUE,,,,,,,CLR,,,,,,,,VFR,,,,,,,,,,,,METAR,31
KACJ 160115Z AUTO 27004KT 10SM CLR 27/27 A3005 RMK AO2 T02680268,KACJ,2025-08-16T01:15:00Z,32.1106,-84.1841,26.8,26.8,270,4,,10+,30.05,,,TRUE,TRUE,,,,,,,CLR,,,,,,,,VFR,,,,,,,,,,,,METAR,140
KACB 160115Z AUTO 00000KT 10SM CLR 21/19 A3007 RMK AO2 T02060185,KACB,2025-08-16T01:15:00Z,44.9867,-85.2022,20.6,18.5,0,0,,10+,30.07,,,TRUE,TRUE,,,,,,,CLR,,,,,,,,VFR,,,,,,,,,,,,METAR,189
KAAS 160115Z AUTO 00000KT 10SM CLR 25/22 A3016 RMK AO1,KAAS,2025-08-16T01:15:00Z,37.3569,-85.3151,25,22,0,0,,10+,30.16,,,TRUE,TRUE,,,,,,,CLR,,,,,,,,VFR,,,,,,,,,,,,METAR,270
KAAA 160115Z AUTO 00000KT 10SM CLR 29/26 A3007 RMK AO2 T02910255,KAAA,2025-08-16T01:15:00Z,40.1584,-89.339,29.1,25.5,0,0,,10+,30.07,,,TRUE,TRUE,,,,,,,CLR,,,,,,,,VFR,,,,,,,,,,,,METAR,179
KA39 160115Z AUTO 14009KT 10SM 33/16 A2989 RMK AO2,KA39,2025-08-16T01:15:00Z,32.9875,-111.922,33,16,140,9,,10+,29.89,,,TRUE,TRUE,,,,,,,,,,,,,,,VFR,,,,,,,,,,,,METAR,391
K9Y1 160115Z AUTO 07009KT 10SM CLR 22/16 A2997 RMK AO2,K9Y1,2025-08-16T01:15:00Z,47.3941,-102.773,22,16,70,9,,10+,29.97,,,TRUE,TRUE,,,,,,,CLR,,,,,,,,VFR,,,,,,,,,,,,METAR,695
K9V9 160115Z AUTO 12009KT 10SM CLR 29/25 A2992 RMK AO2 T02850245,K9V9,2025-08-16T01:15:00Z,43.7653,-99.3163,28.5,24.5,120,9,,10+,29.92,,,TRUE,TRUE,,,,,,,CLR,,,,,,,,VFR,,,,,,,,,,,,METAR,511
K9S9 160115Z AUTO 29008G13KT 10SM CLR 27/13 A2991 RMK AO2,K9S9,2025-08-16T01:15:00Z,45.4551,-119.686,27,13,290,8,13,10+,29.91,,,TRUE,TRUE,,,,,,,CLR,,,,,,,,VFR,,,,,,,,,,,,METAR,498
K9S2 160115Z AUTO 09014KT 10SM CLR 22/12 A2995 RMK AO2,K9S2,2025-08-16T01:15:00Z,48.808,-105.436,22,12,90,14,,10+,29.95,,,TRUE,TRUE,,,,,,,CLR,,,,,,,,VFR,,,,,,,,,,,,METAR,741
K9MN 160115Z AUTO 12006KT 10SM BKN060 OVC065 20/17 A3008 RMK AO1 T02010171,K9MN,2025-08-16T01:15:00Z,44.0198,-92.4829,20.1,17.1,120,6,,10+,30.08,,,TRUE,TRUE,,,,,,,BKN,6000,OVC,6500,,,,,VFR,,,,,,,,,,,,METAR,308
K9K7 160115Z AUTO 16008KT 10SM CLR 33/20 A2997 RMK AO2,K9K7,2025-08-16T01:15:00Z,38.7502,-98.2316,33,20,160,8,,10+,29.97,,,TRUE,TRUE,,,,,,,CLR,,,,,,,,VFR,,,,,,,,,,,,METAR,491
K9A4 160115Z AUTO 20004KT 10SM CLR 23/22 A3014 RMK AO2,K9A4,2025-08-16T01:15:00Z,34.66,-87.349,23,22,200,4,,10+,30.14,,,TRUE,TRUE,,,,,,,CLR,,,,,,,,VFR,,,,,,,,,,,,METAR,176
K96D 160115Z AUTO 33004KT 10SM CLR 20/13 A3002 RMK AO2,K96D,2025-08-16T01:15:00Z,48.9402,-97.9053,20,13,330,4,,10+,30.02,,,TRUE,TRUE,,,,,,,CLR,,,,,,,,VFR,,,,,,,,,,,,METAR,290
K8W2 160115Z AUTO 00000KT 10SM CLR 23/22 A3015 RMK AO1 T02330222,K8W2,2025-08-16T01:15:00Z,38.6554,-78.7083,23.3,22.2,0,0,,10+,30.15,,,TRUE,TRUE,,,,,,,CLR,,,,,,,,VFR,,,,,,,,,,,,METAR,295
K8V7 160115Z AUTO 19015KT 10SM CLR 32/07 A3004 RMK AO2,K8V7,2025-08-16T01:15:00Z,37.4547,-102.619,32,7,190,15,,10+,30.04,,,TRUE,TRUE,,,,,,,CLR,,,,,,,,VFR,,,,,,,,,,,,METAR,1338
K8T6 160115Z AUTO 13014G20KT 10SM FEW032 29/25 A2996 RMK AO2,K8T6,2025-08-16T01:15:00Z,28.3656,-98.1174,29,25,130,14,20,10+,29.96,,,TRUE,TRUE,,,,,,,FEW,3200,,,,,,,VFR,,,,,,,,,,,,METAR,39
K8D4 160115Z AUTO 08002KT 10SM CLR 24/20 A3007 RMK AO2,K8D4,2025-08-16T01:15:00Z,43.1295,-85.6779,24,20,80,2,,10+,30.07,,,TRUE,TRUE,,,,,,,CLR,,,,,,,,VFR,,,,,,,,,,,,METAR,228
K8A3 160115Z AUTO 00000KT 10SM CLR 25/21 A3012 RMK A01,K8A3,2025-08-16T01:15:00Z,36.4164,-85.3061,25,21,0,0,,10+,30.12,,,TRUE,TRUE,,,,,,,CLR,,,,,,,,VFR,,,,,,,,,,,,METAR,413
K82V 160115Z AUTO 18016G26KT 7SM 25/09 A3008 RMK AO2 LTG DSNT E AND SE,K82V,2025-08-16T01:15:00Z,41.151,-104.129,25,9,180,16,26,7,30.08,,,TRUE,TRUE,,,,,,,,,,,,,,,VFR,,,,,,,,,,,,METAR,1563
K82C 160115Z AUTO 15003KT 26/26 A3004 RMK AO2 T02600260 PWINO,K82C,2025-08-16T01:15:00Z,43.8385,-90.1345,26,26,150,3,,,30.04,,,TRUE,TRUE,,,,,TRUE,,,,,,,,,,,,,,,,,,,,,,METAR,273
K81R 160115Z AUTO 14010KT 7SM CLR 31/20 A3004 RMK AO2 PWINO T03080197,K81R,2025-08-16T01:15:00Z,31.2321,-98.7154,30.8,19.7,140,10,,7,30.04,,,TRUE,TRUE,,,,,TRUE,,CLR,,,,,,,,VFR,,,,,,,,,,,,METAR,381
K7W6 160115Z AUTO 36003KT 10SM CLR 25/24 A3006 RMK AO2 T02460235,K7W6,2025-08-16T01:15:00Z,35.5594,-75.955,24.6,23.5,360,3,,10+,30.06,,,TRUE,TRUE,,,,,,,CLR,,,,,,,,VFR,,,,,,,,,,,,METAR,1
K7S0 160115Z AUTO 00000KT 10SM CLR 27/06 A2990 RMK A01,K7S0,2025-08-16T01:15:00Z,47.5676,-114.1,27,6,0,0,,10+,29.90,,,TRUE,TRUE,,,,,,,CLR,,,,,,,,VFR,,,,,,,,,,,,METAR,941
K7L2 160115Z AUTO 08011G16KT 10SM CLR 23/17 A2999 RMK AO2,K7L2,2025-08-16T01:15:00Z,46.219,-100.245,23,17,80,11,16,10+,29.99,,,TRUE,TRUE,,,,,,,CLR,,,,,,,,VFR,,,,,,,,,,,,METAR,541
K79S 160115Z AUTO 03010KT 10SM BKN180 27/10 A2982 RMK AO2 T02730104 $,K79S,2025-08-16T01:15:00Z,47.845,-110.636,27.3,10.4,30,10,,10+,29.82,,,TRUE,TRUE,TRUE,,,,,,BKN,18000,,,,,,,VFR,,,,,,,,,,,,METAR,874
K77S 160115Z AUTO VRB06G13KT 10SM BKN048 OVC055 25/16 A2995 RMK A01,K77S,2025-08-16T01:15:00Z,43.9324,-123.006,25,16,VRB,6,13,10+,29.95,,,TRUE,TRUE,,,,,,,BKN,4800,OVC,5500,,,,,VFR,,,,,,,,,,,,METAR,161
K74V 160115Z AUTO 25012G19KT 10SM FEW065 BKN080 OVC100 26/08 A3011 RMK AO2,K74V,2025-08-16T01:15:00Z,40.2799,-110.05,26,8,250,12,19,10+,30.11,,,TRUE,TRUE,,,,,,,FEW,6500,BKN,8000,OVC,10000,,,VFR,,,,,,,,,,,,METAR,1567
K6S2 160115Z AUTO 19012G21KT 3/4SM UP BR OVC003 18/18 A2997 RMK AO2,K6S2,2025-08-16T01:15:00Z,43.9838,-124.11,18,18,190,12,21,0.75,29.97,,,TRUE,TRUE,,,,,,BR UP,OVC,300,,,,,,,LIFR,,,,,,,,,,,,METAR,16
K6S0 160115Z AUTO 14011KT 10SM CLR 30/06 A2993 RMK A01,K6S0,2025-08-16T01:15:00Z,45.8063,-109.974,30,6,140,11,,10+,29.93,,,TRUE,TRUE,,,,,,,CLR,,,,,,,,VFR,,,,,,,,,,,,METAR,1364
K6R3 160115Z AUTO 17003KT 10SM CLR 27/24 A3007 RMK AO2 T02720239,K6R3,2025-08-16T01:15:00Z,30.358,-95.007,27.2,23.9,170,3,,10+,30.07,,,TRUE,TRUE,,,,,,,CLR,,,,,,,,VFR,,,,,,,,,,,,METAR,44
K6P9 160115Z AUTO 14006KT 10SM CLR 31/19 A3003 RMK AO2 T03120190,K6P9,2025-08-16T01:15:00Z,32.4294,-98.5959,31.2,19,140,6,,10+,30.03,,,TRUE,TRUE,,,,,,,CLR,,,,,,,,VFR,,,,,,,,,,,,METAR,451
K6L4 160115Z AUTO 00000KT 10SM CLR 26/19 A3017 RMK AO2,K6L4,2025-08-16T01:15:00Z,37.8553,-81.915,26,19,0,0,,10+,30.17,,,TRUE,TRUE,,,,,,,CLR,,,,,,,,VFR,,,,,,,,,,,,METAR,504
K6I2 160115Z AUTO 00000KT 10SM CLR 25/20 A3012 RMK AO2,K6I2,2025-08-16T01:15:00Z,37.6352,-85.2418,25,20,0,0,,10+,30.12,,,TRUE,TRUE,,,,,,,CLR,,,,,,,,VFR,,,,,,,,,,,,METAR,258
K6E5 160115Z AUTO 11006KT 7SM CLR 26/26 A2993 RMK AO2,K6E5,2025-08-16T01:15:00Z,44.4324,-97.5598,26,26,110,6,,7,29.93,,,TRUE,TRUE,,,,,,,CLR,,,,,,,,VFR,,,,,,,,,,,,METAR,525
K6B9 160115Z AUTO 00000KT 10SM CLR 20/15 A3017 RMK AO2,K6B9,2025-08-16T01:15:00Z,42.9141,-76.4428,20,15,0,0,,10+,30.17,,,TRUE,TRUE,,,,,,,CLR,,,,,,,,VFR,,,,,,,,,,,,METAR,306
K6A1 160115Z AUTO 00000KT 10SM CLR 27/25 A3010 RMK AO2 T02720251,K6A1,2025-08-16T01:15:00Z,32.5733,-84.247,27.2,25.1,0,0,,10+,30.10,,,TRUE,TRUE,,,,,,,CLR,,,,,,,,VFR,,,,,,,,,,,,METAR,198
K66R 160115Z AUTO 13005KT 10SM CLR 29/24 A3004 RMK AO2 T02930240,K66R,2025-08-16T01:15:00Z,29.6382,-96.5137,29.3,24,130,5,,10+,30.04,,,TRUE,TRUE,,,,,,,CLR,,,,,,,,VFR,,,,,,,,,,,,METAR,70
K65S 160115Z AUTO 00000KT 10SM OVC055 22/11 A2991 RMK AO2,K65S,2025-08-16T01:15:00Z,48.7255,-116.293,22,11,0,0,,10+,29.91,,,TRUE,TRUE,,,,,,,OVC,5500,,,,,,,VFR,,,,,,,,,,,,METAR,708
K63S 160115Z AUTO VRB04KT 10SM BKN055 OVC070 21/12 A2987 RMK A01,K63S,2025-08-16T01:15:00Z,48.544,-117.884,21,12,VRB,4,,10+,29.87,,,TRUE,TRUE,,,,,,,BKN,5500,OVC,7000,,,,,VFR,,,,,,,,,,,,METAR,571
K5T9 160115Z AUTO 10012G17KT 10SM CLR 35/21 A2991 RMK A01,K5T9,2025-08-16T01:15:00Z,28.8568,-100.516,35,21,100,12,17,10+,29.91,,,TRUE,TRUE,,,,,,,CLR,,,,,,,,VFR,,,,,,,,,,,,METAR,269
K5R8 160115Z AUTO 00000KT 10SM CLR 27/23 A3006 RMK AO2 T02660230,K5R8,2025-08-16T01:15:00Z,30.4368,-93.4696,26.6,23,0,0,,10+,30.06,,,TRUE,TRUE,,,,,,,CLR,,,,,,,,VFR,,,,,,,,,,,,METAR,26
K5H4 160115Z AUTO 05004KT 10SM CLR 19/15 A3003 RMK AO2,K5H4,2025-08-16T01:15:00Z,47.7906,-99.9346,19,15,50,4,,10+,30.03,,,TRUE,TRUE,,,,,,,CLR,,,,,,,,VFR,,,,,,,,,,,,METAR,490
K5C1 160115Z AUTO 12007KT 10SM CLR 30/18 A3003 RMK AO1,K5C1,2025-08-16T01:15:00Z,29.7267,-98.6964,30,18,120,7,,10+,30.03,,,TRUE,TRUE,,,,,,,CLR,,,,,,,,VFR,,,,,,,,,,,,METAR,422
K5A9 160115Z AUTO 00000KT 10SM CLR 24/22 A3014 RMK AO2 T02380221,K5A9,2025-08-16T01:15:00Z,32.9362,-84.6972,23.8,22.1,0,0,,10+,30.14,,,TRUE,TRUE,,,,,,,CLR,,,,,,,,VFR,,,,,,,,,,,,METAR,268
K5A6 160115Z AUTO 00000KT 10SM CLR 28/25 A3008 RMK AO2 LTG DSNT SW AND W T02750248,K5A6,2025-08-16T01:15:00Z,33.469,-89.727,27.5,24.8,0,0,,10+,30.08,,,TRUE,TRUE,,,,,,,CLR,,,,,,,,VFR,,,,,,,,,,,,METAR,109
K57C 160115Z AUTO 00000KT 10SM CLR 24/22 A3006 RMK AO2 T02420218,K57C,2025-08-16T01:15:00Z,42.7971,-88.3655,24.2,21.8,0,0,,10+,30.06,,,TRUE,TRUE,,,,,,,CLR,,,,,,,,VFR,,,,,,,,,,,,METAR,454
K54J 160115Z AUTO 32003KT 10SM -RA SCT090 OVC110 24/24 A3015 RMK AO2 LTG DSNT SW AND NW P0001 T02380238,K54J,2025-08-16T01:15:00Z,30.7312,-86.1542,23.8,23.8,320,3,,10+,30.15,,,TRUE,TRUE,,,,,,-RA,SCT,9000,OVC,11000,,,,,VFR,,,,,,0.01,,,,,,METAR,87
K54A 160115Z AUTO 00000KT 10SM CLR 26/25 A3005 RMK AO2,K54A,2025-08-16T01:15:00Z,26.8601,-82.2468,26,25,0,0,,10+,30.05,,,TRUE,TRUE,,,,,,,CLR,,,,,,,,VFR,,,,,,,,,,,,METAR,2
K4V9 160115Z AUTO 11006KT 10SM CLR 29/27 A2992 RMK AO2,K4V9,2025-08-16T01:15:00Z,42.1109,-98.041,29,27,110,6,,10+,29.92,,,TRUE,TRUE,,,,,,,CLR,,,,,,,,VFR,,,,,,,,,,,,METAR,530
K4V1 160115Z AUTO 19008KT 10SM CLR 26/06 A3016 RMK AO2,K4V1,2025-08-16T01:15:00Z,37.6941,-104.788,26,6,190,8,,10+,30.16,,,TRUE,TRUE,,,,,,,CLR,,,,,,,,VFR,,,,,,,,,,,,METAR,1847
K4V0 160115Z AUTO 24009G14KT 10SM SCT090 BKN110 28/07 A3009 RMK AO2 T02800068,K4V0,2025-08-16T01:15:00Z,40.0956,-108.762,28,6.8,240,9,14,10+,30.09,,,TRUE,TRUE,,,,,,,SCT,9000,BKN,11000,,,,,VFR,,,,,,,,,,,,METAR,1602
K4S2 160115Z AUTO 30009G16KT 10SM SCT044 OVC110 21/16 A2989 RMK AO2,K4S2,2025-08-16T01:15:00Z,45.6746,-121.535,21,16,300,9,16,10+,29.89,,,TRUE,TRUE,,,,,,,SCT,4400,OVC,11000,,,,,VFR,,,,,,,,,,,,METAR,183
K4R5 160115Z AUTO 00000KT 10SM CLR 24/21 A2996 RMK AO2 T02360210,K4R5,2025-08-16T01:15:00Z,46.7887,-90.7559,23.6,21,0,0,,10+,29.96,,,TRUE,TRUE,,,,,,,CLR,,,,,,,,VFR,,,,,,,,,,,,METAR,195
K4O4 160115Z AUTO 14004KT 10SM CLR 31/23 A3005 RMK AO2,K4O4,2025-08-16T01:15:00Z,33.9133,-94.8546,31,23,140,4,,10+,30.05,,,TRUE,TRUE,,,,,,,CLR,,,,,,,,VFR,,,,,,,,,,,,METAR,148
K4M9 160115Z AUTO 18004KT 10SM CLR 30/28 A3006 RMK A01,K4M9,2025-08-16T01:15:00Z,36.404,-90.647,30,28,180,4,,10+,30.06,,,TRUE,TRUE,,,,,,,CLR,,,,,,,,VFR,,,,,,,,,,,,METAR,86
K4M3 160115Z AUTO 23008G14KT 10SM 30/23 A3003 RMK A01,K4M3,2025-08-16T01:15:00Z,34.804,-91.707,30,23,230,8,14,10+,30.03,,,TRUE,TRUE,,,,,,,,,,,,,,,VFR,,,,,,,,,,,,METAR,73
K4F2 160115Z AUTO 11003KT 10SM CLR 28/24 A3005 RMK AO2 T02800236,K4F2,2025-08-16T01:15:00Z,32.18,-94.2976,28,23.6,110,3,,10+,30.05,,,TRUE,TRUE,,,,,,,CLR,,,,,,,,VFR,,,,,,,,,,,,METAR,76
K4BM 160115Z AUTO 18004KT 10SM BKN070 BKN090 15/03 A3062 RMK AO2,K4BM,2025-08-16T01:15:00Z,39.05,-105.514,15,3,180,4,,10+,30.62,,,TRUE,TRUE,,,,,,,BKN,7000,BKN,9000,,,,,VFR,,,,,,,,,,,,METAR,3432
K4B8 160115Z AUTO 16005KT 10SM CLR 26/20 A3017 RMK AO2 T02560196,K4B8,2025-08-16T01:15:00Z,41.69,-72.865,25.6,19.6,160,5,,10+,30.17,,,TRUE,TRUE,,,,,,,CLR,,,,,,,,VFR,,,,,,,,,,,,METAR,61
K4A9 160115Z AUTO 00000KT 10SM CLR 24/22 A3014 RMK AO2 T02410216,K4A9,2025-08-16T01:15:00Z,34.4759,-85.717,24.1,21.6,0,0,,10+,30.14,,,TRUE,TRUE,,,,,,,CLR,,,,,,,,VFR,,,,,,,,,,,,METAR,273
K4A6 160115Z AUTO 00000KT 9SM CLR 23/23 A3014 RMK AO2,K4A6,2025-08-16T01:15:00Z,34.688,-86.006,23,23,0,0,,9,30.14,,,TRUE,TRUE,,,,,,,CLR,,,,,,,,VFR,,,,,,,,,,,,METAR,191
K49B 160115Z AUTO 25013KT 10SM SCT060 BKN070 OVC100 27/19 A2998 RMK AO2,K49B,2025-08-16T01:15:00Z,44.4284,-103.38,27,19,250,13,,10+,29.98,,,TRUE,TRUE,,,,,,,SCT,6000,BKN,7000,OVC,10000,,,VFR,,,,,,,,,,,,METAR,986
K49A 160115Z AUTO 00000KT 10SM SCT044 SCT055 SCT065 23/23 A3017 RMK AO2,K49A,2025-08-16T01:15:00Z,34.6301,-84.5271,23,23,0,0,,10+,30.17,,,TRUE,TRUE,,,,,,,SCT,4400,SCT,5500,SCT,6500,,,VFR,,,,,,,,,,,,METAR,449
K48I 160115Z AUTO 00000KT 10SM CLR 21/19 A3015 RMK AO2 T02100193,K48I,2025-08-16T01:15:00Z,38.684,-80.649,21,19.3,0,0,,10+,30.15,,,TRUE,TRUE,,,,,,,CLR,,,,,,,,VFR,,,,,,,,,,,,METAR,386
K48A 160115Z AUTO 00000KT 10SM CLR 28/26 A3007 RMK AO2 LTG DSNT NE AND E T02760259,K48A,2025-08-16T01:15:00Z,32.3993,-83.2785,27.6,25.9,0,0,,10+,30.07,,,TRUE,TRUE,,,,,,,CLR,,,,,,,,VFR,,,,,,,,,,,,METAR,115
K46U 160115Z AUTO 00000KT 9SM SCT055 SCT075 BKN085 21/09 A3019 RMK A01,K46U,2025-08-16T01:15:00Z,43.181,-111.037,21,9,0,0,,9,30.19,,,TRUE,TRUE,,,,,,,SCT,5500,SCT,7500,BKN,8500,,,VFR,,,,,,,,,,,,METAR,1718
K46D 160115Z AUTO 07004KT 6SM HZ CLR 21/13 A3001 RMK A01,K46D,2025-08-16T01:15:00Z,47.4509,-99.1479,21,13,70,4,,6,30.01,,,TRUE,TRUE,,,,,,HZ,CLR,,,,,,,,VFR,,,,,,,,,,,,METAR,488
K42J 160115Z AUTO 25010KT 10SM FEW041 BKN055 OVC070 29/25 A3010 RMK A01,K42J,2025-08-16T01:15:00Z,29.844,-82.05,29,25,250,10,,10+,30.10,,,TRUE,TRUE,,,,,,,FEW,4100,BKN,5500,OVC,7000,,,VFR,,,,,,,,,,,,METAR,57
K42A 160115Z AUTO 00000KT 10SM CLR 31/25 A3006 RMK AO2,K42A,2025-08-16T01:15:00Z,36.0713,-91.8287,31,25,0,0,,10+,30.06,,,TRUE,TRUE,,,,,,,CLR,,,,,,,,VFR,,,,,,,,,,,,METAR,224
K40U 160115Z AUTO 29013KT 10SM BKN120 22/06 A3017 RMK AO2 T02250059,K40U,2025-08-16T01:15:00Z,40.986,-109.678,22.5,5.9,290,13,,10+,30.17,,,TRUE,TRUE,,,,,,,BKN,12000,,,,,,,VFR,,,,,,,,,,,,METAR,1882
K3W7 160115Z AUTO 23006KT 10SM FEW065 25/14 A2983 RMK AO2,K3W7,2025-08-16T01:15:00Z,47.9219,-119.077,25,14,230,6,,10+,29.83,,,TRUE,TRUE,,,,,,,FEW,6500,,,,,,,VFR,,,,,,,,,,,,METAR,492
K3U3 160115Z AUTO 04009KT 10SM CLR 26/06 A2995 RMK AO2 T02630057 $,K3U3,2025-08-16T01:15:00Z,46.1516,-112.868,26.3,5.7,40,9,,10+,29.95,,,TRUE,TRUE,TRUE,,,,,,CLR,,,,,,,,VFR,,,,,,,,,,,,METAR,1534
K3T5 160115Z AUTO 13008KT 9SM CLR 30/26 A3000 RMK AO2 T03010256 $,K3T5,2025-08-16T01:15:00Z,29.9064,-96.9478,30.1,25.6,130,8,,9,30.00,,,TRUE,TRUE,TRUE,,,,,,CLR,,,,,,,,VFR,,,,,,,,,,,,METAR,96
K3S8 160115Z AUTO 31007KT 10SM BKN060 28/13 A2998 RMK AO2,K3S8,2025-08-16T01:15:00Z,42.51,-123.388,28,13,310,7,,10+,29.98,,,TRUE,TRUE,,,,,,,BKN,6000,,,,,,,VFR,,,,,,,,,,,,METAR,339
K3R7 160115Z AUTO 23003KT 10SM CLR 25/24 A3004 RMK AO2 T02460237,K3R7,2025-08-16T01:15:00Z,30.2426,-92.6759,24.6,23.7,230,3,,10+,30.04,,,TRUE,TRUE,,,,,,,CLR,,,,,,,,VFR,,,,,,,,,,,,METAR,5
K3N8 160115Z AUTO 01005KT 10SM CLR 20/15 A3001 RMK AO2 T02000150,K3N8,2025-08-16T01:15:00Z,47.26,-95.928,20,15,10,5,,10+,30.01,,,TRUE,TRUE,,,,,,,CLR,,,,,,,,VFR,,,,,,,,,,,,METAR,379
K3LF 160115Z AUTO 00000KT 10SM SCT060 27/24 A3009 RMK AO2 T02660239,K3LF,2025-08-16T01:15:00Z,39.1605,-89.6742,26.6,23.9,0,0,,10+,30.09,,,TRUE,TRUE,,,,,,,SCT,6000,,,,,,,VFR,,,,,,,,,,,,METAR,207
K3L4 160115Z AUTO 00000KT 10SM CLR 27/25 A3005 RMK A01,K3L4,2025-08-16T01:15:00Z,29.8,-92.804,27,25,0,0,,10+,30.05,,,TRUE,TRUE,,,,,,,CLR,,,,,,,,VFR,,,,,,,,,,,,METAR,1
K3K3 160115Z AUTO 16014G22KT 10SM CLR 34/13 A2995 RMK AO2,K3K3,2025-08-16T01:15:00Z,37.9988,-101.75,34,13,160,14,22,10+,29.95,,,TRUE,TRUE,,,,,,,CLR,,,,,,,,VFR,,,,,,,,,,,,METAR,1010
K3J1 160115Z AUTO 00000KT 10SM CLR 25/25 A3005 RMK AO2,K3J1,2025-08-16T01:15:00Z,32.4969,-80.9947,25,25,0,0,,10+,30.05,,,TRUE,TRUE,,,,,,,CLR,,,,,,,,VFR,,,,,,,,,,,,METAR,24
K3F3 160115Z AUTO 12006G18KT 10SM CLR 29/23 A3009 RMK AO2 T02930225,K3F3,2025-08-16T01:15:00Z,32.0718,-93.7641,29.3,22.5,120,6,18,10+,30.09,,,TRUE,TRUE,,,,,,,CLR,,,,,,,,VFR,,,,,,,,,,,,METAR,96
K3D2 160115Z AUTO 19007KT 10SM SCT075 23/18 A3005 RMK AO2 T02270183,K3D2,2025-08-16T01:15:00Z,45.1348,-87.1881,22.7,18.3,190,7,,10+,30.05,,,TRUE,TRUE,,,,,,,SCT,7500,,,,,,,VFR,,,,,,,,,,,,METAR,233
K3AU 160115Z AUTO 14007KT 10SM CLR 31/20 A2999 RMK AO2,K3AU,2025-08-16T01:15:00Z,37.6729,-97.0792,31,20,140,7,,10+,29.99,,,TRUE,TRUE,,,,,,,CLR,,,,,,,,VFR,,,,,,,,,,,,METAR,403
K36K 160115Z AUTO 14006KT 10SM CLR 30/15 A3000 RMK AO2,K36K,2025-08-16T01:15:00Z,37.9707,-101.255,30,15,140,6,,10+,30.00,,,TRUE,TRUE,,,,,,,CLR,,,,,,,,VFR,,,,,,,,,,,,METAR,938
K35A 160115Z AUTO 36003KT 10SM -RA SCT049 SCT065 BKN110 24/22 A3015 RMK A02 T02440220,K35A,2025-08-16T01:15:00Z,34.6849,-81.6421,24.4,22,360,3,,10+,30.15,,,TRUE,TRUE,,,,,,-RA,SCT,4900,SCT,6500,BKN,11000,,,VFR,,,,,,,,,,,,METAR,186
K2W6 160115Z AUTO 00000KT 9SM 25/24 A3012 RMK AO2 T02520236 $,K2W6,2025-08-16T01:15:00Z,38.315,-76.55,25.2,23.6,0,0,,9,30.12,,,TRUE,TRUE,TRUE,,,,,,,,,,,,,,VFR,,,,,,,,,,,,METAR,40
K2V5 160115Z AUTO 15013G21KT 10SM CLR 33/12 A2994 RMK AO2,K2V5,2025-08-16T01:15:00Z,40.1,-102.241,33,12,150,13,21,10+,29.94,,,TRUE,TRUE,,,,,,,CLR,,,,,,,,VFR,,,,,,,,,,,,METAR,1117
K2R9 160115Z AUTO 12013G18KT 10SM SCT034 29/22 A2999 RMK AO2 T02950224,K2R9,2025-08-16T01:15:00Z,28.8267,-97.8676,29.5,22.4,120,13,18,10+,29.99,,,TRUE,TRUE,,,,,,,SCT,3400,,,,,,,VFR,,,,,,,,,,,,METAR,88
K2P2 160115Z AUTO 19007KT 10SM SCT080 SCT090 BKN110 23/23 A3004 RMK AO2 T02270227,K2P2,2025-08-16T01:15:00Z,45.388,-86.924,22.7,22.7,190,7,,10+,30.04,,,TRUE,TRUE,,,,,,,SCT,8000,SCT,9000,BKN,11000,,,VFR,,,,,,,,,,,,METAR,182
K2M8 160115Z AUTO 10SM A3006 RMK AO2 FZRANO $,K2M8,2025-08-16T01:15:00Z,35.276,-89.931,,,,,,10+,30.06,,,TRUE,TRUE,TRUE,,,TRUE,,,,,,,,,,,VFR,,,,,,,,,,,,METAR,75
K2M2 160115Z AUTO 00000KT 10SM CLR 24/22 A3013 RMK A01,K2M2,2025-08-16T01:15:00Z,35.2372,-87.2611,24,22,0,0,,10+,30.13,,,TRUE,TRUE,,,,,,,CLR,,,,,,,,VFR,,,,,,,,,,,,METAR,286
K2J9 160115Z AUTO 00000KT 10SM CLR 25/25 A3009 RMK AO2,K2J9,2025-08-16T01:15:00Z,30.5987,-84.555,25,25,0,0,,10+,30.09,,,TRUE,TRUE,,,,,,,CLR,,,,,,,,VFR,,,,,,,,,,,,METAR,62
K2J5 160115Z AUTO 17004KT 10SM CLR A3009 RMK AO2 LTG DSNT W AND NW,K2J5,2025-08-16T01:15:00Z,32.8913,-81.9664,,,170,4,,10+,30.09,,,TRUE,TRUE,,,,,,,CLR,,,,,,,,VFR,,,,,,,,,,,,METAR,72
K2IS 160115Z AUTO 13006KT 10SM CLR 28/23 A3007 RMK AO2 T02820234,K2IS,2025-08-16T01:15:00Z,26.739,-81.0528,28.2,23.4,130,6,,10+,30.07,,,TRUE,TRUE,,,,,,,CLR,,,,,,,,VFR,,,,,,,,,,,,METAR,5
K2I0 160115Z AUTO 00000KT 10SM CLR 27/23 A3009 RMK AO2 T02700230,K2I0,2025-08-16T01:15:00Z,37.3582,-87.3977,27,23,0,0,,10+,30.09,,,TRUE,TRUE,,,,,,,CLR,,,,,,,,VFR,,,,,,,,,,,,METAR,127
K2G9 160115Z AUTO 00000KT 10SM CLR 21/15 A3022 RMK AO2,K2G9,2025-08-16T01:15:00Z,40.0401,-79.0158,21,15,0,0,,10+,30.22,,,TRUE,TRUE,,,,,,,CLR,,,,,,,,VFR,,,,,,,,,,,,METAR,677
K2G4 160115Z AUTO 01003KT 10SM CLR 23/15 A3025 RMK AO2 TSNO,K2G4,2025-08-16T01:15:00Z,39.5827,-79.3418,23,15,10,3,,10+,30.25,,,TRUE,TRUE,,,TRUE,,,,CLR,,,,,,,,VFR,,,,,,,,,,,,METAR,908
K2G2 160115Z AUTO 00000KT 10SM CLR 26/14 A3013 RMK A01,K2G2,2025-08-16T01:15:00Z,40.359,-80.7,26,14,0,0,,10+,30.13,,,TRUE,TRUE,,,,,,,CLR,,,,,,,,VFR,,,,,,,,,,,,METAR,365
K2D5 160115Z AUTO 05008KT CLR 21/17 A2998 RMK AO2,K2D5,2025-08-16T01:15:00Z,46.1739,-98.083,21,17,50,8,,,29.98,,,TRUE,TRUE,,,,,,,CLR,,,,,,,,,,,,,,,,,,,,METAR,407
K27K 160115Z AUTO 00000KT 10SM CLR 25/23 A3010 RMK AO2 T02490234,K27K,2025-08-16T01:15:00Z,38.239,-84.4336,24.9,23.4,0,0,,10+,30.10,,,TRUE,TRUE,,,,,,,CLR,,,,,,,,VFR,,,,,,,,,,,,METAR,283
K24J 160115Z AUTO 00000KT 10SM CLR 26/23 A3006 RMK A01 LTG DSNT SE,K24J,2025-08-16T01:15:00Z,30.299,-83.0226,26,23,0,0,,10+,30.06,,,TRUE,TRUE,,,,,,,CLR,,,,,,,,VFR,,,,,,,,,,,,METAR,30
K24A 160115Z AUTO 00000KT 7SM SCT001 21/21 A3026 RMK AO2 LTG DSNT SE T0208////,K24A,2025-08-16T01:15:00Z,35.3156,-83.2071,20.8,21,0,0,,7,30.26,,,TRUE,TRUE,,,,,,,SCT,100,,,,,,,VFR,,,,,,,,,,,,METAR,864
K22N 160115Z AUTO 00000KT 7SM SCT047 SCT100 OVC120 23/22 A3016 RMK AO2,K22N,2025-08-16T01:15:00Z,40.8116,-75.7647,23,22,0,0,,7,30.16,,,TRUE,TRUE,,,,,,,SCT,4700,SCT,10000,OVC,12000,,,VFR,,,,,,,,,,,,METAR,159
K21D 160115Z AUTO 20009KT 10SM TSRA SCT016 SCT031 BKN070 20/20 A3002 RMK AO2 LTG DSNT ALQDS P0004,K21D,2025-08-16T01:15:00Z,45.0002,-92.8549,20,20,200,9,,10+,30.02,,,TRUE,TRUE,,,,,,TSRA,SCT,1600,SCT,3100,BKN,7000,,,VFR,,,,,,0.04,,,,,,METAR,281
K20V 160115Z AUTO 30004KT 10SM BKN100 OVC120 BKN100 OVC120 A3027 RMK AO2,K20V,2025-08-16T01:15:00Z,40.0563,-106.374,,,300,4,,10+,30.27,,,TRUE,TRUE,,,,,,,BKN,10000,OVC,12000,BKN,10000,OVC,12000,VFR,,,,,,,,,,,,METAR,2259
K20U 160115Z AUTO 10014KT 10SM 24/13 A2995 RMK AO2 TSNO,K20U,2025-08-16T01:15:00Z,46.9251,-103.985,24,13,100,14,,10+,29.95,,,TRUE,TRUE,,,TRUE,,,,,,,,,,,,VFR,,,,,,,,,,,,METAR,839
K1V6 160115Z AUTO 28007KT 7SM CLR 30/07 A3007 RMK AO2,K1V6,2025-08-16T01:15:00Z,38.4256,-105.105,30,7,280,7,,7,30.07,,,TRUE,TRUE,,,,,,,CLR,,,,,,,,VFR,,,,,,,,,,,,METAR,1658
K1U7 160115Z AUTO 35017G24KT 10SM CLR 23/07 A3012 RMK A01,K1U7,2025-08-16T01:15:00Z,42.252,-111.337,23,7,350,17,24,10+,30.12,,,TRUE,TRUE,,,,,,,CLR,,,,,,,,VFR,,,,,,,,,,,,METAR,1808
K1R8 160115Z AUTO 16004KT 10SM FEW039 26/24 A3011 RMK AO2 LTG DSNT NE AND NW,K1R8,2025-08-16T01:15:00Z,30.8691,-87.8184,26,24,160,4,,10+,30.11,,,TRUE,TRUE,,,,,,,FEW,3900,,,,,,,VFR,,,,,,,,,,,,METAR,76
K1R7 160115Z AUTO 00000KT 9SM CLR 25/24 A3012 RMK A01 TSNO,K1R7,2025-08-16T01:15:00Z,31.6057,-90.4072,25,24,0,0,,9,30.12,,,TRUE,TRUE,,,TRUE,,,,CLR,,,,,,,,VFR,,,,,,,,,,,,METAR,142
K1P1 160115Z AUTO 00000KT 10SM CLR 18/15 A3019 RMK AO2 T01770145,K1P1,2025-08-16T01:15:00Z,43.7771,-71.756,17.7,14.5,0,0,,10+,30.19,,,TRUE,TRUE,,,,,,,CLR,,,,,,,,VFR,,,,,,,,,,,,METAR,155
K1K8 160115Z AUTO 00000KT CLR 30/25 A3001 RMK AO2 PWINO,K1K8,2025-08-16T01:15:00Z,36.543,-95.012,30,25,0,0,,,30.01,,,TRUE,TRUE,,,,,TRUE,,CLR,,,,,,,,,,,,,,,,,,,,METAR,234
K1H2 160115Z AUTO 00000KT 10SM CLR 27/25 A3010 RMK AO2 T02720254,K1H2,2025-08-16T01:15:00Z,39.0712,-88.5293,27.2,25.4,0,0,,10+,30.10,,,TRUE,TRUE,,,,,,,CLR,,,,,,,,VFR,,,,,,,,,,,,METAR,174
K1F0 160115Z AUTO 13004KT 7SM CLR 30/23 A3001 RMK AO2 T03030226,K1F0,2025-08-16T01:15:00Z,34.1508,-97.1242,30.3,22.6,130,4,,7,30.01,,,TRUE,TRUE,,,,,,,CLR,,,,,,,,VFR,,,,,,,,,,,,METAR,256
K1D1 160115Z AUTO 04005KT 10SM CLR 24/22 A2994 RMK AO2,K1D1,2025-08-16T01:15:00Z,45.231,-96.566,24,22,40,5,,10+,29.94,,,TRUE,TRUE,,,,,,,CLR,,,,,,,,VFR,,,,,,,,,,,,METAR,340
K1B9 160115Z AUTO 00000KT 10SM CLR 18/15 A3020 RMK AO2 T01830152 $,K1B9,2025-08-16T01:15:00Z,42,-71.197,18.3,15.2,0,0,,10+,30.20,,,TRUE,TRUE,TRUE,,,,,,CLR,,,,,,,,VFR,,,,,,,,,,,,METAR,37
K1A9 160115Z AUTO 32005KT 10SM CLR 23/23 A3012 RMK AO2 T02330233,K1A9,2025-08-16T01:15:00Z,32.4374,-86.5098,23.3,23.3,320,5,,10+,30.12,,,TRUE,TRUE,,,,,,,CLR,,,,,,,,VFR,,,,,,,,,,,,METAR,65
K1A6 160115Z AUTO 00000KT 10SM CLR 25/22 A3014 RMK AO2 T02520224,K1A6,2025-08-16T01:15:00Z,36.6087,-83.7369,25.2,22.4,0,0,,10+,30.14,,,TRUE,TRUE,,,,,,,CLR,,,,,,,,VFR,,,,,,,,,,,,METAR,348
K1A5 160115Z AUTO 00000KT 10SM SCT065 22/21 A3024 RMK AO2 T02160213,K1A5,2025-08-16T01:15:00Z,35.2228,-83.415,21.6,21.3,0,0,,10+,30.24,,,TRUE,TRUE,,,,,,,SCT,6500,,,,,,,VFR,,,,,,,,,,,,METAR,611
K19S 160115Z AUTO 15010KT 10SM SCT120 A2999 RMK AO2,K19S,2025-08-16T01:15:00Z,37.496,-100.834,,,150,10,,10+,29.99,,,TRUE,TRUE,,,,,,,SCT,12000,,,,,,,VFR,,,,,,,,,,,,METAR,886
K18A 160115Z AUTO 00000KT 7SM -RA BR SCT049 SCT070 BKN120 21/21 A3015 RMK AO2 T02140212,K18A,2025-08-16T01:15:00Z,34.3418,-83.1316,21.4,21.2,0,0,,7,30.15,,,TRUE,TRUE,,,,,,-RA BR,SCT,4900,SCT,7000,BKN,12000,,,VFR,,,,,,,,,,,,METAR,260
K17J 160115Z AUTO 33003KT 10SM CLR 24/22 A3013 RMK AO2,K17J,2025-08-16T01:15:00Z,31.0038,-84.8794,24,22,330,3,,10+,30.13,,,TRUE,TRUE,,,,,,,CLR,,,,,,,,VFR,,,,,,,,,,,,METAR,42
K16J 160115Z AUTO 28005KT 10SM 25/25 A3009 RMK AO2,K16J,2025-08-16T01:15:00Z,31.7435,-84.417,25,25,280,5,,10+,30.09,,,TRUE,TRUE,,,,,,,,,,,,,,,VFR,,,,,,,,,,,,METAR,102
K15M 160115Z AUTO 00000KT 10SM SCT050 BKN060 28/26 A3012 RMK AO2 T02840260 $,K15M,2025-08-16T01:15:00Z,34.7745,-88.1676,28.4,26,0,0,,10+,30.12,,,TRUE,TRUE,TRUE,,,,,,SCT,5000,BKN,6000,,,,,VFR,,,,,,,,,,,,METAR,192
K14Y 160115Z AUTO 00000KT 10SM OVC036 A3000 RMK AO2,K14Y,2025-08-16T01:15:00Z,45.9017,-94.8727,,,0,0,,10+,30.00,,,TRUE,TRUE,,,,,,,OVC,3600,,,,,,,VFR,,,,,,,,,,,,METAR,404
K13K 160115Z AUTO 14007KT 10SM CLR 29/25 A3001 RMK AO2 T02920246,K13K,2025-08-16T01:15:00Z,37.8519,-96.2929,29.2,24.6,140,7,,10+,30.01,,,TRUE,TRUE,,,,,,,CLR,,,,,,,,VFR,,,,,,,,,,,,METAR,367
K11R 160115Z AUTO 13005KT 10SM -RA SCT042 SCT050 27/24 A3003 RMK AO2 T02720236,K11R,2025-08-16T01:15:00Z,30.2232,-96.3734,27.2,23.6,130,5,,10+,30.03,,,TRUE,TRUE,,,,,,-RA,SCT,4200,SCT,5000,,,,,VFR,,,,,,,,,,,,METAR,87
K10G 160115Z AUTO 27004KT 10SM CLR 25/19 A3016 RMK AO2,K10G,2025-08-16T01:15:00Z,40.5357,-81.9531,25,19,270,4,,10+,30.16,,,TRUE,TRUE,,,,,,,CLR,,,,,,,,VFR,,,,,,,,,,,,METAR,371
K0W3 160115Z AUTO 11004KT 10SM FEW085 26/26 A3014 RMK AO2 T02610261 $,K0W3,2025-08-16T01:15:00Z,39.566,-76.202,26.1,26.1,110,4,,10+,30.14,,,TRUE,TRUE,TRUE,,,,,,FEW,8500,,,,,,,VFR,,,,,,,,,,,,METAR,125
K0VG 160115Z AUTO 00000KT 10SM CLR 24/23 A3015 RMK AO2,K0VG,2025-08-16T01:15:00Z,36.6576,-83.2147,24,23,0,0,,10+,30.15,,,TRUE,TRUE,,,,,,,CLR,,,,,,,,VFR,,,,,,,,,,,,METAR,426
K0V4 160115Z AUTO 07004KT 10SM CLR 25/23 A3012 RMK AO1,K0V4,2025-08-16T01:15:00Z,37.1399,-79.0171,25,23,70,4,,10+,30.12,,,TRUE,TRUE,,,,,,,CLR,,,,,,,,VFR,,,,,,,,,,,,METAR,186
K0S9 160115Z AUTO 33004KT 10SM OVC013 19/17 A2975 RMK AO2,K0S9,2025-08-16T01:15:00Z,48.0554,-122.812,19,17,330,4,,10+,29.75,,,TRUE,TRUE,,,,,,,OVC,1300,,,,,,,MVFR,,,,,,,,,,,,METAR,33
K0R4 160115Z AUTO 00000KT CLR 25/22 A3009 RMK AO2 T02470220 PWINO,K0R4,2025-08-16T01:15:00Z,31.5637,-91.5098,24.7,22,0,0,,,30.09,,,TRUE,TRUE,,,,,TRUE,,CLR,,,,,,,,,,,,,,,,,,,,METAR,16
K0R0 160115Z AUTO 00000KT 25/25 A3012 RMK AO2,K0R0,2025-08-16T01:15:00Z,31.2969,-89.8159,25,25,0,0,,,30.12,,,TRUE,TRUE,,,,,,,,,,,,,,,,,,,,,,,,,,,METAR,76
K0F2 160115Z AUTO 17004KT 10SM CLR 32/19 A3002 RMK AO2 T03170186,K0F2,2025-08-16T01:15:00Z,33.6011,-97.7735,31.7,18.6,170,4,,10+,30.02,,,TRUE,TRUE,,,,,,,CLR,,,,,,,,VFR,,,,,,,,,,,,METAR,330
K0E0 160115Z AUTO 36004KT 10SM SCT070 OVC090 21/13 A3030 RMK AO2 T02060130,K0E0,2025-08-16T01:15:00Z,34.9837,-105.996,20.6,13,360,4,,10+,30.30,,,TRUE,TRUE,,,,,,,SCT,7000,OVC,9000,,,,,VFR,,,,,,,,,,,,METAR,1887
K0D8 160115Z AUTO 08012G17KT 9SM OVC019 M09/M09 A2994 RMK A01,K0D8,2025-08-16T01:15:00Z,44.989,-99.954,-9,-9,80,12,17,9,29.94,,,TRUE,TRUE,,,,,,,OVC,1900,,,,,,,MVFR,,,,,,,,,,,,METAR,628
K0CO 160115Z AUTO 14005KT 10SM OVC100 09/00 A3069 RMK AO2,K0CO,2025-08-16T01:15:00Z,39.794,-105.764,9,0,140,5,,10+,30.69,,,TRUE,TRUE,,,,,,,OVC,10000,,,,,,,VFR,,,,,,,,,,,,METAR,3804
K0A9 160115Z AUTO 00000KT 10SM CLR 24/21 A3015 RMK AO2,K0A9,2025-08-16T01:15:00Z,36.3711,-82.1768,24,21,0,0,,10+,30.15,,,TRUE,TRUE,,,,,,,CLR,,,,,,,,VFR,,,,,,,,,,,,METAR,479
K0A0 160115Z AUTO 20005KT 10SM CLR 28/12 A3013 RMK AO2,K0A0,2025-08-16T01:15:00Z,32.99,-106.967,28,12,200,5,,10+,30.13,,,TRUE,TRUE,,,,,,,CLR,,,,,,,,VFR,,,,,,,,,,,,METAR,1401
K08D 160115Z AUTO 08006KT 10SM BKN085 20/12 A3002 RMK AO2,K08D,2025-08-16T01:15:00Z,48.3018,-102.404,20,12,80,6,,10+,30.02,,,TRUE,TRUE,,,,,,,BKN,8500,,,,,,,VFR,,,,,,,,,,,,METAR,683
K06D 160115Z AUTO 02005KT 10SM FEW110 19/09 A3003 RMK AO2,K06D,2025-08-16T01:15:00Z,48.8821,-99.6217,19,9,20,5,,10+,30.03,,,TRUE,TRUE,,,,,,,FEW,11000,,,,,,,VFR,,,,,,,,,,,,METAR,554
K06C 160115Z AUTO 22003KT 10SM CLR 29/19 A3007 RMK AO2 T02890192,K06C,2025-08-16T01:15:00Z,41.9924,-88.1091,28.9,19.2,220,3,,10+,30.07,,,TRUE,TRUE,,,,,,,CLR,,,,,,,,VFR,,,,,,,,,,,,METAR,243
K05U 160115Z AUTO 29008G16KT 10SM CLR 29/M02 A3006 RMK A01,K05U,2025-08-16T01:15:00Z,39.6015,-116.006,29,-2,290,8,16,10+,30.06,,,TRUE,TRUE,,,,,,,CLR,,,,,,,,VFR,,,,,,,,,,,,METAR,1813
K04W 160115Z AUTO 00000KT 10SM CLR 25/24 A2999 RMK AO2,K04W,2025-08-16T01:15:00Z,46.0244,-92.8991,25,24,0,0,,10+,29.99,,,TRUE,TRUE,,,,,,,CLR,,,,,,,,VFR,,,,,,,,,,,,METAR,310
K04V 160115Z AUTO 00000KT 10SM OVC100 22/05 A3033 RMK AO2 PWINO,K04V,2025-08-16T01:15:00Z,38.099,-106.17,22,5,0,0,,10+,30.33,,,TRUE,TRUE,,,,,TRUE,,OVC,10000,,,,,,,VFR,,,,,,,,,,,,METAR,2389
K00U 160115Z AUTO 10003KT 10SM CLR 30/11 A2985 RMK A01,K00U,2025-08-16T01:15:00Z,45.7453,-107.661,30,11,100,3,,10+,29.85,,,TRUE,TRUE,,,,,,,CLR,,,,,,,,VFR,,,,,,,,,,,,METAR,922
CYCY 160115Z AUTO 12006KT 3/8SM FG VV003 03/03 A2987 RMK SLP119,CYCY,2025-08-16T01:15:00Z,70.484,-68.515,3,3,120,6,,0.38,29.87,1011.9,,TRUE,,,,,,,FG,OVX,0,,,,,,,LIFR,,,,,,,,,,,300,SPECI,73
CWPF 160115Z AUTO 18002KT 14/14 RMK AO1 SLP075 T01440142 50005,CWPF,2025-08-16T01:15:00Z,48.432,-123.439,14.4,14.2,180,2,,,0.00,1007.5,,TRUE,TRUE,,,,,,,,,,,,,,,,0.05,,,,,,,,,,,METAR,5
RJFY 160114Z 09004KT 050V120 9999 FEW030 BKN/// 33/23 Q1014 RMK 1CU030 A2995,RJFY,2025-08-16T01:14:00Z,31.368,130.838,33,23,90,4,,6+,29.94,,,,,,,,,,,FEW,3000,,,,,,,VFR,,,,,,,,,,,,SPECI,59
PAPH 160114Z AUTO 30017KT 10SM SCT013 BKN019 OVC027 13/11 A3019 RMK AO2 $,PAPH,2025-08-16T01:14:00Z,56.959,-158.631,13,11,300,17,,10+,30.19,,,TRUE,TRUE,TRUE,,,,,,SCT,1300,BKN,1900,OVC,2700,,,MVFR,,,,,,,,,,,,SPECI,29
PAGL 160114Z AUTO 25005KT 4SM RA BR SCT008 OVC012 10/09 A3006 RMK AO2 P0002,PAGL,2025-08-16T01:14:00Z,64.548,-163.013,10,9,250,5,,4,30.06,,,TRUE,TRUE,,,,,,RA BR,SCT,800,OVC,1200,,,,,MVFR,,,,,,0.02,,,,,,SPECI,20
MMTO 160114Z 15011KT 5SM -TSRA BKN020CB OVC080 16/11 A3047 RMK 8/96/ RAB10 HZY,MMTO,2025-08-16T01:14:00Z,19.343,-99.568,16,11,150,11,,5,30.47,,,,,,,,,,-TSRA,BKN,2000,OVC,8000,,,,,MVFR,,,,,,,,,,,,METAR,2582
KILG 160114Z AUTO 12007KT 10SM FEW027 27/22 A3014 RMK AO2 T02670222,KILG,2025-08-16T01:14:00Z,39.6744,-75.6057,26.7,22.2,120,7,,10+,30.14,,,TRUE,TRUE,,,,,,,FEW,2700,,,,,,,VFR,,,,,,,,,,,,SPECI,22
KEAN 160114Z AUTO 00000KT 10SM CLR 28/07 A3004 RMK AO2,KEAN,2025-08-16T01:14:00Z,42.0563,-104.939,28,7,0,0,,10+,30.04,,,TRUE,TRUE,,,,,,,CLR,,,,,,,,VFR,,,,,,,,,,,,METAR,1452
KAST 160114Z AUTO 19013G25KT 2 1/2SM -RA BR OVC012 18/17 A2985 RMK AO2 PK WND 20027/0056 CIG 008 RWY 08 P0003 T01830172 $,KAST,2025-08-16T01:14:00Z,46.157,-123.883,18.3,17.2,190,13,25,2.5,29.85,,,TRUE,TRUE,TRUE,,,,,-RA BR,OVC,1200,,,,,,,IFR,,,,,,0.03,,,,,,SPECI,3
K5SM 160114Z AUTO 10SM OVC060 12/05 A3057 RMK AO2,K5SM,2025-08-16T01:14:00Z,39.426,-107.38,12,5,,,,10+,30.57,,,TRUE,TRUE,,,,,,,OVC,6000,,,,,,,VFR,,,,,,,,,,,,METAR,3229
K4S1 160114Z AUTO 20007KT 1SM -DZ BR CLR 17/17 A3003 RMK AO2,K4S1,2025-08-16T01:14:00Z,42.4161,-124.426,17,17,200,7,,1,30.03,,,TRUE,TRUE,,,,,,-DZ BR,CLR,,,,,,,,IFR,,,,,,,,,,,,METAR,7
K2V6 160114Z AUTO 15009KT 10SM CLR 28/M07 A2996 RMK AO2,K2V6,2025-08-16T01:14:00Z,40.1047,-102.713,28,-7,150,9,,10+,29.96,,,TRUE,TRUE,,,,,,,CLR,,,,,,,,VFR,,,,,,,,,,,,METAR,1257
ETNG 160114Z AUTO 34003KT 310V020 9999 // BKN008/// BKN011/// 17/16 Q1024,ETNG,2025-08-16T01:14:00Z,50.964,6.032,17,16,340,3,,6+,30.24,,,TRUE,,,,,,,,BKN,800,BKN,1100,,,,,IFR,,,,,,,,,,,,SPECI,76
KXVG 160113Z AUTO 00000KT 10SM SCT045 23/18 A3001 RMK AO2,KXVG,2025-08-16T01:13:00Z,46.9942,-94.206,23,18,0,0,,10+,30.01,,,TRUE,TRUE,,,,,,,SCT,4500,,,,,,,VFR,,,,,,,,,,,,METAR,407
KFOZ 160113Z AUTO 00000KT 10SM SCT085 22/14 A3006 RMK AO2,KFOZ,2025-08-16T01:13:00Z,47.7832,-93.6533,22,14,0,0,,10+,30.06,,,TRUE,TRUE,,,,,,,SCT,8500,,,,,,,VFR,,,,,,,,,,,,METAR,412
KETH 160113Z AUTO 36004KT 10SM OVC042 24/19 A2997 RMK AO2,KETH,2025-08-16T01:13:00Z,45.7828,-96.5461,24,19,360,4,,10+,29.97,,,TRUE,TRUE,,,,,,,OVC,4200,,,,,,,VFR,,,,,,,,,,,,METAR,309
KCDD 160113Z AUTO 00000KT 10SM CLR 21/16 A3003 RMK AO2,KCDD,2025-08-16T01:13:00Z,48.2601,-92.4748,21,16,0,0,,10+,30.03,,,TRUE,TRUE,,,,,,,CLR,,,,,,,,VFR,,,,,,,,,,,,METAR,344
KAQP 160113Z AUTO 00000KT 10SM CLR 27/24 A2995 RMK AO2 TSNO,KAQP,2025-08-16T01:13:00Z,45.2249,-96.0041,27,24,0,0,,10+,29.95,,,TRUE,TRUE,,,TRUE,,,,CLR,,,,,,,,VFR,,,,,,,,,,,,METAR,312
PATL 160112Z AUTO 04007KT 010V080 10SM -SHRA BKN049 13/04 A3002 RMK AO2 SLP170,PATL,2025-08-16T01:12:00Z,62.893,-155.977,13,4,40,7,,10+,30.02,1017,,TRUE,TRUE,,,,,,-SHRA,BKN,4900,,,,,,,VFR,,,,,,,,,,,,SPECI,261
KRHP 160112Z AUTO 00000KT 10SM SCT075 SCT110 22/20 A3019 RMK AO2 T02160198,KRHP,2025-08-16T01:12:00Z,35.1939,-83.8618,21.6,19.8,0,0,,10+,30.19,,,TRUE,TRUE,,,,,,,SCT,7500,SCT,11000,,,,,VFR,,,,,,,,,,,,METAR,515
KMSP 160112Z 15009KT 10SM BKN031 OVC055 23/19 A3002 RMK AO2 WSHFT 0052 LTG DSNT NE AND E VIRGA T02330189 $,KMSP,2025-08-16T01:12:00Z,44.8852,-93.2313,23.3,18.9,150,9,,10+,30.02,,,,TRUE,TRUE,,,,,,BKN,3100,OVC,5500,,,,,VFR,,,,,,,,,,,,SPECI,255
KMIC 160112Z 15009KT 10SM FEW043 BKN055 OVC095 22/19 A2999 RMK AO2 LTG DSNT E AND SE RAE0055 P0000 T02220189,KMIC,2025-08-16T01:12:00Z,45.0623,-93.3511,22.2,18.9,150,9,,10+,29.99,,,,TRUE,,,,,,,FEW,4300,BKN,5500,OVC,9500,,,VFR,,,,,,0.005,,,,,,SPECI,263
KLZU 160112Z AUTO 07005KT 9SM -RA 23/23 A3016 RMK AO2 LTG DSNT E TSE06RAB0058 P0001 $,KLZU,2025-08-16T01:12:00Z,33.9828,-83.9585,23,23,70,5,,9,30.16,,,TRUE,TRUE,TRUE,,,,,-RA,,,,,,,,,VFR,,,,,,0.01,,,,,,SPECI,316
KEEO 160112Z AUTO 31007G18KT 10SM FEW075 SCT090 27/05 A3016 RMK AO2 WSHFT 0052 LTG DSNT E RAB0055E05 P0000 T02670050,KEEO,2025-08-16T01:12:00Z,40.0444,-107.888,26.7,5,310,7,18,10+,30.16,,,TRUE,TRUE,,,,,,,FEW,7500,SCT,9000,,,,,VFR,,,,,,0.005,,,,,,SPECI,1957
K7BM 160112Z AUTO 16012KT 10SM BKN095 OVC110 17/04 A3048 RMK AO2,K7BM,2025-08-16T01:12:00Z,38.799,-106.219,17,4,160,12,,10+,30.48,,,TRUE,TRUE,,,,,,,BKN,9500,OVC,11000,,,,,VFR,,,,,,,,,,,,METAR,2996
PAMK 160111Z AUTO 27011KT 3SM BR FEW008 BKN014 OVC019 10/09 A3009 RMK AO2,PAMK,2025-08-16T01:11:00Z,63.484,-162.115,10,9,270,11,,3,30.09,,,TRUE,TRUE,,,,,,BR,FEW,800,BKN,1400,OVC,1900,,,MVFR,,,,,,,,,,,,SPECI,31
PALU 160111Z AUTO 09009KT 320V200 10SM OVC044 13/08 A2996 RMK AO2 SLP146,PALU,2025-08-16T01:11:00Z,68.873,-166.101,13,8,90,9,,10+,29.96,1014.6,,TRUE,TRUE,,,,,,,OVC,4400,,,,,,,VFR,,,,,,,,,,,,SPECI,8
KSQI 160111Z AUTO 16004KT 10SM CLR 27/25 A3007 RMK AO2 LTG DSNT SW TSE05,KSQI,2025-08-16T01:11:00Z,41.7432,-89.6655,27,25,160,4,,10+,30.07,,,TRUE,TRUE,,,,,,,CLR,,,,,,,,VFR,,,,,,,,,,,,SPECI,196
KRST 160111Z 08011KT 10SM VCTS SCT050 OVC065 21/17 A3008 RMK AO2 LTG DSNT NW-NE T02060172,KRST,2025-08-16T01:11:00Z,43.904,-92.4921,20.6,17.2,80,11,,10+,30.08,,,,TRUE,,,,,,VCTS,SCT,5000,OVC,6500,,,,,VFR,,,,,,,,,,,,SPECI,398
KC99 160111Z AUTO 00000KT 10SM SCT080 OVC100 13/02 A3056 RMK AO2,KC99,2025-08-16T01:11:00Z,39.869,-105.553,13,2,0,0,,10+,30.56,,,TRUE,TRUE,,,,,,,SCT,8000,OVC,10000,,,,,VFR,,,,,,,,,,,,METAR,3334
CYPH 160111Z AUTO 16021G33KT 3SM -RA BR OVC007 10/09 A2951 RMK SLP996,CYPH,2025-08-16T01:11:00Z,58.47,-78.08,10,9,160,21,33,3,29.51,999.6,,TRUE,,,,,,,-RA BR,OVC,700,,,,,,,IFR,,,,,,,,,,,,SPECI,24
CYKA 160111Z 10012KT 30SM VCSH FEW018 BKN065 OVC077 18/16 A2973 RMK SC1SC5AC3 SC TR SLP071 DENSITY ALT 2000FT,CYKA,2025-08-16T01:11:00Z,50.704,-120.444,18,16,100,12,,30,29.73,1007.1,,,,,,,,,VCSH,FEW,1800,BKN,6500,OVC,7700,,,VFR,,,,,,,,,,,,SPECI,344
VCRI 160110Z 23008KT 9999 FEW018 25/24 Q1007,VCRI,2025-08-16T01:10:00Z,6.287,81.125,25,24,230,8,,6+,29.73,,,,,,,,,,,FEW,1800,,,,,,,VFR,,,,,,,,,,,,METAR,50
VCBI 160110Z 24009KT 210V270 9999 SCT013 BKN016 28/26 Q1007 NOSIG,VCBI,2025-08-16T01:10:00Z,7.181,79.884,28,26,240,9,,6+,29.73,,,,,,TRUE,,,,,SCT,1300,BKN,1600,,,,,MVFR,,,,,,,,,,,,METAR,10
PFCB 160110Z AUTO 36008KT 10SM SCT120 21/07 A2959 RMK AO2 T02110068,PFCB,2025-08-16T01:10:00Z,60.0785,-147.995,21.1,6.8,360,8,,10+,29.59,,,TRUE,TRUE,,,,,,,SCT,12000,,,,,,,VFR,,,,,,,,,,,,METAR,22
MMTL 160110Z RTD 00000KT 6SM SCT020CB BKN080 24/24 A3006 RMK 8/360,MMTL,2025-08-16T01:10:00Z,20.1725,-87.6622,24,24,0,0,,6,30.06,,,,,,,,,,,SCT,2000,BKN,8000,,,,,VFR,,,,,,,,,,,,METAR,20
KW43 160110Z AUTO 15021KT 10SM -RA SCT029 SCT050 BKN110 23/13 A3003 RMK AO2 LTG DSNT E THRU S,KW43,2025-08-16T01:10:00Z,44.6607,-104.568,23,13,150,21,,10+,30.03,,,TRUE,TRUE,,,,,,-RA,SCT,2900,SCT,5000,BKN,11000,,,VFR,,,,,,,,,,,,METAR,1292
KVVS 160110Z AUTO 07005KT 10SM CLR 23/17 A3016 RMK AO2 T02300171,KVVS,2025-08-16T01:10:00Z,39.9581,-79.6575,23,17.1,70,5,,10+,30.16,,,TRUE,TRUE,,,,,,,CLR,,,,,,,,VFR,,,,,,,,,,,,METAR,386
KVCV 160110Z AUTO 18023KT 10SM CLR 31/06 A2995 RMK AO2,KVCV,2025-08-16T01:10:00Z,34.5933,-117.389,31,6,180,23,,10+,29.95,,,TRUE,TRUE,,,,,,,CLR,,,,,,,,VFR,,,,,,,,,,,,METAR,871
KVBG 160110Z AUTO 33005KT 9SM OVC009 15/13 A2999 RMK AO2 SLP158 TSNO $,KVBG,2025-08-16T01:10:00Z,34.733,-120.583,15,13,330,5,,9,29.99,1015.8,,TRUE,TRUE,TRUE,,TRUE,,,,OVC,900,,,,,,,IFR,,,,,,,,,,,,SPECI,96
KUKL 160110Z AUTO 16006KT 10SM CLR 29/23 A3001 RMK AO2 T02890226,KUKL,2025-08-16T01:10:00Z,38.3041,-95.7217,28.9,22.6,160,6,,10+,30.01,,,TRUE,TRUE,,,,,,,CLR,,,,,,,,VFR,,,,,,,,,,,,METAR,357
KUCY 160110Z AUTO 00000KT 10SM CLR 28/28 A3005 RMK A01,KUCY,2025-08-16T01:10:00Z,36.3778,-88.9878,28,28,0,0,,10+,30.05,,,TRUE,TRUE,,,,,,,CLR,,,,,,,,VFR,,,,,,,,,,,,METAR,97
KT41 160110Z AUTO 14010KT 10SM CLR 30/24 A3005 RMK AO2 TSNO T02990238,KT41,2025-08-16T01:10:00Z,29.6709,-95.0644,29.9,23.8,140,10,,10+,30.05,,,TRUE,TRUE,,,TRUE,,,,CLR,,,,,,,,VFR,,,,,,,,,,,,METAR,8
KSTK 160110Z AUTO 19004G10KT 10SM CLR 28/11 A2996 RMK AO2,KSTK,2025-08-16T01:10:00Z,40.6133,-103.261,28,11,190,4,10,10+,29.96,,,TRUE,TRUE,,,,,,,CLR,,,,,,,,VFR,,,,,,,,,,,,METAR,1228
KSNH 160110Z AUTO 22003KT 10SM CLR 29/29 A3008 RMK A01,KSNH,2025-08-16T01:10:00Z,35.1731,-88.2146,29,29,220,3,,10+,30.08,,,TRUE,TRUE,,,,,,,CLR,,,,,,,,VFR,,,,,,,,,,,,METAR,142
KRNH 160110Z AUTO 00000KT 10SM CLR 21/20 A3003 RMK AO2 P0001 T02070196,KRNH,2025-08-16T01:10:00Z,45.1476,-92.5335,20.7,19.6,0,0,,10+,30.03,,,TRUE,TRUE,,,,,,,CLR,,,,,,,,VFR,,,,,,0.01,,,,,,METAR,302
KPPA 160110Z AUTO 16010KT 10SM CLR 32/16 A3008 RMK AO2 T03190156,KPPA,2025-08-16T01:10:00Z,35.6139,-100.997,31.9,15.6,160,10,,10+,30.08,,,TRUE,TRUE,,,,,,,CLR,,,,,,,,VFR,,,,,,,,,,,,METAR,989
KOWI 160110Z AUTO 16005KT 10SM CLR 29/26 A2997 RMK AO2 PWINO,KOWI,2025-08-16T01:10:00Z,38.5409,-95.2542,29,26,160,5,,10+,29.97,,,TRUE,TRUE,,,,,TRUE,,CLR,,,,,,,,VFR,,,,,,,,,,,,METAR,292
KOLY 160110Z AUTO 13003KT 10SM CLR 28/23 A3009 RMK AO2 T02760226,KOLY,2025-08-16T01:10:00Z,38.7213,-88.1799,27.6,22.6,130,3,,10+,30.09,,,TRUE,TRUE,,,,,,,CLR,,,,,,,,VFR,,,,,,,,,,,,METAR,144
KOJA 160110Z AUTO 16010KT 10SM CLR 32/20 A3001 RMK AO2 T03190196,KOJA,2025-08-16T01:10:00Z,35.5484,-98.6702,31.9,19.6,160,10,,10+,30.01,,,TRUE,TRUE,,,,,,,CLR,,,,,,,,VFR,,,,,,,,,,,,METAR,490
KO54 160110Z AUTO 21007G16KT 160V240 10SM CLR 29/12 A2992 RMK A01,KO54,2025-08-16T01:10:00Z,40.746,-122.922,29,12,210,7,16,10+,29.92,,,TRUE,TRUE,,,,,,,CLR,,,,,,,,VFR,,,,,,,,,,,,METAR,693
KNOW 160110Z AUTO 00000KT 2 1/2SM -RA SCT050 SCT065 OVC080 A2976 RMK AO2 P0001,KNOW,2025-08-16T01:10:00Z,48.1394,-123.403,,,0,0,,2.5,29.76,,,TRUE,TRUE,,,,,,-RA,SCT,5000,SCT,6500,OVC,8000,,,IFR,,,,,,0.01,,,,,,METAR,3
KMRC 160110Z AUTO 19004KT 10SM CLR 27/23 A3008 RMK A01,KMRC,2025-08-16T01:10:00Z,35.5579,-87.1778,27,23,190,4,,10+,30.08,,,TRUE,TRUE,,,,,,,CLR,,,,,,,,VFR,,,,,,,,,,,,METAR,205
KMPR 160110Z AUTO 15008KT 10SM CLR 31/23 A2996 RMK AO2 T03120226,KMPR,2025-08-16T01:10:00Z,38.3491,-97.6883,31.2,22.6,150,8,,10+,29.96,,,TRUE,TRUE,,,,,,,CLR,,,,,,,,VFR,,,,,,,,,,,,METAR,455
KM54 160110Z AUTO 00000KT 10SM CLR 29/24 A3007 RMK A01,KM54,2025-08-16T01:10:00Z,36.1932,-86.3139,29,24,0,0,,10+,30.07,,,TRUE,TRUE,,,,,,,CLR,,,,,,,,VFR,,,,,,,,,,,,METAR,168
KM04 160110Z AUTO 00000KT 10SM CLR 29/27 A3006 RMK A01,KM04,2025-08-16T01:10:00Z,35.5819,-89.5858,29,27,0,0,,10+,30.06,,,TRUE,TRUE,,,,,,,CLR,,,,,,,,VFR,,,,,,,,,,,,METAR,83
KIJX 160110Z AUTO 00000KT 10SM CLR 27/27 A3007 RMK AO2 T02690266,KIJX,2025-08-16T01:10:00Z,39.774,-90.2419,26.9,26.6,0,0,,10+,30.07,,,TRUE,TRUE,,,,,,,CLR,,,,,,,,VFR,,,,,,,,,,,,METAR,187
KHVE 160110Z AUTO 15006KT 10SM CLR 23/11 A3013 RMK AO2,KHVE,2025-08-16T01:10:00Z,38.418,-110.704,23,11,150,6,,10+,30.13,,,TRUE,TRUE,,,,,,,CLR,,,,,,,,VFR,,,,,,,,,,,,METAR,1351
KHBI 160110Z AUTO 00000KT 10SM CLR 24/23 A3013 RMK AO2 T02440226,KHBI,2025-08-16T01:10:00Z,35.6527,-79.8942,24.4,22.6,0,0,,10+,30.13,,,TRUE,TRUE,,,,,,,CLR,,,,,,,,VFR,,,,,,,,,,,,METAR,199
KGRY 160110Z AUTO 09006KT 10SM CLR 29/24 A3009 RMK A01,KGRY,2025-08-16T01:10:00Z,27.6247,-90.4411,29,24,90,6,,10+,30.09,,,TRUE,TRUE,,,,,,,CLR,,,,,,,,VFR,,,,,,,,,,,,METAR,58
KEZP 160110Z AUTO 10SM 30/26 A3007 RMK A01,KEZP,2025-08-16T01:10:00Z,28.2198,-92.7944,30,26,,,,10+,30.07,,,TRUE,TRUE,,,,,,,,,,,,,,,VFR,,,,,,,,,,,,METAR,30
KEKS 160110Z AUTO 20013KT 8SM CLR 30/M02 A3001 RMK AO2,KEKS,2025-08-16T01:10:00Z,45.276,-111.65,30,-2,200,13,,8,30.01,,,TRUE,TRUE,,,,,,,CLR,,,,,,,,VFR,,,,,,,,,,,,METAR,1636
KCQB 160110Z AUTO 15004KT 10SM CLR 30/22 A3001 RMK AO2 T03030218,KCQB,2025-08-16T01:10:00Z,35.7223,-96.8187,30.3,21.8,150,4,,10+,30.01,,,TRUE,TRUE,,,,,,,CLR,,,,,,,,VFR,,,,,,,,,,,,METAR,298
KCLI 160110Z AUTO 19005KT 10SM SCT080 26/21 A3007 RMK AO2 T02640208,KCLI,2025-08-16T01:10:00Z,44.6152,-88.7313,26.4,20.8,190,5,,10+,30.07,,,TRUE,TRUE,,,,,,,SCT,8000,,,,,,,VFR,,,,,,,,,,,,METAR,248
KBUU 160110Z AUTO 00000KT 10SM CLR 23/22 A3007 RMK AO2 T02320219 PWINO,KBUU,2025-08-16T01:10:00Z,42.6908,-88.308,23.2,21.9,0,0,,10+,30.07,,,TRUE,TRUE,,,,,TRUE,,CLR,,,,,,,,VFR,,,,,,,,,,,,METAR,238
KBQP 160110Z AUTO 20007KT 10SM BKN050 BKN065 28/22 A3009 RMK AO2 T02800220,KBQP,2025-08-16T01:10:00Z,32.7583,-91.8793,28,22,200,7,,10+,30.09,,,TRUE,TRUE,,,,,,,BKN,5000,BKN,6500,,,,,VFR,,,,,,,,,,,,METAR,50
KADT 160110Z AUTO 17011G17KT 10SM CLR 33/11 A2998 RMK AO2 T03310111,KADT,2025-08-16T01:10:00Z,39.8401,-101.045,33.1,11.1,170,11,17,10+,29.98,,,TRUE,TRUE,,,,,,,CLR,,,,,,,,VFR,,,,,,,,,,,,METAR,899
K18H 160110Z AUTO VRB04G10KT 10SM SCT024 SCT033 31/25 A3005 RMK A01,K18H,2025-08-16T01:10:00Z,26.1283,-92.0333,31,25,VRB,4,10,10+,30.05,,,TRUE,TRUE,,,,,,,SCT,2400,SCT,3300,,,,,VFR,,,,,,,,,,,,METAR,30
FASB 160110Z 14004KT 9999 FEW012 07/06 Q1021,FASB,2025-08-16T01:10:00Z,-29.69,17.935,7,6,140,4,,6+,30.15,,,,,,,,,,,FEW,1200,,,,,,,VFR,,,,,,,,,,,,SPECI,811
CYZP 160110Z AUTO 14022G28KT 9SM SCT008 BKN012 BKN024 BKN086 15/14 A2930 RMK SLP925 DENSITY ALT 800FT,CYZP,2025-08-16T01:10:00Z,53.254,-131.814,15,14,140,22,28,9,29.30,992.5,,TRUE,,,,,,,,SCT,800,BKN,1200,BKN,2400,BKN,8600,MVFR,,,,,,,,,,,,SPECI,7
CYXY 160110Z 21010KT 40SM VCSH BKN072TCU BKN120 18/07 A2955 RMK TCU5AC2 SLP023 DENSITY ALT 3700FT,CYXY,2025-08-16T01:10:00Z,60.71,-135.059,18,7,210,10,,40,29.55,1002.3,,,,,,,,,VCSH,BKN,7200,BKN,12000,,,,,VFR,,,,,,,,,,,,SPECI,677
CYQX 160110Z 02014KT 6SM -DZ BR OVC004 11/11 A3015 RMK ST8 SLP214,CYQX,2025-08-16T01:10:00Z,48.946,-54.576,11,11,20,14,,6,30.15,1021.4,,,,,,,,,-DZ BR,OVC,400,,,,,,,LIFR,,,,,,,,,,,,SPECI,144
CYQV 160110Z AUTO VRB02KT 9SM -RA BKN100 OVC120 15/10 A3006 RMK PRESRR SLP194 DENSITY ALT 1900FT,CYQV,2025-08-16T01:10:00Z,51.26,-102.461,15,10,VRB,2,,9,30.06,1019.4,,TRUE,,,,,,,-RA,BKN,10000,OVC,12000,,,,,VFR,,,,,,,,,,,,SPECI,493
CYER 160109Z AUTO 28017G28KT 9SM SCT018 BKN023 BKN030 OVC079 11/08 A2961 RMK SLP029,CYER,2025-08-16T01:09:00Z,56.019,-87.675,11,8,280,17,28,9,29.61,1002.9,,TRUE,,,,,,,,SCT,1800,BKN,2300,BKN,3000,OVC,7900,MVFR,,,,,,,,,,,,SPECI,11
MUGM 0816 DH0100/PPH 0.00,MUGM,2025-08-16T01:08:08Z,19.909,-75.206,,,,,,,0.00,,,,,,,,,,,,,,,,,,,,,,,,,,,,,,,METAR,21
PAOR 160108Z 31014G25KT 10SM BKN012 OVC022 07/07 A2977 RMK AO2 T00720067 $,PAOR,2025-08-16T01:08:00Z,62.962,-141.938,7.2,6.7,310,14,25,10+,29.77,,,,TRUE,TRUE,,,,,,BKN,1200,OVC,2200,,,,,MVFR,,,,,,,,,,,,SPECI,524
KFRM 160108Z AUTO 09004KT 10SM BKN028 OVC034 27/24 A3001 RMK AO2,KFRM,2025-08-16T01:08:00Z,43.6455,-94.4168,27,24,90,4,,10+,30.01,,,TRUE,TRUE,,,,,,,BKN,2800,OVC,3400,,,,,MVFR,,,,,,,,,,,,SPECI,353
KCAE 160108Z 33008G15KT 10SM TS BKN045CB 29/21 A3006 RMK AO2 LTG DSNT W AND NW TSB02 OCNL LTGICCC OHD TS OHD MOV SE CB OHD MOV SE T02890211,KCAE,2025-08-16T01:08:00Z,33.9422,-81.118,28.9,21.1,330,8,15,10+,30.06,,,,TRUE,,,,,,TS,BKN,4500,,,,,,,VFR,,,,,,,,,,,,SPECI,69
KAMW 160108Z AUTO 18020G28KT 10SM FEW048 FEW100 FEW120 25/22 A2998 RMK AO2 PK WND 17028/0107 LTG DSNT E AND SE RAE0056 TSE07 P0000 T02500217,KAMW,2025-08-16T01:08:00Z,41.9905,-93.6185,25,21.7,180,20,28,10+,29.98,,,TRUE,TRUE,,,,,,,FEW,4800,FEW,10000,FEW,12000,,,VFR,,,,,,0.005,,,,,,SPECI,282
KWAL 160107Z 08008KT 8SM BKN012 26/23 A3011 RMK AO2 T02560233,KWAL,2025-08-16T01:07:00Z,37.9372,-75.4662,25.6,23.3,80,8,,8,30.11,,,,TRUE,,,,,,,BKN,1200,,,,,,,MVFR,,,,,,,,,,,,SPECI,10
KMKY 160107Z AUTO 19005KT 10SM TS FEW028 SCT049 29/26 RMK AO2 TSB01 $,KMKY,2025-08-16T01:07:00Z,25.999,-81.674,29,26,190,5,,10+,0.00,,,TRUE,TRUE,TRUE,,,,,TS,FEW,2800,SCT,4900,,,,,VFR,,,,,,,,,,,,SPECI,2
KGNV 160107Z 33016G27KT 3SM +TSRA BR SCT014 BKN050 OVC080 26/23 A3012 RMK AO2 PK WND 28028/0054 LTG DSNT SE-W P0025 T02560233 $,KGNV,2025-08-16T01:07:00Z,29.6917,-82.276,25.6,23.3,330,16,27,3,30.12,,,,TRUE,TRUE,,,,,+TSRA BR,SCT,1400,BKN,5000,OVC,8000,,,MVFR,,,,,,0.25,,,,,,SPECI,41
KGDK 160107Z 12005KT 10SM BKN055 27/24 A3011 RMK AO2,KGDK,2025-08-16T01:07:00Z,39.6935,-83.9896,27,24,120,5,,10+,30.11,,,,TRUE,,,,,,,BKN,5500,,,,,,,VFR,,,,,,,,,,,,METAR,284
UNOO 160106Z 21002MPS 8000 NSC 12/12 Q1000 R25/250050 NOSIG RMK QFE742,UNOO,2025-08-16T01:06:00Z,54.964,73.32,12,12,210,4,,4.97,29.53,,,,,,TRUE,,,,,CLR,,,,,,,,MVFR,,,,,,,,,,,,SPECI,85
PACX 160106Z AUTO 20011KT 10SM BKN030 BKN037 OVC047 11/06 A2986 RMK AO2,PACX,2025-08-16T01:06:00Z,67.252,-150.204,11,6,200,11,,10+,29.86,,,TRUE,TRUE,,,,,,,BKN,3000,BKN,3700,OVC,4700,,,MVFR,,,,,,,,,,,,SPECI,319
KFCM 160106Z 08010KT 10SM FEW009 BKN035 OVC065 22/21 A3001 RMK AO2 LTG DSNT E T02220211,KFCM,2025-08-16T01:06:00Z,44.8321,-93.4705,22.2,21.1,80,10,,10+,30.01,,,,TRUE,,,,,,,FEW,900,BKN,3500,OVC,6500,,,VFR,,,,,,,,,,,,SPECI,276
KCVO 160106Z 26008KT 10SM BKN029 OVC033 23/17 A2995 RMK AO2,KCVO,2025-08-16T01:06:00Z,44.5013,-123.293,23,17,260,8,,10+,29.95,,,,TRUE,,,,,,,BKN,2900,OVC,3300,,,,,MVFR,,,,,,,,,,,,SPECI,75
K4I3 160106Z 22002KT 10SM CLR 24/21 A3015 RMK AO2,K4I3,2025-08-16T01:06:00Z,40.3268,-82.5201,24,21,220,2,,10+,30.15,,,,TRUE,,,,,,,CLR,,,,,,,,VFR,,,,,,,,,,,,METAR,361
UHHH 160105Z 26002MPS 2900 -SHRA SCT004 OVC015CB 19/19 Q1003 R23R/290045 NOSIG RMK QBB130 QFE746/0995,UHHH,2025-08-16T01:05:00Z,48.527,135.184,19,19,260,4,,1.8,29.62,,,,,,TRUE,,,,-SHRA,SCT,400,OVC,1500,,,,,IFR,,,,,,,,,,,,SPECI,74
KOCW 160105Z AUTO 03004KT 10SM CLR 25/24 A3008 RMK AO2 T02530242,KOCW,2025-08-16T01:05:00Z,35.5703,-77.05,25.3,24.2,30,4,,10+,30.08,,,TRUE,TRUE,,,,,,,CLR,,,,,,,,VFR,,,,,,,,,,,,METAR,10
KCDC 160105Z AUTO 17018KT 10SM CLR 27/03 A3011 RMK AO2 PK WND 16026/0058 WSHFT 0045 T02720028,KCDC,2025-08-16T01:05:00Z,37.7067,-113.097,27.2,2.8,170,18,,10+,30.11,,,TRUE,TRUE,,,,,,,CLR,,,,,,,,VFR,,,,,,,,,,,,SPECI,1703
KULM 160104Z 15008KT 10SM OVC049 27/23 A2998 RMK AO2,KULM,2025-08-16T01:04:00Z,44.3228,-94.5024,27,23,150,8,,10+,29.98,,,,TRUE,,,,,,,OVC,4900,,,,,,,VFR,,,,,,,,,,,,METAR,305
KRCA 160104Z AUTO 01008KT 10SM TS SCT120 28/17 A2991 RMK AO2 TSB04 SLP103 PWINO $,KRCA,2025-08-16T01:04:00Z,44.155,-103.118,28,17,10,8,,10+,29.91,1010.3,,TRUE,TRUE,TRUE,,,,TRUE,TS,SCT,12000,,,,,,,VFR,,,,,,,,,,,,SPECI,993
KALI 160104Z AUTO 13010G16KT 090V160 3SM -RA BR FEW030 BKN038 OVC075 26/24 A2997 RMK AO2 P0000 T02560239,KALI,2025-08-16T01:04:00Z,27.7413,-98.0251,25.6,23.9,130,10,16,3,29.97,,,TRUE,TRUE,,,,,,-RA BR,FEW,3000,BKN,3800,OVC,7500,,,MVFR,,,,,,0.005,,,,,,SPECI,52
KPDK 160103Z VRB03KT 10SM -RA CLR 24/22 A3015 RMK AO2 LTG DSNT NE RAB01 P0000 T02390217,KPDK,2025-08-16T01:03:00Z,33.8783,-84.298,23.9,21.7,VRB,3,,10+,30.15,,,,TRUE,,,,,,-RA,CLR,,,,,,,,VFR,,,,,,0.005,,,,,,SPECI,299
KGLH 160103Z AUTO 22006KT 10SM VCTS CLR 28/25 A3006 RMK AO2 LTG DSNT E AND SE T02830250,KGLH,2025-08-16T01:03:00Z,33.4772,-90.9847,28.3,25,220,6,,10+,30.06,,,TRUE,TRUE,,,,,,VCTS,CLR,,,,,,,,VFR,,,,,,,,,,,,SPECI,40
KDEN 160103Z 36004KT 10SM SCT080 BKN120 BKN220 26/11 A3005 RMK AO2 TSE02 OCNL LTGICCC DSNT NE CB DSNT NE MOV NE T02560106 $,KDEN,2025-08-16T01:03:00Z,39.8466,-104.656,25.6,10.6,360,4,,10+,30.05,,,,TRUE,TRUE,,,,,,SCT,8000,BKN,12000,BKN,22000,,,VFR,,,,,,,,,,,,SPECI,1656
EBFN 160103Z AUTO 02009KT 9999 OVC014/// 18/15 Q1025 GRN,EBFN,2025-08-16T01:03:00Z,51.09,2.653,18,15,20,9,,6+,30.27,,,TRUE,,,,,,,,OVC,1400,,,,,,,MVFR,,,,,,,,,,,,SPECI,9
BIAR 160103Z 16018G30KT 110V190 9999 BKN040 BKN090 19/12 Q1016,BIAR,2025-08-16T01:03:00Z,65.655,-18.069,19,12,160,18,30,6+,30.00,,,,,,,,,,,BKN,4000,BKN,9000,,,,,VFR,,,,,,,,,,,,METAR,1
PAOM 160102Z 25011KT 10SM FEW009 OVC015 11/09 A3003 RMK AO2 T01060089,PAOM,2025-08-16T01:02:00Z,64.5111,-165.44,10.6,8.9,250,11,,10+,30.03,,,,TRUE,,,,,,,FEW,900,OVC,1500,,,,,MVFR,,,,,,,,,,,,SPECI,6
PAHX 160102Z AUTO VRB04KT 10SM -RA FEW045 OVC060 12/09 A3008 RMK AO2 RAB0023 SLP184 P0000 T01220094,PAHX,2025-08-16T01:02:00Z,62.688,-159.566,12.2,9.4,VRB,4,,10+,30.08,1018.4,,TRUE,TRUE,,,,,,-RA,FEW,4500,OVC,6000,,,,,VFR,,,,,,0.005,,,,,,METAR,20
PACD 160102Z 27015G24KT 1 3/4SM BR OVC003 11/11 A3028 RMK AO2 T01110106,PACD,2025-08-16T01:02:00Z,55.2207,-162.732,11.1,10.6,270,15,24,1.75,30.28,,,,TRUE,,,,,,BR,OVC,300,,,,,,,LIFR,,,,,,,,,,,,SPECI,23
KCID 160102Z 17005KT 10SM 21/19 A3003 RMK AO2 LTG DSNT SE-SW T02060194 $,KCID,2025-08-16T01:02:00Z,41.8829,-91.7246,20.6,19.4,170,5,,10+,30.03,,,,TRUE,TRUE,,,,,,,,,,,,,,VFR,,,,,,,,,,,,SPECI,257
PASD 160101Z 32009KT 10SM FEW022 SCT028 BKN036 16/11 A3022 RMK AO2 PNO $,PASD,2025-08-16T01:01:00Z,55.318,-160.525,16,11,320,9,,10+,30.22,,,,TRUE,TRUE,,,,,,FEW,2200,SCT,2800,BKN,3600,,,VFR,,,,,,,,,,,,SPECI,6
PAFS 160101Z AUTO 30005KT 10SM OVC060 14/03 A2998 RMK AO2 SLP159 T01390033,PAFS,2025-08-16T01:01:00Z,63.015,-154.367,13.9,3.3,300,5,,10+,29.98,1015.9,,TRUE,TRUE,,,,,,,OVC,6000,,,,,,,VFR,,,,,,,,,,,,METAR,131
KMRF 160101Z AUTO 14011KT 10SM OVC110 24/18 A3020 RMK AO2 LTG DSNT SE RAB0004E0051 SLP164 P0000 T02390178 $,KMRF,2025-08-16T01:01:00Z,30.3706,-104.012,23.9,17.8,140,11,,10+,30.20,1016.4,,TRUE,TRUE,TRUE,,,,,,OVC,11000,,,,,,,VFR,,,,,,0.005,,,,,,METAR,1476
ZYTX 160100Z 19005MPS 9999 FEW040TCU FEW040 29/23 Q1009 NOSIG,ZYTX,2025-08-16T01:00:00Z,41.639,123.485,29,23,190,10,,6+,29.79,,,,,,TRUE,,,,,FEW,4000,FEW,4000,,,,,VFR,,,,,,,,,,,,METAR,56
ZYTL 160100Z 23004MPS 200V270 9999 FEW020 27/24 Q1011 NOSIG,ZYTL,2025-08-16T01:00:00Z,38.961,121.556,27,24,230,8,,6+,29.85,,,,,,TRUE,,,,,FEW,2000,,,,,,,VFR,,,,,,,,,,,,METAR,33
ZYHB 160100Z 01003MPS 9999 BKN008 OVC016 22/19 Q1007 NOSIG,ZYHB,2025-08-16T01:00:00Z,45.628,126.259,22,19,10,6,,6+,29.73,,,,,,TRUE,,,,,BKN,800,OVC,1600,,,,,IFR,,,,,,,,,,,,METAR,134
ZYCC 160100Z 23004MPS 9999 FEW023 26/22 Q1008 NOSIG,ZYCC,2025-08-16T01:00:00Z,43.993,125.682,26,22,230,8,,6+,29.76,,,,,,TRUE,,,,,FEW,2300,,,,,,,VFR,,,,,,,,,,,,METAR,211
ZWWW 160100Z 14002MPS 100V220 CAVOK 24/10 Q1011 NOSIG,ZWWW,2025-08-16T01:00:00Z,43.907,87.474,24,10,140,4,,6+,29.85,,,,,,TRUE,,,,,CAVOK,,,,,,,,VFR,,,,,,,,,,,,METAR,654
ZWSH 160100Z 24004MPS 9999 SCT040 21/12 Q1014 NOSIG,ZWSH,2025-08-16T01:00:00Z,39.542,76.019,21,12,240,8,,6+,29.94,,,,,,TRUE,,,,,SCT,4000,,,,,,,VFR,,,,,,,,,,,,METAR,1374
ZUUU 160100Z 36002MPS 9999 SCT040 BKN050 26/22 Q1009 NOSIG,ZUUU,2025-08-16T01:00:00Z,30.576,103.95,26,22,360,4,,6+,29.79,,,,,,TRUE,,,,,SCT,4000,BKN,5000,,,,,VFR,,,,,,,,,,,,METAR,494
ZUTF 160100Z 05002MPS 9999 FEW050 26/24 Q1009 NOSIG,ZUTF,2025-08-16T01:00:00Z,30.304,104.436,26,24,50,4,,6+,29.79,,,,,,TRUE,,,,,FEW,5000,,,,,,,VFR,,,,,,,,,,,,METAR,443
ZUGY 160100Z 19002MPS 150V250 9999 FEW023 SCT040 23/19 Q1016 NOSIG,ZUGY,2025-08-16T01:00:00Z,26.538,106.801,23,19,190,4,,6+,30.00,,,,,,TRUE,,,,,FEW,2300,SCT,4000,,,,,VFR,,,,,,,,,,,,METAR,1130
ZUCK 160100Z 11003MPS 080V140 9999 FEW020 OVC040 26/23 Q1009 NOSIG,ZUCK,2025-08-16T01:00:00Z,29.718,106.639,26,23,110,6,,6+,29.79,,,,,,TRUE,,,,,FEW,2000,OVC,4000,,,,,VFR,,,,,,,,,,,,METAR,416
ZSSS 160100Z 16006MPS 130V190 9999 FEW026 33/24 Q1013 NOSIG,ZSSS,2025-08-16T01:00:00Z,31.209,121.337,33,24,160,12,,6+,29.91,,,,,,TRUE,,,,,FEW,2600,,,,,,,VFR,,,,,,,,,,,,METAR,2
ZSQD 160100Z 19005MPS 9999 FEW020 32/26 Q1011 NOSIG,ZSQD,2025-08-16T01:00:00Z,36.362,120.087,32,26,190,10,,6+,29.85,,,,,,TRUE,,,,,FEW,2000,,,,,,,VFR,,,,,,,,,,,,METAR,2
ZSPD 160100Z 15005MPS 120V180 CAVOK 31/25 Q1013 NOSIG,ZSPD,2025-08-16T01:00:00Z,31.146,121.8,31,25,150,10,,6+,29.91,,,,,,TRUE,,,,,CAVOK,,,,,,,,VFR,,,,,,,,,,,,METAR,4
ZSOF 160100Z 17003MPS 130V210 CAVOK 32/26 Q1011 NOSIG,ZSOF,2025-08-16T01:00:00Z,31.99,116.965,32,26,170,6,,6+,29.85,,,,,,TRUE,,,,,CAVOK,,,,,,,,VFR,,,,,,,,,,,,METAR,64
ZSNJ 160100Z 16003MPS 110V200 CAVOK 33/26 Q1011 NOSIG,ZSNJ,2025-08-16T01:00:00Z,31.739,118.863,33,26,160,6,,6+,29.85,,,,,,TRUE,,,,,CAVOK,,,,,,,,VFR,,,,,,,,,,,,METAR,27
ZSNB 160100Z 18003MPS 110V220 9999 BKN023 31/25 Q1013 NOSIG,ZSNB,2025-08-16T01:00:00Z,29.827,121.462,31,25,180,6,,6+,29.91,,,,,,TRUE,,,,,BKN,2300,,,,,,,MVFR,,,,,,,,,,,,METAR,5
ZSHC 160100Z 18002MPS 140V260 CAVOK 32/23 Q1013 NOSIG,ZSHC,2025-08-16T01:00:00Z,30.229,120.434,32,23,180,4,,6+,29.91,,,,,,TRUE,,,,,CAVOK,,,,,,,,VFR,,,,,,,,,,,,METAR,8
ZSFZ 160100Z 04009MPS 9999 SCT011 BKN020 30/26 Q1012 BECMG TL0230 BKN012,ZSFZ,2025-08-16T01:00:00Z,25.936,119.666,30,26,40,17,,6+,29.88,,,,,,,,,,,SCT,1100,BKN,2000,,,,,MVFR,,,,,,,,,,,,METAR,14
ZSAM 160100Z 04005MPS 9999 BKN040 31/23 Q1010 NOSIG,ZSAM,2025-08-16T01:00:00Z,24.546,118.131,31,23,40,10,,6+,29.82,,,,,,TRUE,,,,,BKN,4000,,,,,,,VFR,,,,,,,,,,,,METAR,13
ZPPP 160100Z 08003MPS 050V110 9999 SCT016 BKN040 17/15 Q1021 NOSIG,ZPPP,2025-08-16T01:00:00Z,25.107,102.934,17,15,80,6,,6+,30.15,,,,,,TRUE,,,,,SCT,1600,BKN,4000,,,,,VFR,,,,,,,,,,,,METAR,2104
ZMUB 160100Z 00000MPS CAVOK 16/07 Q1014 NOSIG RMK QFE653.6 53,ZMUB,2025-08-16T01:00:00Z,47.843,106.766,16,7,0,0,,6+,29.94,,,,,,TRUE,,,,,CAVOK,,,,,,,,VFR,,,,,,,,,,,,METAR,1300
ZLXY 160100Z 04003MPS 6000 FEW040 26/24 Q1009 NOSIG,ZLXY,2025-08-16T01:00:00Z,34.449,108.752,26,24,40,6,,3.73,29.79,,,,,,TRUE,,,,,FEW,4000,,,,,,,MVFR,,,,,,,,,,,,METAR,478
ZLLL 160100Z 15002MPS 120V180 CAVOK 20/11 Q1016 NOSIG,ZLLL,2025-08-16T01:00:00Z,36.513,103.623,20,11,150,4,,6+,30.00,,,,,,TRUE,,,,,CAVOK,,,,,,,,VFR,,,,,,,,,,,,METAR,1939
ZJSY 160100Z VRB01MPS 9999 FEW015 SCT040 27/24 Q1006 NOSIG,ZJSY,2025-08-16T01:00:00Z,18.303,109.412,27,24,VRB,2,,6+,29.70,,,,,,TRUE,,,,,FEW,1500,SCT,4000,,,,,VFR,,,,,,,,,,,,METAR,27
ZJHK 160100Z 08004MPS 9999 FEW023CB SCT026 27/25 Q1007 NOSIG,ZJHK,2025-08-16T01:00:00Z,19.934,110.445,27,25,80,8,,6+,29.73,,,,,,TRUE,,,,,FEW,2300,SCT,2600,,,,,VFR,,,,,,,,,,,,METAR,21
ZHHH 160100Z 14003MPS 090V200 CAVOK 33/27 Q1010 NOSIG,ZHHH,2025-08-16T01:00:00Z,30.783,114.205,33,27,140,6,,6+,29.82,,,,,,TRUE,,,,,CAVOK,,,,,,,,VFR,,,,,,,,,,,,METAR,33
ZHEC 160100Z 15004MPS CAVOK 32/25 Q1010 NOSIG,ZHEC,2025-08-16T01:00:00Z,30.3424,115.039,32,25,150,8,,6+,29.82,,,,,,TRUE,,,,,CAVOK,,,,,,,,VFR,,,,,,,,,,,,METAR,21
ZHCC 160100Z 19004MPS 130V220 CAVOK 31/23 Q1009 NOSIG,ZHCC,2025-08-16T01:00:00Z,34.52,113.834,31,23,190,8,,6+,29.79,,,,,,TRUE,,,,,CAVOK,,,,,,,,VFR,,,,,,,,,,,,METAR,149
ZGSZ 160100Z 06004MPS 030V120 9999 BKN050 30/24 Q1009 NOSIG,ZGSZ,2025-08-16T01:00:00Z,22.639,113.803,30,24,60,8,,6+,29.79,,,,,,TRUE,,,,,BKN,5000,,,,,,,VFR,,,,,,,,,,,,METAR,18
ZGOW 160100Z 05002MPS 010V080 9999 FEW015 SCT050 30/25 Q1010 NOSIG,ZGOW,2025-08-16T01:00:00Z,23.55,116.505,30,25,50,4,,6+,29.82,,,,,,TRUE,,,,,FEW,1500,SCT,5000,,,,,VFR,,,,,,,,,,,,METAR,4
ZGNN 160100Z 06003MPS 030V100 9999 SCT013 SCT030 27/24 Q1010 NOSIG,ZGNN,2025-08-16T01:00:00Z,22.609,108.173,27,24,60,6,,6+,29.82,,,,,,TRUE,,,,,SCT,1300,SCT,3000,,,,,VFR,,,,,,,,,,,,METAR,128
ZGKL 160100Z VRB01MPS 9999 SCT060 27/24 Q1011 NOSIG,ZGKL,2025-08-16T01:00:00Z,25.22,110.04,27,24,VRB,2,,6+,29.85,,,,,,TRUE,,,,,SCT,6000,,,,,,,VFR,,,,,,,,,,,,METAR,151
ZGHA 160100Z VRB01MPS CAVOK 32/24 Q1010 NOSIG,ZGHA,2025-08-16T01:00:00Z,28.18,113.219,32,24,VRB,2,,6+,29.82,,,,,,TRUE,,,,,CAVOK,,,,,,,,VFR,,,,,,,,,,,,METAR,61
ZGGG 160100Z 08003MPS 050V110 9999 FEW016 29/26 Q1010 NOSIG,ZGGG,2025-08-16T01:00:00Z,23.392,113.307,29,26,80,6,,6+,29.82,,,,,,TRUE,,,,,FEW,1600,,,,,,,VFR,,,,,,,,,,,,METAR,11
ZBYN 160100Z 12003MPS 060V160 8000 FEW013 SCT040 21/19 Q1013 NOSIG,ZBYN,2025-08-16T01:00:00Z,37.747,112.628,21,19,120,6,,4.97,29.91,,,,,,TRUE,,,,,FEW,1300,SCT,4000,,,,,MVFR,,,,,,,,,,,,METAR,778
ZBTJ 160100Z 27003MPS 9999 -RA FEW010 25/23 Q1009 BECMG TL0230 BKN011,ZBTJ,2025-08-16T01:00:00Z,39.124,117.346,25,23,270,6,,6+,29.79,,,,,,,,,,-RA,FEW,1000,,,,,,,VFR,,,,,,,,,,,,METAR,4
ZBSJ 160100Z VRB01MPS 2800 -SHRA BR SCT010 OVC040 24/24 Q1010 BECMG TL0140 3000,ZBSJ,2025-08-16T01:00:00Z,38.281,114.697,24,24,VRB,2,,1.74,29.82,,,,,,,,,,-SHRA BR,SCT,1000,OVC,4000,,,,,IFR,,,,,,,,,,,,METAR,70
ZBHH 160100Z VRB01MPS CAVOK 20/15 Q1015 NOSIG,ZBHH,2025-08-16T01:00:00Z,40.854,111.827,20,15,VRB,2,,6+,29.97,,,,,,TRUE,,,,,CAVOK,,,,,,,,VFR,,,,,,,,,,,,METAR,1081
ZBAD 160100Z 02002MPS 9999 FEW006 24/23 Q1009 NOSIG,ZBAD,2025-08-16T01:00:00Z,39.501,116.412,24,23,20,4,,6+,29.79,,,,,,TRUE,,,,,FEW,600,,,,,,,VFR,,,,,,,,,,,,METAR,25
ZBAA 160100Z VRB01MPS CAVOK 25/23 Q1009 NOSIG,ZBAA,2025-08-16T01:00:00Z,40.082,116.603,25,23,VRB,2,,6+,29.79,,,,,,TRUE,,,,,CAVOK,,,,,,,,VFR,,,,,,,,,,,,METAR,31
YWLM 160100Z AUTO 29009KT 9999 // NCD 15/09 Q1013,YWLM,2025-08-16T01:00:00Z,-32.794,151.836,15,9,290,9,,6+,29.91,,,TRUE,,,,,,,,CLR,,,,,,,,VFR,,,,,,,,,,,,METAR,7
YSTW 160100Z AUTO 30005KT 9999 // FEW095 BKN110 15/08 Q1016,YSTW,2025-08-16T01:00:00Z,-31.084,150.847,15,8,300,5,,6+,30.00,,,TRUE,,,,,,,,FEW,9500,BKN,11000,,,,,VFR,,,,,,,,,,,,METAR,404
YSSY 160100Z 24005KT 200V280 CAVOK 18/06 Q1012,YSSY,2025-08-16T01:00:00Z,-33.946,151.173,18,6,240,5,,6+,29.88,,,,,,,,,,,CAVOK,,,,,,,,VFR,,,,,,,,,,,,METAR,3
YSRI 160100Z AUTO 26012KT 9999 // SCT071 18/06 Q1012,YSRI,2025-08-16T01:00:00Z,-33.601,150.777,18,6,260,12,,6+,29.88,,,TRUE,,,,,,,,SCT,7100,,,,,,,VFR,,,,,,,,,,,,METAR,19
YSNF 160100Z AUTO 29016KT 9999 // SCT022 20/14 Q1009,YSNF,2025-08-16T01:00:00Z,-29.039,167.941,20,14,290,16,,6+,29.79,,,TRUE,,,,,,,,SCT,2200,,,,,,,VFR,,,,,,,,,,,,METAR,113
YSDU 160100Z AUTO 21012KT 9999 // BKN100 14/04 Q1016,YSDU,2025-08-16T01:00:00Z,-32.221,148.575,14,4,210,12,,6+,30.00,,,TRUE,,,,,,,,BKN,10000,,,,,,,VFR,,,,,,,,,,,,METAR,285
YSCB 160100Z AUTO 27013KT 9999 // SCT049 BKN057 12/M00 Q1013,YSCB,2025-08-16T01:00:00Z,-35.309,149.2,12,0,270,13,,6+,29.91,,,TRUE,,,,,,,,SCT,4900,BKN,5700,,,,,VFR,,,,,,,,,,,,METAR,577
YPXM 160100Z AUTO 14012KT 9999 // BKN019 BKN028 OVC047 25/21 Q1013,YPXM,2025-08-16T01:00:00Z,-10.453,105.688,25,21,140,12,,6+,29.91,,,TRUE,,,,,,,,BKN,1900,BKN,2800,OVC,4700,,,MVFR,,,,,,,,,,,,METAR,262
YPWR 160100Z AUTO 19010KT 9999 // FEW034 13/03 Q1025,YPWR,2025-08-16T01:00:00Z,-31.156,136.805,13,3,190,10,,6+,30.27,,,TRUE,,,,,,,,FEW,3400,,,,,,,VFR,,,,,,,,,,,,METAR,169
YPTN 160100Z AUTO 12007KT 100V160 9999 // NCD 26/12 Q1017,YPTN,2025-08-16T01:00:00Z,-14.523,132.383,26,12,120,7,,6+,30.03,,,TRUE,,,,,,,,CLR,,,,,,,,VFR,,,,,,,,,,,,METAR,135
YPPH 160100Z 01001KT CAVOK 12/06 Q1029,YPPH,2025-08-16T01:00:00Z,-31.927,115.976,12,6,10,1,,6+,30.38,,,,,,,,,,,CAVOK,,,,,,,,VFR,,,,,,,,,,,,METAR,16
YPPD 160100Z AUTO 11021KT 9999 // NCD 26/05 Q1018,YPPD,2025-08-16T01:00:00Z,-20.372,118.632,26,5,110,21,,6+,30.06,,,TRUE,,,,,,,,CLR,,,,,,,,VFR,,,,,,,,,,,,METAR,6
YPLM 160100Z AUTO 08004KT 9999 // NCD 24/12 Q1019,YPLM,2025-08-16T01:00:00Z,-22.241,114.097,24,12,80,4,,6+,30.09,,,TRUE,,,,,,,,CLR,,,,,,,,VFR,,,,,,,,,,,,METAR,5
YPKU 160100Z AUTO 18012KT 9999 // NCD 28/04 Q1017,YPKU,2025-08-16T01:00:00Z,-15.781,128.71,28,4,180,12,,6+,30.03,,,TRUE,,,,,,,,CLR,,,,,,,,VFR,,,,,,,,,,,,METAR,42
YPKG 160100Z AUTO 13005KT 9999 // NCD 11/M01 Q1029,YPKG,2025-08-16T01:00:00Z,-30.785,121.453,11,-1,130,5,,6+,30.38,,,TRUE,,,,,,,,CLR,,,,,,,,VFR,,,,,,,,,,,,METAR,372
YPJT 160100Z AUTO 10005KT 9999 // NCD 11/06 Q1029,YPJT,2025-08-16T01:00:00Z,-32.101,115.879,11,6,100,5,,6+,30.38,,,TRUE,,,,,,,,CLR,,,,,,,,VFR,,,,,,,,,,,,METAR,29
YPGV 160100Z AUTO 12013KT 9999 // NCD 27/16 Q1015,YPGV,2025-08-16T01:00:00Z,-12.274,136.82,27,16,120,13,,6+,29.97,,,TRUE,,,,,,,,CLR,,,,,,,,VFR,,,,,,,,,,,,METAR,53
YPEA 160100Z AUTO 00000KT 9999 // NCD 11/05 Q1029,YPEA,2025-08-16T01:00:00Z,-31.667,116.019,11,5,0,0,,6+,30.38,,,TRUE,,,,,,,,CLR,,,,,,,,VFR,,,,,,,,,,,,METAR,38
YPDN 160100Z 10006KT CAVOK 28/13 Q1015,YPDN,2025-08-16T01:00:00Z,-12.424,130.893,28,13,100,6,,6+,29.97,,,,,,,,,,,CAVOK,,,,,,,,VFR,,,,,,,,,,,,METAR,32
YPCC 160100Z AUTO 09014KT 9999 // BKN030 BKN049 BKN058 27/21 Q1011,YPCC,2025-08-16T01:00:00Z,-12.189,96.834,27,21,90,14,,6+,29.85,,,TRUE,,,,,,,,BKN,3000,BKN,4900,BKN,5800,,,MVFR,,,,,,,,,,,,METAR,3
YPAD 160100Z 26013KT 9999 FEW037 13/05 Q1022,YPAD,2025-08-16T01:00:00Z,-34.952,138.52,13,5,260,13,,6+,30.18,,,,,,,,,,,FEW,3700,,,,,,,VFR,,,,,,,,,,,,METAR,2
YMML 160100Z 24015KT 9999 VCSH BKN031 10/03 Q1016,YMML,2025-08-16T01:00:00Z,-37.666,144.832,10,3,240,15,,6+,30.00,,,,,,,,,,VCSH,BKN,3100,,,,,,,VFR,,,,,,,,,,,,METAR,115
YMLT 160100Z AUTO 36007KT 9999 // NCD 09/03 Q1008,YMLT,2025-08-16T01:00:00Z,-41.544,147.213,9,3,360,7,,6+,29.76,,,TRUE,,,,,,,,CLR,,,,,,,,VFR,,,,,,,,,,,,METAR,167
YMHB 160100Z AUTO 30015KT 9999 // NCD 10/01 Q1007,YMHB,2025-08-16T01:00:00Z,-42.834,147.503,10,1,300,15,,6+,29.73,,,TRUE,,,,,,,,CLR,,,,,,,,VFR,,,,,,,,,,,,METAR,2
YMAV 160100Z AUTO 29016KT 9999 // NCD 10/05 Q1015,YMAV,2025-08-16T01:00:00Z,-38.029,144.478,10,5,290,16,,6+,29.97,,,TRUE,,,,,,,,CLR,,,,,,,,VFR,,,,,,,,,,,,METAR,11
YLHI 160100Z AUTO 25006KT 9999 // NCD 19/12 Q1014,YLHI,2025-08-16T01:00:00Z,-31.538,159.077,19,12,250,6,,6+,29.94,,,TRUE,,,,,,,,CLR,,,,,,,,VFR,,,,,,,,,,,,METAR,2
YHID 160100Z AUTO 12015KT 9999 // NCD 29/20 Q1013,YHID,2025-08-16T01:00:00Z,-10.584,142.29,29,20,120,15,,6+,29.91,,,TRUE,,,,,,,,CLR,,,,,,,,VFR,,,,,,,,,,,,METAR,5
YGLA 160100Z AUTO 25005KT 200V280 9999 // NCD 22/11 Q1017,YGLA,2025-08-16T01:00:00Z,-23.87,151.221,22,11,250,5,,6+,30.03,,,TRUE,,,,,,,,CLR,,,,,,,,VFR,,,,,,,,,,,,METAR,17
YGEL 160100Z AUTO 05010KT 9999 // NCD 12/06 Q1025,YGEL,2025-08-16T01:00:00Z,-28.805,114.699,12,6,50,10,,6+,30.27,,,TRUE,,,,,,,,CLR,,,,,,,,VFR,,,,,,,,,,,,METAR,32
YFRT 160100Z AUTO 29007KT 9999 // NCD 13/05 Q1029,YFRT,2025-08-16T01:00:00Z,-30.848,128.114,13,5,290,7,,6+,30.38,,,TRUE,,,,,,,,CLR,,,,,,,,VFR,,,,,,,,,,,,METAR,159
YCIN 160100Z AUTO 08011KT 9999 // NCD 29/01 Q1016,YCIN,2025-08-16T01:00:00Z,-17.574,123.831,29,1,80,11,,6+,30.00,,,TRUE,,,,,,,,CLR,,,,,,,,VFR,,,,,,,,,,,,METAR,83
YCFS 160100Z AUTO 25006KT 9999 // NCD 21/// Q1014,YCFS,2025-08-16T01:00:00Z,-30.317,153.119,,,250,6,,6+,29.94,,,TRUE,,,,,,,,CLR,,,,,,,,VFR,,,,,,,,,,,,METAR,2
YBWW 160100Z AUTO 28010KT 9999 // NCD 17/06 Q1017,YBWW,2025-08-16T01:00:00Z,-27.558,151.793,17,6,280,10,,6+,30.03,,,TRUE,,,,,,,,CLR,,,,,,,,VFR,,,,,,,,,,,,METAR,460
YBTL 160100Z AUTO 03010KT 9999 // FEW040 BKN051 24/13 Q1018,YBTL,2025-08-16T01:00:00Z,-19.248,146.766,24,13,30,10,,6+,30.06,,,TRUE,,,,,,,,FEW,4000,BKN,5100,,,,,VFR,,,,,,,,,,,,METAR,4
YBSU 160100Z AUTO 27009KT 9999 // NCD 23/09 Q1016,YBSU,2025-08-16T01:00:00Z,-26.603,153.091,23,9,270,9,,6+,30.00,,,TRUE,,,,,,,,CLR,,,,,,,,VFR,,,,,,,,,,,,METAR,4
YBRM 160100Z AUTO 10011KT 9999 // NCD 27/03 Q1016,YBRM,2025-08-16T01:00:00Z,-17.948,122.235,27,3,100,11,,6+,30.00,,,TRUE,,,,,,,,CLR,,,,,,,,VFR,,,,,,,,,,,,METAR,11
YBRK 160100Z AUTO 36004KT 340V040 9999 // NCD 22/10 Q1018,YBRK,2025-08-16T01:00:00Z,-23.375,150.477,22,10,360,4,,6+,30.06,,,TRUE,,,,,,,,CLR,,,,,,,,VFR,,,,,,,,,,,,METAR,10
YBMA 160100Z AUTO 13008KT 9999 // NCD 24/M02 Q1020,YBMA,2025-08-16T01:00:00Z,-20.678,139.488,24,-2,130,8,,6+,30.12,,,TRUE,,,,,,,,CLR,,,,,,,,VFR,,,,,,,,,,,,METAR,346
YBLN 160100Z AUTO 00000KT 9999 // SCT039 14/11 Q1029,YBLN,2025-08-16T01:00:00Z,-33.688,115.402,14,11,0,0,,6+,30.38,,,TRUE,,,,,,,,SCT,3900,,,,,,,VFR,,,,,,,,,,,,METAR,17
YBHM 160100Z AUTO 14007KT 9999 // NCD 21/15 Q1018,YBHM,2025-08-16T01:00:00Z,-20.357,148.949,21,15,140,7,,6+,30.06,,,TRUE,,,,,,,,CLR,,,,,,,,VFR,,,,,,,,,,,,METAR,4
YBCS 160100Z AUTO 14011KT 9999 // BKN056 24/13 Q1017,YBCS,2025-08-16T01:00:00Z,-16.874,145.745,24,13,140,11,,6+,30.03,,,TRUE,,,,,,,,BKN,5600,,,,,,,VFR,,,,,,,,,,,,METAR,2
YBCG 160100Z AUTO 34006KT 310V020 9999 // NCD 21/11 Q1015,YBCG,2025-08-16T01:00:00Z,-28.168,153.505,21,11,340,6,,6+,29.97,,,TRUE,,,,,,,,CLR,,,,,,,,VFR,,,,,,,,,,,,METAR,5
YBBN 160100Z 02007KT CAVOK 20/12 Q1016,YBBN,2025-08-16T01:00:00Z,-27.391,153.13,20,12,20,7,,6+,30.00,,,,,,,,,,,CAVOK,,,,,,,,VFR,,,,,,,,,,,,METAR,3
YBAS 160100Z AUTO 12011KT 9999 // NCD 15/03 Q1026,YBAS,2025-08-16T01:00:00Z,-23.795,133.889,15,3,120,11,,6+,30.30,,,TRUE,,,,,,,,CLR,,,,,,,,VFR,,,,,,,,,,,,METAR,549
YAMB 160100Z AUTO 29009KT 9999 // NCD 21/09 Q1016,YAMB,2025-08-16T01:00:00Z,-27.63,152.711,21,9,290,9,,6+,30.00,,,TRUE,,,,,,,,CLR,,,,,,,,VFR,,,,,,,,,,,,METAR,26
WSSL 160100Z 16008KT 9999 FEW016 BKN150 28/25 Q1009,WSSL,2025-08-16T01:00:00Z,1.417,103.866,28,25,160,8,,6+,29.79,,,,,,,,,,,FEW,1600,BKN,15000,,,,,VFR,,,,,,,,,,,,METAR,11
WSAP 160100Z 14008KT 9999 FEW016 BKN160 29/24 Q1010,WSAP,2025-08-16T01:00:00Z,1.36,103.909,29,24,140,8,,6+,29.82,,,,,,,,,,,FEW,1600,BKN,16000,,,,,VFR,,,,,,,,,,,,METAR,20
WMSA 160100Z VRB02KT 9999 FEW018 26/23 Q1009,WMSA,2025-08-16T01:00:00Z,3.13,101.552,26,23,VRB,2,,6+,29.79,,,,,,,,,,,FEW,1800,,,,,,,VFR,,,,,,,,,,,,METAR,19
WMKP 160100Z 11003KT 060V160 5000 HZ FEW020 28/23 Q1008 NOSIG,WMKP,2025-08-16T01:00:00Z,5.297,100.277,28,23,110,3,,3.11,29.76,,,,,,TRUE,,,,HZ,FEW,2000,,,,,,,MVFR,,,,,,,,,,,,METAR,4
WMKN 160100Z 17004KT 120V200 9999 FEW020 26/24 Q1008,WMKN,2025-08-16T01:00:00Z,5.383,103.103,26,24,170,4,,6+,29.76,,,,,,,,,,,FEW,2000,,,,,,,VFR,,,,,,,,,,,,METAR,12
WMKM 160100Z 00000KT 9999 FEW028 26/24 Q1010,WMKM,2025-08-16T01:00:00Z,2.263,102.252,26,24,0,0,,6+,29.82,,,,,,,,,,,FEW,2800,,,,,,,VFR,,,,,,,,,,,,METAR,9
WMKL 160100Z VRB03KT 9999 FEW017CB 26/24 Q1008,WMKL,2025-08-16T01:00:00Z,6.33,99.729,26,24,VRB,3,,6+,29.76,,,,,,,,,,,FEW,1700,,,,,,,VFR,,,,,,,,,,,,METAR,4
WMKK 160100Z VRB02KT 9000 FEW018 25/22 Q1009 NOSIG,WMKK,2025-08-16T01:00:00Z,2.747,101.714,25,22,VRB,2,,5.59,29.79,,,,,,TRUE,,,,,FEW,1800,,,,,,,VFR,,,,,,,,,,,,METAR,21
WMKJ 160100Z VRB01KT 7000 FEW018 26/24 Q1009,WMKJ,2025-08-16T01:00:00Z,1.641,103.67,26,24,VRB,1,,4.35,29.79,,,,,,,,,,,FEW,1800,,,,,,,MVFR,,,,,,,,,,,,METAR,38
WMKI 160100Z VRB03KT 9000 FEW019 26/22 Q1009,WMKI,2025-08-16T01:00:00Z,4.568,101.092,26,22,VRB,3,,5.59,29.79,,,,,,,,,,,FEW,1900,,,,,,,VFR,,,,,,,,,,,,METAR,37
WMKE 160100Z VRB02KT 9999 FEW022 26/24 Q1008,WMKE,2025-08-16T01:00:00Z,4.537,103.427,26,24,VRB,2,,6+,29.76,,,,,,,,,,,FEW,2200,,,,,,,VFR,,,,,,,,,,,,METAR,5
WMKD 160100Z VRB03KT 9999 FEW025 26/24 Q1009 NOSIG,WMKD,2025-08-16T01:00:00Z,3.775,103.209,26,24,VRB,3,,6+,29.79,,,,,,TRUE,,,,,FEW,2500,,,,,,,VFR,,,,,,,,,,,,METAR,18
WMKC 160100Z 18003KT 120V240 9999 FEW018 26/23 Q1008,WMKC,2025-08-16T01:00:00Z,6.167,102.293,26,23,180,3,,6+,29.76,,,,,,,,,,,FEW,1800,,,,,,,VFR,,,,,,,,,,,,METAR,7
WMKB 160100Z 09005KT 8000 FEW020 26/23 Q1008 NOSIG,WMKB,2025-08-16T01:00:00Z,5.466,100.391,26,23,90,5,,4.97,29.76,,,,,,TRUE,,,,,FEW,2000,,,,,,,MVFR,,,,,,,,,,,,METAR,4
WMKA 160100Z VRB03KT 9999 FEW020 24/23 Q1008,WMKA,2025-08-16T01:00:00Z,6.19,100.398,24,23,VRB,3,,6+,29.76,,,,,,,,,,,FEW,2000,,,,,,,VFR,,,,,,,,,,,,METAR,5
WMBA 160100Z 10004KT 020V170 9999 FEW017CB 26/23 Q1008,WMBA,2025-08-16T01:00:00Z,4.221,100.701,26,23,100,4,,6+,29.76,,,,,,,,,,,FEW,1700,,,,,,,VFR,,,,,,,,,,,,METAR,9
WMAU 160100Z 24002KT 8000 FEW004 SCT025 26/24 Q1009,WMAU,2025-08-16T01:00:00Z,2.387,103.876,26,24,240,2,,4.97,29.79,,,,,,,,,,,FEW,400,SCT,2500,,,,,MVFR,,,,,,,,,,,,METAR,5
WIPP 160100Z 13006KT 6000 SCT014 26/25 Q1010 NOSIG,WIPP,2025-08-16T01:00:00Z,-2.898,104.7,26,25,130,6,,3.73,29.82,,,,,,TRUE,,,,,SCT,1400,,,,,,,MVFR,,,,,,,,,,,,METAR,7
WIOO 160100Z 20003KT 9999 FEW013 26/24 Q1010 NOSIG,WIOO,2025-08-16T01:00:00Z,-0.151,109.404,26,24,200,3,,6+,29.82,,,,,,TRUE,,,,,FEW,1300,,,,,,,VFR,,,,,,,,,,,,METAR,4
WILL 160100Z 24002KT 5000 HZ FEW020 25/23 Q1010 NOSIG,WILL,2025-08-16T01:00:00Z,-5.242,105.179,25,23,240,2,,3.11,29.82,,,,,,TRUE,,,,HZ,FEW,2000,,,,,,,MVFR,,,,,,,,,,,,METAR,83
WIII 160100Z 14006KT 6000 FEW020 27/22 Q1009 NOSIG,WIII,2025-08-16T01:00:00Z,-6.125,106.659,27,22,140,6,,3.73,29.79,,,,,,TRUE,,,,,FEW,2000,,,,,,,MVFR,,,,,,,,,,,,METAR,9
WIEE 160100Z 14003KT 110V210 9999 FEW020 25/22 Q1005 NOSIG,WIEE,2025-08-16T01:00:00Z,-0.783,100.283,25,22,140,3,,6+,29.68,,,,,,TRUE,,,,,FEW,2000,,,,,,,VFR,,,,,,,,,,,,METAR,5
WIDN 160100Z 14007KT 9999 SCT015 28/25 Q1009 RERA,WIDN,2025-08-16T01:00:00Z,0.923,104.532,28,25,140,7,,6+,29.79,,,,,,,,,,,SCT,1500,,,,,,,VFR,,,,,,,,,,,,METAR,18
WIDD 160100Z 22004KT 9999 SCT014 27/26 Q1011 NOSIG,WIDD,2025-08-16T01:00:00Z,1.121,104.119,27,26,220,4,,6+,29.85,,,,,,TRUE,,,,,SCT,1400,,,,,,,VFR,,,,,,,,,,,,METAR,26
WIBB 160100Z 15004KT CAVOK 26/23 Q1008 NOSIG,WIBB,2025-08-16T01:00:00Z,0.461,101.445,26,23,150,4,,6+,29.76,,,,,,TRUE,,,,,CAVOK,,,,,,,,VFR,,,,,,,,,,,,METAR,41
WBSB 160100Z 10001KT 9999 FEW014 BKN140 27/23 Q1009 NOSIG,WBSB,2025-08-16T01:00:00Z,4.944,114.928,27,23,100,1,,6+,29.79,,,,,,TRUE,,,,,FEW,1400,BKN,14000,,,,,VFR,,,,,,,,,,,,METAR,15
WBKW 160100Z 24003KT 180V310 9999 FEW016 27/25 Q1009,WBKW,2025-08-16T01:00:00Z,4.316,118.119,27,25,240,3,,6+,29.79,,,,,,,,,,,FEW,1600,,,,,,,VFR,,,,,,,,,,,,METAR,17
WBKT 160100Z VRB02KT 9999 FEW014 27/25 Q1008,WBKT,2025-08-16T01:00:00Z,6.922,116.837,27,25,VRB,2,,6+,29.76,,,,,,,,,,,FEW,1400,,,,,,,VFR,,,,,,,,,,,,METAR,11
WBKS 160100Z 24003KT 200V310 9999 FEW016 27/25 Q1009,WBKS,2025-08-16T01:00:00Z,5.901,118.059,27,25,240,3,,6+,29.79,,,,,,,,,,,FEW,1600,,,,,,,VFR,,,,,,,,,,,,METAR,13
WBKL 160100Z 00000KT 9999 FEW014 28/26 Q1009,WBKL,2025-08-16T01:00:00Z,5.301,115.25,28,26,0,0,,6+,29.79,,,,,,,,,,,FEW,1400,,,,,,,VFR,,,,,,,,,,,,METAR,29
WBKK 160100Z VRB02KT 9999 FEW014 28/25 Q1009 NOSIG,WBKK,2025-08-16T01:00:00Z,5.937,116.051,28,25,VRB,2,,6+,29.79,,,,,,TRUE,,,,,FEW,1400,,,,,,,VFR,,,,,,,,,,,,METAR,9
WBGY 160100Z VRB02KT 9999 FEW014 27/24 Q1010,WBGY,2025-08-16T01:00:00Z,1.222,111.466,27,24,VRB,2,,6+,29.82,,,,,,,,,,,FEW,1400,,,,,,,VFR,,,,,,,,,,,,METAR,13
WBGS 160100Z 22003KT 180V290 9999 FEW010 27/23 Q1009,WBGS,2025-08-16T01:00:00Z,2.264,111.983,27,23,220,3,,6+,29.79,,,,,,,,,,,FEW,1000,,,,,,,VFR,,,,,,,,,,,,METAR,26
WBGR 160100Z 12003KT 060V190 9999 FEW016 28/23 Q1008,WBGR,2025-08-16T01:00:00Z,4.322,113.987,28,23,120,3,,6+,29.76,,,,,,,,,,,FEW,1600,,,,,,,VFR,,,,,,,,,,,,METAR,18
WBGG 160100Z VRB02KT 9999 FEW012 27/24 Q1010 NOSIG,WBGG,2025-08-16T01:00:00Z,1.484,110.34,27,24,VRB,2,,6+,29.82,,,,,,TRUE,,,,,FEW,1200,,,,,,,VFR,,,,,,,,,,,,METAR,26
WBGB 160100Z VRB02KT 9999 FEW016 25/24 Q1008,WBGB,2025-08-16T01:00:00Z,3.12,113.025,25,24,VRB,2,,6+,29.76,,,,,,,,,,,FEW,1600,,,,,,,VFR,,,,,,,,,,,,METAR,34
WATT 160100Z 09015KT 9999 FEW020 29/16 Q1013 NOSIG,WATT,2025-08-16T01:00:00Z,-10.172,123.671,29,16,90,15,,6+,29.91,,,,,,TRUE,,,,,FEW,2000,,,,,,,VFR,,,,,,,,,,,,METAR,104
WAQQ 160100Z 31004KT 9999 SCT015 26/25 Q1010 NOSIG,WAQQ,2025-08-16T01:00:00Z,3.327,117.568,26,25,310,4,,6+,29.82,,,,,,TRUE,,,,,SCT,1500,,,,,,,VFR,,,,,,,,,,,,METAR,6
WAPP 160100Z 17008KT 130V210 2000 -RA FEW015CB BKN016 24/24 Q1011 NOSIG RMK CB TO NE,WAPP,2025-08-16T01:00:00Z,-3.71,128.089,24,24,170,8,,1.24,29.85,,,,,,TRUE,,,,-RA,FEW,1500,BKN,1600,,,,,IFR,,,,,,,,,,,,METAR,20
WAOO 160100Z 11004KT 9999 FEW020 28/24 Q1009 NOSIG,WAOO,2025-08-16T01:00:00Z,-3.44,114.759,28,24,110,4,,6+,29.79,,,,,,TRUE,,,,,FEW,2000,,,,,,,VFR,,,,,,,,,,,,METAR,23
WALL 160100Z 21005KT 180V260 9000 FEW018CB BKN020 27/25 Q1009 RMK CB TO S AND E,WALL,2025-08-16T01:00:00Z,-1.268,116.894,27,25,210,5,,5.59,29.79,,,,,,,,,,,FEW,1800,BKN,2000,,,,,MVFR,,,,,,,,,,,,METAR,3
WAJJ 160100Z VRB02KT 9999 SCT013 27/25 Q1011,WAJJ,2025-08-16T01:00:00Z,-2.573,140.514,27,25,VRB,2,,6+,29.85,,,,,,,,,,,SCT,1300,,,,,,,VFR,,,,,,,,,,,,METAR,93
WAHS 160100Z 10010KT 6000 FEW015 28/20 Q1010 NOSIG,WAHS,2025-08-16T01:00:00Z,-6.973,110.375,28,20,100,10,,3.73,29.82,,,,,,TRUE,,,,,FEW,1500,,,,,,,MVFR,,,,,,,,,,,,METAR,3
WABB 160100Z 12002KT 9999 SCT015 BKN100 27/24 Q1012 NOSIG,WABB,2025-08-16T01:00:00Z,-1.19,136.108,27,24,120,2,,6+,29.88,,,,,,TRUE,,,,,SCT,1500,BKN,10000,,,,,VFR,,,,,,,,,,,,METAR,12
WAAA 160100Z 12002KT 9999 FEW019 27/22 Q1011 NOSIG,WAAA,2025-08-16T01:00:00Z,-5.062,119.554,27,22,120,2,,6+,29.85,,,,,,TRUE,,,,,FEW,1900,,,,,,,VFR,,,,,,,,,,,,METAR,13
VYYY 160100Z 24006KT 4000 RA BKN012 FEW015CB OVC100 25/25 Q1004 BECMG 5000 -RA,VYYY,2025-08-16T01:00:00Z,16.906,96.137,25,25,240,6,,2.49,29.65,,,,,,,,,,RA,BKN,1200,FEW,1500,OVC,10000,,,IFR,,,,,,,,,,,,METAR,31
VVVD 160100Z 03005KT 350V070 5000 -TSRA FEW012 FEW025CB BKN030 25/25 Q1009 TEMPO 3500 TSRA,VVVD,2025-08-16T01:00:00Z,21.118,107.414,25,25,30,5,,3.11,29.79,,,,,,,,,,-TSRA,FEW,1200,FEW,2500,BKN,3000,,,MVFR,,,,,,,,,,,,METAR,8
VVTS 160100Z 25008KT 9999 FEW010 SCT012 BKN079 27/26 Q1007 NOSIG,VVTS,2025-08-16T01:00:00Z,10.817,106.667,27,26,250,8,,6+,29.73,,,,,,TRUE,,,,,FEW,1000,SCT,1200,BKN,7900,,,VFR,,,,,,,,,,,,METAR,10
VVPQ 160100Z 29012KT 6000 -RA SCT013 FEW015CB BKN040 24/24 Q1008 NOSIG,VVPQ,2025-08-16T01:00:00Z,10.169,103.995,24,24,290,12,,3.73,29.76,,,,,,TRUE,,,,-RA,SCT,1300,FEW,1500,BKN,4000,,,MVFR,,,,,,,,,,,,METAR,8
VVPB 160100Z 29006KT 9999 FEW017 29/23 Q1006 NOSIG,VVPB,2025-08-16T01:00:00Z,16.399,107.699,29,23,290,6,,6+,29.70,,,,,,TRUE,,,,,FEW,1700,,,,,,,VFR,,,,,,,,,,,,METAR,15
VVNB 160100Z 07004KT 340V110 9999 BKN031 OVC037 27/24 Q1009 TEMPO 4000 SHRA,VVNB,2025-08-16T01:00:00Z,21.218,105.805,27,24,70,4,,6+,29.79,,,,,,,,,,,BKN,3100,OVC,3700,,,,,VFR,,,,,,,,,,,,METAR,6
VVDN 160100Z 00000KT 9999 FEW017 30/25 Q1006 NOSIG,VVDN,2025-08-16T01:00:00Z,16.044,108.199,30,25,0,0,,6+,29.70,,,,,,TRUE,,,,,FEW,1700,,,,,,,VFR,,,,,,,,,,,,METAR,7
VVCT 160100Z 25006KT 9999 FEW013 FEW015TCU BKN050 25/25 Q1008 NOSIG,VVCT,2025-08-16T01:00:00Z,10.085,105.712,25,25,250,6,,6+,29.76,,,,,,TRUE,,,,,FEW,1300,FEW,1500,BKN,5000,,,VFR,,,,,,,,,,,,METAR,6
VVCR 160100Z VRB02KT CAVOK 31/24 Q1006 NOSIG,VVCR,2025-08-16T01:00:00Z,11.998,109.219,31,24,VRB,2,,6+,29.70,,,,,,TRUE,,,,,CAVOK,,,,,,,,VFR,,,,,,,,,,,,METAR,12
VVCI 160100Z 06006KT 020V090 CAVOK 27/24 Q1008 NOSIG,VVCI,2025-08-16T01:00:00Z,20.823,106.727,27,24,60,6,,6+,29.76,,,,,,TRUE,,,,,CAVOK,,,,,,,,VFR,,,,,,,,,,,,METAR,6
VTUW 160100Z 00000KT 9999 FEW040 25/25 Q1007 NOSIG,VTUW,2025-08-16T01:00:00Z,17.384,104.643,25,25,0,0,,6+,29.73,,,,,,TRUE,,,,,FEW,4000,,,,,,,VFR,,,,,,,,,,,,METAR,167
VTUV 160100Z 14003KT 090V180 9999 BKN008 26/25 Q1007 NOSIG,VTUV,2025-08-16T01:00:00Z,16.117,103.772,26,25,140,3,,6+,29.73,,,,,,TRUE,,,,,BKN,800,,,,,,,IFR,,,,,,,,,,,,METAR,136
VTUU 160100Z VRB02KT 9999 SCT007 26/26 Q1007 NOSIG,VTUU,2025-08-16T01:00:00Z,15.251,104.87,26,26,VRB,2,,6+,29.73,,,,,,TRUE,,,,,SCT,700,,,,,,,VFR,,,,,,,,,,,,METAR,119
VTUQ 160100Z VRB01KT 9999 SCT020 25/25 Q1007 NOSIG,VTUQ,2025-08-16T01:00:00Z,14.95,102.313,25,25,VRB,1,,6+,29.73,,,,,,TRUE,,,,,SCT,2000,,,,,,,VFR,,,,,,,,,,,,METAR,225
VTUO 160100Z 18004KT 6000 FEW015 SCT030 BKN090 26/23 Q1007 NOSIG,VTUO,2025-08-16T01:00:00Z,15.227,103.244,26,23,180,4,,3.73,29.73,,,,,,TRUE,,,,,FEW,1500,SCT,3000,BKN,9000,,,MVFR,,,,,,,,,,,,METAR,182
VTUL 160100Z VRB02KT 3000 -RA BR OVC030 25/25 Q1006 NOSIG,VTUL,2025-08-16T01:00:00Z,17.445,101.725,25,25,VRB,2,,1.86,29.70,,,,,,TRUE,,,,-RA BR,OVC,3000,,,,,,,IFR,,,,,,,,,,,,METAR,257
VTUK 160100Z 13005KT 090V150 9999 FEW007 BKN012 25/24 Q1007 NOSIG,VTUK,2025-08-16T01:00:00Z,16.462,102.786,25,24,130,5,,6+,29.73,,,,,,TRUE,,,,,FEW,700,BKN,1200,,,,,MVFR,,,,,,,,,,,,METAR,190
VTUI 160100Z 11003KT 070V130 9999 FEW007 26/25 Q1007 NOSIG,VTUI,2025-08-16T01:00:00Z,17.195,104.119,26,25,110,3,,6+,29.73,,,,,,TRUE,,,,,FEW,700,,,,,,,VFR,,,,,,,,,,,,METAR,162
VTUD 160100Z 16006KT 130V190 9999 FEW010 27/25 Q1006 NOSIG,VTUD,2025-08-16T01:00:00Z,17.382,102.799,27,25,160,6,,6+,29.70,,,,,,TRUE,,,,,FEW,1000,,,,,,,VFR,,,,,,,,,,,,METAR,177
VTSY 160100Z 00000KT 4000 BR OVC002 22/22 Q1010 BECMG TL0130 7000 NSW,VTSY,2025-08-16T01:00:00Z,5.788,101.147,22,22,0,0,,2.49,29.82,,,,,,,,,,BR,OVC,200,,,,,,,LIFR,,,,,,,,,,,,METAR,225
VTST 160100Z 31005KT 250V350 9999 SCT020 SCT060 25/25 Q1008 NOSIG,VTST,2025-08-16T01:00:00Z,7.512,99.621,25,25,310,5,,6+,29.76,,,,,,TRUE,,,,,SCT,2000,SCT,6000,,,,,VFR,,,,,,,,,,,,METAR,17
VTSS 160100Z VRB02KT 9999 FEW020 BKN100 25/23 Q1008 NOSIG,VTSS,2025-08-16T01:00:00Z,6.933,100.393,25,23,VRB,2,,6+,29.76,,,,,,TRUE,,,,,FEW,2000,BKN,10000,,,,,VFR,,,,,,,,,,,,METAR,28
VTSR 160100Z 16003KT 120V190 9999 -RA SCT020 24/23 Q1008 NOSIG,VTSR,2025-08-16T01:00:00Z,9.773,98.587,24,23,160,3,,6+,29.76,,,,,,TRUE,,,,-RA,SCT,2000,,,,,,,VFR,,,,,,,,,,,,METAR,23
VTSP 160100Z 31004KT 270V330 8000 -RA FEW010 SCT030 BKN070 23/23 Q1009 NOSIG,VTSP,2025-08-16T01:00:00Z,8.105,98.308,23,23,310,4,,4.97,29.79,,,,,,TRUE,,,,-RA,FEW,1000,SCT,3000,BKN,7000,,,MVFR,,,,,,,,,,,,METAR,12
VTSM 160100Z VRB02KT 9999 -RA SCT018 24/23 Q1009 NOSIG,VTSM,2025-08-16T01:00:00Z,9.548,100.062,24,23,VRB,2,,6+,29.79,,,,,,TRUE,,,,-RA,SCT,1800,,,,,,,VFR,,,,,,,,,,,,METAR,12
VTSG 160100Z 31012KT 8000 -RA FEW020 BKN040 OVC100 24/22 Q1010 RERA TEMPO TL0120 2000 +RA,VTSG,2025-08-16T01:00:00Z,8.099,98.986,24,22,310,12,,4.97,29.82,,,,,,,,,,-RA,FEW,2000,BKN,4000,OVC,10000,,,MVFR,,,,,,,,,,,,METAR,32
VTSF 160100Z 09004KT 050V160 9999 -RA SCT018 24/22 Q1008 NOSIG,VTSF,2025-08-16T01:00:00Z,8.546,99.94,24,22,90,4,,6+,29.76,,,,,,TRUE,,,,-RA,SCT,1800,,,,,,,VFR,,,,,,,,,,,,METAR,6
VTSE 160100Z 26005KT 9999 -DZ FEW020 24/22 Q1007 NOSIG,VTSE,2025-08-16T01:00:00Z,10.711,99.362,24,22,260,5,,6+,29.73,,,,,,TRUE,,,,-DZ,FEW,2000,,,,,,,VFR,,,,,,,,,,,,METAR,8
VTSC 160100Z 20003KT 160V230 9999 FEW020 SCT100 26/23 Q1008 NOSIG,VTSC,2025-08-16T01:00:00Z,6.52,101.743,26,23,200,3,,6+,29.76,,,,,,TRUE,,,,,FEW,2000,SCT,10000,,,,,VFR,,,,,,,,,,,,METAR,5
VTSB 160100Z 19006KT 9999 -RA FEW020 SCT100 24/23 Q1008 NOSIG,VTSB,2025-08-16T01:00:00Z,9.133,99.152,24,23,190,6,,6+,29.76,,,,,,TRUE,,,,-RA,FEW,2000,SCT,10000,,,,,VFR,,,,,,,,,,,,METAR,10
VTPP 160100Z 14004KT 6000 -RA FEW006 SCT013 BKN020 25/25 Q1005 NOSIG,VTPP,2025-08-16T01:00:00Z,16.792,100.274,25,25,140,4,,3.73,29.68,,,,,,TRUE,,,,-RA,FEW,600,SCT,1300,BKN,2000,,,MVFR,,,,,,,,,,,,METAR,45
VTPO 160100Z 12003KT 9999 BKN009 BKN070 25/25 Q1005 NOSIG,VTPO,2025-08-16T01:00:00Z,17.238,99.818,25,25,120,3,,6+,29.68,,,,,,TRUE,,,,,BKN,900,BKN,7000,,,,,IFR,,,,,,,,,,,,METAR,58
VTPM 160100Z VRB01KT 9000 FEW010 SCT025 BKN080 26/25 Q1005 NOSIG,VTPM,2025-08-16T01:00:00Z,16.703,98.542,26,25,VRB,1,,5.59,29.68,,,,,,TRUE,,,,,FEW,1000,SCT,2500,BKN,8000,,,VFR,,,,,,,,,,,,METAR,211
VTPH 160100Z 00000KT 9999 SCT030 BKN050 BKN100 26/24 Q1006 NOSIG,VTPH,2025-08-16T01:00:00Z,12.633,99.951,26,24,0,0,,6+,29.70,,,,,,TRUE,,,,,SCT,3000,BKN,5000,BKN,10000,,,VFR,,,,,,,,,,,,METAR,12
VTPB 160100Z 08003KT 050V120 9999 -DZ SCT030 25/25 Q1005 NOSIG,VTPB,2025-08-16T01:00:00Z,16.676,101.195,25,25,80,3,,6+,29.68,,,,,,TRUE,,,,-DZ,SCT,3000,,,,,,,VFR,,,,,,,,,,,,METAR,134
VTCT 160100Z 03008KT 9000 -RA SCT005 BKN020 24/23 Q1007 NOSIG,VTCT,2025-08-16T01:00:00Z,19.961,99.881,24,23,30,8,,5.59,29.73,,,,,,TRUE,,,,-RA,SCT,500,BKN,2000,,,,,MVFR,,,,,,,,,,,,METAR,389
VTCP 160100Z VRB02KT 9999 BKN007 26/24 Q1005 NOSIG,VTCP,2025-08-16T01:00:00Z,18.129,100.162,26,24,VRB,2,,6+,29.68,,,,,,TRUE,,,,,BKN,700,,,,,,,IFR,,,,,,,,,,,,METAR,166
VTCN 160100Z VRB02KT 9999 FEW005 SCT015 25/25 Q1005 NOSIG,VTCN,2025-08-16T01:00:00Z,18.807,100.787,25,25,VRB,2,,6+,29.68,,,,,,TRUE,,,,,FEW,500,SCT,1500,,,,,VFR,,,,,,,,,,,,METAR,211
VTCL 160100Z VRB01KT 9999 FEW006 BKN030 25/24 Q1005 NOSIG,VTCL,2025-08-16T01:00:00Z,18.277,99.502,25,24,VRB,1,,6+,29.68,,,,,,TRUE,,,,,FEW,600,BKN,3000,,,,,MVFR,,,,,,,,,,,,METAR,240
VTCH 160100Z VRB02KT 6000 FEW015 SCT025 27/24 Q1005 NOSIG,VTCH,2025-08-16T01:00:00Z,19.302,97.972,27,24,VRB,2,,3.73,29.68,,,,,,TRUE,,,,,FEW,1500,SCT,2500,,,,,MVFR,,,,,,,,,,,,METAR,266
VTCC 160100Z 00000KT 9999 BKN035 25/24 Q1006 NOSIG,VTCC,2025-08-16T01:00:00Z,18.771,98.963,25,24,0,0,,6+,29.70,,,,,,TRUE,,,,,BKN,3500,,,,,,,VFR,,,,,,,,,,,,METAR,308
VTBU 160100Z 25006KT 8000 -RA FEW020 BKN100 27/25 Q1006 NOSIG,VTBU,2025-08-16T01:00:00Z,12.68,101.001,27,25,250,6,,4.97,29.70,,,,,,TRUE,,,,-RA,FEW,2000,BKN,10000,,,,,MVFR,,,,,,,,,,,,METAR,12
VTBS 160100Z 22006KT 9999 FEW020 SCT045 29/23 Q1006 NOSIG,VTBS,2025-08-16T01:00:00Z,13.686,100.767,29,23,220,6,,6+,29.70,,,,,,TRUE,,,,,FEW,2000,SCT,4500,,,,,VFR,,,,,,,,,,,,METAR,1
VTBO 160100Z 21007KT 6000 SCT018 BKN100 26/25 Q1007,VTBO,2025-08-16T01:00:00Z,12.275,102.319,26,25,210,7,,3.73,29.73,,,,,,,,,,,SCT,1800,BKN,10000,,,,,MVFR,,,,,,,,,,,,METAR,25
VTBD 160100Z 15003KT 120V210 9999 FEW020 SCT040 28/25 Q1006 NOSIG,VTBD,2025-08-16T01:00:00Z,13.913,100.607,28,25,150,3,,6+,29.70,,,,,,TRUE,,,,,FEW,2000,SCT,4000,,,,,VFR,,,,,,,,,,,,METAR,6
VRMM 160100Z 26011KT 9999 FEW018 SCT280 29/25 Q1008 NOSIG,VRMM,2025-08-16T01:00:00Z,4.192,73.529,29,25,260,11,,6+,29.76,,,,,,TRUE,,,,,FEW,1800,SCT,28000,,,,,VFR,,,,,,,,,,,,METAR,2
VRMH 160100Z 25009KT 9999 SCT018TCU 28/25 Q1008,VRMH,2025-08-16T01:00:00Z,6.744,73.171,28,25,250,9,,6+,29.76,,,,,,,,,,,SCT,1800,,,,,,,VFR,,,,,,,,,,,,METAR,1
VOVZ 160100Z VRB02KT 4000 BR SCT018 FEW025CB BKN080 27/26 Q0999 TEMPO TSRA,VOVZ,2025-08-16T01:00:00Z,17.722,83.228,27,26,VRB,2,,2.49,29.50,,,,,,,,,,BR,SCT,1800,FEW,2500,BKN,8000,,,IFR,,,,,,,,,,,,METAR,4
VOTV 160100Z 33007KT 4000 BR FEW015 FEW025TCU SCT080 26/24 Q1007 NOSIG,VOTV,2025-08-16T01:00:00Z,8.484,76.919,26,24,330,7,,2.49,29.73,,,,,,TRUE,,,,BR,FEW,1500,FEW,2500,SCT,8000,,,IFR,,,,,,,,,,,,METAR,9
VOTR 160100Z 26010KT 5000 -DZ SCT016 OVC080 27/23 Q1004 NOSIG,VOTR,2025-08-16T01:00:00Z,10.765,78.71,27,23,260,10,,3.11,29.65,,,,,,TRUE,,,,-DZ,SCT,1600,OVC,8000,,,,,MVFR,,,,,,,,,,,,METAR,90
VOTP 160100Z 23007KT 5000 -DZ SCT015 BKN090 25/25 Q1002 NOSIG,VOTP,2025-08-16T01:00:00Z,13.633,79.543,25,25,230,7,,3.11,29.59,,,,,,TRUE,,,,-DZ,SCT,1500,BKN,9000,,,,,MVFR,,,,,,,,,,,,METAR,103
VORY 160100Z 26012KT 5000 -RA SCT014 SCT018 FEW030CB OVC070 26/24 Q0999 NOSIG,VORY,2025-08-16T01:00:00Z,17.11,81.818,26,24,260,12,,3.11,29.50,,,,,,TRUE,,,,-RA,SCT,1400,SCT,1800,FEW,3000,OVC,7000,MVFR,,,,,,,,,,,,METAR,47
VOMM 160100Z 25010KT 5000 BR SCT020 FEW025TCU BKN100 28/24 Q1002 NOSIG,VOMM,2025-08-16T01:00:00Z,12.994,80.18,28,24,250,10,,3.11,29.59,,,,,,TRUE,,,,BR,SCT,2000,FEW,2500,BKN,10000,,,MVFR,,,,,,,,,,,,METAR,7
VOKN 160100Z 26002KT 2500 BR FEW004 SCT012 FEW025CB BKN080 23/23 Q1006 NOSIG,VOKN,2025-08-16T01:00:00Z,11.917,75.547,23,23,260,2,,1.55,29.70,,,,,,TRUE,,,,BR,FEW,400,SCT,1200,FEW,2500,BKN,8000,IFR,,,,,,,,,,,,METAR,105
VOHS 160100Z 26010KT 4000 BR BKN006 BKN015 OVC080 22/21 Q1005 NOSIG,VOHS,2025-08-16T01:00:00Z,17.233,78.429,22,21,260,10,,2.49,29.68,,,,,,TRUE,,,,BR,BKN,600,BKN,1500,OVC,8000,,,IFR,,,,,,,,,,,,METAR,607
VOHB 160100Z 26006KT 5000 BR SCT008 SCT012 24/23 Q1007,VOHB,2025-08-16T01:00:00Z,15.362,75.085,24,23,260,6,,3.11,29.73,,,,,,,,,,BR,SCT,800,SCT,1200,,,,,MVFR,,,,,,,,,,,,METAR,661
VOGO 160100Z 28007KT 5000 BR FEW010 SCT030 OVC090 26/25 Q1004 NOSIG,VOGO,2025-08-16T01:00:00Z,15.378,73.828,26,25,280,7,,3.11,29.65,,,,,,TRUE,,,,BR,FEW,1000,SCT,3000,OVC,9000,,,MVFR,,,,,,,,,,,,METAR,56
VOGA 160100Z 28007KT 2200 BR FEW005 SCT012 BKN070 27/27 Q1005 NOSIG,VOGA,2025-08-16T01:00:00Z,15.7426,73.8631,27,27,280,7,,1.37,29.68,,,,,,TRUE,,,,BR,FEW,500,SCT,1200,BKN,7000,,,IFR,,,,,,,,,,,,METAR,168
VOCL 160100Z 22004KT 3000 BR FEW006 SCT012 FEW025CB BKN080 23/22 Q1006 NOSIG,VOCL,2025-08-16T01:00:00Z,11.137,75.955,23,22,220,4,,1.86,29.70,,,,,,TRUE,,,,BR,FEW,600,SCT,1200,FEW,2500,BKN,8000,IFR,,,,,,,,,,,,METAR,104
VOCI 160100Z 09003KT 3000 BR FEW008 SCT012 BKN080 24/23 Q1007 TEMPO 2000 -RA,VOCI,2025-08-16T01:00:00Z,10.152,76.402,24,23,90,3,,1.86,29.73,,,,,,,,,,BR,FEW,800,SCT,1200,BKN,8000,,,IFR,,,,,,,,,,,,METAR,8
VOCB 160100Z 20005KT 4000 BR SCT010 BKN080 24/23 Q1007 TEMPO 3000 DZ,VOCB,2025-08-16T01:00:00Z,11.03,77.043,24,23,200,5,,2.49,29.73,,,,,,,,,,BR,SCT,1000,BKN,8000,,,,,IFR,,,,,,,,,,,,METAR,394
VOBZ 160100Z 28010KT 6000 SCT015 SCT020 OVC080 28/24 Q1000 NOSIG,VOBZ,2025-08-16T01:00:00Z,16.53,80.797,28,24,280,10,,3.73,29.53,,,,,,TRUE,,,,,SCT,1500,SCT,2000,OVC,8000,,,MVFR,,,,,,,,,,,,METAR,26
VOBM 160100Z 27009KT 6000 SCT007 SCT012 BKN080 22/21 Q1008,VOBM,2025-08-16T01:00:00Z,15.861,74.617,22,21,270,9,,3.73,29.76,,,,,,,,,,,SCT,700,SCT,1200,BKN,8000,,,MVFR,,,,,,,,,,,,METAR,758
VOBL 160100Z 28010KT 6000 SCT008 SCT012 BKN080 20/19 Q1009 NOSIG,VOBL,2025-08-16T01:00:00Z,13.205,77.704,20,19,280,10,,3.73,29.79,,,,,,TRUE,,,,,SCT,800,SCT,1200,BKN,8000,,,MVFR,,,,,,,,,,,,METAR,908
VOBG 160100Z 26011KT 6000 SCT008 SCT012 BKN080 20/19 Q1009 NOSIG,VOBG,2025-08-16T01:00:00Z,12.949,77.663,20,19,260,11,,3.73,29.79,,,,,,TRUE,,,,,SCT,800,SCT,1200,BKN,8000,,,MVFR,,,,,,,,,,,,METAR,884
VOAT 160100Z 25016KT 5000 BR SCT015 SCT080 27/24 Q1006,VOAT,2025-08-16T01:00:00Z,10.824,72.176,27,24,250,16,,3.11,29.70,,,,,,,,,,BR,SCT,1500,SCT,8000,,,,,MVFR,,,,,,,,,,,,METAR,5
VMMC 160100Z 08012KT 040V100 9999 FEW022 SCT045 30/25 Q1009 NOSIG,VMMC,2025-08-16T01:00:00Z,22.141,113.596,30,25,80,12,,6+,29.79,,,,,,TRUE,,,,,FEW,2200,SCT,4500,,,,,VFR,,,,,,,,,,,,METAR,1
VLVT 160100Z 09006KT 8000 BKN040 BKN083 25/21 Q1007 NOSIG,VLVT,2025-08-16T01:00:00Z,17.987,102.564,25,21,90,6,,4.97,29.73,,,,,,TRUE,,,,,BKN,4000,BKN,8300,,,,,MVFR,,,,,,,,,,,,METAR,171
VLSK 160100Z 18002KT 6000 BR SCT020 BKN100 27/25 Q1008 NOSIG,VLSK,2025-08-16T01:00:00Z,16.557,104.76,27,25,180,2,,3.73,29.76,,,,,,TRUE,,,,BR,SCT,2000,BKN,10000,,,,,MVFR,,,,,,,,,,,,METAR,148
VLPS 160100Z 27004KT 9999 SCT010 SCT050 26/24 Q1007 NOSIG,VLPS,2025-08-16T01:00:00Z,15.132,105.781,26,24,270,4,,6+,29.73,,,,,,TRUE,,,,,SCT,1000,SCT,5000,,,,,VFR,,,,,,,,,,,,METAR,102
VLLN 160100Z 14002KT 3000 BR SCT020 OVC100 23/23 Q1009 NOSIG,VLLN,2025-08-16T01:00:00Z,20.963,101.403,23,23,140,2,,1.86,29.79,,,,,,TRUE,,,,BR,SCT,2000,OVC,10000,,,,,IFR,,,,,,,,,,,,METAR,548
VLLB 160100Z 27002KT 5000 BR OVC006 25/23 Q1007 NOSIG,VLLB,2025-08-16T01:00:00Z,19.897,102.161,25,23,270,2,,3.11,29.73,,,,,,TRUE,,,,BR,OVC,600,,,,,,,IFR,,,,,,,,,,,,METAR,297
VISM 160100Z 00000KT 3000 BR SCT025 SCT080 20/19 Q1012,VISM,2025-08-16T01:00:00Z,31.082,77.068,20,19,0,0,,1.86,29.88,,,,,,,,,,BR,SCT,2500,SCT,8000,,,,,IFR,,,,,,,,,,,,METAR,1537
VILK 160100Z 08004KT 4000 BR FEW020 SCT100 28/28 Q1002 NOSIG,VILK,2025-08-16T01:00:00Z,26.761,80.889,28,28,80,4,,2.49,29.59,,,,,,TRUE,,,,BR,FEW,2000,SCT,10000,,,,,IFR,,,,,,,,,,,,METAR,121
VIJP 160100Z 08005KT 2000 BR SCT025 BKN090 27/26 Q1003 TEMPO 1500 BR,VIJP,2025-08-16T01:00:00Z,26.824,75.812,27,26,80,5,,1.24,29.62,,,,,,,,,,BR,SCT,2500,BKN,9000,,,,,IFR,,,,,,,,,,,,METAR,383
VIGG 160100Z 00000KT 5000 DZ FEW008 BKN030 OVC080 23/23 Q1007,VIGG,2025-08-16T01:00:00Z,32.165,76.263,23,23,0,0,,3.11,29.73,,,,,,,,,,DZ,FEW,800,BKN,3000,OVC,8000,,,MVFR,,,,,,,,,,,,METAR,760
VIDP 160100Z 09003KT 2100 BR SCT030 BKN090 27/26 Q1003 NOSIG,VIDP,2025-08-16T01:00:00Z,28.567,77.117,27,26,90,3,,1.3,29.62,,,,,,TRUE,,,,BR,SCT,3000,BKN,9000,,,,,IFR,,,,,,,,,,,,METAR,236
VIBR 160100Z 00000KT 4000 BR FEW010 SCT030 OVC070 22/21 Q1008,VIBR,2025-08-16T01:00:00Z,31.876,77.154,22,21,0,0,,2.49,29.76,,,,,,,,,,BR,FEW,1000,SCT,3000,OVC,7000,,,IFR,,,,,,,,,,,,METAR,1089
VIAR 160100Z VRB02KT 3000 BR SCT090 28/26 Q1002 NOSIG,VIAR,2025-08-16T01:00:00Z,31.707,74.801,28,26,VRB,2,,1.86,29.59,,,,,,TRUE,,,,BR,SCT,9000,,,,,,,IFR,,,,,,,,,,,,METAR,226
VHHH 160100Z 09011KT 9999 FEW025 31/24 Q1009 NOSIG,VHHH,2025-08-16T01:00:00Z,22.309,113.922,31,24,90,11,,6+,29.79,,,,,,TRUE,,,,,FEW,2500,,,,,,,VFR,,,,,,,,,,,,METAR,9
VGHS 160100Z 00000KT 4000 HZ SCT012 BKN100 28/27 Q1003 NOSIG,VGHS,2025-08-16T01:00:00Z,23.846,90.4,28,27,0,0,,2.49,29.62,,,,,,TRUE,,,,HZ,SCT,1200,BKN,10000,,,,,IFR,,,,,,,,,,,,METAR,11
VGEG 160100Z 05004KT 7000 NSW FEW018 SCT120 28/26 Q1002 BECMG Q1003,VGEG,2025-08-16T01:00:00Z,22.249,91.814,28,26,50,4,,4.35,29.59,,,,,,,,,,,FEW,1800,SCT,12000,,,,,MVFR,,,,,,,,,,,,METAR,7
VETJ 160100Z 00000KT 5000 BR SCT018 BKN090 28/27 Q1004 NOSIG,VETJ,2025-08-16T01:00:00Z,27.941,96.134,28,27,0,0,,3.11,29.65,,,,,,TRUE,,,,BR,SCT,1800,BKN,9000,,,,,MVFR,,,,,,,,,,,,METAR,244
VERP 160100Z 05006KT 1500 R24/2000 BR SCT020 SCT100 26/25 Q1000 BECMG 2000,VERP,2025-08-16T01:00:00Z,21.182,81.738,26,25,50,6,,0.93,29.53,,,,,,,,,,BR,SCT,2000,SCT,10000,,,,,LIFR,,,,,,,,,,,,METAR,318
VERC 160100Z 12006KT 2500 BR SCT018 BKN100 23/22 Q1006 NOSIG,VERC,2025-08-16T01:00:00Z,23.314,85.322,23,22,120,6,,1.55,29.70,,,,,,TRUE,,,,BR,SCT,1800,BKN,10000,,,,,IFR,,,,,,,,,,,,METAR,646
VEPT 160100Z 13005KT 3000 BR FEW020 SCT100 30/30 Q1001 NOSIG,VEPT,2025-08-16T01:00:00Z,25.591,85.088,30,30,130,5,,1.86,29.56,,,,,,TRUE,,,,BR,FEW,2000,SCT,10000,,,,,IFR,,,,,,,,,,,,METAR,53
VEMR 160100Z 00000KT 3000 BR SCT018 BKN100 29/27 Q1004 NOSIG,VEMR,2025-08-16T01:00:00Z,25.884,93.771,29,27,0,0,,1.86,29.65,,,,,,TRUE,,,,BR,SCT,1800,BKN,10000,,,,,IFR,,,,,,,,,,,,METAR,147
VEMN 160100Z 00000KT 5000 BR FEW025 SCT100 28/27 Q1004 NOSIG,VEMN,2025-08-16T01:00:00Z,27.481,95.014,28,27,0,0,,3.11,29.65,,,,,,TRUE,,,,BR,FEW,2500,SCT,10000,,,,,MVFR,,,,,,,,,,,,METAR,111
VELR 160100Z 00000KT 7000 FEW020 SCT100 28/26 Q1004,VELR,2025-08-16T01:00:00Z,27.296,94.098,28,26,0,0,,4.35,29.65,,,,,,,,,,,FEW,2000,SCT,10000,,,,,MVFR,,,,,,,,,,,,METAR,101
VEJS 160100Z 11003KT 3000 BR SCT015 BKN100 27/25 Q1002,VEJS,2025-08-16T01:00:00Z,22.813,86.169,27,25,110,3,,1.86,29.59,,,,,,,,,,BR,SCT,1500,BKN,10000,,,,,IFR,,,,,,,,,,,,METAR,151
VEIM 160100Z 35001KT 3500 BR FEW010 SCT018 BKN100 24/24 Q1008 BECMG 5000 BR,VEIM,2025-08-16T01:00:00Z,24.76,93.897,24,24,350,1,,2.17,29.76,,,,,,,,,,BR,FEW,1000,SCT,1800,BKN,10000,,,IFR,,,,,,,,,,,,METAR,777
VEGY 160100Z 08005KT 3000 BR FEW100 28/26 Q1002,VEGY,2025-08-16T01:00:00Z,24.744,84.951,28,26,80,5,,1.86,29.59,,,,,,,,,,BR,FEW,10000,,,,,,,IFR,,,,,,,,,,,,METAR,115
VEGT 160100Z 17003KT 3000 BR FEW020 SCT100 28/25 Q1003 NOSIG,VEGT,2025-08-16T01:00:00Z,26.107,91.587,28,25,170,3,,1.86,29.62,,,,,,TRUE,,,,BR,FEW,2000,SCT,10000,,,,,IFR,,,,,,,,,,,,METAR,50
VEDG 160100Z 10004KT 2200 BR FEW018 SCT100 27/27 Q1002 NOSIG,VEDG,2025-08-16T01:00:00Z,23.623,87.243,27,27,100,4,,1.37,29.59,,,,,,TRUE,,,,BR,FEW,1800,SCT,10000,,,,,IFR,,,,,,,,,,,,METAR,88
VEBS 160100Z 07005KT 4500 HZ SCT016 BKN100 27/26 Q0999 NOSIG,VEBS,2025-08-16T01:00:00Z,20.244,85.818,27,26,70,5,,2.8,29.50,,,,,,TRUE,,,,HZ,SCT,1600,BKN,10000,,,,,IFR,,,,,,,,,,,,METAR,42
VEBN 160100Z 09007KT 2000 BR FEW100 28/27 Q1001 NOSIG,VEBN,2025-08-16T01:00:00Z,25.452,82.859,28,27,90,7,,1.24,29.56,,,,,,TRUE,,,,BR,FEW,10000,,,,,,,IFR,,,,,,,,,,,,METAR,81
VEAT 160100Z 00000KT 3500 BR FEW010 SCT018 BKN100 26/25 Q1003 NOSIG,VEAT,2025-08-16T01:00:00Z,23.887,91.24,26,25,0,0,,2.17,29.62,,,,,,TRUE,,,,BR,FEW,1000,SCT,1800,BKN,10000,,,IFR,,,,,,,,,,,,METAR,20
VDSV 160100Z 36006KT 320V040 3000 RA SCT015 FEW017CB OVC040 24/23 Q1008 RMK CB:S/NW,VDSV,2025-08-16T01:00:00Z,10.582,103.637,24,23,360,6,,1.86,29.76,,,,,,,,,,RA,SCT,1500,FEW,1700,OVC,4000,,,IFR,,,,,,,,,,,,METAR,1
VDSA 160100Z 01002KT 9999 SCT015 SCT040 27/24 Q1006,VDSA,2025-08-16T01:00:00Z,13.371,104.225,27,24,10,2,,6+,29.70,,,,,,,,,,,SCT,1500,SCT,4000,,,,,VFR,,,,,,,,,,,,METAR,59
VDPP 160100Z 21006KT 9999 SCT015 SCT040 28/28 Q1006,VDPP,2025-08-16T01:00:00Z,11.547,104.844,28,28,210,6,,6+,29.70,,,,,,,,,,,SCT,1500,SCT,4000,,,,,VFR,,,,,,,,,,,,METAR,10
VCCC 160100Z 23006KT 9999 BKN015 27/24 Q1007 A2976,VCCC,2025-08-16T01:00:00Z,6.822,79.886,27,24,230,6,,6+,29.73,,,,,,,,,,,BKN,1500,,,,,,,MVFR,,,,,,,,,,,,METAR,6
VAUD 160100Z 00000KT 2000 BR FEW015 SCT025 BKN080 24/24 Q1003 NOSIG,VAUD,2025-08-16T01:00:00Z,24.618,73.896,24,24,0,0,,1.24,29.62,,,,,,TRUE,,,,BR,FEW,1500,SCT,2500,BKN,8000,,,IFR,,,,,,,,,,,,METAR,506
VASU 160100Z 14003KT 4000 BR SCT010 SCT018 OVC080 26/25 Q1001 TEMPO 3000 RA,VASU,2025-08-16T01:00:00Z,21.114,72.742,26,25,140,3,,2.49,29.56,,,,,,,,,,BR,SCT,1000,SCT,1800,OVC,8000,,,IFR,,,,,,,,,,,,METAR,6
VANP 160100Z 34004KT 3500 BR SCT020 BKN100 26/25 Q1000 NOSIG,VANP,2025-08-16T01:00:00Z,21.089,79.055,26,25,340,4,,2.17,29.53,,,,,,TRUE,,,,BR,SCT,2000,BKN,10000,,,,,IFR,,,,,,,,,,,,METAR,309
VAKP 160100Z 22007KT 6000 SCT012 SCT018 BKN080 22/21 Q1006,VAKP,2025-08-16T01:00:00Z,16.664,74.287,22,21,220,7,,3.73,29.70,,,,,,,,,,,SCT,1200,SCT,1800,BKN,8000,,,MVFR,,,,,,,,,,,,METAR,612
VAID 160100Z 00000KT 0800 FG SCT018 SCT100 23/22 Q1004 BECMG 1500 BR,VAID,2025-08-16T01:00:00Z,22.722,75.801,23,22,0,0,,0.5,29.65,,,,,,,,,,FG,SCT,1800,SCT,10000,,,,,LIFR,,,,,,,,,,,,METAR,564
VAHS 160100Z 24004KT 4000 BR SCT020 BKN080 26/25 Q1002 NOSIG,VAHS,2025-08-16T01:00:00Z,22.3772,71.0374,26,25,240,4,,2.49,29.59,,,,,,TRUE,,,,BR,SCT,2000,BKN,8000,,,,,IFR,,,,,,,,,,,,METAR,198
VABP 160100Z 32004KT 4000 HZ FEW020 SCT100 23/23 Q1003 NOSIG,VABP,2025-08-16T01:00:00Z,23.288,77.337,23,23,320,4,,2.49,29.62,,,,,,TRUE,,,,HZ,FEW,2000,SCT,10000,,,,,IFR,,,,,,,,,,,,METAR,520
VABO 160100Z 18005KT 2000 BR FEW015 SCT020 BKN080 27/26 Q1000 NOSIG,VABO,2025-08-16T01:00:00Z,22.333,73.225,27,26,180,5,,1.24,29.53,,,,,,TRUE,,,,BR,FEW,1500,SCT,2000,BKN,8000,,,IFR,,,,,,,,,,,,METAR,36
VABB 160100Z 28009KT 2100 RA SCT008 SCT018 FEW030CB OVC080 25/25 Q1002 TEMPO 1500 +SHRA,VABB,2025-08-16T01:00:00Z,19.1,72.859,25,25,280,9,,1.3,29.59,,,,,,,,,,RA,SCT,800,SCT,1800,FEW,3000,OVC,8000,IFR,,,,,,,,,,,,METAR,14
VAAH 160100Z 00000KT 1500 R23/2000 R05/2000 -DZ BR SCT012 SCT018 OVC080 26/25 Q1000 TEMPO 1000 RA,VAAH,2025-08-16T01:00:00Z,23.077,72.635,26,25,0,0,,0.93,29.53,,,,,,,,,,-DZ BR,SCT,1200,SCT,1800,OVC,8000,,,LIFR,,,,,,,,,,,,METAR,52
UWWW 160100Z 30004MPS CAVOK 14/12 Q1007 R33/CLRD60 NOSIG RMK QFE744/0993,UWWW,2025-08-16T01:00:00Z,53.509,50.163,14,12,300,8,,6+,29.73,,,,,,TRUE,,,,,CAVOK,,,,,,,,VFR,,,,,,,,,,,,METAR,124
UWUU 160100Z 31005MPS CAVOK 11/10 Q1003 R32L/0///60 NOSIG,UWUU,2025-08-16T01:00:00Z,54.57,55.87,11,10,310,10,,6+,29.62,,,,,,TRUE,,,,,CAVOK,,,,,,,,VFR,,,,,,,,,,,,METAR,137
UWSG 160100Z 31004MPS 270V330 CAVOK 15/13 Q1010 R26/CLRD70 NOSIG RMK QFE755/1006,UWSG,2025-08-16T01:00:00Z,51.713,46.171,15,13,310,8,,6+,29.82,,,,,,TRUE,,,,,CAVOK,,,,,,,,VFR,,,,,,,,,,,,METAR,31
UWPS 160100Z 29003MPS CAVOK 13/10 Q1012 R02/CLRD60 NOSIG RMK QFE739,UWPS,2025-08-16T01:00:00Z,54.116,45.203,13,10,290,6,,6+,29.88,,,,,,TRUE,,,,,CAVOK,,,,,,,,VFR,,,,,,,,,,,,METAR,206
UWOR 160100Z 27006MPS CAVOK 14/14 Q1000 R25/120060 NOSIG RMK QFE727/0969,UWOR,2025-08-16T01:00:00Z,51.07,58.597,14,14,270,12,,6+,29.53,,,,,,TRUE,,,,,CAVOK,,,,,,,,VFR,,,,,,,,,,,,METAR,270
UWOO 160100Z 31004MPS CAVOK 13/12 Q1002 R26/60D NOSIG RMK QFE741/0988,UWOO,2025-08-16T01:00:00Z,51.795,55.457,13,12,310,8,,6+,29.59,,,,,,TRUE,,,,,CAVOK,,,,,,,,VFR,,,,,,,,,,,,METAR,90
UWLW 160100Z 33005MPS CAVOK 16/15 Q1008 R02/CLRD60 NOSIG RMK QFE749/0999,UWLW,2025-08-16T01:00:00Z,54.402,48.8,16,15,330,10,,6+,29.76,,,,,,TRUE,,,,,CAVOK,,,,,,,,VFR,,,,,,,,,,,,METAR,67
UWLL 160100Z 29004MPS CAVOK 13/11 Q1009 R02/090065 NOSIG RMK QFE744/0993,UWLL,2025-08-16T01:00:00Z,54.274,48.236,13,11,290,8,,6+,29.79,,,,,,TRUE,,,,,CAVOK,,,,,,,,VFR,,,,,,,,,,,,METAR,119
UWKS 160100Z 34002MPS 9999 FEW020 11/11 Q1010 R06/090060 NOSIG RMK QFE742,UWKS,2025-08-16T01:00:00Z,56.09,47.347,11,11,340,4,,6+,29.82,,,,,,TRUE,,,,,FEW,2000,,,,,,,VFR,,,,,,,,,,,,METAR,165
UWKE 160100Z 34004MPS CAVOK 12/12 Q1006 R21/090070 NOSIG RMK QFE738/0984,UWKE,2025-08-16T01:00:00Z,55.566,52.1,12,12,340,8,,6+,29.70,,,,,,TRUE,,,,,CAVOK,,,,,,,,VFR,,,,,,,,,,,,METAR,193
UWKD 160100Z 33004MPS CAVOK 12/10 Q1008 R29/70D NOSIG RMK QFE745/0993,UWKD,2025-08-16T01:00:00Z,55.61,49.275,12,10,330,8,,6+,29.76,,,,,,TRUE,,,,,CAVOK,,,,,,,,VFR,,,,,,,,,,,,METAR,114
UWGG 160100Z 28001MPS CAVOK 10/10 Q1012 R36R/090070 NOSIG,UWGG,2025-08-16T01:00:00Z,56.225,43.786,10,10,280,2,,6+,29.88,,,,,,TRUE,,,,,CAVOK,,,,,,,,VFR,,,,,,,,,,,,METAR,73
UUYY 160100Z 34002MPS CAVOK 09/08 Q1008 R36/61D NOSIG RMK QFE747/0996,UUYY,2025-08-16T01:00:00Z,61.647,50.845,9,8,340,4,,6+,29.76,,,,,,TRUE,,,,,CAVOK,,,,,,,,VFR,,,,,,,,,,,,METAR,107
UUWW 160100Z 25003MPS CAVOK 13/11 Q1016 R24/000065 NOSIG,UUWW,2025-08-16T01:00:00Z,55.592,37.261,13,11,250,6,,6+,30.00,,,,,,TRUE,,,,,CAVOK,,,,,,,,VFR,,,,,,,,,,,,METAR,195
UUOO 160100Z 31004MPS CAVOK 12/12 Q1016 R30/290150 NOSIG RMK QFE749,UUOO,2025-08-16T01:00:00Z,51.814,39.228,12,12,310,8,,6+,30.00,,,,,,TRUE,,,,,CAVOK,,,,,,,,VFR,,,,,,,,,,,,METAR,154
UUOL 160100Z AUTO 31004MPS 9999 NCD 13/11 Q1016,UUOL,2025-08-16T01:00:00Z,52.702,39.534,13,11,310,8,,6+,30.00,,,TRUE,,,,,,,,CLR,,,,,,,,VFR,,,,,,,,,,,,METAR,176
UUOK 160100Z AUTO 01002MPS 9999 // NCD 13/13 Q1018 RMK QFE746/0994,UUOK,2025-08-16T01:00:00Z,51.751,36.297,13,13,10,4,,6+,30.06,,,TRUE,,,,,,,,CLR,,,,,,,,VFR,,,,,,,,,,,,METAR,203
UUOB 160100Z 33003MPS CAVOK 14/13 Q1018 R29/010070 NOSIG,UUOB,2025-08-16T01:00:00Z,50.644,36.59,14,13,330,6,,6+,30.06,,,,,,TRUE,,,,,CAVOK,,,,,,,,VFR,,,,,,,,,,,,METAR,218
UUEE 160100Z 26002MPS CAVOK 13/11 Q1016 R24C/CLRD62 NOSIG,UUEE,2025-08-16T01:00:00Z,55.973,37.415,13,11,260,4,,6+,30.00,,,,,,TRUE,,,,,CAVOK,,,,,,,,VFR,,,,,,,,,,,,METAR,186
UUDL 160100Z 00000MPS CAVOK 10/09 Q1014 R23/////// NOSIG RMK QFE752,UUDL,2025-08-16T01:00:00Z,57.561,40.157,10,9,0,0,,6+,29.94,,,,,,TRUE,,,,,CAVOK,,,,,,,,VFR,,,,,,,,,,,,METAR,88
UUDD 160100Z 27003MPS CAVOK 12/11 Q1016 R31L/CLRD60 NOSIG,UUDD,2025-08-16T01:00:00Z,55.409,37.906,12,11,270,6,,6+,30.00,,,,,,TRUE,,,,,CAVOK,,,,,,,,VFR,,,,,,,,,,,,METAR,165
UUBW 160100Z 29002MPS CAVOK 12/11 Q1016 R30/010060 NOSIG RMK QFE751,UUBW,2025-08-16T01:00:00Z,55.553,38.15,12,11,290,4,,6+,30.00,,,,,,TRUE,,,,,CAVOK,,,,,,,,VFR,,,,,,,,,,,,METAR,111
UTTT 160100Z 07008KT CAVOK 22/06 Q1008 R08R/CLRD70 NOSIG,UTTT,2025-08-16T01:00:00Z,41.258,69.281,22,6,70,8,,6+,29.76,,,,,,TRUE,,,,,CAVOK,,,,,,,,VFR,,,,,,,,,,,,METAR,429
UTST 160100Z 24008KT CAVOK 23/06 Q1006 R25/CLRD70 NOSIG,UTST,2025-08-16T01:00:00Z,37.287,67.318,23,6,240,8,,6+,29.70,,,,,,TRUE,,,,,CAVOK,,,,,,,,VFR,,,,,,,,,,,,METAR,311
UTSS 160100Z 12004KT 090V150 9999 NSC 18/10 Q1009 R09/70D NOSIG,UTSS,2025-08-16T01:00:00Z,39.7,66.974,18,10,120,4,,6+,29.79,,,,,,TRUE,,,,,CLR,,,,,,,,VFR,,,,,,,,,,,,METAR,665
UTSK 160100Z 00000KT CAVOK 18/07 Q1008 R16/CLRD70,UTSK,2025-08-16T01:00:00Z,38.804,65.773,18,7,0,0,,6+,29.76,,,,,,,,,,,CAVOK,,,,,,,,VFR,,,,,,,,,,,,METAR,399
UTSB 160100Z 33006KT CAVOK 20/07 Q1008 R01/CLRD70 NOSIG,UTSB,2025-08-16T01:00:00Z,39.775,64.483,20,7,330,6,,6+,29.76,,,,,,TRUE,,,,,CAVOK,,,,,,,,VFR,,,,,,,,,,,,METAR,225
UTSA 160100Z 17006KT 9999 NSC 18/00 Q1008 R25/CLRD70 NOSIG,UTSA,2025-08-16T01:00:00Z,40.116,65.167,18,0,170,6,,6+,29.76,,,,,,TRUE,,,,,CLR,,,,,,,,VFR,,,,,,,,,,,,METAR,346
UTNU 160100Z 26006KT CAVOK 20/12 Q1008 R31/CLRD70 NOSIG,UTNU,2025-08-16T01:00:00Z,41.584,60.642,20,12,260,6,,6+,29.76,,,,,,TRUE,,,,,CAVOK,,,,,,,,VFR,,,,,,,,,,,,METAR,97
UTNN 160100Z 24008KT CAVOK 20/08 Q1008 R33/CLRD70 NOSIG,UTNN,2025-08-16T01:00:00Z,42.488,59.623,20,8,240,8,,6+,29.76,,,,,,TRUE,,,,,CAVOK,,,,,,,,VFR,,,,,,,,,,,,METAR,76
UTFN 160100Z 34004KT 9999 NSC 22/13 Q1007 R28/CLRD70 NOSIG,UTFN,2025-08-16T01:00:00Z,40.983,71.573,22,13,340,4,,6+,29.73,,,,,,TRUE,,,,,CLR,,,,,,,,VFR,,,,,,,,,,,,METAR,477
UTFF 160100Z 14004KT 9999 NSC 21/08 Q1008 R18/CLRD70,UTFF,2025-08-16T01:00:00Z,40.356,71.745,21,8,140,4,,6+,29.76,,,,,,,,,,,CLR,,,,,,,,VFR,,,,,,,,,,,,METAR,612
UTFA 160100Z 04004KT 9999 NSC 21/11 Q1008,UTFA,2025-08-16T01:00:00Z,40.727,72.294,21,11,40,4,,6+,29.76,,,,,,,,,,,CLR,,,,,,,,VFR,,,,,,,,,,,,METAR,474
UTDT 160100Z 12001MPS 9000 FEW130 21/13 Q1006 R35/CLRD70 RMK QFE715/0954,UTDT,2025-08-16T01:00:00Z,37.866,68.865,21,13,120,2,,5.59,29.70,,,,,,,,,,,FEW,13000,,,,,,,VFR,,,,,,,,,,,,METAR,443
UTDL 160100Z 26003MPS 9999 NSC 19/10 Q1008 R26/CLRD70 NOSIG RMK QFE718/0958,UTDL,2025-08-16T01:00:00Z,40.215,69.695,19,10,260,6,,6+,29.76,,,,,,TRUE,,,,,CLR,,,,,,,,VFR,,,,,,,,,,,,METAR,436
UTDK 160100Z 02004MPS 9999 NSC 24/10 Q1009 R01/09//70 RMK QFE699/0933,UTDK,2025-08-16T01:00:00Z,37.988,69.805,24,10,20,8,,6+,29.79,,,,,,,,,,,CLR,,,,,,,,VFR,,,,,,,,,,,,METAR,675
UTDD 160100Z 09002MPS 8000 FEW066 BKN130 22/10 Q1009 R09/D NOSIG RMK QFE689/0919,UTDD,2025-08-16T01:00:00Z,38.543,68.825,22,10,90,4,,4.97,29.79,,,,,,TRUE,,,,,FEW,6600,BKN,13000,,,,,MVFR,,,,,,,,,,,,METAR,785
UTAV 160100Z 33004KT CAVOK 19/10 Q1008 R31/CLRD70 NOSIG,UTAV,2025-08-16T01:00:00Z,39.083,63.613,19,10,330,4,,6+,29.76,,,,,,TRUE,,,,,CAVOK,,,,,,,,VFR,,,,,,,,,,,,METAR,187
UTAT 160100Z 25006KT CAVOK 17/08 Q1008 R26/CLRD70 NOSIG,UTAT,2025-08-16T01:00:00Z,41.761,59.827,17,8,250,6,,6+,29.76,,,,,,TRUE,,,,,CAVOK,,,,,,,,VFR,,,,,,,,,,,,METAR,84
UTAN 160100Z 06024KT 3000 BLDU FEW050 SCT100 27/10 Q1009 R16/CLRD70 TEMPO 02022G32KT 1000 DS,UTAN,2025-08-16T01:00:00Z,39.6784,54.2057,27,10,60,24,,1.86,29.79,,,,,,,,,,BLDU,FEW,5000,SCT,10000,,,,,IFR,,,,,,,,,,,,METAR,16
UTAM 160100Z 12004KT 6000 NSC 22/10 Q1008 R88/CLRD70 NOSIG,UTAM,2025-08-16T01:00:00Z,37.619,61.897,22,10,120,4,,3.73,29.76,,,,,,TRUE,,,,,CLR,,,,,,,,MVFR,,,,,,,,,,,,METAR,218
UTAK 160100Z 07016KT CAVOK 23/13 Q1011 R34L/CLRD70 NOSIG,UTAK,2025-08-16T01:00:00Z,40.054,53.007,23,13,70,16,,6+,29.85,,,,,,TRUE,,,,,CAVOK,,,,,,,,VFR,,,,,,,,,,,,METAR,83
UTAE 160100Z 05004KT CAVOK 18/08 Q1008 R34/CLRD70 NOSIG,UTAE,2025-08-16T01:00:00Z,37.8223,65.1354,18,8,50,4,,6+,29.76,,,,,,TRUE,,,,,CAVOK,,,,,,,,VFR,,,,,,,,,,,,METAR,243
UTAA 160100Z 29014KT 9999 NSC 26/08 Q1008 R88/70D NOSIG,UTAA,2025-08-16T01:00:00Z,37.975,58.371,26,8,290,14,,6+,29.76,,,,,,TRUE,,,,,CLR,,,,,,,,VFR,,,,,,,,,,,,METAR,207
USSS 160100Z 31002MPS 270V340 9999 -SHRA BKN038CB 13/13 Q1001 R26R/290042 R26L/290050 NOSIG RMK QFE730/0973,USSS,2025-08-16T01:00:00Z,56.745,60.792,13,13,310,4,,6+,29.56,,,,,,TRUE,,,,-SHRA,BKN,3800,,,,,,,VFR,,,,,,,,,,,,METAR,222
USRR 160100Z 20004MPS 160V230 9999 SCT004 BKN014 15/15 Q0995 R25/250245 RMK OBST OBSC QFE741,USRR,2025-08-16T01:00:00Z,61.342,73.422,15,15,200,8,,6+,29.38,,,,,,,,,,,SCT,400,BKN,1400,,,,,MVFR,,,,,,,,,,,,METAR,52
USPP 160100Z 31002MPS 9999 BKN049 13/11 Q1003 R21/090060 TEMPO 1100 BR BKN005 RMK QFE742,USPP,2025-08-16T01:00:00Z,57.914,56.021,13,11,310,4,,6+,29.62,,,,,,,,,,,BKN,4900,,,,,,,VFR,,,,,,,,,,,,METAR,120
USHH 160100Z 00000MPS CAVOK 13/13 Q0996 R24/010060 NOSIG,USHH,2025-08-16T01:00:00Z,61.029,69.086,13,13,0,0,,6+,29.41,,,,,,TRUE,,,,,CAVOK,,,,,,,,VFR,,,,,,,,,,,,METAR,46
USDD 160100Z 03006MPS 7000 -TSRA SCT002 BKN016CB 15/15 Q1002 R04/250260 NOSIG RMK QBB080 QFE746/0994,USDD,2025-08-16T01:00:00Z,66.591,66.611,15,15,30,12,,4.35,29.59,,,,,,TRUE,,,,-TSRA,SCT,200,BKN,1600,,,,,MVFR,,,,,,,,,,,,METAR,53
USDA 160100Z 09005MPS CAVOK 14/13 Q1009 R04/CLRD60 NOSIG RMK QFE755/1007,USDA,2025-08-16T01:00:00Z,71.216,72.05,14,13,90,10,,6+,29.79,,,,,,TRUE,,,,,CAVOK,,,,,,,,VFR,,,,,,,,,,,,METAR,5
USCM 160100Z 36003MPS 9999 OVC030CB 10/10 Q1001 R36/090060 NOSIG RMK QFE712,USCM,2025-08-16T01:00:00Z,53.393,58.756,10,10,360,6,,6+,29.56,,,,,,TRUE,,,,,OVC,3000,,,,,,,MVFR,,,,,,,,,,,,METAR,425
USCC 160100Z 30003MPS 9999 FEW040CB 12/12 Q1000 R27/000060 NOSIG RMK QFE730,USCC,2025-08-16T01:00:00Z,55.306,61.503,12,12,300,6,,6+,29.53,,,,,,TRUE,,,,,FEW,4000,,,,,,,VFR,,,,,,,,,,,,METAR,227
URWW 160100Z 33004MPS CAVOK 15/13 Q1012 R23/010070 NOSIG,URWW,2025-08-16T01:00:00Z,48.788,44.336,15,13,330,8,,6+,29.88,,,,,,TRUE,,,,,CAVOK,,,,,,,,VFR,,,,,,,,,,,,METAR,131
URWI 160100Z AUTO 29004MPS 9999 // NSC 14/08 Q1014,URWI,2025-08-16T01:00:00Z,46.374,44.331,14,8,290,8,,6+,29.94,,,TRUE,,,,,,,,CLR,,,,,,,,VFR,,,,,,,,,,,,METAR,145
URWA 160100Z 27002MPS CAVOK 14/09 Q1011 R27/010070 NOSIG RMK QFE760/1014,URWA,2025-08-16T01:00:00Z,46.286,47.995,14,9,270,4,,6+,29.85,,,,,,TRUE,,,,,CAVOK,,,,,,,,VFR,,,,,,,,,,,,METAR,-19
URSS 160100Z 04004MPS 9999 FEW053 20/17 Q1011 R02/010070 R06/010070 NOSIG RMK R06/07005MPS QFE757,URSS,2025-08-16T01:00:00Z,43.438,39.926,20,17,40,8,,6+,29.85,,,,,,TRUE,,,,,FEW,5300,,,,,,,VFR,,,,,,,,,,,,METAR,4
URRP 160100Z 33003MPS CAVOK 14/09 Q1016 R05/CLRD70 NOSIG RMK QFE757/1009,URRP,2025-08-16T01:00:00Z,47.494,39.925,14,9,330,6,,6+,30.00,,,,,,TRUE,,,,,CAVOK,,,,,,,,VFR,,,,,,,,,,,,METAR,73
URMT 160100Z 17002MPS CAVOK 15/05 Q1015 R25/010070 NOSIG RMK QFE722,URMT,2025-08-16T01:00:00Z,45.108,42.1,15,5,170,4,,6+,29.97,,,,,,TRUE,,,,,CAVOK,,,,,,,,VFR,,,,,,,,,,,,METAR,448
URMO 160100Z 15002MPS 110V200 9999 SCT080 15/10 Q1014 R09/010073 NOSIG RMK QFE717/0956,URMO,2025-08-16T01:00:00Z,43.204,44.608,15,10,150,4,,6+,29.94,,,,,,TRUE,,,,,SCT,8000,,,,,,,VFR,,,,,,,,,,,,METAR,505
URMN 160100Z 26002MPS 9999 SCT081 17/10 Q1014 R24/////// NOSIG RMK QFE724,URMN,2025-08-16T01:00:00Z,43.514,43.646,17,10,260,4,,6+,29.94,,,,,,TRUE,,,,,SCT,8100,,,,,,,VFR,,,,,,,,,,,,METAR,424
URMM 160100Z 00000MPS 9999 NSC 14/07 Q1014 R29/010070 NOSIG RMK QFE732/0977,URMM,2025-08-16T01:00:00Z,44.225,43.082,14,7,0,0,,6+,29.94,,,,,,TRUE,,,,,CLR,,,,,,,,VFR,,,,,,,,,,,,METAR,318
URML 160100Z 26004MPS 9999 NSC 22/14 Q1012 R32/01//70 NOSIG RMK QFE759/1012,URML,2025-08-16T01:00:00Z,42.817,47.652,22,14,260,8,,6+,29.88,,,,,,TRUE,,,,,CLR,,,,,,,,VFR,,,,,,,,,,,,METAR,4
URMG 160100Z VRB01MPS CAVOK 19/10 Q1013 R26/090070 NOSIG RMK QFE745/0993,URMG,2025-08-16T01:00:00Z,43.387,45.702,19,10,VRB,2,,6+,29.91,,,,,,TRUE,,,,,CAVOK,,,,,,,,VFR,,,,,,,,,,,,METAR,160
URKK 160100Z 03002MPS CAVOK 16/08 Q1014 R05R/CLRD70 NOSIG RMK QFE757,URKK,2025-08-16T01:00:00Z,45.033,39.15,16,8,30,4,,6+,29.94,,,,,,TRUE,,,,,CAVOK,,,,,,,,VFR,,,,,,,,,,,,METAR,29
URKA 160100Z 07005MPS CAVOK 18/14 Q1014 R03/010065 NOSIG RMK QFE757/1009,URKA,2025-08-16T01:00:00Z,44.995,37.341,18,14,70,10,,6+,29.94,,,,,,TRUE,,,,,CAVOK,,,,,,,,VFR,,,,,,,,,,,,METAR,41
UOOO 160100Z 09002MPS 070V130 CAVOK 19/10 Q1009 R01/CLRD60 NOSIG RMK QFE742/0990,UOOO,2025-08-16T01:00:00Z,69.308,87.322,19,10,90,4,,6+,29.79,,,,,,TRUE,,,,,CAVOK,,,,,,,,VFR,,,,,,,,,,,,METAR,177
UNWW 160100Z VRB01MPS 9999 SCT040CB 15/13 Q1005 R19/09//55 NOSIG RMK QFE727,UNWW,2025-08-16T01:00:00Z,53.811,86.878,15,13,VRB,2,,6+,29.68,,,,,,TRUE,,,,,SCT,4000,,,,,,,VFR,,,,,,,,,,,,METAR,307
UNTT 160100Z 20004MPS 9999 SCT008 15/15 Q1000 R21/190055 NOSIG RMK QFE735,UNTT,2025-08-16T01:00:00Z,56.381,85.207,15,15,200,8,,6+,29.53,,,,,,TRUE,,,,,SCT,800,,,,,,,VFR,,,,,,,,,,,,METAR,179
UNNT 160100Z 20004MPS CAVOK 17/15 Q1000 R25/090070 R16/090070 NOSIG RMK QFE740/0987,UNNT,2025-08-16T01:00:00Z,55.013,82.651,17,15,200,8,,6+,29.53,,,,,,TRUE,,,,,CAVOK,,,,,,,,VFR,,,,,,,,,,,,METAR,106
UNKL 160100Z VRB01MPS CAVOK 17/13 Q1004 R29/CLRD65 NOSIG RMK QFE728,UNKL,2025-08-16T01:00:00Z,56.173,92.493,17,13,VRB,2,,6+,29.65,,,,,,TRUE,,,,,CAVOK,,,,,,,,VFR,,,,,,,,,,,,METAR,278
UNEE 160100Z 18003MPS 9999 FEW040 15/15 Q1002 R23/CLRD60 NOSIG RMK QFE729,UNEE,2025-08-16T01:00:00Z,55.27,86.107,15,15,180,6,,6+,29.59,,,,,,TRUE,,,,,FEW,4000,,,,,,,VFR,,,,,,,,,,,,METAR,261
UNBG 160100Z 08002MPS 9999 SCT050CB 15/14 Q1006 R20/CLRD70 NOSIG RMK QFE728,UNBG,2025-08-16T01:00:00Z,51.9687,85.8363,15,14,80,4,,6+,29.70,,,,,,TRUE,,,,,SCT,5000,,,,,,,VFR,,,,,,,,,,,,METAR,294
UNBB 160100Z 19004MPS 9999 BKN040 15/12 Q1003 R24/CLRD66 NOSIG RMK QFE730,UNBB,2025-08-16T01:00:00Z,53.362,83.54,15,12,190,8,,6+,29.62,,,,,,TRUE,,,,,BKN,4000,,,,,,,VFR,,,,,,,,,,,,METAR,249
UNAA 160100Z 21002MPS CAVOK 16/14 Q1006 R20/120065 NOSIG RMK QFE732,UNAA,2025-08-16T01:00:00Z,53.74,91.385,16,14,210,4,,6+,29.70,,,,,,TRUE,,,,,CAVOK,,,,,,,,VFR,,,,,,,,,,,,METAR,249
UMMS 160100Z 19002MPS CAVOK 11/10 Q1017 NOSIG,UMMS,2025-08-16T01:00:00Z,53.883,28.031,11,10,190,4,,6+,30.03,,,,,,TRUE,,,,,CAVOK,,,,,,,,VFR,,,,,,,,,,,,METAR,196
UMIO 160100Z 21003MPS CAVOK 14/10 Q1017 NOSIG RMK QFE745/0994,UMIO,2025-08-16T01:00:00Z,54.44,30.297,14,10,210,6,,6+,30.03,,,,,,TRUE,,,,,CAVOK,,,,,,,,VFR,,,,,,,,,,,,METAR,189
UMGG 160100Z VRB01MPS 5000 BR NSC 15/12 Q1020 NOSIG,UMGG,2025-08-16T01:00:00Z,52.525,31.015,15,12,VRB,2,,3.11,30.12,,,,,,TRUE,,,,BR,CLR,,,,,,,,MVFR,,,,,,,,,,,,METAR,135
ULPB 160100Z VRB01MPS CAVOK 15/13 Q1007 NOSIG RMK QFE752/1002,ULPB,2025-08-16T01:00:00Z,61.885,34.155,15,13,VRB,2,,6+,29.73,,,,,,TRUE,,,,,CAVOK,,,,,,,,VFR,,,,,,,,,,,,METAR,41
ULOO 160100Z 18005MPS 9999 -SHRA FEW035CB 17/12 Q1010 TEMPO 3100 -TSRA BKN016CB RMK QFE753,ULOO,2025-08-16T01:00:00Z,57.79,28.397,17,12,180,10,,6+,29.82,,,,,,,,,,-SHRA,FEW,3500,,,,,,,VFR,,,,,,,,,,,,METAR,46
ULMM 160100Z 16002MPS CAVOK 16/14 Q1000 R13/090070 NOSIG RMK QFE744,ULMM,2025-08-16T01:00:00Z,68.781,32.749,16,14,160,4,,6+,29.53,,,,,,TRUE,,,,,CAVOK,,,,,,,,VFR,,,,,,,,,,,,METAR,79
ULLI 160100Z 17002MPS 9999 -SHRA SCT030CB 17/14 Q1007 R28L/290050 NOSIG,ULLI,2025-08-16T01:00:00Z,59.798,30.267,17,14,170,4,,6+,29.73,,,,,,TRUE,,,,-SHRA,SCT,3000,,,,,,,VFR,,,,,,,,,,,,METAR,25
ULAA 160100Z 11002MPS 9999 FEW030 11/11 Q1007 R26/CLRD70 NOSIG RMK QFE753/1005,ULAA,2025-08-16T01:00:00Z,64.599,40.712,11,11,110,4,,6+,29.73,,,,,,TRUE,,,,,FEW,3000,,,,,,,VFR,,,,,,,,,,,,METAR,10
UIUU 160100Z 10006MPS 9999 NSC 18/13 Q1010 R08/60D NOSIG RMK QFE712/0950,UIUU,2025-08-16T01:00:00Z,51.808,107.443,18,13,100,12,,6+,29.82,,,,,,TRUE,,,,,CLR,,,,,,,,VFR,,,,,,,,,,,,METAR,508
UIII 160100Z 15004MPS CAVOK 18/14 Q1006 R12/60D NOSIG RMK QFE713/0950,UIII,2025-08-16T01:00:00Z,52.273,104.38,18,14,150,8,,6+,29.70,,,,,,TRUE,,,,,CAVOK,,,,,,,,VFR,,,,,,,,,,,,METAR,480
UIBB 160100Z 10004MPS 070V130 9999 NSC 17/13 Q1006 R12/60D NOSIG RMK QFE712/0949,UIBB,2025-08-16T01:00:00Z,56.365,101.716,17,13,100,8,,6+,29.70,,,,,,TRUE,,,,,CLR,,,,,,,,VFR,,,,,,,,,,,,METAR,485
UIAA 160100Z 02002MPS 9999 SCT046 15/10 Q1014 R29/57D NOSIG RMK QFE702/0936,UIAA,2025-08-16T01:00:00Z,52.026,113.31,15,10,20,4,,6+,29.94,,,,,,TRUE,,,,,SCT,4600,,,,,,,VFR,,,,,,,,,,,,METAR,650
UHWW 160100Z 19005MPS 9999 FEW020 28/22 Q1009 R25L/0///70 NOSIG RMK QFE756,UHWW,2025-08-16T01:00:00Z,43.399,132.146,28,22,190,10,,6+,29.79,,,,,,TRUE,,,,,FEW,2000,,,,,,,VFR,,,,,,,,,,,,METAR,11
UHSS 160100Z 18003MPS 9999 NSC 26/20 Q1008 R19/70D NOSIG RMK QFE755/1006,UHSS,2025-08-16T01:00:00Z,46.887,142.719,26,20,180,6,,6+,29.76,,,,,,TRUE,,,,,CLR,,,,,,,,VFR,,,,,,,,,,,,METAR,14
UHPP 160100Z 15005MPS 120V180 9999 FEW013 SCT020CB BKN033 15/12 Q1017 R16R/CLRD60 NOSIG RMK MT OBSC QFE759/1013,UHPP,2025-08-16T01:00:00Z,53.175,158.444,15,12,150,10,,6+,30.03,,,,,,TRUE,,,,,FEW,1300,SCT,2000,BKN,3300,,,VFR,,,,,,,,,,,,METAR,33
UHMM 160100Z 09007MPS 9999 -SHRA SCT013 BKN017CB OVC049 14/12 Q1005 R10/19//60 NOSIG RMK MT OBSC QFE739 R28/11005MPS,UHMM,2025-08-16T01:00:00Z,59.911,150.725,14,12,90,14,,6+,29.68,,,,,,TRUE,,,,-SHRA,SCT,1300,BKN,1700,OVC,4900,,,MVFR,,,,,,,,,,,,METAR,175
UHMA 160100Z 17002MPS 9999 FEW006 SCT015 BKN029 15/12 Q1013 R02/290058 NOSIG RMK MID 26001G04MPS END R02/25002MPS QFE756/1008,UHMA,2025-08-16T01:00:00Z,64.733,177.739,15,12,170,4,,6+,29.91,,,,,,TRUE,,,,,FEW,600,SCT,1500,BKN,2900,,,MVFR,,,,,,,,,,,,METAR,53
UHBB 160100Z 29004MPS 260V320 9999 FEW033 18/13 Q1008 R36/090060 NOSIG RMK QFE738/0984,UHBB,2025-08-16T01:00:00Z,50.425,127.412,18,13,290,8,,6+,29.76,,,,,,TRUE,,,,,FEW,3300,,,,,,,VFR,,,,,,,,,,,,METAR,185
UGTB 160100Z 31012KT 9999 SCT042 BKN059 20/12 Q1013 NOSIG,UGTB,2025-08-16T01:00:00Z,41.669,44.955,20,12,310,12,,6+,29.91,,,,,,TRUE,,,,,SCT,4200,BKN,5900,,,,,VFR,,,,,,,,,,,,METAR,468
UGSB 160100Z 13011KT 9999 BKN084 20/16 Q1012 NOSIG,UGSB,2025-08-16T01:00:00Z,41.61,41.6,20,16,130,11,,6+,29.88,,,,,,TRUE,,,,,BKN,8400,,,,,,,VFR,,,,,,,,,,,,METAR,32
UGMS 160100Z AUTO VRB01KT //// ////// 13/10 Q1018,UGMS,2025-08-16T01:00:00Z,43.055,42.75,13,10,VRB,1,,,30.06,,,TRUE,,,,,,,,,,,,,,,,,,,,,,,,,,,,METAR,1442
UGKO 160100Z VRB02KT 9999 SCT035 17/15 Q1012 NOSIG,UGKO,2025-08-16T01:00:00Z,42.177,42.483,17,15,VRB,2,,6+,29.88,,,,,,TRUE,,,,,SCT,3500,,,,,,,VFR,,,,,,,,,,,,METAR,44
UGAM 160100Z AUTO 10004KT //// ////// 12/07 Q1015,UGAM,2025-08-16T01:00:00Z,42.527,43.135,12,7,100,4,,,29.97,,,TRUE,,,,,,,,,,,,,,,,,,,,,,,,,,,,METAR,544
UERR 160100Z VRB01MPS 9999 FEW013 17/05 Q1014 R07/CLRD60 NOSIG RMK QFE730/0974,UERR,2025-08-16T01:00:00Z,62.538,114.056,17,5,VRB,2,,6+,29.94,,,,,,TRUE,,,,,FEW,1300,,,,,,,VFR,,,,,,,,,,,,METAR,352
UEEE 160100Z 33004MPS CAVOK 17/04 Q1007 R23/09//60 NOSIG RMK QFE746,UEEE,2025-08-16T01:00:00Z,62.093,129.774,17,4,330,8,,6+,29.73,,,,,,TRUE,,,,,CAVOK,,,,,,,,VFR,,,,,,,,,,,,METAR,106
UDYZ 160100Z 25002KT 9999 NSC 20/06 Q1011 NOSIG,UDYZ,2025-08-16T01:00:00Z,40.147,44.396,20,6,250,2,,6+,29.85,,,,,,TRUE,,,,,CLR,,,,,,,,VFR,,,,,,,,,,,,METAR,851
UDSG 160100Z 23003KT 9999 NSC 13/09 Q1016 NOSIG,UDSG,2025-08-16T01:00:00Z,40.75,43.859,13,9,230,3,,6+,30.00,,,,,,TRUE,,,,,CLR,,,,,,,,VFR,,,,,,,,,,,,METAR,1515
UCFO 160100Z 16002MPS 8000 FEW050 18/12 Q1010 NOSIG,UCFO,2025-08-16T01:00:00Z,40.61,72.791,18,12,160,4,,4.97,29.82,,,,,,TRUE,,,,,FEW,5000,,,,,,,MVFR,,,,,,,,,,,,METAR,881
UCFM 160100Z 18003MPS CAVOK 17/10 Q1009 NOSIG,UCFM,2025-08-16T01:00:00Z,43.061,74.478,17,10,180,6,,6+,29.79,,,,,,TRUE,,,,,CAVOK,,,,,,,,VFR,,,,,,,,,,,,METAR,632
UCFL 160100Z 34004MPS 9999 SCT030CB 16/08 Q1016,UCFL,2025-08-16T01:00:00Z,42.585,76.702,16,8,340,8,,6+,30.00,,,,,,,,,,,SCT,3000,,,,,,,VFR,,,,,,,,,,,,METAR,1654
UBLC 160100Z AUTO 31002KT 260V020 7000 -DZ ///025/// 13/13 Q1015 RMK QFE620/0827,UBLC,2025-08-16T01:00:00Z,-99.99,-99.99,13,13,310,2,,4.35,29.97,,,TRUE,,,,,,,-DZ,,,,,,,,,MVFR,,,,,,,,,,,,METAR,9999
UBBY 160100Z 09002KT 9999 -SHRA VCTS SCT030CB OVC050 19/16 Q1016 NOSIG RMK MT OBSC,UBBY,2025-08-16T01:00:00Z,41.561,46.667,19,16,90,2,,6+,30.00,,,,,,TRUE,,,,-SHRA VCTS,SCT,3000,OVC,5000,,,,,VFR,,,,,,,,,,,,METAR,383
UBBN 160100Z 11008KT 9999 FEW046 SCT100 23/14 Q1010 NOSIG RMK QFE683,UBBN,2025-08-16T01:00:00Z,39.189,45.458,23,14,110,8,,6+,29.82,,,,,,TRUE,,,,,FEW,4600,SCT,10000,,,,,VFR,,,,,,,,,,,,METAR,857
UBBL 160100Z 00000KT 9999 SCT044 BKN060 22/22 Q1013 NOSIG,UBBL,2025-08-16T01:00:00Z,38.746,48.818,22,22,0,0,,6+,29.91,,,,,,TRUE,,,,,SCT,4400,BKN,6000,,,,,VFR,,,,,,,,,,,,METAR,-11
UBBF 160100Z AUTO 03002KT 350V070 9999 // ///017/// 21/19 Q1013,UBBF,2025-08-16T01:00:00Z,39.595,47.196,21,19,30,2,,6+,29.91,,,TRUE,,,,,,,,,,,,,,,,VFR,,,,,,,,,,,,METAR,370
UBBB 160100Z VRB02KT CAVOK 20/15 Q1012 NOSIG,UBBB,2025-08-16T01:00:00Z,40.469,50.061,20,15,VRB,2,,6+,29.88,,,,,,TRUE,,,,,CAVOK,,,,,,,,VFR,,,,,,,,,,,,METAR,94
UAUU 160100Z 00000MPS 9999 SCT033CB 15/14 Q0998 TEMPO 0300 FG BKN002 RMK QFE733/0978,UAUU,2025-08-16T01:00:00Z,53.215,63.553,15,14,0,0,,6+,29.47,,,,,,,,,,,SCT,3300,,,,,,,VFR,,,,,,,,,,,,METAR,177
UATT 160100Z 27004MPS 9999 BKN005 14/13 Q1002 NOSIG RMK QBB160 QFE731/0975,UATT,2025-08-16T01:00:00Z,50.248,57.203,14,13,270,8,,6+,29.59,,,,,,TRUE,,,,,BKN,500,,,,,,,IFR,,,,,,,,,,,,METAR,217
UATG 160100Z 29004MPS CAVOK 15/10 Q1007 NOSIG RMK QFE757/1010,UATG,2025-08-16T01:00:00Z,47.122,51.829,15,10,290,8,,6+,29.73,,,,,,TRUE,,,,,CAVOK,,,,,,,,VFR,,,,,,,,,,,,METAR,-23
UATE 160100Z 25004MPS CAVOK 18/16 Q1011 NOSIG RMK QFE757/1009,UATE,2025-08-16T01:00:00Z,43.86,51.092,18,16,250,8,,6+,29.85,,,,,,TRUE,,,,,CAVOK,,,,,,,,VFR,,,,,,,,,,,,METAR,21
UASS 160100Z 22005MPS CAVOK 18/12 Q1005 NOSIG RMK QFE735/0980,UASS,2025-08-16T01:00:00Z,50.352,80.228,18,12,220,10,,6+,29.68,,,,,,TRUE,,,,,CAVOK,,,,,,,,VFR,,,,,,,,,,,,METAR,215
UASP 160100Z 18001MPS 9999 FEW050CB 14/13 Q1002 NOSIG RMK QFE740/0987,UASP,2025-08-16T01:00:00Z,52.202,77.078,14,13,180,2,,6+,29.59,,,,,,TRUE,,,,,FEW,5000,,,,,,,VFR,,,,,,,,,,,,METAR,122
UASK 160100Z 15003MPS 3000 BR FEW040CB BKN084 17/16 Q1007 NOSIG RMK QFE730/0973,UASK,2025-08-16T01:00:00Z,50.027,82.5,17,16,150,6,,1.86,29.73,,,,,,TRUE,,,,BR,FEW,4000,BKN,8400,,,,,IFR,,,,,,,,,,,,METAR,285
UARR 160100Z 30003MPS CAVOK 12/12 Q1005 NOSIG RMK QFE750/1001,UARR,2025-08-16T01:00:00Z,51.151,51.541,12,12,300,6,,6+,29.68,,,,,,TRUE,,,,,CAVOK,,,,,,,,VFR,,,,,,,,,,,,METAR,33
UAOO 160100Z 22003MPS 9999 SCT040CB 18/07 Q1004 NOSIG RMK QFE741/0989,UAOO,2025-08-16T01:00:00Z,44.707,65.593,18,7,220,6,,6+,29.65,,,,,,TRUE,,,,,SCT,4000,,,,,,,VFR,,,,,,,,,,,,METAR,130
UAKK 160100Z 21005MPS CAVOK 13/11 Q1005 NOSIG RMK QFE707/0943,UAKK,2025-08-16T01:00:00Z,49.672,73.333,13,11,210,10,,6+,29.68,,,,,,TRUE,,,,,CAVOK,,,,,,,,VFR,,,,,,,,,,,,METAR,532
UAKD 160100Z 22003MPS 9999 SCT050CB 14/07 Q1003 NOSIG RMK QFE719/0959,UAKD,2025-08-16T01:00:00Z,47.711,67.739,14,7,220,6,,6+,29.62,,,,,,TRUE,,,,,SCT,5000,,,,,,,VFR,,,,,,,,,,,,METAR,379
UAIT 160100Z 07005MPS CAVOK 18/05 Q1007 NOSIG RMK QFE730/0974,UAIT,2025-08-16T01:00:00Z,43.311,68.55,18,5,70,10,,6+,29.73,,,,,,TRUE,,,,,CAVOK,,,,,,,,VFR,,,,,,,,,,,,METAR,301
UAII 160100Z 12004MPS CAVOK 20/06 Q1008 NOSIG RMK QFE721/0961,UAII,2025-08-16T01:00:00Z,42.366,69.476,20,6,120,8,,6+,29.76,,,,,,TRUE,,,,,CAVOK,,,,,,,,VFR,,,,,,,,,,,,METAR,410
UADD 160100Z 20006MPS 9999 NSC 17/06 Q1009 NOSIG RMK QFE700/0934,UADD,2025-08-16T01:00:00Z,42.854,71.304,17,6,200,12,,6+,29.79,,,,,,TRUE,,,,,CLR,,,,,,,,VFR,,,,,,,,,,,,METAR,663
UACK 160100Z 17004MPS CAVOK 12/11 Q1000 NOSIG RMK QFE726/0968,UACK,2025-08-16T01:00:00Z,53.332,69.594,12,11,170,8,,6+,29.53,,,,,,TRUE,,,,,CAVOK,,,,,,,,VFR,,,,,,,,,,,,METAR,261
UACC 160100Z 20002MPS 5000 BR SCT046 13/12 Q1002 TEMPO 2000 BR SCT011 RMK QFE721/0961,UACC,2025-08-16T01:00:00Z,51.024,71.468,13,12,200,4,,3.11,29.59,,,,,,,,,,BR,SCT,4600,,,,,,,MVFR,,,,,,,,,,,,METAR,354
UAAA 160100Z 00000MPS 9999 NSC 20/09 Q1009 NOSIG,UAAA,2025-08-16T01:00:00Z,43.35,77.027,20,9,0,0,,6+,29.79,,,,,,TRUE,,,,,CLR,,,,,,,,VFR,,,,,,,,,,,,METAR,673
TVSA 160100Z 00000KT 9999 SCT018 27/25 Q1013 NOSIG ,TVSA,2025-08-16T01:00:00Z,13.156,-61.15,27,25,0,0,,6+,29.91,,,,,,TRUE,,,,,SCT,1800,,,,,,,VFR,,,,,,,,,,,,METAR,3
TTPP 160100Z 00000KT 9999 VCTS VCSH FEW010CB 25/25 Q1014 NOSIG RMK CB SW,TTPP,2025-08-16T01:00:00Z,10.593,-61.348,25,25,0,0,,6+,29.94,,,,,,TRUE,,,,VCTS VCSH,FEW,1000,,,,,,,VFR,,,,,,,,,,,,METAR,11
TTCP 160100Z 00000KT 9999 FEW016 27/25 Q1013 NOSIG,TTCP,2025-08-16T01:00:00Z,11.149,-60.836,27,25,0,0,,6+,29.91,,,,,,TRUE,,,,,FEW,1600,,,,,,,VFR,,,,,,,,,,,,METAR,13
TNCM 160100Z 36008KT 320V030 9999 VCSH FEW014 BKN032 27/26 Q1012 NOSIG RMK VCSH W NW,TNCM,2025-08-16T01:00:00Z,18.041,-63.109,27,26,360,8,,6+,29.88,,,,,,TRUE,,,,VCSH,FEW,1400,BKN,3200,,,,,VFR,,,,,,,,,,,,METAR,9
TNCC 160100Z 08010KT 9999 FEW018 29/26 Q1012 NOSIG,TNCC,2025-08-16T01:00:00Z,12.189,-68.96,29,26,80,10,,6+,29.88,,,,,,TRUE,,,,,FEW,1800,,,,,,,VFR,,,,,,,,,,,,METAR,10
TNCA 160100Z 09011KT 9999 FEW017 29/24 Q1013 NOSIG,TNCA,2025-08-16T01:00:00Z,12.501,-70.015,29,24,90,11,,6+,29.91,,,,,,TRUE,,,,,FEW,1700,,,,,,,VFR,,,,,,,,,,,,METAR,7
TLPL 160100Z 00000KT 9999 SCT022 27/23 Q1013 NOSIG,TLPL,2025-08-16T01:00:00Z,13.743,-60.948,27,23,0,0,,6+,29.91,,,,,,TRUE,,,,,SCT,2200,,,,,,,VFR,,,,,,,,,,,,METAR,13
TKPK 160100Z 35005KT 9999 SCT016 27/25 Q1012,TKPK,2025-08-16T01:00:00Z,17.312,-62.72,27,25,350,5,,6+,29.88,,,,,,,,,,,SCT,1600,,,,,,,VFR,,,,,,,,,,,,METAR,62
TGPY 160100Z 00000KT 9999 FEW020 28/25 Q1013 NOSIG,TGPY,2025-08-16T01:00:00Z,12.006,-61.797,28,25,0,0,,6+,29.91,,,,,,TRUE,,,,,FEW,2000,,,,,,,VFR,,,,,,,,,,,,METAR,12
TFFR 160100Z AUTO VRB03KT CAVOK 27/24 Q1011 NOSIG,TFFR,2025-08-16T01:00:00Z,16.265,-61.532,27,24,VRB,3,,6+,29.85,,,TRUE,,,TRUE,,,,,CAVOK,,,,,,,,VFR,,,,,,,,,,,,METAR,6
TFFJ 160100Z AUTO 01014KT 9999 BKN017 OVC024 ///// Q1012,TFFJ,2025-08-16T01:00:00Z,17.904,-62.844,,,10,14,,6+,29.88,,,TRUE,,,,,,,,BKN,1700,OVC,2400,,,,,MVFR,,,,,,,,,,,,METAR,13
TFFF 160100Z AUTO 28008KT CAVOK 28/23 Q1012 NOSIG,TFFF,2025-08-16T01:00:00Z,14.591,-61.003,28,23,280,8,,6+,29.88,,,TRUE,,,TRUE,,,,,CAVOK,,,,,,,,VFR,,,,,,,,,,,,METAR,3
TBPB 160100Z 23006KT 9999 FEW020 28/22 Q1013 NOSIG,TBPB,2025-08-16T01:00:00Z,13.075,-59.492,28,22,230,6,,6+,29.91,,,,,,TRUE,,,,,FEW,2000,,,,,,,VFR,,,,,,,,,,,,METAR,55
TAPA 160100Z 32003KT 9999 SCT018 27/23 Q1012 NOSIG,TAPA,2025-08-16T01:00:00Z,17.135,-61.797,27,23,320,3,,6+,29.88,,,,,,TRUE,,,,,SCT,1800,,,,,,,VFR,,,,,,,,,,,,METAR,15
SYCJ 160100Z 28004KT 7000 BR FEW016 24/24 Q1014 NOSIG,SYCJ,2025-08-16T01:00:00Z,6.499,-58.254,24,24,280,4,,4.35,29.94,,,,,,TRUE,,,,BR,FEW,1600,,,,,,,MVFR,,,,,,,,,,,,METAR,30
SVMI 160100Z 25005KT 9999 BKN016 26/25 Q1014,SVMI,2025-08-16T01:00:00Z,10.603,-66.991,26,25,250,5,,6+,29.94,,,,,,,,,,,BKN,1600,,,,,,,MVFR,,,,,,,,,,,,METAR,48
SVBC 160100Z 00000KT 9000 -DZ OVC010 26/XX Q1013,SVBC,2025-08-16T01:00:00Z,10.107,-64.689,26,,0,0,,5.59,29.91,,,,,,,,,,-DZ,OVC,1000,,,,,,,MVFR,,,,,,,,,,,,METAR,7
SURV 160100Z 15010KT 9999 OVC013 12/07 Q1023,SURV,2025-08-16T01:00:00Z,-30.97,-55.474,12,7,150,10,,6+,30.21,,,,,,,,,,,OVC,1300,,,,,,,MVFR,,,,,,,,,,,,METAR,201
SUPU 160100Z AUTO 09005KT //// ////// 08/05 Q1023,SUPU,2025-08-16T01:00:00Z,-32.362,-58.067,8,5,90,5,,,30.21,,,TRUE,,,,,,,,,,,,,,,,,,,,,,,,,,,,METAR,23
SUMU 160100Z 09011KT 9999 FEW016 08/07 Q1027 NOSIG,SUMU,2025-08-16T01:00:00Z,-34.838,-56.031,8,7,90,11,,6+,30.32,,,,,,TRUE,,,,,FEW,1600,,,,,,,VFR,,,,,,,,,,,,METAR,32
SUMO 160100Z AUTO 11012KT //// ////// 11/08 Q1025,SUMO,2025-08-16T01:00:00Z,-32.34,-54.224,11,8,110,12,,,30.27,,,TRUE,,,,,,,,,,,,,,,,,,,,,,,,,,,,METAR,113
SULS 160100Z 11008KT 9999 FEW026 07/04 Q1028,SULS,2025-08-16T01:00:00Z,-34.855,-55.094,7,4,110,8,,6+,30.35,,,,,,,,,,,FEW,2600,,,,,,,VFR,,,,,,,,,,,,METAR,22
SUCM 160100Z AUTO 11004KT 9999 NCD 05/05 Q1025,SUCM,2025-08-16T01:00:00Z,-33.967,-58.325,5,5,110,4,,6+,30.27,,,TRUE,,,,,,,,CLR,,,,,,,,VFR,,,,,,,,,,,,METAR,13
SUAA 160100Z 09009KT CAVOK 07/05 Q1027,SUAA,2025-08-16T01:00:00Z,-34.788,-56.263,7,5,90,9,,6+,30.32,,,,,,,,,,,CAVOK,,,,,,,,VFR,,,,,,,,,,,,METAR,48
SPYL 160100Z 17008KT CAVOK 18/16 Q1016 RMK BIRD HAZARD RWY 17/35 PP000,SPYL,2025-08-16T01:00:00Z,-4.577,-81.254,18,16,170,8,,6+,30.00,,,,,,,,,,,CAVOK,,,,,,,,VFR,,,,,,,,,,,,METAR,89
SPUR 160100Z 20007KT CAVOK 22/16 Q1015 RMK PP000,SPUR,2025-08-16T01:00:00Z,-5.206,-80.616,22,16,200,7,,6+,29.97,,,,,,,,,,,CAVOK,,,,,,,,VFR,,,,,,,,,,,,METAR,30
SPTN 160100Z 21005KT 9999 OVC025 14/11 Q1019 RMK PP000,SPTN,2025-08-16T01:00:00Z,-18.049,-70.277,14,11,210,5,,6+,30.09,,,,,,,,,,,OVC,2500,,,,,,,MVFR,,,,,,,,,,,,METAR,459
SPST 160100Z 26003KT 9999 FEW020 23/22 Q1015 RMK PP000,SPST,2025-08-16T01:00:00Z,-6.509,-76.373,23,22,260,3,,6+,29.97,,,,,,,,,,,FEW,2000,,,,,,,VFR,,,,,,,,,,,,METAR,282
SPSO 160100Z 22013KT 9999 OVC019 17/14 Q1017 RMK PP000,SPSO,2025-08-16T01:00:00Z,-13.744,-76.221,17,14,220,13,,6+,30.03,,,,,,,,,,,OVC,1900,,,,,,,MVFR,,,,,,,,,,,,METAR,8
SPRU 160100Z 15005KT 6000 BKN150 18/15 Q1016 RMK PP000,SPRU,2025-08-16T01:00:00Z,-8.087,-79.109,18,15,150,5,,3.73,30.00,,,,,,,,,,,BKN,15000,,,,,,,MVFR,,,,,,,,,,,,METAR,23
SPQU 160100Z 05003KT 020V080 CAVOK 11/M06 Q1029 RMK PP000,SPQU,2025-08-16T01:00:00Z,-16.341,-71.583,11,-6,50,3,,6+,30.38,,,,,,,,,,,CAVOK,,,,,,,,VFR,,,,,,,,,,,,METAR,2527
SPQT 160100Z VRB02KT 9999 BKN030 24/23 Q1014 NOSIG RMK PP000,SPQT,2025-08-16T01:00:00Z,-3.786,-73.306,24,23,VRB,2,,6+,29.94,,,,,,TRUE,,,,,BKN,3000,,,,,,,MVFR,,,,,,,,,,,,METAR,92
SPME 160100Z 33004KT 9999 OVC014 23/20 Q1015 RMK BIRD HAZARD RWY 32/14 PP000,SPME,2025-08-16T01:00:00Z,-3.551,-80.385,23,20,330,4,,6+,29.97,,,,,,,,,,,OVC,1400,,,,,,,MVFR,,,,,,,,,,,,METAR,26
SPJC 160100Z 17008KT 9999 BKN020 17/13 Q1017 NOSIG RMK PP000,SPJC,2025-08-16T01:00:00Z,-12.024,-77.113,17,13,170,8,,6+,30.03,,,,,,TRUE,,,,,BKN,2000,,,,,,,MVFR,,,,,,,,,,,,METAR,26
SPHI 160100Z 18013KT CAVOK 19/15 Q1015 RMK BIRD HAZARD RWY 19/01 PP000,SPHI,2025-08-16T01:00:00Z,-6.787,-79.828,19,15,180,13,,6+,29.97,,,,,,,,,,,CAVOK,,,,,,,,VFR,,,,,,,,,,,,METAR,33
SPCL 160100Z 27002KT 9999 SCT020 24/23 Q1014 RMK PP000,SPCL,2025-08-16T01:00:00Z,-8.378,-74.574,24,23,270,2,,6+,29.94,,,,,,,,,,,SCT,2000,,,,,,,VFR,,,,,,,,,,,,METAR,154
SOCA 160100Z AUTO 09007KT CAVOK 27/23 Q1014 NOSIG,SOCA,2025-08-16T01:00:00Z,4.822,-52.365,27,23,90,7,,6+,29.94,,,TRUE,,,TRUE,,,,,CAVOK,,,,,,,,VFR,,,,,,,,,,,,METAR,7
SMJP 160100Z 05004KT 9999 FEW010 FEW012CB 28/25 Q1012,SMJP,2025-08-16T01:00:00Z,5.453,-55.188,28,25,50,4,,6+,29.88,,,,,,,,,,,FEW,1000,FEW,1200,,,,,VFR,,,,,,,,,,,,METAR,14
SLVR 160100Z 25006KT 9999 NSC 19/12 Q1016,SLVR,2025-08-16T01:00:00Z,-17.645,-63.135,19,12,250,6,,6+,30.00,,,,,,,,,,,CLR,,,,,,,,VFR,,,,,,,,,,,,METAR,377
SLUY 160100Z 28011KT 9999 NSC 01/M20 Q1035,SLUY,2025-08-16T01:00:00Z,-20.446,-66.848,1,-20,280,11,,6+,30.56,,,,,,,,,,,CLR,,,,,,,,VFR,,,,,,,,,,,,METAR,3673
SLTJ 160100Z 23004KT 9999 NSC 13/08 Q1021,SLTJ,2025-08-16T01:00:00Z,-21.556,-64.701,13,8,230,4,,6+,30.15,,,,,,,,,,,CLR,,,,,,,,VFR,,,,,,,,,,,,METAR,1850
SLLP 160100Z 07006KT 9999 FEW015 BKN200 05/02 Q1038,SLLP,2025-08-16T01:00:00Z,-16.511,-68.182,5,2,70,6,,6+,30.65,,,,,,,,,,,FEW,1500,BKN,20000,,,,,VFR,,,,,,,,,,,,METAR,4061
SLCB 160100Z 32006KT 250V360 9999 FEW033 18/01 Q1025,SLCB,2025-08-16T01:00:00Z,-17.421,-66.179,18,1,320,6,,6+,30.27,,,,,,,,,,,FEW,3300,,,,,,,VFR,,,,,,,,,,,,METAR,2560
SLAL 160100Z 34007KT 9999 NSC 10/03 Q1029,SLAL,2025-08-16T01:00:00Z,-19.247,-65.15,10,3,340,7,,6+,30.38,,,,,,,,,,,CLR,,,,,,,,VFR,,,,,,,,,,,,METAR,3109
SKYP 160100Z 31002KT 9999 FEW020 25/21 Q1013,SKYP,2025-08-16T01:00:00Z,5.319,-72.384,25,21,310,2,,6+,29.91,,,,,,,,,,,FEW,2000,,,,,,,VFR,,,,,,,,,,,,METAR,312
SKVV 160100Z AUTO VRB01KT 9999NDV // OVC089/// 24/21 Q1015,SKVV,2025-08-16T01:00:00Z,4.162,-73.618,24,21,VRB,1,,,29.97,,,TRUE,,,,,,,,OVC,8900,,,,,,,,,,,,,,,,,,,METAR,421
SKVP 160100Z 26004KT 240V300 9999 VCTS BKN040CB 24/22 Q1015 RERA RMK CB VCTS/S,SKVP,2025-08-16T01:00:00Z,10.436,-73.248,24,22,260,4,,6+,29.97,,,,,,,,,,VCTS,BKN,4000,,,,,,,VFR,,,,,,,,,,,,METAR,137
SKUI 160100Z 01003KT 9999 SCT015 24/24 Q1014,SKUI,2025-08-16T01:00:00Z,5.691,-76.644,24,24,10,3,,6+,29.94,,,,,,,,,,,SCT,1500,,,,,,,VFR,,,,,,,,,,,,METAR,55
SKUC 160100Z 00000KT 9999 SCT020 26/25 Q1012,SKUC,2025-08-16T01:00:00Z,7.066,-70.735,26,25,0,0,,6+,29.88,,,,,,,,,,,SCT,2000,,,,,,,VFR,,,,,,,,,,,,METAR,127
SKTM 160100Z AUTO 27003KT CAVOK 24/22 Q1014,SKTM,2025-08-16T01:00:00Z,6.451,-71.76,24,22,270,3,,6+,29.94,,,TRUE,,,,,,,,CAVOK,,,,,,,,VFR,,,,,,,,,,,,METAR,361
SKSP 160100Z AUTO 04005KT 350V070 3200NDV // ////// 29/25 Q1014,SKSP,2025-08-16T01:00:00Z,12.587,-81.704,29,25,40,5,,,29.94,,,TRUE,,,,,,,,,,,,,,,,,,,,,,,,,,,,METAR,6
SKSM 160100Z 04005KT 350V090 9999 SCT020 30/24 Q1013,SKSM,2025-08-16T01:00:00Z,11.12,-74.231,30,24,40,5,,6+,29.91,,,,,,,,,,,SCT,2000,,,,,,,VFR,,,,,,,,,,,,METAR,5
SKSJ 160100Z AUTO 16005KT 110V210 9999 FEW009/// SCT010/// 23/22 Q1015,SKSJ,2025-08-16T01:00:00Z,2.574,-72.64,23,22,160,5,,6+,29.97,,,TRUE,,,,,,,,FEW,900,SCT,1000,,,,,VFR,,,,,,,,,,,,METAR,185
SKSA 160100Z AUTO 24002KT //// ////// 25/24 Q1013,SKSA,2025-08-16T01:00:00Z,6.955,-71.86,25,24,240,2,,,29.91,,,TRUE,,,,,,,,,,,,,,,,,,,,,,,,,,,,METAR,207
SKRH 160100Z AUTO 01005KT 320V040 //// R10///// // ////// 29/25 Q1012,SKRH,2025-08-16T01:00:00Z,11.528,-72.918,29,25,10,5,,,29.88,,,TRUE,,,,,,,,,,,,,,,,,,,,,,,,,,,,METAR,11
SKRG 160100Z 22004KT 9999 SCT025 16/14 Q1027,SKRG,2025-08-16T01:00:00Z,6.169,-75.426,16,14,220,4,,6+,30.32,,,,,,,,,,,SCT,2500,,,,,,,VFR,,,,,,,,,,,,METAR,2132
SKQU 160100Z AUTO 00000KT 9999 SCT069/// OVC140/// 25/23 Q1013,SKQU,2025-08-16T01:00:00Z,5.213,-74.884,25,23,0,0,,6+,29.91,,,TRUE,,,,,,,,SCT,6900,OVC,14000,,,,,VFR,,,,,,,,,,,,METAR,467
SKPV 160100Z AUTO VRB02KT 9999NDV // SCT018/// BKN021/// BKN052/// 29/26 Q1014,SKPV,2025-08-16T01:00:00Z,13.358,-81.358,29,26,VRB,2,,,29.94,,,TRUE,,,,,,,,SCT,1800,BKN,2100,BKN,5200,,,,,,,,,,,,,,,METAR,7
SKPS 160100Z AUTO 02003KT 350V050 9999 FEW003/// 16/15 Q1023,SKPS,2025-08-16T01:00:00Z,1.394,-77.291,16,15,20,3,,6+,30.21,,,TRUE,,,,,,,,FEW,300,,,,,,,VFR,,,,,,,,,,,,METAR,1798
SKPP 160100Z AUTO VRB02KT //// ////// 17/16 Q1023,SKPP,2025-08-16T01:00:00Z,2.453,-76.609,17,16,VRB,2,,,30.21,,,TRUE,,,,,,,,,,,,,,,,,,,,,,,,,,,,METAR,1726
SKPE 160100Z 12007KT 9999 RA SCT020 BKN070 19/17 Q1021,SKPE,2025-08-16T01:00:00Z,4.814,-75.735,19,17,120,7,,6+,30.15,,,,,,,,,,RA,SCT,2000,BKN,7000,,,,,VFR,,,,,,,,,,,,METAR,1341
SKPD 160100Z AUTO 17002KT //// NCD 26/25 Q1013,SKPD,2025-08-16T01:00:00Z,3.854,-67.906,26,25,170,2,,,29.91,,,TRUE,,,,,,,,CLR,,,,,,,,,,,,,,,,,,,,METAR,140
SKPC 160100Z AUTO 09005KT CAVOK 26/24 Q1013,SKPC,2025-08-16T01:00:00Z,6.184,-67.491,26,24,90,5,,6+,29.91,,,TRUE,,,,,,,,CAVOK,,,,,,,,VFR,,,,,,,,,,,,METAR,51
SKNV 160100Z 18006KT 150V220 9999 SCT060 28/17 Q1013,SKNV,2025-08-16T01:00:00Z,2.949,-75.294,28,17,180,6,,6+,29.91,,,,,,,,,,,SCT,6000,,,,,,,VFR,,,,,,,,,,,,METAR,449
SKMZ 160100Z AUTO VRB02KT 0450NDV R10/1200N +DZ OVC000/// 15/15 Q1029,SKMZ,2025-08-16T01:00:00Z,5.03,-75.47,15,15,VRB,2,,0.75,30.38,,,TRUE,,,,,,,+DZ,OVC,0,,,,,,,LIFR,,,,,,,,,,,,METAR,2075
SKMU 160100Z AUTO VRB02KT CAVOK 24/23 Q1013,SKMU,2025-08-16T01:00:00Z,1.117,-70.083,24,23,VRB,2,,6+,29.91,,,TRUE,,,,,,,,CAVOK,,,,,,,,VFR,,,,,,,,,,,,METAR,207
SKMR 160100Z 32004KT 9999 SCT020CB 26/24 Q1012 RMK CB/SW,SKMR,2025-08-16T01:00:00Z,8.826,-75.825,26,24,320,4,,6+,29.88,,,,,,,,,,,SCT,2000,,,,,,,VFR,,,,,,,,,,,,METAR,12
SKLT 160100Z AUTO 36001KT CAVOK 25/24 Q1011,SKLT,2025-08-16T01:00:00Z,-4.196,-69.943,25,24,360,1,,6+,29.85,,,TRUE,,,,,,,,CAVOK,,,,,,,,VFR,,,,,,,,,,,,METAR,78
SKLC 160100Z 15008KT 130V210 9999 DZ BKN020 23/23 Q1014,SKLC,2025-08-16T01:00:00Z,7.817,-76.718,23,23,150,8,,6+,29.94,,,,,,,,,,DZ,BKN,2000,,,,,,,MVFR,,,,,,,,,,,,METAR,20
SKIP 160100Z AUTO 01004KT CAVOK 08/08 Q1031,SKIP,2025-08-16T01:00:00Z,0.858,-77.677,8,8,10,4,,6+,30.44,,,TRUE,,,,,,,,CAVOK,,,,,,,,VFR,,,,,,,,,,,,METAR,2964
SKIB 160100Z VRB02KT 9999 FEW080 OVC110 24/19 Q1016,SKIB,2025-08-16T01:00:00Z,4.418,-75.13,24,19,VRB,2,,6+,30.00,,,,,,,,,,,FEW,8000,OVC,11000,,,,,VFR,,,,,,,,,,,,METAR,899
SKGY 160100Z AUTO 23004KT CAVOK 13/11 Q1029,SKGY,2025-08-16T01:00:00Z,4.812,-74.065,13,11,230,4,,6+,30.38,,,TRUE,,,,,,,,CAVOK,,,,,,,,VFR,,,,,,,,,,,,METAR,2557
SKGO 160100Z AUTO VRB01KT //// OVC080/// 21/20 Q1019,SKGO,2025-08-16T01:00:00Z,4.758,-75.956,21,20,VRB,1,,,30.09,,,TRUE,,,,,,,,OVC,8000,,,,,,,,,,,,,,,,,,,METAR,908
SKFL 160100Z 02004KT 340V070 9999 SCT060 23/21 Q1015,SKFL,2025-08-16T01:00:00Z,1.589,-75.564,23,21,20,4,,6+,29.97,,,,,,,,,,,SCT,6000,,,,,,,VFR,,,,,,,,,,,,METAR,244
SKEJ 160100Z AUTO 04004KT 010V070 //// R04///// // ////// 28/23 Q1011,SKEJ,2025-08-16T01:00:00Z,7.026,-73.809,28,23,40,4,,,29.85,,,TRUE,,,,,,,,,,,,,,,,,,,,,,,,,,,,METAR,123
SKCZ 160100Z 32003KT 290V350 9999 FEW030 25/24 Q1012,SKCZ,2025-08-16T01:00:00Z,9.334,-75.283,25,24,320,3,,6+,29.88,,,,,,,,,,,FEW,3000,,,,,,,VFR,,,,,,,,,,,,METAR,81
SKCO 160100Z AUTO 24004KT 190V260 //// ////// 25/22 Q1014,SKCO,2025-08-16T01:00:00Z,1.814,-78.749,25,22,240,4,,,29.94,,,TRUE,,,,,,,,,,,,,,,,,,,,,,,,,,,,METAR,6
SKCL 160100Z 20003KT 150V270 9999 BKN030 21/19 Q1019,SKCL,2025-08-16T01:00:00Z,3.543,-76.382,21,19,200,3,,6+,30.09,,,,,,,,,,,BKN,3000,,,,,,,MVFR,,,,,,,,,,,,METAR,967
SKCG 160100Z 22006KT 180V240 9999 BKN020 29/25 Q1012,SKCG,2025-08-16T01:00:00Z,10.447,-75.516,29,25,220,6,,6+,29.88,,,,,,,,,,,BKN,2000,,,,,,,MVFR,,,,,,,,,,,,METAR,6
SKCC 160100Z 20002KT 9999 SCT040 28/21 Q1014,SKCC,2025-08-16T01:00:00Z,7.93,-72.509,28,21,200,2,,6+,29.94,,,,,,,,,,,SCT,4000,,,,,,,VFR,,,,,,,,,,,,METAR,308
SKBS 160100Z AUTO VRB01KT //// OVC041/// 23/23 Q1014,SKBS,2025-08-16T01:00:00Z,6.203,-77.395,23,23,VRB,1,,,29.94,,,TRUE,,,,,,,,OVC,4100,,,,,,,,,,,,,,,,,,,METAR,24
SKBQ 160100Z VRB02KT CAVOK 25/24 Q1013,SKBQ,2025-08-16T01:00:00Z,10.883,-74.78,25,24,VRB,2,,6+,29.91,,,,,,,,,,,CAVOK,,,,,,,,VFR,,,,,,,,,,,,METAR,23
SKBO 160100Z VRB02KT 9999 SCT030 OVC040 13/12 Q1029 NOSIG,SKBO,2025-08-16T01:00:00Z,4.706,-74.151,13,12,VRB,2,,6+,30.38,,,,,,TRUE,,,,,SCT,3000,OVC,4000,,,,,VFR,,,,,,,,,,,,METAR,2547
SKBG 160100Z 31003KT 260V340 9999 SCT020 20/19 Q1018,SKBG,2025-08-16T01:00:00Z,7.127,-73.185,20,19,310,3,,6+,30.06,,,,,,,,,,,SCT,2000,,,,,,,VFR,,,,,,,,,,,,METAR,1187
SKAS 160100Z 00000KT CAVOK 24/22 Q1014,SKAS,2025-08-16T01:00:00Z,0.505,-76.501,24,22,0,0,,6+,29.94,,,,,,,,,,,CAVOK,,,,,,,,VFR,,,,,,,,,,,,METAR,251
SKAR 160100Z VRB02KT 9999 4900SW BCFG FEW030 OVC060 19/18 Q1020,SKAR,2025-08-16T01:00:00Z,4.455,-75.766,19,18,VRB,2,,6+,30.12,,,,,,,,,,BCFG,FEW,3000,OVC,6000,,,,,VFR,,,,,,,,,,,,METAR,1214
SGES 160100Z 00000KT CAVOK 16/12 Q1018,SGES,2025-08-16T01:00:00Z,-25.461,-54.849,16,12,0,0,,6+,30.06,,,,,,,,,,,CAVOK,,,,,,,,VFR,,,,,,,,,,,,METAR,256
SGEN 160100Z 00000KT CAVOK 15/12 Q1018,SGEN,2025-08-16T01:00:00Z,-27.221,-55.834,15,12,0,0,,6+,30.06,,,,,,,,,,,CAVOK,,,,,,,,VFR,,,,,,,,,,,,METAR,202
SGAS 160100Z 21003KT CAVOK 15/13 Q1017,SGAS,2025-08-16T01:00:00Z,-25.248,-57.519,15,13,210,3,,6+,30.03,,,,,,,,,,,CAVOK,,,,,,,,VFR,,,,,,,,,,,,METAR,83
SERO 160100Z 30003KT 9999 SCT013 OVC023 23/21 Q1015 RMK A2999,SERO,2025-08-16T01:00:00Z,-3.435,-79.978,23,21,300,3,,6+,29.97,,,,,,,,,,,SCT,1300,OVC,2300,,,,,MVFR,,,,,,,,,,,,METAR,6
SEQM 160100Z 01006KT 9999 BKN005 12/11 Q1028 NOSIG RMK A3037,SEQM,2025-08-16T01:00:00Z,-0.124,-78.354,12,11,10,6,,6+,30.35,,,,,,TRUE,,,,,BKN,500,,,,,,,IFR,,,,,,,,,,,,METAR,2386
SEMT 160100Z 20008KT 9999 OVC023 22/19 Q1014 RMK A2994,SEMT,2025-08-16T01:00:00Z,-0.946,-80.679,22,19,200,8,,6+,29.94,,,,,,,,,,,OVC,2300,,,,,,,MVFR,,,,,,,,,,,,METAR,13
SELT 160100Z 20007KT 9999 BKN030 10/06 Q1032,SELT,2025-08-16T01:00:00Z,-0.921,-78.619,10,6,200,7,,6+,30.47,,,,,,,,,,,BKN,3000,,,,,,,MVFR,,,,,,,,,,,,METAR,2779
SEGU 160100Z 20010KT 9999 SCT023 BKN100 25/20 Q1014 NOSIG RMK A2995,SEGU,2025-08-16T01:00:00Z,-2.158,-79.884,25,20,200,10,,6+,29.94,,,,,,TRUE,,,,,SCT,2300,BKN,10000,,,,,VFR,,,,,,,,,,,,METAR,6
SECU 160100Z 07004KT 9999 OVC040 14/09 Q1028,SECU,2025-08-16T01:00:00Z,-2.889,-78.984,14,9,70,4,,6+,30.35,,,,,,,,,,,OVC,4000,,,,,,,VFR,,,,,,,,,,,,METAR,2516
SCVM 160100Z 01007KT 9999 SCT023 13/09 Q1021,SCVM,2025-08-16T01:00:00Z,-32.947,-71.479,13,9,10,7,,6+,30.15,,,,,,,,,,,SCT,2300,,,,,,,VFR,,,,,,,,,,,,METAR,136
SCVD 160100Z AUTO 02001KT 9999 SCT041 09/09 Q1019,SCVD,2025-08-16T01:00:00Z,-39.65,-73.086,9,9,20,1,,6+,30.09,,,TRUE,,,,,,,,SCT,4100,,,,,,,VFR,,,,,,,,,,,,METAR,19
SCTN 160100Z AUTO 01003KT 330V050 9999 SCT043 BKN049 07/07 Q1018,SCTN,2025-08-16T01:00:00Z,-42.933,-72.699,7,7,10,3,,6+,30.06,,,TRUE,,,,,,,,SCT,4300,BKN,4900,,,,,VFR,,,,,,,,,,,,METAR,8
SCTE 160100Z 01004KT 9999 OVC050 11/09 Q1018 NOSIG,SCTE,2025-08-16T01:00:00Z,-41.439,-73.094,11,9,10,4,,6+,30.06,,,,,,TRUE,,,,,OVC,5000,,,,,,,VFR,,,,,,,,,,,,METAR,85
SCSN 160100Z AUTO 01006KT 320V030 9999 OVC023 14/10 Q1021,SCSN,2025-08-16T01:00:00Z,-33.656,-71.615,14,10,10,6,,6+,30.15,,,TRUE,,,,,,,,OVC,2300,,,,,,,MVFR,,,,,,,,,,,,METAR,73
SCSE 160100Z 08005KT 9999 FEW060 12/09 Q1021,SCSE,2025-08-16T01:00:00Z,-29.918,-71.201,12,9,80,5,,6+,30.15,,,,,,,,,,,FEW,6000,,,,,,,VFR,,,,,,,,,,,,METAR,141
SCQP 160100Z 07003KT 9999 FEW040 11/10 Q1019,SCQP,2025-08-16T01:00:00Z,-38.925,-72.648,11,10,70,3,,6+,30.09,,,,,,,,,,,FEW,4000,,,,,,,VFR,,,,,,,,,,,,METAR,97
SCPQ 160100Z AUTO 34007KT 9999 // OVC014 10/09 Q1017,SCPQ,2025-08-16T01:00:00Z,-42.347,-73.718,10,9,340,7,,6+,30.03,,,TRUE,,,,,,,,OVC,1400,,,,,,,MVFR,,,,,,,,,,,,METAR,166
SCPD 160100Z AUTO 09003KT //// ///////// 10/08 Q1021,SCPD,2025-08-16T01:00:00Z,-33.1173,-70.6838,10,8,90,3,,,30.15,,,TRUE,,,,,,,,,,,,,,,,,,,,,,,,,,,,METAR,360
SCJO 160100Z AUTO 08002KT 9999 BKN042/// BKN065/// 11/08 Q1018,SCJO,2025-08-16T01:00:00Z,-40.605,-73.061,11,8,80,2,,6+,30.06,,,TRUE,,,,,,,,BKN,4200,BKN,6500,,,,,VFR,,,,,,,,,,,,METAR,61
SCIP 160100Z 10015KT 9999 BKN030 18/12 Q1029 NOSIG,SCIP,2025-08-16T01:00:00Z,-27.161,-109.427,18,12,100,15,,6+,30.38,,,,,,TRUE,,,,,BKN,3000,,,,,,,MVFR,,,,,,,,,,,,METAR,48
SCIE 160100Z 02005KT 9999 BKN031 OVC035 13/11 Q1019,SCIE,2025-08-16T01:00:00Z,-36.773,-73.063,13,11,20,5,,6+,30.09,,,,,,,,,,,BKN,3100,OVC,3500,,,,,VFR,,,,,,,,,,,,METAR,8
SCIC 160100Z AUTO 34005KT 300V030 //// R/////// // FEW048 13/09 Q1020,SCIC,2025-08-16T01:00:00Z,-34.966,-71.217,13,9,340,5,,,30.12,,,TRUE,,,,,,,,FEW,4800,,,,,,,,,,,,,,,,,,,METAR,230
SCGZ 160100Z AUTO 14003KT 060V220 9999 NCD 02/M01 Q1013,SCGZ,2025-08-16T01:00:00Z,-54.932,-67.631,2,-1,140,3,,6+,29.91,,,TRUE,,,,,,,,CLR,,,,,,,,VFR,,,,,,,,,,,,METAR,21
SCFT 160100Z AUTO VRB02KT 9999 SCT055/// 05/04 Q1017,SCFT,2025-08-16T01:00:00Z,-43.189,-71.853,5,4,VRB,2,,6+,30.03,,,TRUE,,,,,,,,SCT,5500,,,,,,,VFR,,,,,,,,,,,,METAR,345
SCFA 160100Z 20008KT 9999 FEW025 14/11 Q1018 NOSIG,SCFA,2025-08-16T01:00:00Z,-23.45,-70.441,14,11,200,8,,6+,30.06,,,,,,TRUE,,,,,FEW,2500,,,,,,,VFR,,,,,,,,,,,,METAR,113
SCEL 160100Z 16005KT 9999 SCT030 BKN060 11/09 Q1020 NOSIG,SCEL,2025-08-16T01:00:00Z,-33.393,-70.786,11,9,160,5,,6+,30.12,,,,,,TRUE,,,,,SCT,3000,BKN,6000,,,,,VFR,,,,,,,,,,,,METAR,478
SCDA 160100Z 20011KT 9999 SCT025 16/11 Q1017,SCDA,2025-08-16T01:00:00Z,-20.535,-70.181,16,11,200,11,,6+,30.03,,,,,,,,,,,SCT,2500,,,,,,,VFR,,,,,,,,,,,,METAR,41
SCCI 160100Z 17005KT 9999 SCT014 OVC016 03/01 Q1014 NOSIG,SCCI,2025-08-16T01:00:00Z,-53.003,-70.855,3,1,170,5,,6+,29.94,,,,,,TRUE,,,,,SCT,1400,OVC,1600,,,,,MVFR,,,,,,,,,,,,METAR,37
SCCH 160100Z AUTO 06005KT 9999 -RA NCD 12/11 Q1020,SCCH,2025-08-16T01:00:00Z,-36.583,-72.031,12,11,60,5,,6+,30.12,,,TRUE,,,,,,,-RA,CLR,,,,,,,,VFR,,,,,,,,,,,,METAR,148
SCCF 160100Z 23011KT CAVOK 11/M09 Q1028,SCCF,2025-08-16T01:00:00Z,-22.496,-68.905,11,-9,230,11,,6+,30.35,,,,,,,,,,,CAVOK,,,,,,,,VFR,,,,,,,,,,,,METAR,2290
SCAT 160100Z 18004KT CAVOK 13/10 Q1019,SCAT,2025-08-16T01:00:00Z,-27.262,-70.774,13,10,180,4,,6+,30.09,,,,,,,,,,,CAVOK,,,,,,,,VFR,,,,,,,,,,,,METAR,209
SCAR 160100Z 20007KT 9999 OVC023 17/12 Q1018,SCAR,2025-08-16T01:00:00Z,-18.351,-70.336,17,12,200,7,,6+,30.06,,,,,,,,,,,OVC,2300,,,,,,,MVFR,,,,,,,,,,,,METAR,57
SBYS 160100Z 18008KT CAVOK 17/12 Q1022,SBYS,2025-08-16T01:00:00Z,-21.982,-47.34,17,12,180,8,,6+,30.18,,,,,,,,,,,CAVOK,,,,,,,,VFR,,,,,,,,,,,,METAR,600
SBVT 160100Z 25004KT 9999 SCT030 BKN050 21/16 Q1024,SBVT,2025-08-16T01:00:00Z,-20.258,-40.286,21,16,250,4,,6+,30.24,,,,,,,,,,,SCT,3000,BKN,5000,,,,,VFR,,,,,,,,,,,,METAR,4
SBUR 160100Z 15007KT CAVOK 23/08 Q1021,SBUR,2025-08-16T01:00:00Z,-19.765,-47.965,23,8,150,7,,6+,30.15,,,,,,,,,,,CAVOK,,,,,,,,VFR,,,,,,,,,,,,METAR,807
SBUL 160100Z 10005KT CAVOK 22/09 Q1022,SBUL,2025-08-16T01:00:00Z,-18.883,-48.226,22,9,100,5,,6+,30.18,,,,,,,,,,,CAVOK,,,,,,,,VFR,,,,,,,,,,,,METAR,945
SBTE 160100Z 00000KT CAVOK 30/20 Q1012,SBTE,2025-08-16T01:00:00Z,-5.06,-42.824,30,20,0,0,,6+,29.88,,,,,,,,,,,CAVOK,,,,,,,,VFR,,,,,,,,,,,,METAR,60
SBTC 160100Z 19004KT 9999 SCT025 SCT070 22/19 Q1022,SBTC,2025-08-16T01:00:00Z,-15.355,-38.999,22,19,190,4,,6+,30.18,,,,,,,,,,,SCT,2500,SCT,7000,,,,,VFR,,,,,,,,,,,,METAR,6
SBTA 160100Z 16006KT 7000 OVC032 16/12 Q1025,SBTA,2025-08-16T01:00:00Z,-23.04,-45.516,16,12,160,6,,4.35,30.27,,,,,,,,,,,OVC,3200,,,,,,,MVFR,,,,,,,,,,,,METAR,578
SBSV 160100Z 12007KT 9999 FEW026 BKN050 24/20 Q1020,SBSV,2025-08-16T01:00:00Z,-12.911,-38.331,24,20,120,7,,6+,30.12,,,,,,,,,,,FEW,2600,BKN,5000,,,,,VFR,,,,,,,,,,,,METAR,9
SBSR 160100Z 17009KT CAVOK 22/07 Q1020,SBSR,2025-08-16T01:00:00Z,-20.817,-49.407,22,7,170,9,,6+,30.12,,,,,,,,,,,CAVOK,,,,,,,,VFR,,,,,,,,,,,,METAR,537
SBSP 160100Z 13008KT 9999 SCT011 BKN017 14/12 Q1026,SBSP,2025-08-16T01:00:00Z,-23.627,-46.655,14,12,130,8,,6+,30.30,,,,,,,,,,,SCT,1100,BKN,1700,,,,,MVFR,,,,,,,,,,,,METAR,802
SBSN 160100Z 14004KT CAVOK 26/24 Q1013,SBSN,2025-08-16T01:00:00Z,-2.423,-54.789,26,24,140,4,,6+,29.91,,,,,,,,,,,CAVOK,,,,,,,,VFR,,,,,,,,,,,,METAR,57
SBSM 160100Z 11012KT 9999 BKN017 OVC025 14/10 Q1022,SBSM,2025-08-16T01:00:00Z,-29.711,-53.688,14,10,110,12,,6+,30.18,,,,,,,,,,,BKN,1700,OVC,2500,,,,,MVFR,,,,,,,,,,,,METAR,86
SBSL 160100Z 06012KT 9999 SCT017 27/25 Q1014,SBSL,2025-08-16T01:00:00Z,-2.585,-44.234,27,25,60,12,,6+,29.94,,,,,,,,,,,SCT,1700,,,,,,,VFR,,,,,,,,,,,,METAR,53
SBSJ 160100Z 11007KT 9999 BKN040 16/14 Q1025,SBSJ,2025-08-16T01:00:00Z,-23.229,-45.861,16,14,110,7,,6+,30.27,,,,,,,,,,,BKN,4000,,,,,,,VFR,,,,,,,,,,,,METAR,640
SBSG 160100Z 17004KT 150V220 9999 FEW020 BKN070 22/21 Q1018,SBSG,2025-08-16T01:00:00Z,-5.768,-35.376,22,21,170,4,,6+,30.06,,,,,,,,,,,FEW,2000,BKN,7000,,,,,VFR,,,,,,,,,,,,METAR,83
SBSC 160100Z 09002KT 9999 BKN040 19/15 Q1025,SBSC,2025-08-16T01:00:00Z,-22.932,-43.719,19,15,90,2,,6+,30.27,,,,,,,,,,,BKN,4000,,,,,,,VFR,,,,,,,,,,,,METAR,6
SBRP 160100Z 14005KT 110V170 CAVOK 21/09 Q1020,SBRP,2025-08-16T01:00:00Z,-21.134,-47.774,21,9,140,5,,6+,30.12,,,,,,,,,,,CAVOK,,,,,,,,VFR,,,,,,,,,,,,METAR,550
SBRJ 160100Z 08004KT 040V120 9999 FEW013 BKN030 20/16 Q1024,SBRJ,2025-08-16T01:00:00Z,-22.91,-43.163,20,16,80,4,,6+,30.24,,,,,,,,,,,FEW,1300,BKN,3000,,,,,MVFR,,,,,,,,,,,,METAR,6
SBRB 160100Z 14003KT CAVOK 26/13 Q1013,SBRB,2025-08-16T01:00:00Z,-9.867,-67.897,26,13,140,3,,6+,29.91,,,,,,,,,,,CAVOK,,,,,,,,VFR,,,,,,,,,,,,METAR,190
SBPV 160100Z 00000KT CAVOK 26/16 Q1012,SBPV,2025-08-16T01:00:00Z,-8.708,-63.901,26,16,0,0,,6+,29.88,,,,,,,,,,,CAVOK,,,,,,,,VFR,,,,,,,,,,,,METAR,89
SBPS 160100Z 16006KT 9999 SCT025 23/19 Q1022,SBPS,2025-08-16T01:00:00Z,-16.439,-39.081,23,19,160,6,,6+,30.18,,,,,,,,,,,SCT,2500,,,,,,,VFR,,,,,,,,,,,,METAR,44
SBPL 160100Z 16003KT CAVOK 26/15 Q1019,SBPL,2025-08-16T01:00:00Z,-9.367,-40.565,26,15,160,3,,6+,30.09,,,,,,,,,,,CAVOK,,,,,,,,VFR,,,,,,,,,,,,METAR,386
SBPJ 160100Z 11005KT CAVOK 26/15 Q1015,SBPJ,2025-08-16T01:00:00Z,-10.291,-48.357,26,15,110,5,,6+,29.97,,,,,,,,,,,CAVOK,,,,,,,,VFR,,,,,,,,,,,,METAR,226
SBPA 160100Z 11012KT 9999 FEW010 BKN055 14/12 Q1024,SBPA,2025-08-16T01:00:00Z,-29.994,-51.171,14,12,110,12,,6+,30.24,,,,,,,,,,,FEW,1000,BKN,5500,,,,,VFR,,,,,,,,,,,,METAR,3
SBOI 160100Z AUTO 00000KT CAVOK 25/23 Q1015,SBOI,2025-08-16T01:00:00Z,3.861,-51.796,25,23,0,0,,6+,29.97,,,TRUE,,,,,,,,CAVOK,,,,,,,,VFR,,,,,,,,,,,,METAR,15
SBNT 160100Z 17007KT 9999 BKN006 BKN100 23/22 Q1017,SBNT,2025-08-16T01:00:00Z,-5.911,-35.248,23,22,170,7,,6+,30.03,,,,,,,,,,,BKN,600,BKN,10000,,,,,IFR,,,,,,,,,,,,METAR,51
SBNF 160100Z 13006KT 8000 -RADZ BKN007 OVC015 16/15 Q1026,SBNF,2025-08-16T01:00:00Z,-26.88,-48.651,16,15,130,6,,4.97,30.30,,,,,,,,,,-RA -DZ,BKN,700,OVC,1500,,,,,IFR,,,,,,,,,,,,METAR,5
SBMT 160100Z 12009KT 090V150 6000 BKN013 OVC021 14/12 Q1026,SBMT,2025-08-16T01:00:00Z,-23.509,-46.638,14,12,120,9,,3.73,30.30,,,,,,,,,,,BKN,1300,OVC,2100,,,,,MVFR,,,,,,,,,,,,METAR,722
SBMS 160100Z AUTO 09006KT CAVOK 25/22 Q1016,SBMS,2025-08-16T01:00:00Z,-5.202,-37.364,25,22,90,6,,6+,30.00,,,TRUE,,,,,,,,CAVOK,,,,,,,,VFR,,,,,,,,,,,,METAR,23
SBMQ 160100Z 13014KT 9999 BKN023 29/25 Q1014,SBMQ,2025-08-16T01:00:00Z,0.051,-51.072,29,25,130,14,,6+,29.94,,,,,,,,,,,BKN,2300,,,,,,,MVFR,,,,,,,,,,,,METAR,15
SBMO 160100Z 21003KT 9999 SCT021 23/21 Q1019,SBMO,2025-08-16T01:00:00Z,-9.511,-35.792,23,21,210,3,,6+,30.09,,,,,,,,,,,SCT,2100,,,,,,,VFR,,,,,,,,,,,,METAR,116
SBMN 160100Z 24003KT 9999 VCTS FEW025 FEW030CB SCT100 27/24 Q1014,SBMN,2025-08-16T01:00:00Z,-3.146,-59.986,27,24,240,3,,6+,29.94,,,,,,,,,,VCTS,FEW,2500,FEW,3000,SCT,10000,,,VFR,,,,,,,,,,,,METAR,71
SBMK 160100Z 10005KT CAVOK 20/09 Q1023,SBMK,2025-08-16T01:00:00Z,-16.705,-43.819,20,9,100,5,,6+,30.21,,,,,,,,,,,CAVOK,,,,,,,,VFR,,,,,,,,,,,,METAR,665
SBMG 160100Z AUTO 08015KT CAVOK 19/09 Q1020,SBMG,2025-08-16T01:00:00Z,-23.476,-52.017,19,9,80,15,,6+,30.12,,,TRUE,,,,,,,,CAVOK,,,,,,,,VFR,,,,,,,,,,,,METAR,543
SBME 160100Z 32005KT 9999 SCT025 OVC030 19/17 Q1025,SBME,2025-08-16T01:00:00Z,-22.343,-41.766,19,17,320,5,,6+,30.27,,,,,,,,,,,SCT,2500,OVC,3000,,,,,MVFR,,,,,,,,,,,,METAR,2
SBMA 160100Z 31003KT CAVOK 27/25 Q1013,SBMA,2025-08-16T01:00:00Z,-5.368,-49.137,27,25,310,3,,6+,29.91,,,,,,,,,,,CAVOK,,,,,,,,VFR,,,,,,,,,,,,METAR,110
SBLS 160100Z 15005KT CAVOK 18/11 Q1025,SBLS,2025-08-16T01:00:00Z,-19.662,-43.896,18,11,150,5,,6+,30.27,,,,,,,,,,,CAVOK,,,,,,,,VFR,,,,,,,,,,,,METAR,850
SBLO 160100Z 14008KT CAVOK 16/10 Q1022,SBLO,2025-08-16T01:00:00Z,-23.334,-51.13,16,10,140,8,,6+,30.18,,,,,,,,,,,CAVOK,,,,,,,,VFR,,,,,,,,,,,,METAR,563
SBLE 160100Z AUTO 07003KT 9999 FEW029 21/17 Q1023,SBLE,2025-08-16T01:00:00Z,-12.482,-41.277,21,17,70,3,,6+,30.21,,,TRUE,,,,,,,,FEW,2900,,,,,,,VFR,,,,,,,,,,,,METAR,495
SBLB 160100Z AUTO 14013KT 9999 FEW075 21/15 Q1025 W24/S4,SBLB,2025-08-16T01:00:00Z,-22.109,-39.917,21,15,140,13,,6+,30.27,,,TRUE,,,,,,,,FEW,7500,,,,,,,VFR,,,,,,,,,,,,METAR,10
SBKP 160100Z 13017KT CAVOK 15/12 Q1023,SBKP,2025-08-16T01:00:00Z,-23.007,-47.135,15,12,130,17,,6+,30.21,,,,,,,,,,,CAVOK,,,,,,,,VFR,,,,,,,,,,,,METAR,659
SBKG 160100Z 12006KT 060V140 3000 -RA BKN004 OVC070 20/20 Q1020,SBKG,2025-08-16T01:00:00Z,-7.27,-35.895,20,20,120,6,,1.86,30.12,,,,,,,,,,-RA,BKN,400,OVC,7000,,,,,LIFR,,,,,,,,,,,,METAR,499
SBJV 160100Z 17003KT 140V220 4000 -DZ BR BKN007 BKN015 15/15 Q1026,SBJV,2025-08-16T01:00:00Z,-26.224,-48.797,15,15,170,3,,2.49,30.30,,,,,,,,,,-DZ BR,BKN,700,BKN,1500,,,,,IFR,,,,,,,,,,,,METAR,3
SBJU 160100Z 12010KT 9999 FEW020 27/15 Q1018,SBJU,2025-08-16T01:00:00Z,-7.219,-39.27,27,15,120,10,,6+,30.06,,,,,,,,,,,FEW,2000,,,,,,,VFR,,,,,,,,,,,,METAR,407
SBJP 160100Z VRB02KT 9999 SCT007 BKN008 23/23 Q1018,SBJP,2025-08-16T01:00:00Z,-7.148,-34.951,23,23,VRB,2,,6+,30.06,,,,,,,,,,,SCT,700,BKN,800,,,,,IFR,,,,,,,,,,,,METAR,66
SBIP 160100Z AUTO VRB01KT CAVOK 15/09 Q1023,SBIP,2025-08-16T01:00:00Z,-19.471,-42.488,15,9,VRB,1,,6+,30.21,,,TRUE,,,,,,,,CAVOK,,,,,,,,VFR,,,,,,,,,,,,METAR,240
SBIL 160100Z 24007KT 9999 SCT020 BKN070 24/19 Q1022,SBIL,2025-08-16T01:00:00Z,-14.816,-39.033,24,19,240,7,,6+,30.18,,,,,,,,,,,SCT,2000,BKN,7000,,,,,VFR,,,,,,,,,,,,METAR,9
SBGR 160100Z 10005KT 9999 OVC012 15/12 Q1026,SBGR,2025-08-16T01:00:00Z,-23.432,-46.469,15,12,100,5,,6+,30.30,,,,,,,,,,,OVC,1200,,,,,,,MVFR,,,,,,,,,,,,METAR,745
SBGO 160100Z 12009KT CAVOK 23/09 Q1020,SBGO,2025-08-16T01:00:00Z,-16.632,-49.221,23,9,120,9,,6+,30.12,,,,,,,,,,,CAVOK,,,,,,,,VFR,,,,,,,,,,,,METAR,740
SBGL 160100Z 13007KT 9999 FEW020 BKN035 20/15 Q1025,SBGL,2025-08-16T01:00:00Z,-22.815,-43.261,20,15,130,7,,6+,30.27,,,,,,,,,,,FEW,2000,BKN,3500,,,,,VFR,,,,,,,,,,,,METAR,3
SBFZ 160100Z 11012KT 9999 BKN020 26/22 Q1016,SBFZ,2025-08-16T01:00:00Z,-3.776,-38.533,26,22,110,12,,6+,30.00,,,,,,,,,,,BKN,2000,,,,,,,MVFR,,,,,,,,,,,,METAR,32
SBFN 160100Z AUTO 12009KT CAVOK 25/21 Q1017,SBFN,2025-08-16T01:00:00Z,-3.855,-32.423,25,21,120,9,,6+,30.03,,,TRUE,,,,,,,,CAVOK,,,,,,,,VFR,,,,,,,,,,,,METAR,52
SBFL 160100Z 10005KT 9999 OVC013 15/13 Q1026,SBFL,2025-08-16T01:00:00Z,-27.671,-48.547,15,13,100,5,,6+,30.30,,,,,,,,,,,OVC,1300,,,,,,,MVFR,,,,,,,,,,,,METAR,5
SBFI 160100Z 11004KT CAVOK 19/11 Q1018,SBFI,2025-08-16T01:00:00Z,-25.595,-54.488,19,11,110,4,,6+,30.06,,,,,,,,,,,CAVOK,,,,,,,,VFR,,,,,,,,,,,,METAR,233
SBEG 160100Z 00000KT 9999 FEW030 27/26 Q1014,SBEG,2025-08-16T01:00:00Z,-3.039,-60.05,27,26,0,0,,6+,29.94,,,,,,,,,,,FEW,3000,,,,,,,VFR,,,,,,,,,,,,METAR,69
SBDN 160100Z 11015G25KT CAVOK 19/09 Q1020,SBDN,2025-08-16T01:00:00Z,-22.175,-51.427,19,9,110,15,25,6+,30.12,,,,,,,,,,,CAVOK,,,,,,,,VFR,,,,,,,,,,,,METAR,438
SBCY 160100Z 18006KT CAVOK 26/09 Q1015,SBCY,2025-08-16T01:00:00Z,-15.653,-56.116,26,9,180,6,,6+,29.97,,,,,,,,,,,CAVOK,,,,,,,,VFR,,,,,,,,,,,,METAR,182
SBCT 160100Z 09004KT 9999 BKN007 OVC017 10/10 Q1026,SBCT,2025-08-16T01:00:00Z,-25.529,-49.176,10,10,90,4,,6+,30.30,,,,,,,,,,,BKN,700,OVC,1700,,,,,IFR,,,,,,,,,,,,METAR,914
SBCO 160100Z 10009KT CAVOK 14/// Q1024,SBCO,2025-08-16T01:00:00Z,-29.945,-51.144,,,100,9,,6+,30.24,,,,,,,,,,,CAVOK,,,,,,,,VFR,,,,,,,,,,,,METAR,8
SBCG 160100Z 10008KT CAVOK 22/07 Q1019,SBCG,2025-08-16T01:00:00Z,-20.469,-54.672,22,7,100,8,,6+,30.09,,,,,,,,,,,CAVOK,,,,,,,,VFR,,,,,,,,,,,,METAR,556
SBCF 160100Z 10005KT CAVOK 18/12 Q1025,SBCF,2025-08-16T01:00:00Z,-19.635,-43.966,18,12,100,5,,6+,30.27,,,,,,,,,,,CAVOK,,,,,,,,VFR,,,,,,,,,,,,METAR,825
SBBV 160100Z 07003KT CAVOK 24/23 Q1014,SBBV,2025-08-16T01:00:00Z,2.846,-60.69,24,23,70,3,,6+,29.94,,,,,,,,,,,CAVOK,,,,,,,,VFR,,,,,,,,,,,,METAR,80
SBBU 160100Z 14011KT CAVOK 17/12 Q1022,SBBU,2025-08-16T01:00:00Z,-22.345,-49.054,17,12,140,11,,6+,30.18,,,,,,,,,,,CAVOK,,,,,,,,VFR,,,,,,,,,,,,METAR,616
SBBR 160100Z 09005KT CAVOK 22/09 Q1023,SBBR,2025-08-16T01:00:00Z,-15.867,-47.933,22,9,90,5,,6+,30.21,,,,,,,,,,,CAVOK,,,,,,,,VFR,,,,,,,,,,,,METAR,1051
SBBI 160100Z 09009KT 9999 BKN006 BKN010 11/10 Q1026,SBBI,2025-08-16T01:00:00Z,-25.404,-49.232,11,10,90,9,,6+,30.30,,,,,,,,,,,BKN,600,BKN,1000,,,,,IFR,,,,,,,,,,,,METAR,928
SBBH 160100Z 10005KT CAVOK 18/12 Q1025,SBBH,2025-08-16T01:00:00Z,-19.851,-43.951,18,12,100,5,,6+,30.27,,,,,,,,,,,CAVOK,,,,,,,,VFR,,,,,,,,,,,,METAR,799
SBBG 160100Z AUTO 09009KT 9999 BKN020 OVC029 10/08 Q1024,SBBG,2025-08-16T01:00:00Z,-31.391,-54.112,10,8,90,9,,6+,30.24,,,TRUE,,,,,,,,BKN,2000,OVC,2900,,,,,MVFR,,,,,,,,,,,,METAR,182
SBBE 160100Z 09005KT 9999 SCT036 FEW044TCU 25/23 Q1014,SBBE,2025-08-16T01:00:00Z,-1.379,-48.476,25,23,90,5,,6+,29.94,,,,,,,,,,,SCT,3600,FEW,4400,,,,,VFR,,,,,,,,,,,,METAR,16
SBAX 160100Z AUTO 10008KT //// // NCD 20/11 Q1023,SBAX,2025-08-16T01:00:00Z,-19.563,-46.96,20,11,100,8,,,30.21,,,TRUE,,,,,,,,CLR,,,,,,,,,,,,,,,,,,,,METAR,989
SBAR 160100Z 16007KT CAVOK 25/20 Q1019,SBAR,2025-08-16T01:00:00Z,-10.984,-37.07,25,20,160,7,,6+,30.09,,,,,,,,,,,CAVOK,,,,,,,,VFR,,,,,,,,,,,,METAR,4
SBAN 160100Z 10008KT CAVOK 22/08 Q1023,SBAN,2025-08-16T01:00:00Z,-16.229,-48.964,22,8,100,8,,6+,30.21,,,,,,,,,,,CAVOK,,,,,,,,VFR,,,,,,,,,,,,METAR,1131
SAZS 160100Z 18003KT CAVOK 02/00 Q1018,SAZS,2025-08-16T01:00:00Z,-41.151,-71.157,2,0,180,3,,6+,30.06,,,,,,,,,,,CAVOK,,,,,,,,VFR,,,,,,,,,,,,METAR,843
SAZN 160100Z 32002KT CAVOK 13/05 Q1020,SAZN,2025-08-16T01:00:00Z,-38.95,-68.141,13,5,320,2,,6+,30.12,,,,,,,,,,,CAVOK,,,,,,,,VFR,,,,,,,,,,,,METAR,273
SAZM 160100Z 03004KT 9999 BKN030 07/03 Q1029,SAZM,2025-08-16T01:00:00Z,-37.932,-57.581,7,3,30,4,,6+,30.38,,,,,,,,,,,BKN,3000,,,,,,,MVFR,,,,,,,,,,,,METAR,17
SAZB 160100Z 03007KT CAVOK 08/02 Q1025,SAZB,2025-08-16T01:00:00Z,-38.725,-62.169,8,2,30,7,,6+,30.27,,,,,,,,,,,CAVOK,,,,,,,,VFR,,,,,,,,,,,,METAR,77
SAWH 160100Z 15003KT 100V210 CAVOK 04/00 Q1012,SAWH,2025-08-16T01:00:00Z,-54.844,-68.308,4,0,150,3,,6+,29.88,,,,,,,,,,,CAVOK,,,,,,,,VFR,,,,,,,,,,,,METAR,22
SAWG 160100Z 25006KT 0100 R25/1000U FZFG VV002 M02/M02 Q1014,SAWG,2025-08-16T01:00:00Z,-51.609,-69.306,-2,-2,250,6,,0.06,29.94,,,,,,,,,,FZFG,OVX,0,,,,,,,LIFR,,,,,,,,,,,200,METAR,18
SAWE 160100Z 07003KT 7000 OVC008 03/03 Q1015,SAWE,2025-08-16T01:00:00Z,-53.781,-67.754,3,3,70,3,,4.35,29.97,,,,,,,,,,,OVC,800,,,,,,,IFR,,,,,,,,,,,,METAR,22
SAWC 160100Z VRB02KT CAVOK M03/M04 Q1014,SAWC,2025-08-16T01:00:00Z,-50.284,-72.052,-3,-4,VRB,2,,6+,29.94,,,,,,,,,,,CAVOK,,,,,,,,VFR,,,,,,,,,,,,METAR,204
SAVY 160100Z 36010KT CAVOK 10/06 Q1019,SAVY,2025-08-16T01:00:00Z,-42.759,-65.103,10,6,360,10,,6+,30.09,,,,,,,,,,,CAVOK,,,,,,,,VFR,,,,,,,,,,,,METAR,135
SAVT 160100Z 36018KT CAVOK 11/04 Q1019,SAVT,2025-08-16T01:00:00Z,-43.209,-65.282,11,4,360,18,,6+,30.09,,,,,,,,,,,CAVOK,,,,,,,,VFR,,,,,,,,,,,,METAR,37
SAVC 160100Z 29006KT CAVOK 07/01 Q1016,SAVC,2025-08-16T01:00:00Z,-45.79,-67.471,7,1,290,6,,6+,30.00,,,,,,,,,,,CAVOK,,,,,,,,VFR,,,,,,,,,,,,METAR,58
SASJ 160100Z 29004KT CAVOK 10/08 Q1019,SASJ,2025-08-16T01:00:00Z,-24.387,-65.098,10,8,290,4,,6+,30.09,,,,,,,,,,,CAVOK,,,,,,,,VFR,,,,,,,,,,,,METAR,913
SASA 160100Z 36002KT 9999 BKN034 10/07 Q1020,SASA,2025-08-16T01:00:00Z,-24.856,-65.486,10,7,360,2,,6+,30.12,,,,,,,,,,,BKN,3400,,,,,,,VFR,,,,,,,,,,,,METAR,1235
SARP 160100Z 23007KT CAVOK 16/12 Q1018,SARP,2025-08-16T01:00:00Z,-27.386,-55.969,16,12,230,7,,6+,30.06,,,,,,,,,,,CAVOK,,,,,,,,VFR,,,,,,,,,,,,METAR,123
SARL 160100Z 09010KT CAVOK 13/10 Q1020,SARL,2025-08-16T01:00:00Z,-29.689,-57.152,13,10,90,10,,6+,30.12,,,,,,,,,,,CAVOK,,,,,,,,VFR,,,,,,,,,,,,METAR,70
SARI 160100Z 09006KT CAVOK 18/11 Q1019,SARI,2025-08-16T01:00:00Z,-25.737,-54.473,18,11,90,6,,6+,30.09,,,,,,,,,,,CAVOK,,,,,,,,VFR,,,,,,,,,,,,METAR,268
SARF 160100Z 14003KT CAVOK 14/12 Q1017,SARF,2025-08-16T01:00:00Z,-26.213,-58.228,14,12,140,3,,6+,30.03,,,,,,,,,,,CAVOK,,,,,,,,VFR,,,,,,,,,,,,METAR,65
SARE 160100Z 11002KT CAVOK 12/09 Q1018,SARE,2025-08-16T01:00:00Z,-27.45,-59.056,12,9,110,2,,6+,30.06,,,,,,,,,,,CAVOK,,,,,,,,VFR,,,,,,,,,,,,METAR,52
SARC 160100Z 15006KT 8000 NSC 12/11 Q1018,SARC,2025-08-16T01:00:00Z,-27.445,-58.762,12,11,150,6,,4.97,30.06,,,,,,,,,,,CLR,,,,,,,,MVFR,,,,,,,,,,,,METAR,60
SANU 160100Z 20008KT 9999 BKN057 12/02 Q1018,SANU,2025-08-16T01:00:00Z,-31.572,-68.418,12,2,200,8,,6+,30.06,,,,,,,,,,,BKN,5700,,,,,,,VFR,,,,,,,,,,,,METAR,596
SANT 160100Z 20002KT 5000 BR FU BKN070 09/08 Q1017,SANT,2025-08-16T01:00:00Z,-26.841,-65.105,9,8,200,2,,3.11,30.03,,,,,,,,,,BR FU,BKN,7000,,,,,,,MVFR,,,,,,,,,,,,METAR,446
SANE 160100Z 09007KT 9999 SCT030 BKN100 18/07 Q1016,SANE,2025-08-16T01:00:00Z,-27.755,-64.3,18,7,90,7,,6+,30.00,,,,,,,,,,,SCT,3000,BKN,10000,,,,,VFR,,,,,,,,,,,,METAR,198
SAME 160100Z 18010KT 9999 SCT045 BKN100 13/03 Q1018,SAME,2025-08-16T01:00:00Z,-32.832,-68.793,13,3,180,10,,6+,30.06,,,,,,,,,,,SCT,4500,BKN,10000,,,,,VFR,,,,,,,,,,,,METAR,709
SAEZ 160100Z 14005KT 9999 SCT015 06/04 Q1026 NOSIG,SAEZ,2025-08-16T01:00:00Z,-34.822,-58.536,6,4,140,5,,6+,30.30,,,,,,TRUE,,,,,SCT,1500,,,,,,,VFR,,,,,,,,,,,,METAR,16
SADP 160100Z 10006KT 9999 FEW015 09/06 Q1025,SADP,2025-08-16T01:00:00Z,-34.61,-58.613,9,6,100,6,,6+,30.27,,,,,,,,,,,FEW,1500,,,,,,,VFR,,,,,,,,,,,,METAR,19
SADF 160100Z 11009KT CAVOK 10/07 Q1025,SADF,2025-08-16T01:00:00Z,-34.457,-58.593,10,7,110,9,,6+,30.27,,,,,,,,,,,CAVOK,,,,,,,,VFR,,,,,,,,,,,,METAR,4
SACO 160100Z 30003KT 260V040 CAVOK 09/00 Q1022 NOSIG,SACO,2025-08-16T01:00:00Z,-31.324,-64.208,9,0,300,3,,6+,30.18,,,,,,TRUE,,,,,CAVOK,,,,,,,,VFR,,,,,,,,,,,,METAR,474
SABE 160100Z 10016KT 9999 SCT016 11/07 Q1026 NOSIG,SABE,2025-08-16T01:00:00Z,-34.559,-58.416,11,7,100,16,,6+,30.30,,,,,,TRUE,,,,,SCT,1600,,,,,,,VFR,,,,,,,,,,,,METAR,3
SAAV 160100Z 14007KT CAVOK 10/06 Q1021,SAAV,2025-08-16T01:00:00Z,-31.712,-60.812,10,6,140,7,,6+,30.15,,,,,,,,,,,CAVOK,,,,,,,,VFR,,,,,,,,,,,,METAR,19
SAAR 160100Z 11009KT CAVOK 09/04 Q1023,SAAR,2025-08-16T01:00:00Z,-32.918,-60.782,9,4,110,9,,6+,30.21,,,,,,,,,,,CAVOK,,,,,,,,VFR,,,,,,,,,,,,METAR,24
RPVP 160100Z 21006KT 9999 -RA SCT019 OVC080 27/26 Q1008 RMK A2977,RPVP,2025-08-16T01:00:00Z,9.742,118.759,27,26,210,6,,6+,29.76,,,,,,,,,,-RA,SCT,1900,OVC,8000,,,,,VFR,,,,,,,,,,,,METAR,15
RPVM 160100Z 20004KT 9999 SCT020 BKN100 29/25 Q1010 NOSIG RMK A2983,RPVM,2025-08-16T01:00:00Z,10.308,123.978,29,25,200,4,,6+,29.82,,,,,,TRUE,,,,,SCT,2000,BKN,10000,,,,,VFR,,,,,,,,,,,,METAR,9
RPVK 160100Z 15004KT 110V190 9999 FEW016 SCT070 BKN240 27/25 Q1009 RMK A2980,RPVK,2025-08-16T01:00:00Z,11.683,122.383,27,25,150,4,,6+,29.79,,,,,,,,,,,FEW,1600,SCT,7000,BKN,24000,,,VFR,,,,,,,,,,,,METAR,6
RPVD 160100Z 09008KT 9999 FEW015 SCT070 BKN220 30/24 Q1009 RMK A2980,RPVD,2025-08-16T01:00:00Z,9.334,123.297,30,24,90,8,,6+,29.79,,,,,,,,,,,FEW,1500,SCT,7000,BKN,22000,,,VFR,,,,,,,,,,,,METAR,11
RPMZ 160100Z VRB05KT 9999 SCT017 30/25 Q1010 RMK A2983,RPMZ,2025-08-16T01:00:00Z,6.92,122.063,30,25,VRB,5,,6+,29.82,,,,,,,,,,,SCT,1700,,,,,,,VFR,,,,,,,,,,,,METAR,8
RPMR 160100Z 00000KT 9999 FEW018 28/23 Q1011 RMK A2985,RPMR,2025-08-16T01:00:00Z,6.058,125.096,28,23,0,0,,6+,29.85,,,,,,,,,,,FEW,1800,,,,,,,VFR,,,,,,,,,,,,METAR,47
RPMD 160100Z VRB03KT 9999 FEW020 28/23 Q1011 RMK A2985,RPMD,2025-08-16T01:00:00Z,7.125,125.646,28,23,VRB,3,,6+,29.85,,,,,,,,,,,FEW,2000,,,,,,,VFR,,,,,,,,,,,,METAR,19
RPLL 160100Z 10006KT 070V150 9999 SCT025 BKN100 29/25 Q1008 NOSIG RMK A2977,RPLL,2025-08-16T01:00:00Z,14.507,121.004,29,25,100,6,,6+,29.76,,,,,,TRUE,,,,,SCT,2500,BKN,10000,,,,,VFR,,,,,,,,,,,,METAR,15
RPLI 160100Z 11004KT 060V150 9999 FEW018 BKN100 28/26 Q1008 NOSIG RMK A2977,RPLI,2025-08-16T01:00:00Z,18.178,120.532,28,26,110,4,,6+,29.76,,,,,,TRUE,,,,,FEW,1800,BKN,10000,,,,,VFR,,,,,,,,,,,,METAR,5
RPLC 160100Z 18002KT 7000 SCT020 BKN100 27/24 Q1010 NOSIG RMK A2983,RPLC,2025-08-16T01:00:00Z,15.186,120.56,27,24,180,2,,4.35,29.82,,,,,,TRUE,,,,,SCT,2000,BKN,10000,,,,,MVFR,,,,,,,,,,,,METAR,138
RPLB 160100Z 08009KT 9999 FEW018 BKN080 28/25 Q1008 NOSIG RMK A2977,RPLB,2025-08-16T01:00:00Z,14.794,120.271,28,25,80,9,,6+,29.76,,,,,,TRUE,,,,,FEW,1800,BKN,8000,,,,,VFR,,,,,,,,,,,,METAR,19
ROYN 160100Z AUTO 07009KT 9999 FEW016 30/26 Q1011,ROYN,2025-08-16T01:00:00Z,24.467,122.978,30,26,70,9,,6+,29.85,,,TRUE,,,,,,,,FEW,1600,,,,,,,VFR,,,,,,,,,,,,METAR,21
RORY 160100Z AUTO 04010KT 9999 FEW015 //////TCU 30/26 Q1012,RORY,2025-08-16T01:00:00Z,27.044,128.4,30,26,40,10,,6+,29.88,,,TRUE,,,,,,,,FEW,1500,,,,,,,VFR,,,,,,,,,,,,METAR,13
RORT 160100Z AUTO VRB06KT 9999 SCT019 30/26 Q1011,RORT,2025-08-16T01:00:00Z,24.653,124.674,30,26,VRB,6,,6+,29.85,,,TRUE,,,,,,,,SCT,1900,,,,,,,VFR,,,,,,,,,,,,METAR,9
RORS 160100Z 07008KT 9999 SCT020 31/25 Q1011,RORS,2025-08-16T01:00:00Z,24.827,125.145,31,25,70,8,,6+,29.85,,,,,,,,,,,SCT,2000,,,,,,,VFR,,,,,,,,,,,,METAR,13
RORK 160100Z AUTO 09011KT 9999 NCD 30/25 Q1012,RORK,2025-08-16T01:00:00Z,25.944,131.326,30,25,90,11,,6+,29.88,,,TRUE,,,,,,,,CLR,,,,,,,,VFR,,,,,,,,,,,,METAR,11
ROMY 160100Z 08008KT 040V100 9999 -SHRA SCT016 FEW025TCU 29/26 Q1012,ROMY,2025-08-16T01:00:00Z,24.782,125.295,29,26,80,8,,6+,29.88,,,,,,,,,,-SHRA,SCT,1600,FEW,2500,,,,,VFR,,,,,,,,,,,,METAR,42
ROMD 160100Z AUTO 06006KT 030V100 9999 NCD 30/25 Q1012,ROMD,2025-08-16T01:00:00Z,25.847,131.264,30,25,60,6,,6+,29.88,,,TRUE,,,,,,,,CLR,,,,,,,,VFR,,,,,,,,,,,,METAR,45
ROIG 160100Z 07009KT 9999 FEW018 30/26 Q1011,ROIG,2025-08-16T01:00:00Z,24.395,124.245,30,26,70,9,,6+,29.85,,,,,,,,,,,FEW,1800,,,,,,,VFR,,,,,,,,,,,,METAR,37
ROAH 160100Z 01011KT 9999 VCSH FEW023 FEW025TCU 30/26 Q1012 RMK 2CU023 1TCU025 A2989 TCU 15KM SE MOV W,ROAH,2025-08-16T01:00:00Z,26.196,127.646,30,26,10,11,,6+,29.88,,,,,,,,,,VCSH,FEW,2300,FEW,2500,,,,,VFR,,,,,,,,,,,,METAR,6
RKTU 160100Z 32002KT 8000 SCT015 BKN250 30/26 Q1015,RKTU,2025-08-16T01:00:00Z,36.717,127.499,30,26,320,2,,4.97,29.97,,,,,,,,,,,SCT,1500,BKN,25000,,,,,MVFR,,,,,,,,,,,,METAR,46
RKTN 160100Z 04003KT 9999 SCT030 BKN250 32/25 Q1014,RKTN,2025-08-16T01:00:00Z,35.894,128.659,32,25,40,3,,6+,29.94,,,,,,,,,,,SCT,3000,BKN,25000,,,,,VFR,,,,,,,,,,,,METAR,25
RKSS 160100Z 21006KT 160V250 9999 SCT020 30/26 Q1014 NOSIG,RKSS,2025-08-16T01:00:00Z,37.558,126.791,30,26,210,6,,6+,29.94,,,,,,TRUE,,,,,SCT,2000,,,,,,,VFR,,,,,,,,,,,,METAR,18
RKSM 160100Z 21004KT 9999 SCT020 30/25 A2996,RKSM,2025-08-16T01:00:00Z,37.446,127.114,30,25,210,4,,6+,29.96,,,,,,,,,,,SCT,2000,,,,,,,VFR,,,,,,,,,,,,METAR,18
RKSI 160100Z 18008KT 140V200 9999 BKN005 BKN015 28/25 Q1015 NOSIG,RKSI,2025-08-16T01:00:00Z,37.469,126.451,28,25,180,8,,6+,29.97,,,,,,TRUE,,,,,BKN,500,BKN,1500,,,,,IFR,,,,,,,,,,,,METAR,7
RKPK 160100Z 25002KT 9999 FEW030 FEW200 31/25 Q1014,RKPK,2025-08-16T01:00:00Z,35.179,128.938,31,25,250,2,,6+,29.94,,,,,,,,,,,FEW,3000,FEW,20000,,,,,VFR,,,,,,,,,,,,METAR,3
RKPC 160100Z 35004KT CAVOK 29/25 Q1015 NOSIG,RKPC,2025-08-16T01:00:00Z,33.511,126.493,29,25,350,4,,6+,29.97,,,,,,TRUE,,,,,CAVOK,,,,,,,,VFR,,,,,,,,,,,,METAR,23
RKNY 160100Z 27008KT 220V310 9999 FEW040 SCT200 32/22 Q1013 NOSIG,RKNY,2025-08-16T01:00:00Z,38.061,128.669,32,22,270,8,,6+,29.91,,,,,,TRUE,,,,,FEW,4000,SCT,20000,,,,,VFR,,,,,,,,,,,,METAR,76
RKJB 160100Z 12002KT 9999 FEW016 30/24 Q1015 NOSIG,RKJB,2025-08-16T01:00:00Z,34.991,126.383,30,24,120,2,,6+,29.97,,,,,,TRUE,,,,,FEW,1600,,,,,,,VFR,,,,,,,,,,,,METAR,16
RJTT 160100Z 17012KT 9999 FEW020 BKN100 30/26 Q1014 NOSIG RMK 1CU020 7AC100 A2996,RJTT,2025-08-16T01:00:00Z,35.553,139.781,30,26,170,12,,6+,29.94,,,,,,TRUE,,,,,FEW,2000,BKN,10000,,,,,VFR,,,,,,,,,,,,METAR,5
RJTO 160100Z 20012KT 9999 FEW015 SCT050 BKN170 30/25 Q1015,RJTO,2025-08-16T01:00:00Z,34.782,139.36,30,25,200,12,,6+,29.97,,,,,,,,,,,FEW,1500,SCT,5000,BKN,17000,,,VFR,,,,,,,,,,,,METAR,37
RJTI 160100Z 16009KT 9999 FEW020 BKN110 29/25 Q1014,RJTI,2025-08-16T01:00:00Z,35.637,139.839,29,25,160,9,,6+,29.94,,,,,,,,,,,FEW,2000,BKN,11000,,,,,VFR,,,,,,,,,,,,METAR,4
RJTF 160100Z VRB02KT 9999 FEW015 FEW020TCU SCT025 BKN100 31/25 Q1014,RJTF,2025-08-16T01:00:00Z,35.672,139.528,31,25,VRB,2,,6+,29.94,,,,,,,,,,,FEW,1500,FEW,2000,SCT,2500,BKN,10000,VFR,,,,,,,,,,,,METAR,37
RJSY 160100Z 09004KT 050V150 9999 FEW030 SCT/// 29/21 Q1015,RJSY,2025-08-16T01:00:00Z,38.812,139.787,29,21,90,4,,6+,29.97,,,,,,,,,,,FEW,3000,,,,,,,VFR,,,,,,,,,,,,METAR,17
RJSS 160100Z 11005KT 030V140 9999 FEW020 BKN030 27/22 Q1015,RJSS,2025-08-16T01:00:00Z,38.14,140.917,27,22,110,5,,6+,29.97,,,,,,,,,,,FEW,2000,BKN,3000,,,,,MVFR,,,,,,,,,,,,METAR,5
RJSR 160100Z 29003KT 210V340 9999 FEW025 SCT/// 26/20 Q1016,RJSR,2025-08-16T01:00:00Z,40.192,140.372,26,20,290,3,,6+,30.00,,,,,,,,,,,FEW,2500,,,,,,,VFR,,,,,,,,,,,,METAR,83
RJSN 160100Z 33007KT 9999 FEW020 28/23 Q1014,RJSN,2025-08-16T01:00:00Z,37.956,139.121,28,23,330,7,,6+,29.94,,,,,,,,,,,FEW,2000,,,,,,,VFR,,,,,,,,,,,,METAR,4
RJSM 160100Z 26004KT 210V310 9999 FEW020 SCT250 28/13 Q1015,RJSM,2025-08-16T01:00:00Z,40.705,141.372,28,13,260,4,,6+,29.97,,,,,,,,,,,FEW,2000,SCT,25000,,,,,VFR,,,,,,,,,,,,METAR,31
RJSK 160100Z 13005KT 090V160 9999 FEW030 27/21 Q1015,RJSK,2025-08-16T01:00:00Z,39.616,140.219,27,21,130,5,,6+,29.97,,,,,,,,,,,FEW,3000,,,,,,,VFR,,,,,,,,,,,,METAR,95
RJSI 160100Z 04003KT 350V120 9999 FEW030 28/19 Q1015,RJSI,2025-08-16T01:00:00Z,39.429,141.135,28,19,40,3,,6+,29.97,,,,,,,,,,,FEW,3000,,,,,,,VFR,,,,,,,,,,,,METAR,89
RJSF 160100Z VRB02KT 9999 FEW015 BKN020 BKN060 26/22 Q1017,RJSF,2025-08-16T01:00:00Z,37.227,140.428,26,22,VRB,2,,6+,30.03,,,,,,,,,,,FEW,1500,BKN,2000,BKN,6000,,,MVFR,,,,,,,,,,,,METAR,373
RJSC 160100Z VRB02KT 9999 FEW025 SCT/// 27/22 Q1015,RJSC,2025-08-16T01:00:00Z,38.412,140.371,27,22,VRB,2,,6+,29.97,,,,,,,,,,,FEW,2500,,,,,,,VFR,,,,,,,,,,,,METAR,104
RJSA 160100Z VRB03KT 9999 FEW025 BKN/// 28/14 Q1015,RJSA,2025-08-16T01:00:00Z,40.733,140.689,28,14,VRB,3,,6+,29.97,,,,,,,,,,,FEW,2500,,,,,,,VFR,,,,,,,,,,,,METAR,196
RJOY 160100Z 34003KT 270V080 9999 FEW020 BKN030 33/26 Q1014,RJOY,2025-08-16T01:00:00Z,34.597,135.601,33,26,340,3,,6+,29.94,,,,,,,,,,,FEW,2000,BKN,3000,,,,,MVFR,,,,,,,,,,,,METAR,10
RJOW 160100Z 31005KT 280V350 9999 FEW020 29/25 Q1015,RJOW,2025-08-16T01:00:00Z,34.676,131.79,29,25,310,5,,6+,29.97,,,,,,,,,,,FEW,2000,,,,,,,VFR,,,,,,,,,,,,METAR,54
RJOT 160100Z 26005KT 210V310 9999 FEW015 SCT030 31/26 Q1015,RJOT,2025-08-16T01:00:00Z,34.214,134.016,31,26,260,5,,6+,29.97,,,,,,,,,,,FEW,1500,SCT,3000,,,,,VFR,,,,,,,,,,,,METAR,181
RJOS 160100Z 11005KT 080V140 9999 FEW012 SCT020 32/26 Q1014,RJOS,2025-08-16T01:00:00Z,34.132,134.609,32,26,110,5,,6+,29.94,,,,,,,,,,,FEW,1200,SCT,2000,,,,,VFR,,,,,,,,,,,,METAR,3
RJOR 160100Z 33005KT 9999 FEW015 31/24 Q1014,RJOR,2025-08-16T01:00:00Z,35.53,134.165,31,24,330,5,,6+,29.94,,,,,,,,,,,FEW,1500,,,,,,,VFR,,,,,,,,,,,,METAR,11
RJOO 160100Z VRB03KT 9999 FEW015 SCT030 32/25 Q1014 RMK 1CU015 4CU030 A2995,RJOO,2025-08-16T01:00:00Z,34.784,135.439,32,25,VRB,3,,6+,29.94,,,,,,,,,,,FEW,1500,SCT,3000,,,,,VFR,,,,,,,,,,,,METAR,11
RJOM 160100Z 25004KT 210V300 9999 FEW020 29/25 Q1014,RJOM,2025-08-16T01:00:00Z,33.83,132.698,29,25,250,4,,6+,29.94,,,,,,,,,,,FEW,2000,,,,,,,VFR,,,,,,,,,,,,METAR,3
RJOK 160100Z 18008KT 9999 FEW020 30/26 Q1014,RJOK,2025-08-16T01:00:00Z,33.546,133.669,30,26,180,8,,6+,29.94,,,,,,,,,,,FEW,2000,,,,,,,VFR,,,,,,,,,,,,METAR,7
RJOH 160100Z 26003KT 220V300 9999 FEW030 31/27 Q1014,RJOH,2025-08-16T01:00:00Z,35.493,133.239,31,27,260,3,,6+,29.94,,,,,,,,,,,FEW,3000,,,,,,,VFR,,,,,,,,,,,,METAR,6
RJOC 160100Z 36003KT 9999 FEW020 30/24 Q1014,RJOC,2025-08-16T01:00:00Z,35.414,132.89,30,24,360,3,,6+,29.94,,,,,,,,,,,FEW,2000,,,,,,,VFR,,,,,,,,,,,,METAR,2
RJOB 160100Z 22003KT 120V280 8000 FEW010 BKN015 30/26 Q1015,RJOB,2025-08-16T01:00:00Z,34.757,133.855,30,26,220,3,,4.97,29.97,,,,,,,,,,,FEW,1000,BKN,1500,,,,,MVFR,,,,,,,,,,,,METAR,242
RJOA 160100Z VRB03KT 9999 FEW015 BKN030 29/24 Q1016,RJOA,2025-08-16T01:00:00Z,34.436,132.919,29,24,VRB,3,,6+,30.00,,,,,,,,,,,FEW,1500,BKN,3000,,,,,MVFR,,,,,,,,,,,,METAR,318
RJNW 160100Z 14003KT 070V210 9999 FEW020 SCT025 29/23 Q1016,RJNW,2025-08-16T01:00:00Z,37.293,136.962,29,23,140,3,,6+,30.00,,,,,,,,,,,FEW,2000,SCT,2500,,,,,VFR,,,,,,,,,,,,METAR,222
RJNT 160100Z VRB03KT 9999 FEW015 SCT/// 30/24 Q1014,RJNT,2025-08-16T01:00:00Z,36.641,137.187,30,24,VRB,3,,6+,29.94,,,,,,,,,,,FEW,1500,,,,,,,VFR,,,,,,,,,,,,METAR,30
RJNS 160100Z 09003KT 050V120 9999 VCSH FEW005 SCT015 BKN040 27/25 Q1016,RJNS,2025-08-16T01:00:00Z,34.796,138.189,27,25,90,3,,6+,30.00,,,,,,,,,,VCSH,FEW,500,SCT,1500,BKN,4000,,,VFR,,,,,,,,,,,,METAR,133
RJNK 160100Z 31007KT 9999 FEW030 BKN300 30/25 Q1014,RJNK,2025-08-16T01:00:00Z,36.394,136.407,30,25,310,7,,6+,29.94,,,,,,,,,,,FEW,3000,BKN,30000,,,,,VFR,,,,,,,,,,,,METAR,7
RJKI 160100Z AUTO 06013KT 9999 BKN021 BKN027 BKN031 //////TCU 31/26 Q1013,RJKI,2025-08-16T01:00:00Z,28.321,129.928,31,26,60,13,,6+,29.91,,,TRUE,,,,,,,,BKN,2100,BKN,2700,BKN,3100,,,MVFR,,,,,,,,,,,,METAR,6
RJKB 160100Z AUTO 05009KT 9999 FEW027 SCT040 31/27 Q1013,RJKB,2025-08-16T01:00:00Z,27.4322,128.706,31,27,50,9,,6+,29.91,,,TRUE,,,,,,,,FEW,2700,SCT,4000,,,,,VFR,,,,,,,,,,,,METAR,27
RJKA 160100Z 07011KT 9999 FEW020 SCT/// 32/26 Q1013,RJKA,2025-08-16T01:00:00Z,28.431,129.713,32,26,70,11,,6+,29.91,,,,,,,,,,,FEW,2000,,,,,,,VFR,,,,,,,,,,,,METAR,7
RJGG 160100Z 24004KT 9999 FEW015 29/25 Q1014 BECMG TL0200 26005KT,RJGG,2025-08-16T01:00:00Z,34.858,136.805,29,25,240,4,,6+,29.94,,,,,,,,,,,FEW,1500,,,,,,,VFR,,,,,,,,,,,,METAR,5
RJFU 160100Z 29004KT 9999 FEW025 31/26 Q1014,RJFU,2025-08-16T01:00:00Z,32.917,129.914,31,26,290,4,,6+,29.94,,,,,,,,,,,FEW,2500,,,,,,,VFR,,,,,,,,,,,,METAR,2
RJFT 160100Z VRB02KT 9999 FEW015 SCT030 30/24 Q1016,RJFT,2025-08-16T01:00:00Z,32.837,130.855,30,24,VRB,2,,6+,30.00,,,,,,,,,,,FEW,1500,SCT,3000,,,,,VFR,,,,,,,,,,,,METAR,188
RJFS 160100Z 17004KT 100V260 9999 FEW030 30/27 Q1014,RJFS,2025-08-16T01:00:00Z,33.15,130.302,30,27,170,4,,6+,29.94,,,,,,,,,,,FEW,3000,,,,,,,VFR,,,,,,,,,,,,METAR,2
RJFR 160100Z 06004KT 9999 FEW030 29/25 Q1014,RJFR,2025-08-16T01:00:00Z,33.846,131.035,29,25,60,4,,6+,29.94,,,,,,,,,,,FEW,3000,,,,,,,VFR,,,,,,,,,,,,METAR,9
RJFO 160100Z 14005KT 9999 FEW015 29/27 Q1014,RJFO,2025-08-16T01:00:00Z,33.479,131.737,29,27,140,5,,6+,29.94,,,,,,,,,,,FEW,1500,,,,,,,VFR,,,,,,,,,,,,METAR,3
RJFM 160100Z 12006KT 9999 FEW030 30/25 Q1014,RJFM,2025-08-16T01:00:00Z,31.877,131.449,30,25,120,6,,6+,29.94,,,,,,,,,,,FEW,3000,,,,,,,VFR,,,,,,,,,,,,METAR,10
RJFK 160100Z 11003KT 030V170 9999 FEW025 SCT/// 30/24 Q1016 RMK 1CU025 A3001,RJFK,2025-08-16T01:00:00Z,31.803,130.719,30,24,110,3,,6+,30.00,,,,,,,,,,,FEW,2500,,,,,,,VFR,,,,,,,,,,,,METAR,271
RJFG 160100Z 09005KT 050V150 9999 FEW006 SCT010 BKN015 28/26 Q1015,RJFG,2025-08-16T01:00:00Z,30.605,130.992,28,26,90,5,,6+,29.97,,,,,,,,,,,FEW,600,SCT,1000,BKN,1500,,,MVFR,,,,,,,,,,,,METAR,234
RJFF 160100Z 14003KT 090V260 9999 FEW025 SCT/// 32/25 Q1014 BECMG 30008KT RMK 1CU025 A2996,RJFF,2025-08-16T01:00:00Z,33.584,130.452,32,25,140,3,,6+,29.94,,,,,,,,,,,FEW,2500,,,,,,,VFR,,,,,,,,,,,,METAR,7
RJFE 160100Z 05005KT 010V100 9999 FEW020 SCT/// 30/25 Q1015,RJFE,2025-08-16T01:00:00Z,32.666,128.833,30,25,50,5,,6+,29.97,,,,,,,,,,,FEW,2000,,,,,,,VFR,,,,,,,,,,,,METAR,80
RJEC 160100Z 19006KT 150V240 9999 FEW030 27/17 Q1013,RJEC,2025-08-16T01:00:00Z,43.671,142.447,27,17,190,6,,6+,29.91,,,,,,,,,,,FEW,3000,,,,,,,VFR,,,,,,,,,,,,METAR,209
RJEB 160100Z 24013KT 9999 FEW050 29/18 Q1010,RJEB,2025-08-16T01:00:00Z,44.304,143.404,29,18,240,13,,6+,29.82,,,,,,,,,,,FEW,5000,,,,,,,VFR,,,,,,,,,,,,METAR,24
RJDT 160100Z 14005KT 110V180 9999 FEW020 30/25 Q1015,RJDT,2025-08-16T01:00:00Z,34.288,129.325,30,25,140,5,,6+,29.97,,,,,,,,,,,FEW,2000,,,,,,,VFR,,,,,,,,,,,,METAR,61
RJDC 160100Z 13005KT 9999 FEW020 29/25 Q1014,RJDC,2025-08-16T01:00:00Z,33.93,131.279,29,25,130,5,,6+,29.94,,,,,,,,,,,FEW,2000,,,,,,,VFR,,,,,,,,,,,,METAR,5
RJDB 160100Z AUTO 19004KT 150V230 9999 NCD 30/26 Q1014,RJDB,2025-08-16T01:00:00Z,33.749,129.785,30,26,190,4,,6+,29.94,,,TRUE,,,,,,,,CLR,,,,,,,,VFR,,,,,,,,,,,,METAR,13
RJCW 160100Z 20017KT 9999 FEW015 SCT020 BKN/// 27/22 Q1009,RJCW,2025-08-16T01:00:00Z,45.404,141.802,27,22,200,17,,6+,29.79,,,,,,,,,,,FEW,1500,SCT,2000,,,,,VFR,,,,,,,,,,,,METAR,11
RJCO 160100Z 05006KT 020V100 9999 FEW230 29/21 Q1013,RJCO,2025-08-16T01:00:00Z,43.117,141.381,29,21,50,6,,6+,29.91,,,,,,,,,,,FEW,23000,,,,,,,VFR,,,,,,,,,,,,METAR,7
RJCN 160100Z 23008KT 9999 FEW050 SCT/// 27/18 Q1012,RJCN,2025-08-16T01:00:00Z,43.578,144.96,27,18,230,8,,6+,29.88,,,,,,,,,,,FEW,5000,,,,,,,VFR,,,,,,,,,,,,METAR,62
RJCM 160100Z 22006KT 190V260 CAVOK 29/19 Q1011,RJCM,2025-08-16T01:00:00Z,43.881,144.164,29,19,220,6,,6+,29.85,,,,,,,,,,,CAVOK,,,,,,,,VFR,,,,,,,,,,,,METAR,30
RJCK 160100Z 18005KT 140V220 9999 FEW040 26/21 Q1013,RJCK,2025-08-16T01:00:00Z,43.041,144.193,26,21,180,5,,6+,29.91,,,,,,,,,,,FEW,4000,,,,,,,VFR,,,,,,,,,,,,METAR,94
RJCH 160100Z 23012KT 9999 FEW020 SCT040 27/23 Q1014,RJCH,2025-08-16T01:00:00Z,41.77,140.822,27,23,230,12,,6+,29.94,,,,,,,,,,,FEW,2000,SCT,4000,,,,,VFR,,,,,,,,,,,,METAR,36
RJCC 160100Z 16008KT 140V210 9999 FEW015 28/20 Q1013 RMK 1ST015 A2992,RJCC,2025-08-16T01:00:00Z,42.774,141.693,28,20,160,8,,6+,29.91,,,,,,,,,,,FEW,1500,,,,,,,VFR,,,,,,,,,,,,METAR,19
RJCB 160100Z VRB03KT 9999 FEW060 SCT/// 28/18 Q1013,RJCB,2025-08-16T01:00:00Z,42.733,143.217,28,18,VRB,3,,6+,29.91,,,,,,,,,,,FEW,6000,,,,,,,VFR,,,,,,,,,,,,METAR,149
RJBT 160100Z VRB02KT 9999 FEW015 30/22 Q1015,RJBT,2025-08-16T01:00:00Z,35.513,134.787,30,22,VRB,2,,6+,29.97,,,,,,,,,,,FEW,1500,,,,,,,VFR,,,,,,,,,,,,METAR,172
RJBE 160100Z 18003KT 140V210 9999 FEW025 30/26 Q1014,RJBE,2025-08-16T01:00:00Z,34.633,135.224,30,26,180,3,,6+,29.94,,,,,,,,,,,FEW,2500,,,,,,,VFR,,,,,,,,,,,,METAR,5
RJBD 160100Z 19005KT 160V240 9999 FEW015 30/27 Q1015,RJBD,2025-08-16T01:00:00Z,33.662,135.364,30,27,190,5,,6+,29.97,,,,,,,,,,,FEW,1500,,,,,,,VFR,,,,,,,,,,,,METAR,91
RJBB 160100Z 36005KT 9999 FEW015 30/27 Q1014 BECMG 30004KT,RJBB,2025-08-16T01:00:00Z,34.434,135.233,30,27,360,5,,6+,29.94,,,,,,,,,,,FEW,1500,,,,,,,VFR,,,,,,,,,,,,METAR,8
RJAW 160100Z 11012KT 9999 SCT012 BKN/// 28/26 Q1013 RMK 3CU012 A2994,RJAW,2025-08-16T01:00:00Z,24.784,141.322,28,26,110,12,,6+,29.91,,,,,,,,,,,SCT,1200,,,,,,,VFR,,,,,,,,,,,,METAR,116
RJAH 160100Z 03005KT 6000 FEW008 SCT012 BKN020 27/24 Q1015,RJAH,2025-08-16T01:00:00Z,36.182,140.415,27,24,30,5,,3.73,29.97,,,,,,,,,,,FEW,800,SCT,1200,BKN,2000,,,MVFR,,,,,,,,,,,,METAR,31
RJAF 160100Z 34003KT 260V070 9999 FEW030 28/22 Q1017,RJAF,2025-08-16T01:00:00Z,36.167,137.923,28,22,340,3,,6+,30.03,,,,,,,,,,,FEW,3000,,,,,,,VFR,,,,,,,,,,,,METAR,652
RJAA 160100Z 17003KT 100V230 9999 FEW015 SCT020 BKN100 30/25 Q1015 NOSIG RMK 1CU015 3CU020 6AC100 A2997,RJAA,2025-08-16T01:00:00Z,35.765,140.386,30,25,170,3,,6+,29.97,,,,,,TRUE,,,,,FEW,1500,SCT,2000,BKN,10000,,,VFR,,,,,,,,,,,,METAR,36
RCTP 160100Z 08014KT 9999 FEW015 SCT180 33/24 Q1010 NOSIG RMK A2983,RCTP,2025-08-16T01:00:00Z,25.078,121.233,33,24,80,14,,6+,29.82,,,,,,TRUE,,,,,FEW,1500,SCT,18000,,,,,VFR,,,,,,,,,,,,METAR,33
RCSS 160100Z 07013KT 9999 FEW020 SCT150 32/25 Q1010 NOSIG RMK A2985,RCSS,2025-08-16T01:00:00Z,25.069,121.552,32,25,70,13,,6+,29.82,,,,,,TRUE,,,,,FEW,2000,SCT,15000,,,,,VFR,,,,,,,,,,,,METAR,8
RCQC 160100Z 15001KT 9999 SCT004 BKN008 BKN030 30/26 Q1009 BECMG BKN015 RMK A2981,RCQC,2025-08-16T01:00:00Z,23.569,119.628,30,26,150,1,,6+,29.79,,,,,,,,,,,SCT,400,BKN,800,BKN,3000,,,IFR,,,,,,,,,,,,METAR,26
RCNN 160100Z 12004KT 9999 FEW012 SCT060 31/26 Q1010 NOSIG RMK A2984 RVR N/A,RCNN,2025-08-16T01:00:00Z,22.95,120.206,31,26,120,4,,6+,29.82,,,,,,TRUE,,,,,FEW,1200,SCT,6000,,,,,VFR,,,,,,,,,,,,METAR,15
RCMQ 160100Z 21004KT 9999 FEW010 SCT030 BKN080 31/24 Q1011 NOSIG RMK A2986,RCMQ,2025-08-16T01:00:00Z,24.265,120.621,31,24,210,4,,6+,29.85,,,,,,TRUE,,,,,FEW,1000,SCT,3000,BKN,8000,,,VFR,,,,,,,,,,,,METAR,202
RCKH 160100Z 01004KT 290V080 9999 FEW016 SCT022 BKN040 31/24 Q1009 NOSIG RMK A2981,RCKH,2025-08-16T01:00:00Z,22.577,120.35,31,24,10,4,,6+,29.79,,,,,,TRUE,,,,,FEW,1600,SCT,2200,BKN,4000,,,VFR,,,,,,,,,,,,METAR,6
RCFN 160100Z 03006KT 350V070 9999 FEW025 BKN080 BKN200 30/22 Q1011 NOSIG RMK A2986,RCFN,2025-08-16T01:00:00Z,22.755,121.102,30,22,30,6,,6+,29.85,,,,,,TRUE,,,,,FEW,2500,BKN,8000,BKN,20000,,,VFR,,,,,,,,,,,,METAR,42
PLCH 160100Z 10007KT 9999 FEW019 BKN300 30/25 Q1009,PLCH,2025-08-16T01:00:00Z,1.988,-157.349,30,25,100,7,,6+,29.79,,,,,,,,,,,FEW,1900,BKN,30000,,,,,VFR,,,,,,,,,,,,METAR,5
OYSY 160100Z VRB02KT 9999 FEW040 BKN120 29/15 Q1002,OYSY,2025-08-16T01:00:00Z,15.966,48.788,29,15,VRB,2,,6+,29.59,,,,,,,,,,,FEW,4000,BKN,12000,,,,,VFR,,,,,,,,,,,,METAR,701
OYAA 160100Z 10006KT 6000 FEW020 SCT100 32/26 Q0999 NOSIG,OYAA,2025-08-16T01:00:00Z,12.829,45.029,32,26,100,6,,3.73,29.50,,,,,,TRUE,,,,,FEW,2000,SCT,10000,,,,,MVFR,,,,,,,,,,,,METAR,3
OTHH 160100Z 06011KT CAVOK 35/28 Q0995 NOSIG,OTHH,2025-08-16T01:00:00Z,25.273,51.609,35,28,60,11,,6+,29.38,,,,,,TRUE,,,,,CAVOK,,,,,,,,VFR,,,,,,,,,,,,METAR,3
OTBD 160100Z 06010KT CAVOK 35/29 Q0995 NOSIG,OTBD,2025-08-16T01:00:00Z,25.261,51.565,35,29,60,10,,6+,29.38,,,,,,TRUE,,,,,CAVOK,,,,,,,,VFR,,,,,,,,,,,,METAR,13
OSDI 160100Z 19016KT CAVOK 24/12 Q1008,OSDI,2025-08-16T01:00:00Z,33.411,36.516,24,12,190,16,,6+,29.76,,,,,,,,,,,CAVOK,,,,,,,,VFR,,,,,,,,,,,,METAR,614
OSAP 160100Z 29013KT CAVOK 27/17 Q1005,OSAP,2025-08-16T01:00:00Z,36.183,37.218,27,17,290,13,,6+,29.68,,,,,,,,,,,CAVOK,,,,,,,,VFR,,,,,,,,,,,,METAR,390
ORNI 160100Z 30008KT 6000 NSC 36/M08 Q0996,ORNI,2025-08-16T01:00:00Z,31.99,44.405,36,-8,300,8,,3.73,29.41,,,,,,,,,,,CLR,,,,,,,,MVFR,,,,,,,,,,,,METAR,33
ORMM 160100Z VRB04KT CAVOK 26/05 Q0996,ORMM,2025-08-16T01:00:00Z,30.549,47.662,26,5,VRB,4,,6+,29.41,,,,,,,,,,,CAVOK,,,,,,,,VFR,,,,,,,,,,,,METAR,2
ORBI 160100Z 29005KT 6000 NSC 31/10 Q0996,ORBI,2025-08-16T01:00:00Z,33.263,44.235,31,10,290,5,,3.73,29.41,,,,,,,,,,,CLR,,,,,,,,MVFR,,,,,,,,,,,,METAR,37
OPST 160100Z 00000KT 2000 BR SCT040 SCT100 28/26 Q1002 TEMPO 05015G30KT 1500 TSRA FEW030CB RH88,OPST,2025-08-16T01:00:00Z,32.536,74.364,28,26,0,0,,1.24,29.59,,,,,,,,,,BR,SCT,4000,SCT,10000,,,,,IFR,,,,,,,,,,,,METAR,234
OPPS 160100Z 36010KT 4000 VCTS FEW030CB BKN040 BKN080 28/25 Q10 02,OPPS,2025-08-16T01:00:00Z,33.996,71.515,28,25,360,10,,2.49,0.00,,,,,,,,,,VCTS,FEW,3000,BKN,4000,BKN,8000,,,IFR,,,,,,,,,,,,METAR,356
OPMT 160100Z 18004KT 4000 FU SCT040 BKN100 32/26 Q0999 NOSIG,OPMT,2025-08-16T01:00:00Z,30.203,71.419,32,26,180,4,,2.49,29.50,,,,,,TRUE,,,,FU,SCT,4000,BKN,10000,,,,,IFR,,,,,,,,,,,,METAR,122
OPIS 160100Z 09010KT 2000 BR SCT040 BKN100 27/26 Q1003 TEMPO 09015G35KT 1500 TSRA FEW030CB,OPIS,2025-08-16T01:00:00Z,33.551,72.827,27,26,90,10,,1.24,29.62,,,,,,,,,,BR,SCT,4000,BKN,10000,,,,,IFR,,,,,,,,,,,,METAR,542
OPFA 160100Z 13002KT 4000 FU FEW100 29/27 Q1001 NOSIG,OPFA,2025-08-16T01:00:00Z,31.365,72.995,29,27,130,2,,2.49,29.56,,,,,,TRUE,,,,FU,FEW,10000,,,,,,,IFR,,,,,,,,,,,,METAR,180
OMRK 160100Z 12013KT 8000 NSC 32/23 Q0998,OMRK,2025-08-16T01:00:00Z,25.613,55.939,32,23,120,13,,4.97,29.47,,,,,,,,,,,CLR,,,,,,,,MVFR,,,,,,,,,,,,METAR,18
OMFJ 160100Z 08009KT 6000 SCT025 31/28 Q0999,OMFJ,2025-08-16T01:00:00Z,25.112,56.324,31,28,80,9,,3.73,29.50,,,,,,,,,,,SCT,2500,,,,,,,MVFR,,,,,,,,,,,,METAR,27
OMDW 160100Z 06009KT 7000 NSC 31/24 Q0997 NOSIG,OMDW,2025-08-16T01:00:00Z,24.897,55.161,31,24,60,9,,4.35,29.44,,,,,,TRUE,,,,,CLR,,,,,,,,MVFR,,,,,,,,,,,,METAR,34
OMDB 160100Z 09013KT 040V140 8000 NSC 33/25 Q0997 NOSIG,OMDB,2025-08-16T01:00:00Z,25.254,55.366,33,25,90,13,,4.97,29.44,,,,,,TRUE,,,,,CLR,,,,,,,,MVFR,,,,,,,,,,,,METAR,5
OMAL 160100Z 14008KT 7000 NSC 34/19 Q0999 NOSIG,OMAL,2025-08-16T01:00:00Z,24.262,55.609,34,19,140,8,,4.35,29.50,,,,,,TRUE,,,,,CLR,,,,,,,,MVFR,,,,,,,,,,,,METAR,247
OMAD 160100Z 14011KT 120V180 3500 DU NSC 37/19 Q0995 NOSIG,OMAD,2025-08-16T01:00:00Z,24.428,54.458,37,19,140,11,,2.17,29.38,,,,,,TRUE,,,,DU,CLR,,,,,,,,IFR,,,,,,,,,,,,METAR,9
OMAA 160100Z 14009KT 4000 DU NSC 36/17 Q0995 TEMPO 3000 BLDU,OMAA,2025-08-16T01:00:00Z,24.433,54.651,36,17,140,9,,2.49,29.38,,,,,,,,,,DU,CLR,,,,,,,,IFR,,,,,,,,,,,,METAR,13
OLBA 160100Z 17003KT 8000 NSC 27/13 Q1008 NOSIG,OLBA,2025-08-16T01:00:00Z,33.82,35.491,27,13,170,3,,4.97,29.76,,,,,,TRUE,,,,,CLR,,,,,,,,MVFR,,,,,,,,,,,,METAR,29
OKKK 160100Z 22004KT CAVOK 31/20 Q0996 NOSIG,OKKK,2025-08-16T01:00:00Z,29.227,47.969,31,20,220,4,,6+,29.41,,,,,,TRUE,,,,,CAVOK,,,,,,,,VFR,,,,,,,,,,,,METAR,55
OJAQ 160100Z 36011KT 5000 HZ NSC 30/09 Q1006 NOSIG,OJAQ,2025-08-16T01:00:00Z,29.612,35.018,30,9,360,11,,3.11,29.70,,,,,,TRUE,,,,HZ,CLR,,,,,,,,MVFR,,,,,,,,,,,,METAR,45
OJAM 160100Z 31009KT 7000 NSC 25/10 Q1011 NOSIG,OJAM,2025-08-16T01:00:00Z,31.973,35.992,25,10,310,9,,4.35,29.85,,,,,,TRUE,,,,,CLR,,,,,,,,MVFR,,,,,,,,,,,,METAR,765
OJAI 160100Z 27006KT 4000 HZ NSC 22/09 Q1011 NOSIG,OJAI,2025-08-16T01:00:00Z,31.723,35.993,22,9,270,6,,2.49,29.85,,,,,,TRUE,,,,HZ,CLR,,,,,,,,IFR,,,,,,,,,,,,METAR,723
OIZH 160100Z 17004KT 6000 NSC 22/02 Q1010 A2985,OIZH,2025-08-16T01:00:00Z,29.472,60.901,22,2,170,4,,3.73,29.82,,,,,,,,,,,CLR,,,,,,,,MVFR,,,,,,,,,,,,METAR,1378
OIZB 160100Z 35025G37KT 5000 SA DU NSC 29/08 Q1001,OIZB,2025-08-16T01:00:00Z,31.094,61.546,29,8,350,25,37,3.11,29.56,,,,,,,,,,SA DU,CLR,,,,,,,,MVFR,,,,,,,,,,,,METAR,483
OIYY 160100Z 15006KT CAVOK 30/05 Q1011,OIYY,2025-08-16T01:00:00Z,31.905,54.276,30,5,150,6,,6+,29.85,,,,,,,,,,,CAVOK,,,,,,,,VFR,,,,,,,,,,,,METAR,1226
OITT 160100Z 08012KT 9999 FEW030 FEW032CB 21/12 Q1013 A2993,OITT,2025-08-16T01:00:00Z,38.13,46.24,21,12,80,12,,6+,29.91,,,,,,,,,,,FEW,3000,FEW,3200,,,,,VFR,,,,,,,,,,,,METAR,1353
OITR 160100Z 35004KT CAVOK 18/13 Q1011 A2987,OITR,2025-08-16T01:00:00Z,37.665,45.066,18,13,350,4,,6+,29.85,,,,,,,,,,,CAVOK,,,,,,,,VFR,,,,,,,,,,,,METAR,1312
OITL 160100Z 06014KT 6000 VCFG OVC006 14/13 Q1016,OITL,2025-08-16T01:00:00Z,38.326,48.424,14,13,60,14,,3.73,30.00,,,,,,,,,,VCFG,OVC,600,,,,,,,IFR,,,,,,,,,,,,METAR,1314
OISY 160100Z 00000KT CAVOK 20/07 Q1015,OISY,2025-08-16T01:00:00Z,30.701,51.545,20,7,0,0,,6+,29.97,,,,,,,,,,,CAVOK,,,,,,,,VFR,,,,,,,,,,,,METAR,1800
OISS 160100Z 00000KT CAVOK 24/09 Q1011 A2987,OISS,2025-08-16T01:00:00Z,29.539,52.59,24,9,0,0,,6+,29.85,,,,,,,,,,,CAVOK,,,,,,,,VFR,,,,,,,,,,,,METAR,1484
OISL 160100Z 00000KT CAVOK 29/22 Q1003 A2963,OISL,2025-08-16T01:00:00Z,27.67,54.375,29,22,0,0,,6+,29.62,,,,,,,,,,,CAVOK,,,,,,,,VFR,,,,,,,,,,,,METAR,804
OISF 160100Z 32004KT CAVOK 24/04 Q1010 A2983,OISF,2025-08-16T01:00:00Z,28.895,53.72,24,4,320,4,,6+,29.82,,,,,,,,,,,CAVOK,,,,,,,,VFR,,,,,,,,,,,,METAR,1305
OINZ 160100Z 22004KT 9999 OVC070 24/22 Q1010,OINZ,2025-08-16T01:00:00Z,36.636,53.194,24,22,220,4,,6+,29.82,,,,,,,,,,,OVC,7000,,,,,,,VFR,,,,,,,,,,,,METAR,8
OINR 160100Z 27004KT 9999 FEW020CB BKN025 OVC080 23/20 Q1009,OINR,2025-08-16T01:00:00Z,36.91,50.68,23,20,270,4,,6+,29.79,,,,,,,,,,,FEW,2000,BKN,2500,OVC,8000,,,MVFR,,,,,,,,,,,,METAR,-19
OINN 160100Z 19002KT 9999 FEW023CB BKN026 24/22 Q1008,OINN,2025-08-16T01:00:00Z,36.663,51.465,24,22,190,2,,6+,29.76,,,,,,,,,,,FEW,2300,BKN,2600,,,,,MVFR,,,,,,,,,,,,METAR,-25
OING 160100Z 00000KT 9000 -RA FEW030CB SCT030 OVC080 25/21 Q1010,OING,2025-08-16T01:00:00Z,36.908,54.404,25,21,0,0,,5.59,29.82,,,,,,,,,,-RA,FEW,3000,SCT,3000,OVC,8000,,,VFR,,,,,,,,,,,,METAR,
OIMN 160100Z 29014KT 8000 NSC 21/14 Q1014,OIMN,2025-08-16T01:00:00Z,37.488,57.303,21,14,290,14,,4.97,29.94,,,,,,,,,,,CLR,,,,,,,,MVFR,,,,,,,,,,,,METAR,1065
OIMM 160100Z 01004KT CAVOK 21/08 Q1013 A2992,OIMM,2025-08-16T01:00:00Z,36.236,59.639,21,8,10,4,,6+,29.91,,,,,,,,,,,CAVOK,,,,,,,,VFR,,,,,,,,,,,,METAR,995
OIMB 160100Z 08004KT CAVOK 19/01 Q1013 A2992,OIMB,2025-08-16T01:00:00Z,32.894,59.29,19,1,80,4,,6+,29.91,,,,,,,,,,,CAVOK,,,,,,,,VFR,,,,,,,,,,,,METAR,1512
OIKQ 160100Z 09010KT 4000 BR NSC 31/28 Q0998,OIKQ,2025-08-16T01:00:00Z,26.755,55.902,31,28,90,10,,2.49,29.47,,,,,,,,,,BR,CLR,,,,,,,,IFR,,,,,,,,,,,,METAR,9
OIKK 160100Z 11004KT CAVOK 18/01 Q1014 A2997,OIKK,2025-08-16T01:00:00Z,30.251,56.964,18,1,110,4,,6+,29.94,,,,,,,,,,,CAVOK,,,,,,,,VFR,,,,,,,,,,,,METAR,1749
OIKB 160100Z VRB02KT 4000 HZ SCT025 31/25 Q0999 A2951,OIKB,2025-08-16T01:00:00Z,27.218,56.378,31,25,VRB,2,,2.49,29.50,,,,,,,,,,HZ,SCT,2500,,,,,,,IFR,,,,,,,,,,,,METAR,6
OIIP 160100Z 26010KT CAVOK 22/13 Q1010 A2983,OIIP,2025-08-16T01:00:00Z,35.776,50.827,22,13,260,10,,6+,29.82,,,,,,,,,,,CAVOK,,,,,,,,VFR,,,,,,,,,,,,METAR,1270
OIIK 160100Z 32002KT 9999 FEW035 BKN080 25/14 Q1011 A2987,OIIK,2025-08-16T01:00:00Z,36.243,50.045,25,14,320,2,,6+,29.85,,,,,,,,,,,FEW,3500,BKN,8000,,,,,VFR,,,,,,,,,,,,METAR,1278
OIII 160100Z 00000KT 9999 SCT090 29/08 Q1010 A2984 NOSIG,OIII,2025-08-16T01:00:00Z,35.686,51.304,29,8,0,0,,6+,29.82,,,,,,TRUE,,,,,SCT,9000,,,,,,,VFR,,,,,,,,,,,,METAR,1182
OIIE 160100Z 33008KT 9999 BKN100 26/13 Q1008,OIIE,2025-08-16T01:00:00Z,35.416,51.152,26,13,330,8,,6+,29.76,,,,,,,,,,,BKN,10000,,,,,,,VFR,,,,,,,,,,,,METAR,993
OIHH 160100Z 23002KT 9999 FEW040 21/06 Q1013 A2993,OIHH,2025-08-16T01:00:00Z,34.869,48.553,21,6,230,2,,6+,29.91,,,,,,,,,,,FEW,4000,,,,,,,VFR,,,,,,,,,,,,METAR,1742
OIGG 160100Z 29004KT 8000 FEW015CB SCT035 OVC053 23/23 Q1010,OIGG,2025-08-16T01:00:00Z,37.325,49.606,23,23,290,4,,4.97,29.82,,,,,,,,,,,FEW,1500,SCT,3500,OVC,5300,,,MVFR,,,,,,,,,,,,METAR,-16
OIFS 160100Z 35002KT CAVOK 13/M02 Q1018,OIFS,2025-08-16T01:00:00Z,32.297,50.842,13,-2,350,2,,6+,30.06,,,,,,,,,,,CAVOK,,,,,,,,VFR,,,,,,,,,,,,METAR,2042
OIFM 160100Z 30004KT CAVOK 19/M00 Q1013 A2994,OIFM,2025-08-16T01:00:00Z,32.752,51.866,19,0,300,4,,6+,29.91,,,,,,,,,,,CAVOK,,,,,,,,VFR,,,,,,,,,,,,METAR,1539
OICS 160100Z 01008KT 9999 FEW040 26/07 Q1010 A2983,OICS,2025-08-16T01:00:00Z,35.245,47.009,26,7,10,8,,6+,29.82,,,,,,,,,,,FEW,4000,,,,,,,VFR,,,,,,,,,,,,METAR,1369
OICK 160100Z 13006KT CAVOK 24/02 Q1007 A2975,OICK,2025-08-16T01:00:00Z,33.435,48.283,24,2,130,6,,6+,29.73,,,,,,,,,,,CAVOK,,,,,,,,VFR,,,,,,,,,,,,METAR,1156
OICI 160100Z 10006KT CAVOK 24/02 Q1010 A2983,OICI,2025-08-16T01:00:00Z,33.588,46.397,24,2,100,6,,6+,29.82,,,,,,,,,,,CAVOK,,,,,,,,VFR,,,,,,,,,,,,METAR,1323
OICC 160100Z 21010KT CAVOK 23/00 Q1008 A2979,OICC,2025-08-16T01:00:00Z,34.346,47.158,23,0,210,10,,6+,29.76,,,,,,,,,,,CAVOK,,,,,,,,VFR,,,,,,,,,,,,METAR,1310
OIBS 160100Z 07020KT 2500 BR NSC 32/29 Q0996,OIBS,2025-08-16T01:00:00Z,25.903,54.548,32,29,70,20,,1.55,29.41,,,,,,,,,,BR,CLR,,,,,,,,IFR,,,,,,,,,,,,METAR,4
OIBP 160100Z 00000KT 6000 NSC 31/28 Q0995 A2940,OIBP,2025-08-16T01:00:00Z,27.38,52.738,31,28,0,0,,3.73,29.38,,,,,,,,,,,CLR,,,,,,,,MVFR,,,,,,,,,,,,METAR,13
OIBK 160100Z 12012KT 6000 NSC 32/26 Q0996,OIBK,2025-08-16T01:00:00Z,26.526,53.98,32,26,120,12,,3.73,29.41,,,,,,,,,,,CLR,,,,,,,,MVFR,,,,,,,,,,,,METAR,27
OIBB 160100Z 07004KT 4000 HZ NSC 35/25 Q0995 A2939,OIBB,2025-08-16T01:00:00Z,28.947,50.834,35,25,70,4,,2.49,29.38,,,,,,,,,,HZ,CLR,,,,,,,,IFR,,,,,,,,,,,,METAR,15
OIBA 160100Z 07006KT 3500 BR NSC 32/28 Q0997,OIBA,2025-08-16T01:00:00Z,25.876,55.033,32,28,70,6,,2.17,29.44,,,,,,,,,,BR,CLR,,,,,,,,IFR,,,,,,,,,,,,METAR,7
OIAW 160100Z 17006KT 7000 NSC 33/25 Q0995,OIAW,2025-08-16T01:00:00Z,31.343,48.751,33,25,170,6,,4.35,29.38,,,,,,,,,,,CLR,,,,,,,,MVFR,,,,,,,,,,,,METAR,25
OIAM 160100Z 15004KT 3000 BR NSC 34/30 Q0996,OIAM,2025-08-16T01:00:00Z,30.556,49.152,34,30,150,4,,1.86,29.41,,,,,,,,,,BR,CLR,,,,,,,,IFR,,,,,,,,,,,,METAR,7
OIAH 160100Z VRB02KT CAVOK 29/13 Q1004,OIAH,2025-08-16T01:00:00Z,30.336,50.83,29,13,VRB,2,,6+,29.65,,,,,,,,,,,CAVOK,,,,,,,,VFR,,,,,,,,,,,,METAR,730
OIAG 160100Z 14006KT 7000 NSC 33/18 Q0997,OIAG,2025-08-16T01:00:00Z,30.74,49.684,33,18,140,6,,4.35,29.44,,,,,,,,,,,CLR,,,,,,,,MVFR,,,,,,,,,,,,METAR,17
OIAA 160100Z 14006KT 4000 BR NSC 32/30 Q0995,OIAA,2025-08-16T01:00:00Z,30.366,48.23,32,30,140,6,,2.49,29.38,,,,,,,,,,BR,CLR,,,,,,,,IFR,,,,,,,,,,,,METAR,4
OEYN 160100Z 17006KT 8000 FEW020 32/30 Q0999 NOSIG,OEYN,2025-08-16T01:00:00Z,24.144,38.063,32,30,170,6,,4.97,29.50,,,,,,TRUE,,,,,FEW,2000,,,,,,,MVFR,,,,,,,,,,,,METAR,20
OEWJ 160100Z 00000KT CAVOK 31/25 Q0999 NOSIG,OEWJ,2025-08-16T01:00:00Z,26.199,36.476,31,25,0,0,,6+,29.50,,,,,,TRUE,,,,,CAVOK,,,,,,,,VFR,,,,,,,,,,,,METAR,8
OEWD 160100Z 36009KT CAVOK 32/M12 Q1000,OEWD,2025-08-16T01:00:00Z,20.504,45.197,32,-12,360,9,,6+,29.53,,,,,,,,,,,CAVOK,,,,,,,,VFR,,,,,,,,,,,,METAR,629
OETR 160100Z 32008KT CAVOK 26/02 Q1008 NOSIG,OETR,2025-08-16T01:00:00Z,31.693,38.731,26,2,320,8,,6+,29.76,,,,,,TRUE,,,,,CAVOK,,,,,,,,VFR,,,,,,,,,,,,METAR,854
OETF 160100Z 33010KT 9999 FEW030 28/10 Q1014 NOSIG,OETF,2025-08-16T01:00:00Z,21.483,40.544,28,10,330,10,,6+,29.94,,,,,,TRUE,,,,,FEW,3000,,,,,,,VFR,,,,,,,,,,,,METAR,1460
OETB 160100Z 30006KT 7000 NSC 31/09 Q1009 NOSIG,OETB,2025-08-16T01:00:00Z,28.366,36.619,31,9,300,6,,4.35,29.79,,,,,,TRUE,,,,,CLR,,,,,,,,MVFR,,,,,,,,,,,,METAR,770
OESK 160100Z 30007KT CAVOK 30/M01 Q1009 NOSIG,OESK,2025-08-16T01:00:00Z,29.785,40.1,30,-1,300,7,,6+,29.79,,,,,,TRUE,,,,,CAVOK,,,,,,,,VFR,,,,,,,,,,,,METAR,671
OESH 160100Z 21008KT 8000 SCT040 33/06 Q1002 NOSIG,OESH,2025-08-16T01:00:00Z,17.467,47.121,33,6,210,8,,4.97,29.59,,,,,,TRUE,,,,,SCT,4000,,,,,,,MVFR,,,,,,,,,,,,METAR,720
OERS 160100Z 09005KT CAVOK 31/21 Q0999 NOSIG,OERS,2025-08-16T01:00:00Z,25.6287,37.0878,31,21,90,5,,6+,29.50,,,,,,TRUE,,,,,CAVOK,,,,,,,,VFR,,,,,,,,,,,,METAR,50
OERR 160100Z 30008KT CAVOK 29/M05 Q1004 NOSIG,OERR,2025-08-16T01:00:00Z,30.907,41.138,29,-5,300,8,,6+,29.65,,,,,,TRUE,,,,,CAVOK,,,,,,,,VFR,,,,,,,,,,,,METAR,554
OERK 160100Z 28005KT CAVOK 31/M09 Q1002 NOSIG,OERK,2025-08-16T01:00:00Z,24.945,46.702,31,-9,280,5,,6+,29.59,,,,,,TRUE,,,,,CAVOK,,,,,,,,VFR,,,,,,,,,,,,METAR,618
OERF 160100Z 00000KT 7000 NSC 28/M09 Q1002 NOSIG,OERF,2025-08-16T01:00:00Z,29.626,43.491,28,-9,0,0,,4.35,29.59,,,,,,TRUE,,,,,CLR,,,,,,,,MVFR,,,,,,,,,,,,METAR,441
OEPA 160100Z 04004KT CAVOK 32/M11 Q1000 NOSIG,OEPA,2025-08-16T01:00:00Z,28.335,46.125,32,-11,40,4,,6+,29.53,,,,,,TRUE,,,,,CAVOK,,,,,,,,VFR,,,,,,,,,,,,METAR,361
OENG 160100Z 00000KT 9999 FEW030 SCT090 30/M03 Q1008 NOSIG,OENG,2025-08-16T01:00:00Z,17.611,44.419,30,-3,0,0,,6+,29.76,,,,,,TRUE,,,,,FEW,3000,SCT,9000,,,,,VFR,,,,,,,,,,,,METAR,1210
OEMN 160100Z 00000KT 7000 FEW040 33/25 Q1003,OEMN,2025-08-16T01:00:00Z,-99.99,-99.99,33,25,0,0,,4.35,29.62,,,,,,,,,,,FEW,4000,,,,,,,MVFR,,,,,,,,,,,,METAR,9999
OEMA 160100Z 01006KT CAVOK 32/M08 Q1007 NOSIG,OEMA,2025-08-16T01:00:00Z,24.553,39.705,32,-8,10,6,,6+,29.73,,,,,,TRUE,,,,,CAVOK,,,,,,,,VFR,,,,,,,,,,,,METAR,639
OEKM 160100Z 00000KT CAVOK 20/16 Q1018 NOSIG,OEKM,2025-08-16T01:00:00Z,18.301,42.798,20,16,0,0,,6+,30.06,,,,,,TRUE,,,,,CAVOK,,,,,,,,VFR,,,,,,,,,,,,METAR,2038
OEKJ 160100Z 27004KT CAVOK 32/M03 Q1002,OEKJ,2025-08-16T01:00:00Z,24.0622,47.4112,32,-3,270,4,,6+,29.59,,,,,,,,,,,CAVOK,,,,,,,,VFR,,,,,,,,,,,,METAR,439
OEJN 160100Z 17009KT CAVOK 34/24 Q1001 NOSIG,OEJN,2025-08-16T01:00:00Z,21.685,39.166,34,24,170,9,,6+,29.56,,,,,,TRUE,,,,,CAVOK,,,,,,,,VFR,,,,,,,,,,,,METAR,8
OEHL 160100Z 15002KT CAVOK 25/M12 Q1009,OEHL,2025-08-16T01:00:00Z,27.438,41.686,25,-12,150,2,,6+,29.79,,,,,,,,,,,CAVOK,,,,,,,,VFR,,,,,,,,,,,,METAR,1002
OEGT 160100Z 28008KT CAVOK 27/05 Q1007 NOSIG,OEGT,2025-08-16T01:00:00Z,31.412,37.279,27,5,280,8,,6+,29.73,,,,,,TRUE,,,,,CAVOK,,,,,,,,VFR,,,,,,,,,,,,METAR,512
OEGS 160100Z 29003KT CAVOK 28/M06 Q1004,OEGS,2025-08-16T01:00:00Z,26.303,43.774,28,-6,290,3,,6+,29.65,,,,,,,,,,,CAVOK,,,,,,,,VFR,,,,,,,,,,,,METAR,647
OEGN 160100Z 06004KT 9999 SCT030 33/26 Q1002 NOSIG,OEGN,2025-08-16T01:00:00Z,16.901,42.586,33,26,60,4,,6+,29.59,,,,,,TRUE,,,,,SCT,3000,,,,,,,VFR,,,,,,,,,,,,METAR,5
OEDR 160100Z 09011KT 7000 NSC 34/34 Q0994,OEDR,2025-08-16T01:00:00Z,26.265,50.152,34,34,90,11,,4.35,29.35,,,,,,,,,,,CLR,,,,,,,,MVFR,,,,,,,,,,,,METAR,17
OEDM 160100Z 36011KT CAVOK 27/M14 Q1006,OEDM,2025-08-16T01:00:00Z,24.45,44.121,27,-14,360,11,,6+,29.70,,,,,,,,,,,CAVOK,,,,,,,,VFR,,,,,,,,,,,,METAR,922
OEDF 160100Z 13004KT 6000 NSC 32/29 Q0995 TEMPO 4000,OEDF,2025-08-16T01:00:00Z,26.45,49.817,32,29,130,4,,3.73,29.38,,,,,,,,,,,CLR,,,,,,,,MVFR,,,,,,,,,,,,METAR,15
OEBA 160100Z 32013KT CAVOK 27/13 Q1014 NOSIG,OEBA,2025-08-16T01:00:00Z,20.296,41.634,27,13,320,13,,6+,29.94,,,,,,TRUE,,,,,CAVOK,,,,,,,,VFR,,,,,,,,,,,,METAR,1659
OEAO 160100Z 15002KT CAVOK 32/M05 Q1007 NOSIG,OEAO,2025-08-16T01:00:00Z,26.483,38.117,32,-5,150,2,,6+,29.73,,,,,,TRUE,,,,,CAVOK,,,,,,,,VFR,,,,,,,,,,,,METAR,615
OEAH 160100Z 10003KT CAVOK 32/27 Q0996 NOSIG,OEAH,2025-08-16T01:00:00Z,25.285,49.485,32,27,100,3,,6+,29.41,,,,,,TRUE,,,,,CAVOK,,,,,,,,VFR,,,,,,,,,,,,METAR,180
OEAB 160100Z 00000KT 8000 NSC 20/17 Q1018 NOSIG,OEAB,2025-08-16T01:00:00Z,18.24,42.657,20,17,0,0,,4.97,30.06,,,,,,TRUE,,,,,CLR,,,,,,,,MVFR,,,,,,,,,,,,METAR,2092
OBBI 160100Z 08008KT 9000 NSC 34/29 Q0996 NOSIG,OBBI,2025-08-16T01:00:00Z,26.271,50.634,34,29,80,8,,5.59,29.41,,,,,,TRUE,,,,,CLR,,,,,,,,VFR,,,,,,,,,,,,METAR,6
NZWN 160100Z AUTO 36018KT 9999 NCD 13/07 Q1018,NZWN,2025-08-16T01:00:00Z,-41.331,174.806,13,7,360,18,,6+,30.06,,,TRUE,,,,,,,,CLR,,,,,,,,VFR,,,,,,,,,,,,METAR,12
NZQN 160100Z AUTO 25004KT 210V290 9999 FEW075/// 13/02 Q1011,NZQN,2025-08-16T01:00:00Z,-45.021,168.739,13,2,250,4,,6+,29.85,,,TRUE,,,,,,,,FEW,7500,,,,,,,VFR,,,,,,,,,,,,METAR,356
NZCH 160100Z AUTO 06004KT 010V110 9999 NCD 17/06 Q1013,NZCH,2025-08-16T01:00:00Z,-43.489,172.528,17,6,60,4,,6+,29.91,,,TRUE,,,,,,,,CLR,,,,,,,,VFR,,,,,,,,,,,,METAR,36
NZAA 160100Z AUTO 08014KT 9999 NCD 14/08 Q1017,NZAA,2025-08-16T01:00:00Z,-37.008,174.792,14,8,80,14,,6+,30.03,,,TRUE,,,,,,,,CLR,,,,,,,,VFR,,,,,,,,,,,,METAR,7
NWWW 160100Z AUTO 18004KT 100V250 9999 BKN047 OVC062 23/16 Q1013 NOSIG,NWWW,2025-08-16T01:00:00Z,-22.015,166.213,23,16,180,4,,6+,29.91,,,TRUE,,,TRUE,,,,,BKN,4700,OVC,6200,,,,,VFR,,,,,,,,,,,,METAR,16
NVVW 160100Z 17010KT 9999 SCT018 BKN110 25/21 Q1012,NVVW,2025-08-16T01:00:00Z,-19.455,169.224,25,21,170,10,,6+,29.88,,,,,,,,,,,SCT,1800,BKN,11000,,,,,VFR,,,,,,,,,,,,METAR,5
NVVV 160100Z 24005KT 9999 SCT025 27/21 Q1012,NVVV,2025-08-16T01:00:00Z,-17.695,168.313,27,21,240,5,,6+,29.88,,,,,,,,,,,SCT,2500,,,,,,,VFR,,,,,,,,,,,,METAR,23
NVSS 160100Z 14005KT 9999 BKN020 27/23 Q1011,NVSS,2025-08-16T01:00:00Z,-15.505,167.22,27,23,140,5,,6+,29.85,,,,,,,,,,,BKN,2000,,,,,,,MVFR,,,,,,,,,,,,METAR,47
NTTO 160100Z AUTO 01010KT 9999 FEW025/// 27/21 Q1015,NTTO,2025-08-16T01:00:00Z,-18.075,-140.946,27,21,10,10,,6+,29.97,,,TRUE,,,,,,,,FEW,2500,,,,,,,VFR,,,,,,,,,,,,METAR,3
NTTB 160100Z AUTO 05005KT 9999 FEW033/// BKN040/// BKN058/// 26/24 Q1014 TEMPO 22015G25KT 3000 SHRA,NTTB,2025-08-16T01:00:00Z,-16.445,-151.752,26,24,50,5,,6+,29.94,,,TRUE,,,,,,,,FEW,3300,BKN,4000,BKN,5800,,,VFR,,,,,,,,,,,,METAR,6
NTAT 160100Z AUTO 24017KT 9999 FEW040/// 22/14 Q1015,NTAT,2025-08-16T01:00:00Z,-23.365,-149.524,22,14,240,17,,6+,29.97,,,TRUE,,,,,,,,FEW,4000,,,,,,,VFR,,,,,,,,,,,,METAR,2
NTAA 160100Z AUTO 23006KT 190V260 2900 RA BR SCT011 BKN017 BKN024 25/23 Q1014 BECMG 9999 NSW,NTAA,2025-08-16T01:00:00Z,-17.554,-149.607,25,23,230,6,,1.8,29.94,,,TRUE,,,,,,,RA BR,SCT,1100,BKN,1700,BKN,2400,,,IFR,,,,,,,,,,,,METAR,2
NSFA 160100Z 04013KT 9999 FEW022 SCT040 BKN270 31/25 Q1012,NSFA,2025-08-16T01:00:00Z,-13.829,-171.993,31,25,40,13,,6+,29.88,,,,,,,,,,,FEW,2200,SCT,4000,BKN,27000,,,VFR,,,,,,,,,,,,METAR,6
NIUE 160100Z AUTO 09014KT 060V130 9999 SCT030/// 25/17 Q1016,NIUE,2025-08-16T01:00:00Z,-19.079,-169.926,25,17,90,14,,6+,30.00,,,TRUE,,,,,,,,SCT,3000,,,,,,,VFR,,,,,,,,,,,,METAR,22
NGTA 160100Z 12011KT 9999 SCT019 SCT040 32/23 Q1009,NGTA,2025-08-16T01:00:00Z,1.381,173.147,32,23,120,11,,6+,29.79,,,,,,,,,,,SCT,1900,SCT,4000,,,,,VFR,,,,,,,,,,,,METAR,8
NGFU 160100Z 08004KT 9999 FEW020 BKN300 31/25 Q1011,NGFU,2025-08-16T01:00:00Z,-8.523,179.198,31,25,80,4,,6+,29.85,,,,,,,,,,,FEW,2000,BKN,30000,,,,,VFR,,,,,,,,,,,,METAR,2
NFTV 160100Z 09014G24KT 9999 FEW009 SCT016TCU BKN120 26/20 Q1015,NFTV,2025-08-16T01:00:00Z,-18.585,-173.963,26,20,90,14,24,6+,29.97,,,,,,,,,,,FEW,900,SCT,1600,BKN,12000,,,VFR,,,,,,,,,,,,METAR,71
NFTL 160100Z 07014KT 9999 FEW018 SCT120 BKN270 25/18 Q1015,NFTL,2025-08-16T01:00:00Z,-19.777,-174.34,25,18,70,14,,6+,29.97,,,,,,,,,,,FEW,1800,SCT,12000,BKN,27000,,,VFR,,,,,,,,,,,,METAR,10
NFTF 160100Z 05009KT 9999 -SHRA SCT008 BKN016TCU OVC110 22/20 Q1016,NFTF,2025-08-16T01:00:00Z,-21.241,-175.15,22,20,50,9,,6+,30.00,,,,,,,,,,-SHRA,SCT,800,BKN,1600,OVC,11000,,,MVFR,,,,,,,,,,,,METAR,38
NFNS 160100Z 15003KT 9999 FEW020 SCT120 BKN300 30/25 Q1012,NFNS,2025-08-16T01:00:00Z,-16.803,179.341,30,25,150,3,,6+,29.88,,,,,,,,,,,FEW,2000,SCT,12000,BKN,30000,,,VFR,,,,,,,,,,,,METAR,4
NFNM 160100Z VRB02KT 9999 VCSH FEW017 BKN046 BKN100 28/24 Q1013,NFNM,2025-08-16T01:00:00Z,-16.691,-179.877,28,24,VRB,2,,6+,29.91,,,,,,,,,,VCSH,FEW,1700,BKN,4600,BKN,10000,,,VFR,,,,,,,,,,,,METAR,21
NFNL 160100Z 30011KT 9999 SCT025TCU SCT046 BKN120 29/24 Q1013,NFNL,2025-08-16T01:00:00Z,-16.467,179.339,29,24,300,11,,6+,29.91,,,,,,,,,,,SCT,2500,SCT,4600,BKN,12000,,,VFR,,,,,,,,,,,,METAR,17
NFNA 160100Z 04010KT 9999 BKN018 BKN045 27/24 Q1011,NFNA,2025-08-16T01:00:00Z,-18.043,178.559,27,24,40,10,,6+,29.85,,,,,,,,,,,BKN,1800,BKN,4500,,,,,MVFR,,,,,,,,,,,,METAR,6
NFFN 160100Z 02010KT 9999 FEW012TCU SCT045 BKN100 27/23 Q1012 TEMPO 03015G25KT 3000 +TSRA BKN015 FEW018CB,NFFN,2025-08-16T01:00:00Z,-17.755,177.443,27,23,20,10,,6+,29.88,,,,,,,,,,,FEW,1200,SCT,4500,BKN,10000,,,VFR,,,,,,,,,,,,METAR,14
NCSW 160100Z AUTO NIL,NCSW,2025-08-16T01:00:00Z,-99.99,-99.99,,,,,,,0.00,,,TRUE,,,,,,,,,,,,,,,,,,,,,,,,,,,,METAR,9999
NCRK 160100Z AUTO NIL,NCRK,2025-08-16T01:00:00Z,-10.032,-161.101,,,,,,,0.00,,,TRUE,,,,,,,,,,,,,,,,,,,,,,,,,,,,METAR,7
NCRG 160100Z 14004KT 9999 SCT023 BKN100 23/14 Q1017 RMK DRY AIR 59%,NCRG,2025-08-16T01:00:00Z,-21.203,-159.806,23,14,140,4,,6+,30.03,,,,,,,,,,,SCT,2300,BKN,10000,,,,,VFR,,,,,,,,,,,,METAR,7
NCPY 160100Z AUTO 07013KT //// ////// 29/23 Q1012,NCPY,2025-08-16T01:00:00Z,-9.01,-158.034,29,23,70,13,,,29.88,,,TRUE,,,,,,,,,,,,,,,,,,,,,,,,,,,,METAR,2
NCPL 160100Z AUTO 11005KT //// ////// 26/19 Q1015,NCPL,2025-08-16T01:00:00Z,1.98,-157.48,26,19,110,5,,,29.97,,,TRUE,,,,,,,,,,,,,,,,,,,,,,,,,,,,METAR,3
NCNS 160100Z AUTO NIL,NCNS,2025-08-16T01:00:00Z,-99.99,-99.99,,,,,,,0.00,,,TRUE,,,,,,,,,,,,,,,,,,,,,,,,,,,,METAR,9999
NCMR 160100Z AUTO NIL,NCMR,2025-08-16T01:00:00Z,-19.842,-157.703,,,,,,,0.00,,,TRUE,,,,,,,,,,,,,,,,,,,,,,,,,,,,METAR,8
NCMK 160100Z AUTO NIL,NCMK,2025-08-16T01:00:00Z,-20.137,-157.344,,,,,,,0.00,,,TRUE,,,,,,,,,,,,,,,,,,,,,,,,,,,,METAR,13
NCMH 160100Z AUTO 11005KT //// ////// 30/23 Q1013,NCMH,2025-08-16T01:00:00Z,-10.374,-161.004,30,23,110,5,,,29.91,,,TRUE,,,,,,,,,,,,,,,,,,,,,,,,,,,,METAR,1
NCMG 160100Z AUTO 17006KT //// ////// 21/12 Q1017 RMK DRY AIR 55%,NCMG,2025-08-16T01:00:00Z,-21.896,-157.907,21,12,170,6,,,30.03,,,TRUE,,,,,,,,,,,,,,,,,,,,,,,,,,,,METAR,14
NCAT 160100Z AUTO 14003KT //// ////// 24/17 Q1015,NCAT,2025-08-16T01:00:00Z,-19.968,-158.119,24,17,140,3,,,29.97,,,TRUE,,,,,,,,,,,,,,,,,,,,,,,,,,,,METAR,11
NCAI 160100Z AUTO 10010KT //// ////// 25/18 Q1015,NCAI,2025-08-16T01:00:00Z,-18.829,-159.766,25,18,100,10,,,29.97,,,TRUE,,,,,,,,,,,,,,,,,,,,,,,,,,,,METAR,7
MYSM 160100Z AUTO 10005KT 9999 FEW024/// 29/25 A3008,MYSM,2025-08-16T01:00:00Z,24.064,-74.529,29,25,100,5,,6+,30.08,,,TRUE,,,,,,,,FEW,2400,,,,,,,VFR,,,,,,,,,,,,METAR,5
MYNN 160100Z 08008KT 050V110 9999 SCT020 30/25 A3007 PK WND 11KT,MYNN,2025-08-16T01:00:00Z,25.04,-77.467,30,25,80,8,,6+,30.07,,,,,,,,,,,SCT,2000,,,,,,,VFR,,,,,,,,,,,,METAR,5
MYGF 160100Z AUTO VRB01KT //// R06///// // FEW029/// SCT033/// 29/24 A3006,MYGF,2025-08-16T01:00:00Z,26.555,-78.698,29,24,VRB,1,,,30.06,,,TRUE,,,,,,,,FEW,2900,SCT,3300,,,,,,,,,,,,,,,,,METAR,2
MWCR 160100Z 09005KT 9999 FEW016 30/25 Q1015,MWCR,2025-08-16T01:00:00Z,19.294,-81.357,30,25,90,5,,6+,29.97,,,,,,,,,,,FEW,1600,,,,,,,VFR,,,,,,,,,,,,METAR,4
MSLP 160100Z 32003KT 250V360 9999 FEW030 FEW037CB 28/25 Q1013 A2991 TEMPO 8000 TSRA RMK CB NE,MSLP,2025-08-16T01:00:00Z,13.438,-89.056,28,25,320,3,,6+,29.91,,,,,,,,,,,FEW,3000,FEW,3700,,,,,VFR,,,,,,,,,,,,METAR,25
MROC 160100Z 30003KT 260V340 9999 -RA SCT008 BKN015 22/20 A3009 NOSIG,MROC,2025-08-16T01:00:00Z,9.991,-84.218,22,20,300,3,,6+,30.09,,,,,,TRUE,,,,-RA,SCT,800,BKN,1500,,,,,MVFR,,,,,,,,,,,,METAR,900
MRLB 160100Z 18004KT 130V220 9999 VCTS SCT010 FEW015CB BKN100 23/23 A2995,MRLB,2025-08-16T01:00:00Z,10.589,-85.552,23,23,180,4,,6+,29.95,,,,,,,,,,VCTS,SCT,1000,FEW,1500,BKN,10000,,,VFR,,,,,,,,,,,,METAR,79
MPTO 160100Z 28003KT 230V340 7000 -TSRA SCT005 BKN014CB 25/24 Q1013 NOSIG,MPTO,2025-08-16T01:00:00Z,9.056,-79.391,25,24,280,3,,4.35,29.91,,,,,,TRUE,,,,-TSRA,SCT,500,BKN,1400,,,,,MVFR,,,,,,,,,,,,METAR,7
MPPA 160100Z AUTO VRB03KT 9999 -RA ////// 26/24 Q1012,MPPA,2025-08-16T01:00:00Z,8.909,-79.597,26,24,VRB,3,,6+,29.88,,,TRUE,,,,,,,-RA,,,,,,,,,VFR,,,,,,,,,,,,METAR,1
MPMG 160100Z 31009KT 9999 FEW008 SCT016CB SCT090 26/24 Q1013 RETS NOSIG,MPMG,2025-08-16T01:00:00Z,8.967,-79.555,26,24,310,9,,6+,29.91,,,,,,TRUE,,,,,FEW,800,SCT,1600,SCT,9000,,,VFR,,,,,,,,,,,,METAR,6
MPDA 160100Z VRB02KT 9000 -RA SCT005 SCT014 OVC060 23/22 Q1014 RETS NOSIG,MPDA,2025-08-16T01:00:00Z,8.391,-82.434,23,22,VRB,2,,5.59,29.94,,,,,,TRUE,,,,-RA,SCT,500,SCT,1400,OVC,6000,,,VFR,,,,,,,,,,,,METAR,15
MNMG 160100Z 12006KT 9999 SCT021 SCT070 27/22 Q1013 A2992 NOSIG,MNMG,2025-08-16T01:00:00Z,12.141,-86.177,27,22,120,6,,6+,29.91,,,,,,TRUE,,,,,SCT,2100,SCT,7000,,,,,VFR,,,,,,,,,,,,METAR,59
MKJS 160100Z 23004KT 9999 FEW022CB 28/24 Q1015,MKJS,2025-08-16T01:00:00Z,18.502,-77.915,28,24,230,4,,6+,29.97,,,,,,,,,,,FEW,2200,,,,,,,VFR,,,,,,,,,,,,METAR,3
MKJP 160100Z 36005KT //// ////// 27/23 Q1015 RMK CLD FROM CEILOMETER RWY 30 NCD,MKJP,2025-08-16T01:00:00Z,17.942,-76.798,27,23,360,5,,,29.97,,,,,,,,,,,,,,,,,,,,,,,,,,,,,,,METAR,3
MHTG 160100Z 05007KT 9999 FEW038TCU FEW040CB 26/16 Q1020 A3012 NOSIG RMK CB S SW,MHTG,2025-08-16T01:00:00Z,14.06,-87.216,26,16,50,7,,6+,30.12,,,,,,TRUE,,,,,FEW,3800,FEW,4000,,,,,VFR,,,,,,,,,,,,METAR,1001
MHTE 160100Z 13005KT 8000 TS VCSH SCT026 FEW032CB BKN080 28/25 Q1015 A2997 RMK CB TS SW,MHTE,2025-08-16T01:00:00Z,15.776,-87.473,28,25,130,5,,4.97,29.97,,,,,,,,,,TS VCSH,SCT,2600,FEW,3200,BKN,8000,,,MVFR,,,,,,,,,,,,METAR,7
MHRO 160100Z 04008KT 9999 FEW025 29/25 Q1015 A2997 NOSIG,MHRO,2025-08-16T01:00:00Z,16.316,-86.523,29,25,40,8,,6+,29.97,,,,,,TRUE,,,,,FEW,2500,,,,,,,VFR,,,,,,,,,,,,METAR,6
MHPR 160100Z 31012KT 9000 VCSH SCT046 FEW048CB 26/19 Q1018 A3007 NOSIG,MHPR,2025-08-16T01:00:00Z,14.382,-87.621,26,19,310,12,,5.59,30.06,,,,,,TRUE,,,,VCSH,SCT,4600,FEW,4800,,,,,VFR,,,,,,,,,,,,METAR,628
MHLC 160100Z 08007KT 9999 TS FEW030CB BKN070 28/23 Q1015 A2997 NOSIG,MHLC,2025-08-16T01:00:00Z,15.737,-86.864,28,23,80,7,,6+,29.97,,,,,,TRUE,,,,TS,FEW,3000,BKN,7000,,,,,VFR,,,,,,,,,,,,METAR,13
MHCA 160100Z 11004KT 9999 SCT028TCU 26/21 Q1019 A3009,MHCA,2025-08-16T01:00:00Z,14.875,-85.775,26,21,110,4,,6+,30.09,,,,,,,,,,,SCT,2800,,,,,,,VFR,,,,,,,,,,,,METAR,386
MGPB 160100Z 00000KT 9000 FEW018 BKN200 28/25 Q1014 A2994 RMK HZ,MGPB,2025-08-16T01:00:00Z,15.737,-88.589,28,25,0,0,,5.59,29.94,,,,,,,,,,,FEW,1800,BKN,20000,,,,,VFR,,,,,,,,,,,,METAR,6
MGMM 160100Z 14004KT CAVOK 25/24 Q1016 RMK A3000 FEW090 SCT200,MGMM,2025-08-16T01:00:00Z,16.914,-89.866,25,24,140,4,,6+,30.00,,,,,,,,,,,CAVOK,,,,,,,,VFR,,,,,,,,,,,,METAR,105
MGHT 160100Z 09004KT 9999 SCT026 SCT070 BKN200 20/10,MGHT,2025-08-16T01:00:00Z,15.317,-91.503,20,10,90,4,,6+,0.00,,,,,,,,,,,SCT,2600,SCT,7000,BKN,20000,,,VFR,,,,,,,,,,,,METAR,1875
MGGT 160100Z 02012KT CAVOK 22/14 Q1024 A3024 RMK BKN090 CB/LTNG DIST SE/ESE/S/SSW,MGGT,2025-08-16T01:00:00Z,14.585,-90.526,22,14,20,12,,6+,30.24,,,,,,,,,,,CAVOK,,,,,,,,VFR,,,,,,,,,,,,METAR,1497
MDST 160100Z 12002KT 9999 SCT016 27/25 Q1016,MDST,2025-08-16T01:00:00Z,19.407,-70.614,27,25,120,2,,6+,30.00,,,,,,,,,,,SCT,1600,,,,,,,VFR,,,,,,,,,,,,METAR,175
MDSD 160100Z 02004KT 9999 FEW016CB BKN018 SCT070 26/24 Q1015 CB/SE,MDSD,2025-08-16T01:00:00Z,18.433,-69.667,26,24,20,4,,6+,29.97,,,,,,,,,,,FEW,1600,BKN,1800,SCT,7000,,,MVFR,,,,,,,,,,,,METAR,18
MDPP 160100Z 10006KT 9999 FEW020 28/25 Q1015,MDPP,2025-08-16T01:00:00Z,19.759,-70.571,28,25,100,6,,6+,29.97,,,,,,,,,,,FEW,2000,,,,,,,VFR,,,,,,,,,,,,METAR,9
MDPC 160100Z COR 02004KT 8000 -RA SCT018 28/24 Q1015,MDPC,2025-08-16T01:00:00Z,18.566,-68.356,28,24,20,4,,4.97,29.97,,TRUE,,,,,,,,-RA,SCT,1800,,,,,,,MVFR,,,,,,,,,,,,METAR,10
MDLR 160100Z 36006KT 9999 FEW015CB FEW016 27/24 Q1015 CB/SW,MDLR,2025-08-16T01:00:00Z,18.451,-68.921,27,24,360,6,,6+,29.97,,,,,,,,,,,FEW,1500,FEW,1600,,,,,VFR,,,,,,,,,,,,METAR,66
MDJB 160100Z 00000KT 9999 SCT016 SCT070 24/23 Q1015,MDJB,2025-08-16T01:00:00Z,18.577,-69.984,24,23,0,0,,6+,29.97,,,,,,,,,,,SCT,1600,SCT,7000,,,,,VFR,,,,,,,,,,,,METAR,24
LZZI 160100Z 08002KT CAVOK 17/17 Q1018,LZZI,2025-08-16T01:00:00Z,49.231,18.613,17,17,80,2,,6+,30.06,,,,,,,,,,,CAVOK,,,,,,,,VFR,,,,,,,,,,,,METAR,311
LZTT 160100Z 30002KT CAVOK 15/13 Q1020,LZTT,2025-08-16T01:00:00Z,49.068,20.25,15,13,300,2,,6+,30.12,,,,,,,,,,,CAVOK,,,,,,,,VFR,,,,,,,,,,,,METAR,693
LZPP 160100Z 04004KT CAVOK 19/15 Q1017,LZPP,2025-08-16T01:00:00Z,48.613,17.832,19,15,40,4,,6+,30.03,,,,,,,,,,,CAVOK,,,,,,,,VFR,,,,,,,,,,,,METAR,160
LZKZ 160100Z VRB01KT CAVOK 19/15 Q1017 NOSIG,LZKZ,2025-08-16T01:00:00Z,48.661,21.24,19,15,VRB,1,,6+,30.03,,,,,,TRUE,,,,,CAVOK,,,,,,,,VFR,,,,,,,,,,,,METAR,227
LZIB 160100Z VRB01KT CAVOK 21/15 Q1016 NOSIG,LZIB,2025-08-16T01:00:00Z,48.17,17.207,21,15,VRB,1,,6+,30.00,,,,,,TRUE,,,,,CAVOK,,,,,,,,VFR,,,,,,,,,,,,METAR,129
LYVR 160100Z AUTO 00000KT CAVOK 17/12 Q1015,LYVR,2025-08-16T01:00:00Z,45.147,21.31,17,12,0,0,,6+,29.97,,,TRUE,,,,,,,,CAVOK,,,,,,,,VFR,,,,,,,,,,,,METAR,82
LYTV 160100Z AUTO VRB01KT CAVOK 20/18 Q1013,LYTV,2025-08-16T01:00:00Z,42.405,18.723,20,18,VRB,1,,6+,29.91,,,TRUE,,,,,,,,CAVOK,,,,,,,,VFR,,,,,,,,,,,,METAR,3
LYPG 160100Z 04004KT CAVOK 24/13 Q1013 NOSIG,LYPG,2025-08-16T01:00:00Z,42.359,19.252,24,13,40,4,,6+,29.91,,,,,,TRUE,,,,,CAVOK,,,,,,,,VFR,,,,,,,,,,,,METAR,32
LYNI 160100Z 33002KT CAVOK 21/09 Q1016 NOSIG,LYNI,2025-08-16T01:00:00Z,43.338,21.863,21,9,330,2,,6+,30.00,,,,,,TRUE,,,,,CAVOK,,,,,,,,VFR,,,,,,,,,,,,METAR,197
LYKV 160100Z VRB01KT CAVOK 20/14 Q1016 NOSIG,LYKV,2025-08-16T01:00:00Z,43.818,20.587,20,14,VRB,1,,6+,30.00,,,,,,TRUE,,,,,CAVOK,,,,,,,,VFR,,,,,,,,,,,,METAR,209
LYBT 160100Z 00000KT CAVOK 20/14 Q1015 NOSIG,LYBT,2025-08-16T01:00:00Z,44.935,20.258,20,14,0,0,,6+,29.97,,,,,,TRUE,,,,,CAVOK,,,,,,,,VFR,,,,,,,,,,,,METAR,78
LYBE 160100Z 05004KT CAVOK 21/13 Q1015 NOSIG,LYBE,2025-08-16T01:00:00Z,44.824,20.291,21,13,50,4,,6+,29.97,,,,,,TRUE,,,,,CAVOK,,,,,,,,VFR,,,,,,,,,,,,METAR,93
LUKK 160100Z 03003KT 010V070 CAVOK 18/07 Q1019 NOSIG,LUKK,2025-08-16T01:00:00Z,46.928,28.931,18,7,30,3,,6+,30.09,,,,,,TRUE,,,,,CAVOK,,,,,,,,VFR,,,,,,,,,,,,METAR,102
LRTR 160100Z 10007KT CAVOK 21/13 Q1015 NOSIG,LRTR,2025-08-16T01:00:00Z,45.811,21.333,21,13,100,7,,6+,29.97,,,,,,TRUE,,,,,CAVOK,,,,,,,,VFR,,,,,,,,,,,,METAR,104
LRTM 160100Z AUTO 09005KT 9999 NCD 17/16 Q1018,LRTM,2025-08-16T01:00:00Z,46.468,24.421,17,16,90,5,,6+,30.06,,,TRUE,,,,,,,,CLR,,,,,,,,VFR,,,,,,,,,,,,METAR,289
LRTC 160100Z AUTO 00000KT 9999 NCD 17/13 Q1017,LRTC,2025-08-16T01:00:00Z,45.065,28.716,17,13,0,0,,6+,30.03,,,TRUE,,,,,,,,CLR,,,,,,,,VFR,,,,,,,,,,,,METAR,52
LRSV 160100Z 15004KT CAVOK 17/11 Q1020,LRSV,2025-08-16T01:00:00Z,47.686,26.354,17,11,150,4,,6+,30.12,,,,,,,,,,,CAVOK,,,,,,,,VFR,,,,,,,,,,,,METAR,406
LRSM 160100Z AUTO 17001KT 9999 NCD 18/15 Q1016,LRSM,2025-08-16T01:00:00Z,47.703,22.886,18,15,170,1,,6+,30.00,,,TRUE,,,,,,,,CLR,,,,,,,,VFR,,,,,,,,,,,,METAR,123
LRSB 160100Z 15004KT CAVOK 18/13 Q1018,LRSB,2025-08-16T01:00:00Z,45.789,24.091,18,13,150,4,,6+,30.06,,,,,,,,,,,CAVOK,,,,,,,,VFR,,,,,,,,,,,,METAR,442
LROP 160100Z 06005KT CAVOK 19/12 Q1018 NOSIG,LROP,2025-08-16T01:00:00Z,44.572,26.102,19,12,60,5,,6+,30.06,,,,,,TRUE,,,,,CAVOK,,,,,,,,VFR,,,,,,,,,,,,METAR,92
LROD 160100Z 09006KT CAVOK 21/15 Q1016,LROD,2025-08-16T01:00:00Z,47.036,21.896,21,15,90,6,,6+,30.00,,,,,,,,,,,CAVOK,,,,,,,,VFR,,,,,,,,,,,,METAR,132
LRIA 160100Z 06003KT CAVOK 17/09 Q1019,LRIA,2025-08-16T01:00:00Z,47.164,27.627,17,9,60,3,,6+,30.09,,,,,,,,,,,CAVOK,,,,,,,,VFR,,,,,,,,,,,,METAR,71
LRCV 160100Z 04008KT CAVOK 21/11 Q1016,LRCV,2025-08-16T01:00:00Z,44.31,23.867,21,11,40,8,,6+,30.00,,,,,,,,,,,CAVOK,,,,,,,,VFR,,,,,,,,,,,,METAR,192
LRCL 160100Z 00000KT CAVOK 18/16 Q1018,LRCL,2025-08-16T01:00:00Z,46.783,23.676,18,16,0,0,,6+,30.06,,,,,,,,,,,CAVOK,,,,,,,,VFR,,,,,,,,,,,,METAR,313
LRCK 160100Z 01006KT CAVOK 17/14 Q1017 NOSIG,LRCK,2025-08-16T01:00:00Z,44.362,28.488,17,14,10,6,,6+,30.03,,,,,,TRUE,,,,,CAVOK,,,,,,,,VFR,,,,,,,,,,,,METAR,108
LRBV 160100Z AUTO 22004KT 9999 FEW077/// 16/13 Q1019,LRBV,2025-08-16T01:00:00Z,45.706,25.524,16,13,220,4,,6+,30.09,,,TRUE,,,,,,,,FEW,7700,,,,,,,VFR,,,,,,,,,,,,METAR,538
LRBS 160100Z 07004KT CAVOK 19/14 Q1018 NOSIG,LRBS,2025-08-16T01:00:00Z,44.511,26.078,19,14,70,4,,6+,30.06,,,,,,TRUE,,,,,CAVOK,,,,,,,,VFR,,,,,,,,,,,,METAR,91
LRBM 160100Z AUTO 09003KT 050V110 9999 NCD 19/16 Q1017,LRBM,2025-08-16T01:00:00Z,47.658,23.47,19,16,90,3,,6+,30.03,,,TRUE,,,,,,,,CLR,,,,,,,,VFR,,,,,,,,,,,,METAR,180
LRBC 160100Z 26002KT CAVOK 15/12 Q1019,LRBC,2025-08-16T01:00:00Z,46.522,26.91,15,12,260,2,,6+,30.09,,,,,,,,,,,CAVOK,,,,,,,,VFR,,,,,,,,,,,,METAR,183
LRAR 160100Z AUTO VRB02KT 9999 NCD 22/15 Q1015,LRAR,2025-08-16T01:00:00Z,46.176,21.264,22,15,VRB,2,,6+,29.97,,,TRUE,,,,,,,,CLR,,,,,,,,VFR,,,,,,,,,,,,METAR,102
LQTZ 160100Z 35002KT CAVOK 14/12 Q1016,LQTZ,2025-08-16T01:00:00Z,44.461,18.728,14,12,350,2,,6+,30.00,,,,,,,,,,,CAVOK,,,,,,,,VFR,,,,,,,,,,,,METAR,242
LQSA 160100Z VRB02KT CAVOK 17/11 Q1018,LQSA,2025-08-16T01:00:00Z,43.825,18.331,17,11,VRB,2,,6+,30.06,,,,,,,,,,,CAVOK,,,,,,,,VFR,,,,,,,,,,,,METAR,505
LQMO 160100Z 15004KT CAVOK 21/15 Q1014,LQMO,2025-08-16T01:00:00Z,43.285,17.84,21,15,150,4,,6+,29.94,,,,,,,,,,,CAVOK,,,,,,,,VFR,,,,,,,,,,,,METAR,49
LQBK 160100Z 15004KT CAVOK 17/13 Q1016 NOSIG,LQBK,2025-08-16T01:00:00Z,44.937,17.299,17,13,150,4,,6+,30.00,,,,,,TRUE,,,,,CAVOK,,,,,,,,VFR,,,,,,,,,,,,METAR,114
LPPT 160100Z 31008KT CAVOK 19/16 Q1019,LPPT,2025-08-16T01:00:00Z,38.781,-9.136,19,16,310,8,,6+,30.09,,,,,,,,,,,CAVOK,,,,,,,,VFR,,,,,,,,,,,,METAR,98
LPPS 160100Z 36004KT 330V030 9999 FEW015 20/16 Q1019,LPPS,2025-08-16T01:00:00Z,33.073,-16.35,20,16,360,4,,6+,30.09,,,,,,,,,,,FEW,1500,,,,,,,VFR,,,,,,,,,,,,METAR,89
LPPD 160100Z 34008KT 9999 FEW020 BKN045 20/15 Q1016,LPPD,2025-08-16T01:00:00Z,37.741,-25.698,20,15,340,8,,6+,30.00,,,,,,,,,,,FEW,2000,BKN,4500,,,,,VFR,,,,,,,,,,,,METAR,62
LPOV 160100Z VRB01KT CAVOK 16/15 Q1019,LPOV,2025-08-16T01:00:00Z,40.916,-8.646,16,15,VRB,1,,6+,30.09,,,,,,,,,,,CAVOK,,,,,,,,VFR,,,,,,,,,,,,METAR,16
LPMT 160100Z 32003KT CAVOK 20/16 Q1018,LPMT,2025-08-16T01:00:00Z,38.704,-9.036,20,16,320,3,,6+,30.06,,,,,,,,,,,CAVOK,,,,,,,,VFR,,,,,,,,,,,,METAR,4
LPMR 160100Z VRB01KT 9999 FEW008 16/15 Q1019,LPMR,2025-08-16T01:00:00Z,39.831,-8.887,16,15,VRB,1,,6+,30.09,,,,,,,,,,,FEW,800,,,,,,,VFR,,,,,,,,,,,,METAR,50
LPMA 160100Z 36005KT 9999 SCT016 21/16 Q1019,LPMA,2025-08-16T01:00:00Z,32.698,-16.774,21,16,360,5,,6+,30.09,,,,,,,,,,,SCT,1600,,,,,,,VFR,,,,,,,,,,,,METAR,54
LPLA 160100Z 22003KT 150V300 9999 FEW025 SCT040 20/17 Q1016,LPLA,2025-08-16T01:00:00Z,38.762,-27.091,20,17,220,3,,6+,30.00,,,,,,,,,,,FEW,2500,SCT,4000,,,,,VFR,,,,,,,,,,,,METAR,60
LPBJ 160100Z 26004KT CAVOK 21/17 Q1019,LPBJ,2025-08-16T01:00:00Z,38.073,-7.931,21,17,260,4,,6+,30.09,,,,,,,,,,,CAVOK,,,,,,,,VFR,,,,,,,,,,,,METAR,196
LKTB 160100Z 32004KT CAVOK 20/13 Q1017 NOSIG,LKTB,2025-08-16T01:00:00Z,49.151,16.694,20,13,320,4,,6+,30.03,,,,,,TRUE,,,,,CAVOK,,,,,,,,VFR,,,,,,,,,,,,METAR,233
LKPR 160100Z 34007KT CAVOK 22/17 Q1019 NOSIG,LKPR,2025-08-16T01:00:00Z,50.101,14.26,22,17,340,7,,6+,30.09,,,,,,TRUE,,,,,CAVOK,,,,,,,,VFR,,,,,,,,,,,,METAR,364
LKPD 160100Z 00000KT CAVOK 18/15 Q1017 RMK BLU,LKPD,2025-08-16T01:00:00Z,50.016,15.74,18,15,0,0,,6+,30.03,,,,,,,,,,,CAVOK,,,,,,,,VFR,,,,,,,,,,,,METAR,226
LKNA 160100Z 32008KT CAVOK 21/14 Q1018 NOSIG RMK BLACK,LKNA,2025-08-16T01:00:00Z,49.166,16.125,21,14,320,8,,6+,30.06,,,,,,TRUE,,,,,CAVOK,,,,,,,,VFR,,,,,,,,,,,,METAR,460
LKMT 160100Z 24004KT CAVOK 17/15 Q1017 NOSIG,LKMT,2025-08-16T01:00:00Z,49.696,18.111,17,15,240,4,,6+,30.03,,,,,,TRUE,,,,,CAVOK,,,,,,,,VFR,,,,,,,,,,,,METAR,251
LKLN 160100Z AUTO VRB02KT CAVOK 19/18 Q1020,LKLN,2025-08-16T01:00:00Z,49.675,13.275,19,18,VRB,2,,6+,30.12,,,TRUE,,,,,,,,CAVOK,,,,,,,,VFR,,,,,,,,,,,,METAR,353
LKKV 160100Z 32002KT 9999 FEW070TCU 20/16 Q1021,LKKV,2025-08-16T01:00:00Z,50.202,12.91,20,16,320,2,,6+,30.15,,,,,,,,,,,FEW,7000,,,,,,,VFR,,,,,,,,,,,,METAR,600
LKKB 160100Z 33007KT CAVOK 24/17 Q1019,LKKB,2025-08-16T01:00:00Z,50.123,14.538,24,17,330,7,,6+,30.09,,,,,,,,,,,CAVOK,,,,,,,,VFR,,,,,,,,,,,,METAR,281
LKCV 160100Z VRB02KT CAVOK 19/15 Q1018 NOSIG RMK BLU BLU,LKCV,2025-08-16T01:00:00Z,49.94,15.382,19,15,VRB,2,,6+,30.06,,,,,,TRUE,,,,,CAVOK,,,,,,,,VFR,,,,,,,,,,,,METAR,234
LJPZ 160100Z AUTO 13007KT 9999 NCD 22/14 Q1015,LJPZ,2025-08-16T01:00:00Z,45.473,13.615,22,14,130,7,,6+,29.97,,,TRUE,,,,,,,,CLR,,,,,,,,VFR,,,,,,,,,,,,METAR,2
LJMB 160100Z AUTO VRB01KT 9999 NCD 19/15 Q1018,LJMB,2025-08-16T01:00:00Z,46.48,15.682,19,15,VRB,1,,6+,30.06,,,TRUE,,,,,,,,CLR,,,,,,,,VFR,,,,,,,,,,,,METAR,263
LJLJ 160100Z VRB01KT CAVOK 16/14 Q1018 NOSIG,LJLJ,2025-08-16T01:00:00Z,46.218,14.477,16,14,VRB,1,,6+,30.06,,,,,,TRUE,,,,,CAVOK,,,,,,,,VFR,,,,,,,,,,,,METAR,363
LJCE 160100Z AUTO 31003KT 9999 NCD 18/16 Q1017,LJCE,2025-08-16T01:00:00Z,45.899,15.523,18,16,310,3,,6+,30.03,,,TRUE,,,,,,,,CLR,,,,,,,,VFR,,,,,,,,,,,,METAR,153
LHBP 160100Z 00000KT CAVOK 19/14 Q1016 NOSIG,LHBP,2025-08-16T01:00:00Z,47.437,19.256,19,14,0,0,,6+,30.00,,,,,,TRUE,,,,,CAVOK,,,,,,,,VFR,,,,,,,,,,,,METAR,141
LFYR 160100Z AUTO 03003KT 360V060 CAVOK 22/12 Q1021,LFYR,2025-08-16T01:00:00Z,47.32,1.688,22,12,30,3,,6+,30.15,,,TRUE,,,,,,,,CAVOK,,,,,,,,VFR,,,,,,,,,,,,METAR,83
LFVP 160100Z AUTO 01003KT CAVOK 16/15 Q1016,LFVP,2025-08-16T01:00:00Z,46.764,-56.169,16,15,10,3,,6+,30.00,,,TRUE,,,,,,,,CAVOK,,,,,,,,VFR,,,,,,,,,,,,METAR,5
LFTW 160100Z AUTO 33008KT CAVOK 28/14 Q1016,LFTW,2025-08-16T01:00:00Z,43.757,4.416,28,14,330,8,,6+,30.00,,,TRUE,,,,,,,,CAVOK,,,,,,,,VFR,,,,,,,,,,,,METAR,91
LFTH 160100Z AUTO VRB03KT CAVOK 25/15 Q1015 NOSIG,LFTH,2025-08-16T01:00:00Z,43.094,6.146,25,15,VRB,3,,6+,29.97,,,TRUE,,,TRUE,,,,,CAVOK,,,,,,,,VFR,,,,,,,,,,,,METAR,3
LFSX 160100Z AUTO 29003KT CAVOK 20/18 Q1020,LFSX,2025-08-16T01:00:00Z,47.783,6.364,20,18,290,3,,6+,30.12,,,TRUE,,,,,,,,CAVOK,,,,,,,,VFR,,,,,,,,,,,,METAR,266
LFST 160100Z AUTO 33005KT CAVOK 21/18 Q1020 NOSIG,LFST,2025-08-16T01:00:00Z,48.549,7.64,21,18,330,5,,6+,30.12,,,TRUE,,,TRUE,,,,,CAVOK,,,,,,,,VFR,,,,,,,,,,,,METAR,149
LFSO 160100Z AUTO 33003KT CAVOK 19/16 Q1022,LFSO,2025-08-16T01:00:00Z,48.583,5.955,19,16,330,3,,6+,30.18,,,TRUE,,,,,,,,CAVOK,,,,,,,,VFR,,,,,,,,,,,,METAR,328
LFSN 160100Z AUTO VRB02KT CAVOK 22/15 Q1021,LFSN,2025-08-16T01:00:00Z,48.692,6.231,22,15,VRB,2,,6+,30.15,,,TRUE,,,,,,,,CAVOK,,,,,,,,VFR,,,,,,,,,,,,METAR,214
LFSL 160100Z AUTO 00000KT CAVOK 21/12 Q1020,LFSL,2025-08-16T01:00:00Z,45.04,1.486,21,12,0,0,,6+,30.12,,,TRUE,,,,,,,,CAVOK,,,,,,,,VFR,,,,,,,,,,,,METAR,300
LFSI 160100Z AUTO 30003KT CAVOK 19/15 Q1021,LFSI,2025-08-16T01:00:00Z,48.631,4.904,19,15,300,3,,6+,30.15,,,TRUE,,,,,,,,CAVOK,,,,,,,,VFR,,,,,,,,,,,,METAR,136
LFSD 160100Z AUTO 33006KT CAVOK 23/15 Q1020,LFSD,2025-08-16T01:00:00Z,47.269,5.09,23,15,330,6,,6+,30.12,,,TRUE,,,,,,,,CAVOK,,,,,,,,VFR,,,,,,,,,,,,METAR,218
LFSB 160100Z AUTO VRB02KT CAVOK 20/19 Q1020 NOSIG,LFSB,2025-08-16T01:00:00Z,47.614,7.51,20,19,VRB,2,,6+,30.12,,,TRUE,,,TRUE,,,,,CAVOK,,,,,,,,VFR,,,,,,,,,,,,METAR,262
LFRZ 160100Z AUTO 05008KT 9999 ////// 24/14 Q1020,LFRZ,2025-08-16T01:00:00Z,47.312,-2.163,24,14,50,8,,6+,30.12,,,TRUE,,,,,,,,,,,,,,,,VFR,,,,,,,,,,,,METAR,2
LFRV 160100Z AUTO 05012KT CAVOK 21/15 Q1021,LFRV,2025-08-16T01:00:00Z,47.722,-2.727,21,15,50,12,,6+,30.15,,,TRUE,,,,,,,,CAVOK,,,,,,,,VFR,,,,,,,,,,,,METAR,132
LFRT 160100Z AUTO 04004KT CAVOK 17/17 Q1022,LFRT,2025-08-16T01:00:00Z,48.536,-2.853,17,17,40,4,,6+,30.18,,,TRUE,,,,,,,,CAVOK,,,,,,,,VFR,,,,,,,,,,,,METAR,134
LFRS 160100Z AUTO 06006KT CAVOK 26/13 Q1020 NOSIG,LFRS,2025-08-16T01:00:00Z,47.15,-1.609,26,13,60,6,,6+,30.12,,,TRUE,,,TRUE,,,,,CAVOK,,,,,,,,VFR,,,,,,,,,,,,METAR,26
LFRQ 160100Z AUTO 06008KT CAVOK 22/16 Q1020,LFRQ,2025-08-16T01:00:00Z,47.975,-4.168,22,16,60,8,,6+,30.12,,,TRUE,,,,,,,,CAVOK,,,,,,,,VFR,,,,,,,,,,,,METAR,94
LFRN 160100Z AUTO 05004KT CAVOK 22/16 Q1021 NOSIG,LFRN,2025-08-16T01:00:00Z,48.069,-1.734,22,16,50,4,,6+,30.15,,,TRUE,,,TRUE,,,,,CAVOK,,,,,,,,VFR,,,,,,,,,,,,METAR,35
LFRM 160100Z AUTO 02007KT //// // NSC 22/16 Q1022,LFRM,2025-08-16T01:00:00Z,47.949,0.202,22,16,20,7,,,30.18,,,TRUE,,,,,,,,CLR,,,,,,,,,,,,,,,,,,,,METAR,51
LFRL 160100Z AUTO 08011KT 050V110 CAVOK 22/15 Q1020,LFRL,2025-08-16T01:00:00Z,48.279,-4.439,22,15,80,11,,6+,30.12,,,TRUE,,,,,,,,CAVOK,,,,,,,,VFR,,,,,,,,,,,,METAR,80
LFRK 160100Z AUTO VRB02KT 8000 NSC 16/16 Q1024,LFRK,2025-08-16T01:00:00Z,49.18,-0.456,16,16,VRB,2,,4.97,30.24,,,TRUE,,,,,,,,CLR,,,,,,,,MVFR,,,,,,,,,,,,METAR,66
LFRJ 160100Z AUTO 07009KT CAVOK 18/15 Q1021,LFRJ,2025-08-16T01:00:00Z,48.527,-4.138,18,15,70,9,,6+,30.15,,,TRUE,,,,,,,,CAVOK,,,,,,,,VFR,,,,,,,,,,,,METAR,109
LFRI 160100Z AUTO 08010KT CAVOK 27/16 Q1019,LFRI,2025-08-16T01:00:00Z,46.702,-1.379,27,16,80,10,,6+,30.09,,,TRUE,,,,,,,,CAVOK,,,,,,,,VFR,,,,,,,,,,,,METAR,89
LFRH 160100Z AUTO 06011KT CAVOK 23/15 Q1020 NOSIG,LFRH,2025-08-16T01:00:00Z,47.761,-3.44,23,15,60,11,,6+,30.12,,,TRUE,,,TRUE,,,,,CAVOK,,,,,,,,VFR,,,,,,,,,,,,METAR,46
LFRG 160100Z AUTO 05004KT 020V090 CAVOK 18/16 Q1024,LFRG,2025-08-16T01:00:00Z,49.365,0.154,18,16,50,4,,6+,30.24,,,TRUE,,,,,,,,CAVOK,,,,,,,,VFR,,,,,,,,,,,,METAR,146
LFRD 160100Z AUTO 07006KT CAVOK 19/16 Q1022 NOSIG,LFRD,2025-08-16T01:00:00Z,48.589,-2.075,19,16,70,6,,6+,30.18,,,TRUE,,,TRUE,,,,,CAVOK,,,,,,,,VFR,,,,,,,,,,,,METAR,56
LFRC 160100Z AUTO 09009KT CAVOK 18/16 Q1024,LFRC,2025-08-16T01:00:00Z,49.65,-1.47,18,16,90,9,,6+,30.24,,,TRUE,,,,,,,,CAVOK,,,,,,,,VFR,,,,,,,,,,,,METAR,137
LFRB 160100Z AUTO 07010KT CAVOK 20/16 Q1021 NOSIG,LFRB,2025-08-16T01:00:00Z,48.444,-4.412,20,16,70,10,,6+,30.15,,,TRUE,,,TRUE,,,,,CAVOK,,,,,,,,VFR,,,,,,,,,,,,METAR,91
LFQQ 160100Z AUTO 36009KT 9999 OVC009 18/16 Q1024 TEMPO 4500 BR OVC003,LFQQ,2025-08-16T01:00:00Z,50.562,3.089,18,16,360,9,,6+,30.24,,,TRUE,,,,,,,,OVC,900,,,,,,,IFR,,,,,,,,,,,,METAR,43
LFPV 160100Z AUTO 04007KT 360V070 CAVOK 21/15 Q1023 NOSIG,LFPV,2025-08-16T01:00:00Z,48.77,2.205,21,15,40,7,,6+,30.21,,,TRUE,,,TRUE,,,,,CAVOK,,,,,,,,VFR,,,,,,,,,,,,METAR,171
LFPT 160100Z AUTO 02005KT CAVOK 19/15 Q1023,LFPT,2025-08-16T01:00:00Z,49.097,2.041,19,15,20,5,,6+,30.21,,,TRUE,,,,,,,,CAVOK,,,,,,,,VFR,,,,,,,,,,,,METAR,91
LFPO 160100Z AUTO 02008KT CAVOK 22/15 Q1022 NOSIG,LFPO,2025-08-16T01:00:00Z,48.717,2.384,22,15,20,8,,6+,30.18,,,TRUE,,,TRUE,,,,,CAVOK,,,,,,,,VFR,,,,,,,,,,,,METAR,88
LFPN 160100Z AUTO 03006KT CAVOK 20/15 Q1023,LFPN,2025-08-16T01:00:00Z,48.752,2.114,20,15,30,6,,6+,30.21,,,TRUE,,,,,,,,CAVOK,,,,,,,,VFR,,,,,,,,,,,,METAR,152
LFPM 160100Z AUTO 01006KT CAVOK 19/14 Q1022,LFPM,2025-08-16T01:00:00Z,48.611,2.68,19,14,10,6,,6+,30.18,,,TRUE,,,,,,,,CAVOK,,,,,,,,VFR,,,,,,,,,,,,METAR,91
LFPG 160100Z 01007KT CAVOK 20/15 Q1023 NOSIG,LFPG,2025-08-16T01:00:00Z,49.015,2.534,20,15,10,7,,6+,30.21,,,,,,TRUE,,,,,CAVOK,,,,,,,,VFR,,,,,,,,,,,,METAR,107
LFPB 160100Z AUTO VRB01KT CAVOK 20/15 Q1023 NOSIG,LFPB,2025-08-16T01:00:00Z,48.967,2.428,20,15,VRB,1,,6+,30.21,,,TRUE,,,TRUE,,,,,CAVOK,,,,,,,,VFR,,,,,,,,,,,,METAR,50
LFOZ 160100Z AUTO 03006KT 010V070 CAVOK 21/12 Q1022,LFOZ,2025-08-16T01:00:00Z,47.897,2.163,21,12,30,6,,6+,30.18,,,TRUE,,,,,,,,CAVOK,,,,,,,,VFR,,,,,,,,,,,,METAR,121
LFOV 160100Z AUTO 01007KT CAVOK 20/15 Q1022,LFOV,2025-08-16T01:00:00Z,48.031,-0.746,20,15,10,7,,6+,30.18,,,TRUE,,,,,,,,CAVOK,,,,,,,,VFR,,,,,,,,,,,,METAR,99
LFOP 160100Z AUTO 02007KT CAVOK 17/15 Q1024,LFOP,2025-08-16T01:00:00Z,49.383,1.182,17,15,20,7,,6+,30.24,,,TRUE,,,,,,,,CAVOK,,,,,,,,VFR,,,,,,,,,,,,METAR,149
LFOK 160100Z AUTO 01006KT CAVOK 17/13 Q1022 NOSIG,LFOK,2025-08-16T01:00:00Z,48.777,4.165,17,13,10,6,,6+,30.18,,,TRUE,,,TRUE,,,,,CAVOK,,,,,,,,VFR,,,,,,,,,,,,METAR,166
LFOJ 160100Z AUTO 03009KT CAVOK 19/11 Q1021 NOSIG,LFOJ,2025-08-16T01:00:00Z,47.985,1.754,19,11,30,9,,6+,30.15,,,TRUE,,,TRUE,,,,,CAVOK,,,,,,,,VFR,,,,,,,,,,,,METAR,122
LFOH 160100Z AUTO 09007KT CAVOK 18/16 Q1024,LFOH,2025-08-16T01:00:00Z,49.533,0.091,18,16,90,7,,6+,30.24,,,TRUE,,,,,,,,CAVOK,,,,,,,,VFR,,,,,,,,,,,,METAR,87
LFOE 160100Z AUTO 03006KT CAVOK 19/15 Q1024 NOSIG,LFOE,2025-08-16T01:00:00Z,49.025,1.222,19,15,30,6,,6+,30.24,,,TRUE,,,TRUE,,,,,CAVOK,,,,,,,,VFR,,,,,,,,,,,,METAR,132
LFOB 160100Z AUTO 36005KT CAVOK 18/15 Q1024 NOSIG,LFOB,2025-08-16T01:00:00Z,49.454,2.113,18,15,360,5,,6+,30.24,,,TRUE,,,TRUE,,,,,CAVOK,,,,,,,,VFR,,,,,,,,,,,,METAR,99
LFOA 160100Z AUTO 05010KT CAVOK 24/14 Q1021,LFOA,2025-08-16T01:00:00Z,47.052,2.642,24,14,50,10,,6+,30.15,,,TRUE,,,,,,,,CAVOK,,,,,,,,VFR,,,,,,,,,,,,METAR,174
LFMY 160100Z AUTO 00000KT 9999 ////// 22/17 Q1015,LFMY,2025-08-16T01:00:00Z,43.604,5.108,22,17,0,0,,6+,29.97,,,TRUE,,,,,,,,,,,,,,,,VFR,,,,,,,,,,,,METAR,57
LFMV 160100Z AUTO 35004KT CAVOK 28/16 Q1015,LFMV,2025-08-16T01:00:00Z,43.911,4.903,28,16,350,4,,6+,29.97,,,TRUE,,,,,,,,CAVOK,,,,,,,,VFR,,,,,,,,,,,,METAR,33
LFMU 160100Z AUTO VRB03KT CAVOK 25/16 Q1016,LFMU,2025-08-16T01:00:00Z,43.322,3.353,25,16,VRB,3,,6+,30.00,,,TRUE,,,,,,,,CAVOK,,,,,,,,VFR,,,,,,,,,,,,METAR,14
LFMT 160100Z AUTO 30005KT CAVOK 28/15 Q1016 NOSIG,LFMT,2025-08-16T01:00:00Z,43.577,3.963,28,15,300,5,,6+,30.00,,,TRUE,,,TRUE,,,,,CAVOK,,,,,,,,VFR,,,,,,,,,,,,METAR,1
LFMP 160100Z AUTO 04006KT 340V050 CAVOK 27/13 Q1017,LFMP,2025-08-16T01:00:00Z,42.737,2.873,27,13,40,6,,6+,30.03,,,TRUE,,,,,,,,CAVOK,,,,,,,,VFR,,,,,,,,,,,,METAR,41
LFMO 160100Z AUTO 31006KT 290V350 CAVOK 27/16 Q1016 NOSIG,LFMO,2025-08-16T01:00:00Z,44.144,4.861,27,16,310,6,,6+,30.00,,,TRUE,,,TRUE,,,,,CAVOK,,,,,,,,VFR,,,,,,,,,,,,METAR,56
LFMN 160100Z 33009KT CAVOK 27/16 Q1015 NOSIG,LFMN,2025-08-16T01:00:00Z,43.658,7.216,27,16,330,9,,6+,29.97,,,,,,TRUE,,,,,CAVOK,,,,,,,,VFR,,,,,,,,,,,,METAR,4
LFML 160100Z AUTO VRB02KT CAVOK 25/18 Q1015 NOSIG,LFML,2025-08-16T01:00:00Z,43.438,5.216,25,18,VRB,2,,6+,29.97,,,TRUE,,,TRUE,,,,,CAVOK,,,,,,,,VFR,,,,,,,,,,,,METAR,20
LFMK 160100Z AUTO VRB02KT CAVOK 23/13 Q1018,LFMK,2025-08-16T01:00:00Z,43.214,2.31,23,13,VRB,2,,6+,30.06,,,TRUE,,,,,,,,CAVOK,,,,,,,,VFR,,,,,,,,,,,,METAR,124
LFMI 160100Z AUTO 03003KT CAVOK 24/20 Q1015 NOSIG,LFMI,2025-08-16T01:00:00Z,43.516,4.935,24,20,30,3,,6+,29.97,,,TRUE,,,TRUE,,,,,CAVOK,,,,,,,,VFR,,,,,,,,,,,,METAR,20
LFMH 160100Z AUTO VRB01KT CAVOK 20/14 Q1021,LFMH,2025-08-16T01:00:00Z,45.533,4.293,20,14,VRB,1,,6+,30.15,,,TRUE,,,,,,,,CAVOK,,,,,,,,VFR,,,,,,,,,,,,METAR,400
LFMD 160100Z AUTO 35003KT 320V020 CAVOK 24/15 Q1015,LFMD,2025-08-16T01:00:00Z,43.544,6.953,24,15,350,3,,6+,29.97,,,TRUE,,,,,,,,CAVOK,,,,,,,,VFR,,,,,,,,,,,,METAR,2
LFMC 160100Z AUTO VRB02KT CAVOK 24/15 Q1016,LFMC,2025-08-16T01:00:00Z,43.383,6.386,24,15,VRB,2,,6+,30.00,,,TRUE,,,,,,,,CAVOK,,,,,,,,VFR,,,,,,,,,,,,METAR,79
LFLY 160100Z AUTO VRB02KT CAVOK 24/17 Q1019 NOSIG,LFLY,2025-08-16T01:00:00Z,45.726,4.938,24,17,VRB,2,,6+,30.09,,,TRUE,,,TRUE,,,,,CAVOK,,,,,,,,VFR,,,,,,,,,,,,METAR,197
LFLX 160100Z AUTO 03006KT CAVOK 24/15 Q1021 NOSIG,LFLX,2025-08-16T01:00:00Z,46.87,1.741,24,15,30,6,,6+,30.15,,,TRUE,,,TRUE,,,,,CAVOK,,,,,,,,VFR,,,,,,,,,,,,METAR,157
LFLW 160100Z AUTO 00000KT CAVOK 18/12 Q1022,LFLW,2025-08-16T01:00:00Z,44.899,2.421,18,12,0,0,,6+,30.18,,,TRUE,,,,,,,,CAVOK,,,,,,,,VFR,,,,,,,,,,,,METAR,638
LFLS 160100Z AUTO 13006KT CAVOK 20/15 Q1020,LFLS,2025-08-16T01:00:00Z,45.363,5.329,20,15,130,6,,6+,30.12,,,TRUE,,,,,,,,CAVOK,,,,,,,,VFR,,,,,,,,,,,,METAR,386
LFLP 160100Z AUTO 05003KT 360V070 CAVOK 19/16 Q1021,LFLP,2025-08-16T01:00:00Z,45.93,6.106,19,16,50,3,,6+,30.15,,,TRUE,,,,,,,,CAVOK,,,,,,,,VFR,,,,,,,,,,,,METAR,460
LFLN 160100Z AUTO 16002KT CAVOK 20/16 Q1020,LFLN,2025-08-16T01:00:00Z,46.412,4.025,20,16,160,2,,6+,30.12,,,TRUE,,,,,,,,CAVOK,,,,,,,,VFR,,,,,,,,,,,,METAR,238
LFLL 160100Z 36004KT CAVOK 24/17 Q1019 NOSIG,LFLL,2025-08-16T01:00:00Z,45.726,5.078,24,17,360,4,,6+,30.09,,,,,,TRUE,,,,,CAVOK,,,,,,,,VFR,,,,,,,,,,,,METAR,234
LFLC 160100Z AUTO VRB02KT CAVOK 23/15 Q1021 NOSIG,LFLC,2025-08-16T01:00:00Z,45.787,3.169,23,15,VRB,2,,6+,30.15,,,TRUE,,,TRUE,,,,,CAVOK,,,,,,,,VFR,,,,,,,,,,,,METAR,325
LFLB 160100Z AUTO VRB02KT CAVOK 18/17 Q1020,LFLB,2025-08-16T01:00:00Z,45.637,5.883,18,17,VRB,2,,6+,30.12,,,TRUE,,,,,,,,CAVOK,,,,,,,,VFR,,,,,,,,,,,,METAR,234
LFKS 160100Z AUTO 29004KT 250V320 CAVOK 26/17 Q1015,LFKS,2025-08-16T01:00:00Z,41.924,9.406,26,17,290,4,,6+,29.97,,,TRUE,,,,,,,,CAVOK,,,,,,,,VFR,,,,,,,,,,,,METAR,22
LFKJ 160100Z AUTO 03005KT 360V060 CAVOK 24/19 Q1015 NOSIG,LFKJ,2025-08-16T01:00:00Z,41.924,8.803,24,19,30,5,,6+,29.97,,,TRUE,,,TRUE,,,,,CAVOK,,,,,,,,VFR,,,,,,,,,,,,METAR,9
LFKF 160100Z AUTO 04004KT CAVOK 20/19 Q1015,LFKF,2025-08-16T01:00:00Z,41.501,9.098,20,19,40,4,,6+,29.97,,,TRUE,,,,,,,,CAVOK,,,,,,,,VFR,,,,,,,,,,,,METAR,15
LFKC 160100Z AUTO 18004KT 9999 // NSC ///// Q1016,LFKC,2025-08-16T01:00:00Z,42.531,8.793,,,180,4,,6+,30.00,,,TRUE,,,,,,,,CLR,,,,,,,,VFR,,,,,,,,,,,,METAR,38
LFKB 160100Z AUTO 23006KT CAVOK 26/15 Q1015 NOSIG,LFKB,2025-08-16T01:00:00Z,42.553,9.484,26,15,230,6,,6+,29.97,,,TRUE,,,TRUE,,,,,CAVOK,,,,,,,,VFR,,,,,,,,,,,,METAR,7
LFJR 160100Z AUTO 06005KT CAVOK 23/12 Q1021,LFJR,2025-08-16T01:00:00Z,47.562,-0.317,23,12,60,5,,6+,30.15,,,TRUE,,,,,,,,CAVOK,,,,,,,,VFR,,,,,,,,,,,,METAR,50
LFJL 160100Z AUTO 36005KT CAVOK 21/14 Q1022 NOSIG,LFJL,2025-08-16T01:00:00Z,48.982,6.251,21,14,360,5,,6+,30.18,,,TRUE,,,TRUE,,,,,CAVOK,,,,,,,,VFR,,,,,,,,,,,,METAR,259
LFGJ 160100Z AUTO 36004KT CAVOK 23/17 Q1020,LFGJ,2025-08-16T01:00:00Z,47.044,5.427,23,17,360,4,,6+,30.12,,,TRUE,,,,,,,,CAVOK,,,,,,,,VFR,,,,,,,,,,,,METAR,191
LFCR 160100Z AUTO 14003KT CAVOK 19/15 Q1022 NOSIG,LFCR,2025-08-16T01:00:00Z,44.41,2.483,19,15,140,3,,6+,30.18,,,TRUE,,,TRUE,,,,,CAVOK,,,,,,,,VFR,,,,,,,,,,,,METAR,576
LFCK 160100Z AUTO 14004KT 100V160 CAVOK 24/14 Q1019,LFCK,2025-08-16T01:00:00Z,43.556,2.289,24,14,140,4,,6+,30.09,,,TRUE,,,,,,,,CAVOK,,,,,,,,VFR,,,,,,,,,,,,METAR,223
LFBZ 160100Z AUTO 26004KT CAVOK 25/16 Q1017 TEMPO 27015G25KT BECMG BKN005,LFBZ,2025-08-16T01:00:00Z,43.469,-1.534,25,16,260,4,,6+,30.03,,,TRUE,,,,,,,,CAVOK,,,,,,,,VFR,,,,,,,,,,,,METAR,70
LFBY 160100Z AUTO 09005KT //// // ////// 22/18 Q1016,LFBY,2025-08-16T01:00:00Z,43.69,-1.07,22,18,90,5,,,30.00,,,TRUE,,,,,,,,,,,,,,,,,,,,,,,,,,,,METAR,32
LFBX 160100Z AUTO 11002KT CAVOK 20/16 Q1018,LFBX,2025-08-16T01:00:00Z,45.196,0.815,20,16,110,2,,6+,30.06,,,TRUE,,,,,,,,CAVOK,,,,,,,,VFR,,,,,,,,,,,,METAR,97
LFBU 160100Z AUTO 02008KT CAVOK 27/15 Q1019,LFBU,2025-08-16T01:00:00Z,45.728,0.22,27,15,20,8,,6+,30.09,,,TRUE,,,,,,,,CAVOK,,,,,,,,VFR,,,,,,,,,,,,METAR,124
LFBT 160100Z AUTO 17006KT CAVOK 24/08 Q1019 NOSIG,LFBT,2025-08-16T01:00:00Z,43.189,,24,8,170,6,,6+,30.09,,,TRUE,,,TRUE,,,,,CAVOK,,,,,,,,VFR,,,,,,,,,,,,METAR,359
LFBP 160100Z AUTO 14004KT CAVOK 22/12 Q1018 NOSIG,LFBP,2025-08-16T01:00:00Z,43.385,-0.416,22,12,140,4,,6+,30.06,,,TRUE,,,TRUE,,,,,CAVOK,,,,,,,,VFR,,,,,,,,,,,,METAR,182
LFBO 160100Z AUTO 22004KT 180V240 CAVOK 24/16 Q1018 NOSIG,LFBO,2025-08-16T01:00:00Z,43.621,1.379,24,16,220,4,,6+,30.06,,,TRUE,,,TRUE,,,,,CAVOK,,,,,,,,VFR,,,,,,,,,,,,METAR,150
LFBM 160100Z AUTO 11003KT CAVOK 22/18 Q1017,LFBM,2025-08-16T01:00:00Z,43.912,-0.507,22,18,110,3,,6+,30.03,,,TRUE,,,,,,,,CAVOK,,,,,,,,VFR,,,,,,,,,,,,METAR,56
LFBL 160100Z AUTO 06009KT CAVOK 26/14 Q1021 NOSIG,LFBL,2025-08-16T01:00:00Z,45.863,1.179,26,14,60,9,,6+,30.15,,,TRUE,,,TRUE,,,,,CAVOK,,,,,,,,VFR,,,,,,,,,,,,METAR,402
LFBI 160100Z AUTO 06006KT CAVOK 26/16 Q1020 NOSIG,LFBI,2025-08-16T01:00:00Z,46.584,0.309,26,16,60,6,,6+,30.12,,,TRUE,,,TRUE,,,,,CAVOK,,,,,,,,VFR,,,,,,,,,,,,METAR,117
LFBH 160100Z AUTO 07012KT CAVOK 28/18 Q1018 NOSIG,LFBH,2025-08-16T01:00:00Z,46.178,-1.193,28,18,70,12,,6+,30.06,,,TRUE,,,TRUE,,,,,CAVOK,,,,,,,,VFR,,,,,,,,,,,,METAR,18
LFBG 160100Z AUTO 05003KT CAVOK 28/17 Q1018 NOSIG,LFBG,2025-08-16T01:00:00Z,45.665,-0.316,28,17,50,3,,6+,30.06,,,TRUE,,,TRUE,,,,,CAVOK,,,,,,,,VFR,,,,,,,,,,,,METAR,28
LFBE 160100Z AUTO 07004KT CAVOK 20/17 Q1017 NOSIG,LFBE,2025-08-16T01:00:00Z,44.826,0.516,20,17,70,4,,6+,30.03,,,TRUE,,,TRUE,,,,,CAVOK,,,,,,,,VFR,,,,,,,,,,,,METAR,49
LFBD 160100Z AUTO 29002KT CAVOK 24/17 Q1017 NOSIG,LFBD,2025-08-16T01:00:00Z,44.831,-0.691,24,17,290,2,,6+,30.03,,,TRUE,,,TRUE,,,,,CAVOK,,,,,,,,VFR,,,,,,,,,,,,METAR,48
LFBC 160100Z AUTO 02003KT CAVOK 24/15 Q1016,LFBC,2025-08-16T01:00:00Z,44.533,-1.125,24,15,20,3,,6+,30.00,,,TRUE,,,,,,,,CAVOK,,,,,,,,VFR,,,,,,,,,,,,METAR,22
LFAT 160100Z AUTO 01005KT 250V050 5000 BR BKN010 BKN150 OVC220 18/17 Q1025,LFAT,2025-08-16T01:00:00Z,50.515,1.623,18,17,10,5,,3.11,30.27,,,TRUE,,,,,,,BR,BKN,1000,BKN,15000,OVC,22000,,,MVFR,,,,,,,,,,,,METAR,2
LFAQ 160100Z AUTO 01008KT 9000 NSC 18/16 Q1024,LFAQ,2025-08-16T01:00:00Z,49.972,2.704,18,16,10,8,,5.59,30.24,,,TRUE,,,,,,,,CLR,,,,,,,,VFR,,,,,,,,,,,,METAR,107
LFAC 160100Z AUTO 03011KT 9999 OVC014 18/16 Q1026,LFAC,2025-08-16T01:00:00Z,50.962,1.955,18,16,30,11,,6+,30.30,,,TRUE,,,,,,,,OVC,1400,,,,,,,MVFR,,,,,,,,,,,,METAR,3
LEZL 160100Z AUTO 21005KT 190V250 CAVOK 30/15 Q1017,LEZL,2025-08-16T01:00:00Z,37.418,-5.893,30,15,210,5,,6+,30.03,,,TRUE,,,,,,,,CAVOK,,,,,,,,VFR,,,,,,,,,,,,METAR,26
LEZG 160100Z VRB02KT CAVOK 26/13 Q1018 NOSIG,LEZG,2025-08-16T01:00:00Z,41.661,-1.004,26,13,VRB,2,,6+,30.06,,,,,,TRUE,,,,,CAVOK,,,,,,,,VFR,,,,,,,,,,,,METAR,245
LEXJ 160100Z AUTO 26007KT 230V290 9000 NSC 24/19 Q1018,LEXJ,2025-08-16T01:00:00Z,43.429,-3.831,24,19,260,7,,5.59,30.06,,,TRUE,,,,,,,,CLR,,,,,,,,VFR,,,,,,,,,,,,METAR,1
LEVX 160100Z AUTO 32003KT 280V360 CAVOK 16/15 Q1020,LEVX,2025-08-16T01:00:00Z,42.239,-8.624,16,15,320,3,,6+,30.12,,,TRUE,,,,,,,,CAVOK,,,,,,,,VFR,,,,,,,,,,,,METAR,253
LEVT 160100Z 00000KT 9999 FEW070 21/16 Q1020,LEVT,2025-08-16T01:00:00Z,42.872,-2.733,21,16,0,0,,6+,30.12,,,,,,,,,,,FEW,7000,,,,,,,VFR,,,,,,,,,,,,METAR,501
LEVS 160100Z AUTO 36002KT CAVOK 28/09 Q1022,LEVS,2025-08-16T01:00:00Z,40.371,-3.785,28,9,360,2,,6+,30.18,,,TRUE,,,,,,,,CAVOK,,,,,,,,VFR,,,,,,,,,,,,METAR,683
LEVD 160100Z AUTO 13003KT 090V150 9999 SCT020 20/05 Q1023,LEVD,2025-08-16T01:00:00Z,41.706,-4.852,20,5,130,3,,6+,30.21,,,TRUE,,,,,,,,SCT,2000,,,,,,,VFR,,,,,,,,,,,,METAR,844
LEVC 160100Z 24003KT CAVOK 25/17 Q1018 NOSIG,LEVC,2025-08-16T01:00:00Z,39.489,-0.482,25,17,240,3,,6+,30.06,,,,,,TRUE,,,,,CAVOK,,,,,,,,VFR,,,,,,,,,,,,METAR,58
LETU 160100Z AUTO /////KT //// // ///////// ///// Q////,LETU,2025-08-16T01:00:00Z,-99.99,-99.99,,,,,,,0.00,,,TRUE,,,,,,,,,,,,,,,,,,,,,,,,,,,,METAR,9999
LETO 160100Z 04004KT CAVOK 24/08 Q1021 NOSIG,LETO,2025-08-16T01:00:00Z,40.489,-3.451,24,8,40,4,,6+,30.15,,,,,,TRUE,,,,,CAVOK,,,,,,,,VFR,,,,,,,,,,,,METAR,598
LETL 160100Z AUTO 14005KT CAVOK 21/08 Q1026,LETL,2025-08-16T01:00:00Z,40.404,-1.218,21,8,140,5,,6+,30.30,,,TRUE,,,,,,,,CAVOK,,,,,,,,VFR,,,,,,,,,,,,METAR,1024
LEST 160100Z VRB01KT 5000 1000N R17/0750D R35/P2000 BCFG SCT003 15/14 Q1021 TEMPO 0800,LEST,2025-08-16T01:00:00Z,42.888,-8.411,15,14,VRB,1,,3.11,30.15,,,,,,,,,,BCFG,SCT,300,,,,,,,MVFR,,,,,,,,,,,,METAR,363
LESO 160100Z AUTO 21003KT 150V320 CAVOK 26/19 Q1017,LESO,2025-08-16T01:00:00Z,43.361,-1.787,26,19,210,3,,6+,30.03,,,TRUE,,,,,,,,CAVOK,,,,,,,,VFR,,,,,,,,,,,,METAR,3
LESB 160100Z AUTO 34002KT CAVOK 25/16 Q1017,LESB,2025-08-16T01:00:00Z,39.599,2.703,25,16,340,2,,6+,30.03,,,TRUE,,,,,,,,CAVOK,,,,,,,,VFR,,,,,,,,,,,,METAR,48
LESA 160100Z AUTO VRB02KT CAVOK 17/15 Q1023,LESA,2025-08-16T01:00:00Z,40.96,-5.498,17,15,VRB,2,,6+,30.21,,,TRUE,,,,,,,,CAVOK,,,,,,,,VFR,,,,,,,,,,,,METAR,788
LERT 160100Z 11013KT CAVOK 30/13 Q1016 NOSIG,LERT,2025-08-16T01:00:00Z,36.645,-6.349,30,13,110,13,,6+,30.00,,,,,,TRUE,,,,,CAVOK,,,,,,,,VFR,,,,,,,,,,,,METAR,27
LERS 160100Z AUTO VRB01KT CAVOK 22/20 Q1018,LERS,2025-08-16T01:00:00Z,41.15,1.179,22,20,VRB,1,,6+,30.06,,,TRUE,,,,,,,,CAVOK,,,,,,,,VFR,,,,,,,,,,,,METAR,68
LEPP 160100Z AUTO VRB01KT CAVOK 22/10 Q1020,LEPP,2025-08-16T01:00:00Z,42.777,-1.65,22,10,VRB,1,,6+,30.12,,,TRUE,,,,,,,,CAVOK,,,,,,,,VFR,,,,,,,,,,,,METAR,448
LEPA 160100Z 05001KT CAVOK 24/21 Q1017 NOSIG,LEPA,2025-08-16T01:00:00Z,39.561,2.737,24,21,50,1,,6+,30.03,,,,,,TRUE,,,,,CAVOK,,,,,,,,VFR,,,,,,,,,,,,METAR,8
LEMI 160100Z AUTO 29006KT CAVOK 24/12 Q1020,LEMI,2025-08-16T01:00:00Z,37.803,-1.125,24,12,290,6,,6+,30.12,,,TRUE,,,,,,,,CAVOK,,,,,,,,VFR,,,,,,,,,,,,METAR,193
LEMH 160100Z AUTO 30004KT CAVOK 23/21 Q1017,LEMH,2025-08-16T01:00:00Z,39.855,4.216,23,21,300,4,,6+,30.03,,,TRUE,,,,,,,,CAVOK,,,,,,,,VFR,,,,,,,,,,,,METAR,82
LEMG 160100Z 30004KT CAVOK 24/16 Q1020 NOSIG,LEMG,2025-08-16T01:00:00Z,36.666,-4.482,24,16,300,4,,6+,30.12,,,,,,TRUE,,,,,CAVOK,,,,,,,,VFR,,,,,,,,,,,,METAR,5
LEMD 160100Z 34002KT CAVOK 24/10 Q1021 NOSIG,LEMD,2025-08-16T01:00:00Z,40.466,-3.555,24,10,340,2,,6+,30.15,,,,,,TRUE,,,,,CAVOK,,,,,,,,VFR,,,,,,,,,,,,METAR,589
LELO 160100Z AUTO VRB01KT CAVOK 22/16 Q1019,LELO,2025-08-16T01:00:00Z,42.4523,-2.3309,22,16,VRB,1,,6+,30.09,,,TRUE,,,,,,,,CAVOK,,,,,,,,VFR,,,,,,,,,,,,METAR,352
LELN 160100Z AUTO 36004KT 300V030 CAVOK 17/08 Q1023,LELN,2025-08-16T01:00:00Z,42.588,-5.651,17,8,360,4,,6+,30.21,,,TRUE,,,,,,,,CAVOK,,,,,,,,VFR,,,,,,,,,,,,METAR,911
LELL 160100Z AUTO VRB01KT CAVOK 24/15 Q1018,LELL,2025-08-16T01:00:00Z,41.521,2.105,24,15,VRB,1,,6+,30.06,,,TRUE,,,,,,,,CAVOK,,,,,,,,VFR,,,,,,,,,,,,METAR,136
LELC 160100Z AUTO 28005KT 9000 NCD 22/18 Q1019,LELC,2025-08-16T01:00:00Z,37.775,-0.812,22,18,280,5,,5.59,30.09,,,TRUE,,,,,,,,CLR,,,,,,,,VFR,,,,,,,,,,,,METAR,3
LEJR 160100Z AUTO 01004KT CAVOK 24/13 Q1017,LEJR,2025-08-16T01:00:00Z,36.751,-6.056,24,13,10,4,,6+,30.03,,,TRUE,,,,,,,,CAVOK,,,,,,,,VFR,,,,,,,,,,,,METAR,25
LEIB 160100Z 30003KT CAVOK 24/18 Q1018 NOSIG,LEIB,2025-08-16T01:00:00Z,38.876,1.384,24,18,300,3,,6+,30.06,,,,,,TRUE,,,,,CAVOK,,,,,,,,VFR,,,,,,,,,,,,METAR,4
LEHC 160100Z AUTO 06003KT 030V100 CAVOK 25/11 Q1021,LEHC,2025-08-16T01:00:00Z,42.082,-0.324,25,11,60,3,,6+,30.15,,,TRUE,,,,,,,,CAVOK,,,,,,,,VFR,,,,,,,,,,,,METAR,540
LEGT 160100Z AUTO 09007KT CAVOK 25/08 Q1021,LEGT,2025-08-16T01:00:00Z,40.299,-3.723,25,8,90,7,,6+,30.15,,,TRUE,,,,,,,,CAVOK,,,,,,,,VFR,,,,,,,,,,,,METAR,619
LEGR 160100Z AUTO VRB01KT CAVOK 23/08 Q1023,LEGR,2025-08-16T01:00:00Z,37.19,-3.789,23,8,VRB,1,,6+,30.21,,,TRUE,,,,,,,,CAVOK,,,,,,,,VFR,,,,,,,,,,,,METAR,560
LEGE 160100Z VRB01KT CAVOK 21/16 Q1017 NOSIG,LEGE,2025-08-16T01:00:00Z,41.911,2.763,21,16,VRB,1,,6+,30.03,,,,,,TRUE,,,,,CAVOK,,,,,,,,VFR,,,,,,,,,,,,METAR,140
LEDA 160100Z AUTO 06007KT CAVOK 25/17 Q1019,LEDA,2025-08-16T01:00:00Z,41.734,0.538,25,17,60,7,,6+,30.09,,,TRUE,,,,,,,,CAVOK,,,,,,,,VFR,,,,,,,,,,,,METAR,352
LECO 160100Z AUTO 00000KT CAVOK 17/16 Q1020,LECO,2025-08-16T01:00:00Z,43.307,-8.372,17,16,0,0,,6+,30.12,,,TRUE,,,,,,,,CAVOK,,,,,,,,VFR,,,,,,,,,,,,METAR,80
LECH 160100Z AUTO 20003KT 170V230 CAVOK 23/13 Q1020,LECH,2025-08-16T01:00:00Z,40.211,0.067,23,13,200,3,,6+,30.12,,,TRUE,,,,,,,,CAVOK,,,,,,,,VFR,,,,,,,,,,,,METAR,360
LEBT 160100Z AUTO VRB02KT CAVOK 22/13 Q1018,LEBT,2025-08-16T01:00:00Z,39.58,-0.45,22,13,VRB,2,,6+,30.06,,,TRUE,,,,,,,,CAVOK,,,,,,,,VFR,,,,,,,,,,,,METAR,50
LEBR 160100Z AUTO 13005KT 090V150 CAVOK 24/12 Q1018,LEBR,2025-08-16T01:00:00Z,42.2,-1.43,24,12,130,5,,6+,30.06,,,TRUE,,,,,,,,CAVOK,,,,,,,,VFR,,,,,,,,,,,,METAR,347
LEBL 160100Z 31009KT 9999 FEW035 27/17 Q1017 NOSIG,LEBL,2025-08-16T01:00:00Z,41.293,2.07,27,17,310,9,,6+,30.03,,,,,,TRUE,,,,,FEW,3500,,,,,,,VFR,,,,,,,,,,,,METAR,2
LEBG 160100Z AUTO VRB02KT CAVOK 21/12 Q1023,LEBG,2025-08-16T01:00:00Z,42.356,-3.622,21,12,VRB,2,,6+,30.21,,,TRUE,,,,,,,,CAVOK,,,,,,,,VFR,,,,,,,,,,,,METAR,892
LEBB 160100Z AUTO 06005KT 010V080 CAVOK 25/22 Q1018,LEBB,2025-08-16T01:00:00Z,43.298,-2.906,25,22,60,5,,6+,30.06,,,TRUE,,,,,,,,CAVOK,,,,,,,,VFR,,,,,,,,,,,,METAR,38
LEBA 160100Z AUTO 00000KT CAVOK 27/10 Q1018,LEBA,2025-08-16T01:00:00Z,37.842,-4.849,27,10,0,0,,6+,30.06,,,TRUE,,,,,,,,CAVOK,,,,,,,,VFR,,,,,,,,,,,,METAR,88
LEAS 160100Z AUTO 31010KT 0050 R29/0350N R11/0225N FG VV001 18/18 Q1020,LEAS,2025-08-16T01:00:00Z,43.567,-6.044,18,18,310,10,,0.03,30.12,,,TRUE,,,,,,,FG,OVX,0,,,,,,,LIFR,,,,,,,,,,,100,METAR,120
LEAM 160100Z AUTO VRB02KT CAVOK 26/20 Q1019,LEAM,2025-08-16T01:00:00Z,36.846,-2.357,26,20,VRB,2,,6+,30.09,,,TRUE,,,,,,,,CAVOK,,,,,,,,VFR,,,,,,,,,,,,METAR,16
LEAL 160100Z 27004KT CAVOK 26/16 Q1018 NOSIG,LEAL,2025-08-16T01:00:00Z,38.282,-0.558,26,16,270,4,,6+,30.06,,,,,,TRUE,,,,,CAVOK,,,,,,,,VFR,,,,,,,,,,,,METAR,26
LEAG 160100Z AUTO 07007KT CAVOK 25/22 Q1019,LEAG,2025-08-16T01:00:00Z,36.129,-5.441,25,22,70,7,,6+,30.09,,,TRUE,,,,,,,,CAVOK,,,,,,,,VFR,,,,,,,,,,,,METAR,4
LEAB 160100Z 14006KT 110V170 CAVOK 24/10 Q1023 NOSIG,LEAB,2025-08-16T01:00:00Z,38.952,-1.863,24,10,140,6,,6+,30.21,,,,,,TRUE,,,,,CAVOK,,,,,,,,VFR,,,,,,,,,,,,METAR,704
LDZD 160100Z 32005KT CAVOK 20/13 Q1013,LDZD,2025-08-16T01:00:00Z,44.108,15.347,20,13,320,5,,6+,29.91,,,,,,,,,,,CAVOK,,,,,,,,VFR,,,,,,,,,,,,METAR,82
LDZA 160100Z 26002KT CAVOK 18/15 Q1016 NOSIG,LDZA,2025-08-16T01:00:00Z,45.729,16.054,18,15,260,2,,6+,30.00,,,,,,TRUE,,,,,CAVOK,,,,,,,,VFR,,,,,,,,,,,,METAR,103
LDSP 160100Z AUTO 35003KT CAVOK 23/16 Q1013,LDSP,2025-08-16T01:00:00Z,43.539,16.301,23,16,350,3,,6+,29.91,,,TRUE,,,,,,,,CAVOK,,,,,,,,VFR,,,,,,,,,,,,METAR,16
LDRI 160100Z 03005KT 020V080 CAVOK 29/13 Q1015,LDRI,2025-08-16T01:00:00Z,45.218,14.573,29,13,30,5,,6+,29.97,,,,,,,,,,,CAVOK,,,,,,,,VFR,,,,,,,,,,,,METAR,80
LDPL 160100Z AUTO 03008KT CAVOK 26/13 Q1014,LDPL,2025-08-16T01:00:00Z,44.894,13.922,26,13,30,8,,6+,29.94,,,TRUE,,,,,,,,CAVOK,,,,,,,,VFR,,,,,,,,,,,,METAR,63
LDDU 160100Z 07010KT CAVOK 23/15 Q1013,LDDU,2025-08-16T01:00:00Z,42.56,18.269,23,15,70,10,,6+,29.91,,,,,,,,,,,CAVOK,,,,,,,,VFR,,,,,,,,,,,,METAR,156
LCPH 160100Z AUTO 08003KT 9999 SCT014 BKN021 25/20 Q1005 NOSIG,LCPH,2025-08-16T01:00:00Z,34.715,32.479,25,20,80,3,,6+,29.68,,,TRUE,,,TRUE,,,,,SCT,1400,BKN,2100,,,,,MVFR,,,,,,,,,,,,METAR,8
LCLK 160100Z 27003KT CAVOK 25/15 Q1004 NOSIG,LCLK,2025-08-16T01:00:00Z,34.874,33.617,25,15,270,3,,6+,29.65,,,,,,TRUE,,,,,CAVOK,,,,,,,,VFR,,,,,,,,,,,,METAR,2
LBPL 160100Z 12006KT 9999 SKC 20/10 Q1016,LBPL,2025-08-16T01:00:00Z,43.453,24.504,20,10,120,6,,6+,30.00,,,,,,,,,,,SKC,,,,,,,,VFR,,,,,,,,,,,,METAR,93
LBPG 160100Z 33006KT 9999 SCT100 18/10 Q1017,LBPG,2025-08-16T01:00:00Z,42.289,24.714,18,10,330,6,,6+,30.03,,,,,,,,,,,SCT,10000,,,,,,,VFR,,,,,,,,,,,,METAR,198
KSAN 160100Z 21007KT 190V270 10SM BKN016 19/15 A2997 RMK AO2 T01940150,KSAN,2025-08-16T01:00:00Z,32.7365,-117.197,19.4,15,210,7,,10+,29.97,,,,TRUE,,,,,,,BKN,1600,,,,,,,MVFR,,,,,,,,,,,,SPECI,3
KPMH 160100Z 35002KT 10SM CLR 25/22 A3010 RMK AO2,KPMH,2025-08-16T01:00:00Z,38.8387,-82.8493,25,22,350,2,,10+,30.10,,,,TRUE,,,,,,,CLR,,,,,,,,VFR,,,,,,,,,,,,METAR,200
KOXB 160100Z AUTO 07005KT 10SM BKN011 26/23 A3012 RMK AO2 T02560233,KOXB,2025-08-16T01:00:00Z,38.3091,-75.1234,25.6,23.3,70,5,,10+,30.12,,,TRUE,TRUE,,,,,,,BKN,1100,,,,,,,MVFR,,,,,,,,,,,,SPECI,2
KMHV 160100Z AUTO 28015G22KT 10SM CLR 32/M01 A2992 RMK AO2,KMHV,2025-08-16T01:00:00Z,35.0626,-118.157,32,-1,280,15,22,10+,29.92,,,TRUE,TRUE,,,,,,,CLR,,,,,,,,VFR,,,,,,,,,,,,METAR,841
KDVN 160100Z AUTO 21011G17KT 10SM TS FEW065 BKN110 22/20 A3009 RMK AO2 LTG DSNT ALQDS RAE0059 TSB0054 P0000 T02170200,KDVN,2025-08-16T01:00:00Z,41.6133,-90.5948,21.7,20,210,11,17,10+,30.09,,,TRUE,TRUE,,,,,,TS,FEW,6500,BKN,11000,,,,,VFR,,,,,,0.005,,,,,,SPECI,227
KDMA 160100Z AUTO 16015KT 10SM SCT130 32/14 A2999 RMK AO2 WSHFT 0048 LTG DSNT E AND S-SW SLP151 $,KDMA,2025-08-16T01:00:00Z,32.165,-110.887,32,14,160,15,,10+,29.99,1015.1,,TRUE,TRUE,TRUE,,,,,,SCT,13000,,,,,,,VFR,,,,,,,,,,,,SPECI,804
KDBQ 160100Z 24013G23KT 10SM -RA FEW008 SCT065 BKN080 21/19 A3006 RMK AO2 WSHFT 0046 LTG DSNT S AND SW P0000 T02060194,KDBQ,2025-08-16T01:00:00Z,42.3984,-90.7092,20.6,19.4,240,13,23,10+,30.06,,,,TRUE,,,,,,-RA,FEW,800,SCT,6500,BKN,8000,,,VFR,,,,,,0.005,,,,,,SPECI,317
KCUT 160100Z AUTO 00000KT 10SM FEW120 24/12 A3014 RMK AO2 LTG DSNT NW-NE T02440117 $,KCUT,2025-08-16T01:00:00Z,43.7331,-103.615,24.4,11.7,0,0,,10+,30.14,,,TRUE,TRUE,TRUE,,,,,,FEW,12000,,,,,,,VFR,,,,,,,,,,,,SPECI,1700
HESW 160100Z 36010KT CAVOK 23/21 Q1011,HESW,2025-08-16T01:00:00Z,29.346,25.507,23,21,360,10,,6+,29.85,,,,,,,,,,,CAVOK,,,,,,,,VFR,,,,,,,,,,,,METAR,101
HECA 160100Z 35011KT 9999 SCT025 26/23 Q1008 NOSIG,HECA,2025-08-16T01:00:00Z,30.133,31.405,26,23,350,11,,6+,29.76,,,,,,TRUE,,,,,SCT,2500,,,,,,,VFR,,,,,,,,,,,,METAR,142
HAAB 160100Z 33003KT 9999 FEW024 13/12 Q1025,HAAB,2025-08-16T01:00:00Z,8.978,38.799,13,12,330,3,,6+,30.27,,,,,,,,,,,FEW,2400,,,,,,,VFR,,,,,,,,,,,,METAR,2319
GVSV 160100Z 05010KT 9999 SCT020 26/21 Q1014 NOSIG,GVSV,2025-08-16T01:00:00Z,16.833,-25.055,26,21,50,10,,6+,29.94,,,,,,TRUE,,,,,SCT,2000,,,,,,,VFR,,,,,,,,,,,,METAR,16
GVNP 160100Z 03006KT 9999 SCT018 BKN100 26/23 Q1014 NOSIG,GVNP,2025-08-16T01:00:00Z,14.947,-23.484,26,23,30,6,,6+,29.94,,,,,,TRUE,,,,,SCT,1800,BKN,10000,,,,,VFR,,,,,,,,,,,,METAR,70
GVAC 160100Z 05007KT 9999 BKN015 SCT100 26/22 Q1014 NOSIG,GVAC,2025-08-16T01:00:00Z,16.742,-22.949,26,22,50,7,,6+,29.94,,,,,,TRUE,,,,,BKN,1500,SCT,10000,,,,,MVFR,,,,,,,,,,,,METAR,54
GUCY 160100Z 20006KT 9999 SCT013 BKN100 25/24 Q1014 NOSIG,GUCY,2025-08-16T01:00:00Z,9.577,-13.612,25,24,200,6,,6+,29.94,,,,,,TRUE,,,,,SCT,1300,BKN,10000,,,,,VFR,,,,,,,,,,,,METAR,10
GQPP 160100Z 34006KT 310V010 6000 BKN005 24/21 Q1014 NOSIG,GQPP,2025-08-16T01:00:00Z,20.929,-17.031,24,21,340,6,,3.73,29.94,,,,,,TRUE,,,,,BKN,500,,,,,,,IFR,,,,,,,,,,,,METAR,5
GQNO 160100Z 33008KT 8000 TS FEW013 FEW030CB 27/24 Q1012 NOSIG,GQNO,2025-08-16T01:00:00Z,18.31,-15.97,27,24,330,8,,4.97,29.88,,,,,,TRUE,,,,TS,FEW,1300,FEW,3000,,,,,MVFR,,,,,,,,,,,,METAR,1
GOTT 160100Z 18004KT CAVOK 25/24 Q1014,GOTT,2025-08-16T01:00:00Z,13.733,-13.657,25,24,180,4,,6+,29.94,,,,,,,,,,,CAVOK,,,,,,,,VFR,,,,,,,,,,,,METAR,53
GOSS 160100Z VRB02KT 8000 TS BKN015 FEW030CB 27/26 Q1013,GOSS,2025-08-16T01:00:00Z,16.051,-16.461,27,26,VRB,2,,4.97,29.91,,,,,,,,,,TS,BKN,1500,FEW,3000,,,,,MVFR,,,,,,,,,,,,METAR,3
GOSP 160100Z 00000KT 9999 FEW010 27/25 Q1012 RETS,GOSP,2025-08-16T01:00:00Z,16.677,-14.964,27,25,0,0,,6+,29.88,,,,,,,,,,,FEW,1000,,,,,,,VFR,,,,,,,,,,,,METAR,10
GOOY 160100Z 06004KT 010V070 9000 -TSRA SCT013 FEW015TCU FEW030CB 26/25 Q1013,GOOY,2025-08-16T01:00:00Z,14.741,-17.49,26,25,60,4,,5.59,29.91,,,,,,,,,,-TSRA,SCT,1300,FEW,1500,FEW,3000,,,VFR,,,,,,,,,,,,METAR,21
GOGG 160100Z 22008KT 9999 FEW015 25/25 Q1014,GOGG,2025-08-16T01:00:00Z,12.556,-16.282,25,25,220,8,,6+,29.94,,,,,,,,,,,FEW,1500,,,,,,,VFR,,,,,,,,,,,,METAR,24
GOBD 160100Z 12005KT 9999 TS SCT016 FEW025CB 26/26 Q1013 NOSIG,GOBD,2025-08-16T01:00:00Z,14.671,-17.067,26,26,120,5,,6+,29.91,,,,,,TRUE,,,,TS,SCT,1600,FEW,2500,,,,,VFR,,,,,,,,,,,,METAR,90
GMTT 160100Z 09012KT CAVOK 27/20 Q1015 NOSIG,GMTT,2025-08-16T01:00:00Z,35.727,-5.917,27,20,90,12,,6+,29.97,,,,,,TRUE,,,,,CAVOK,,,,,,,,VFR,,,,,,,,,,,,METAR,19
GMTN 160100Z VRB01KT 3500 BCFG OVC003 23/22 Q1018 NOSIG,GMTN,2025-08-16T01:00:00Z,35.594,-5.32,23,22,VRB,1,,2.17,30.06,,,,,,TRUE,,,,BCFG,OVC,300,,,,,,,LIFR,,,,,,,,,,,,METAR,10
GMTA 160100Z VRB01KT 8000 SCT015 24/23 Q1018 NOSIG,GMTA,2025-08-16T01:00:00Z,35.177,-3.84,24,23,VRB,1,,4.97,30.06,,,,,,TRUE,,,,,SCT,1500,,,,,,,MVFR,,,,,,,,,,,,METAR,14
GMMZ 160100Z 26007KT 9999 FEW040 SCT100 31/07 Q1023 NOSIG,GMMZ,2025-08-16T01:00:00Z,30.939,-6.909,31,7,260,7,,6+,30.21,,,,,,TRUE,,,,,FEW,4000,SCT,10000,,,,,VFR,,,,,,,,,,,,METAR,1139
GMMX 160100Z 12005KT 9999 SCT090 32/12 Q1016 NOSIG,GMMX,2025-08-16T01:00:00Z,31.607,-8.036,32,12,120,5,,6+,30.00,,,,,,TRUE,,,,,SCT,9000,,,,,,,VFR,,,,,,,,,,,,METAR,465
GMMW 160100Z 12003KT CAVOK 21/18 Q1019 NOSIG,GMMW,2025-08-16T01:00:00Z,34.993,-3.025,21,18,120,3,,6+,30.09,,,,,,TRUE,,,,,CAVOK,,,,,,,,VFR,,,,,,,,,,,,METAR,174
GMMN 160100Z 02007KT 8000 NSC 24/20 Q1016 NOSIG,GMMN,2025-08-16T01:00:00Z,33.367,-7.59,24,20,20,7,,4.97,30.00,,,,,,TRUE,,,,,CLR,,,,,,,,MVFR,,,,,,,,,,,,METAR,196
GMMI 160100Z AUTO VRB02KT 6000 NSC 27/20 Q1013 NOSIG,GMMI,2025-08-16T01:00:00Z,31.406,-9.687,27,20,VRB,2,,3.73,29.91,,,TRUE,,,TRUE,,,,,CLR,,,,,,,,MVFR,,,,,,,,,,,,METAR,102
GMME 160100Z 00000KT 5000 SCT020 22/22 Q1015 NOSIG,GMME,2025-08-16T01:00:00Z,34.051,-6.752,22,22,0,0,,3.11,29.97,,,,,,TRUE,,,,,SCT,2000,,,,,,,MVFR,,,,,,,,,,,,METAR,84
GMMB 160100Z AUTO 03004KT 350V070 9999 NSC 22/22 Q1016 NOSIG,GMMB,2025-08-16T01:00:00Z,33.655,-7.221,22,22,30,4,,6+,30.00,,,TRUE,,,TRUE,,,,,CLR,,,,,,,,VFR,,,,,,,,,,,,METAR,191
GMFO 160100Z 23004KT CAVOK 22/10 Q1021 NOSIG,GMFO,2025-08-16T01:00:00Z,34.787,-1.924,22,10,230,4,,6+,30.15,,,,,,TRUE,,,,,CAVOK,,,,,,,,VFR,,,,,,,,,,,,METAR,452
GMFM 160100Z 16008KT CAVOK 28/12 Q1019 NOSIG,GMFM,2025-08-16T01:00:00Z,33.875,-5.52,28,12,160,8,,6+,30.09,,,,,,TRUE,,,,,CAVOK,,,,,,,,VFR,,,,,,,,,,,,METAR,569
GMFK 160100Z 33007KT 290V360 9999 FEW036 33/02 Q1024 NOSIG,GMFK,2025-08-16T01:00:00Z,31.946,-4.399,33,2,330,7,,6+,30.24,,,,,,TRUE,,,,,FEW,3600,,,,,,,VFR,,,,,,,,,,,,METAR,1033
GMFF 160100Z 16007KT 9999 FEW033 SCT100 33/08 Q1019 NOSIG,GMFF,2025-08-16T01:00:00Z,33.929,-4.976,33,8,160,7,,6+,30.09,,,,,,TRUE,,,,,FEW,3300,SCT,10000,,,,,VFR,,,,,,,,,,,,METAR,575
GMFB 160100Z AUTO 09009KT 060V120 9999 NSC 28/10 Q1023 NOSIG,GMFB,2025-08-16T01:00:00Z,32.514,-1.978,28,10,90,9,,6+,30.21,,,TRUE,,,TRUE,,,,,CLR,,,,,,,,VFR,,,,,,,,,,,,METAR,1106
GMAZ 160100Z 34006KT CAVOK 34/05 Q1018 NOSIG,GMAZ,2025-08-16T01:00:00Z,30.266,-5.854,34,5,340,6,,6+,30.06,,,,,,TRUE,,,,,CAVOK,,,,,,,,VFR,,,,,,,,,,,,METAR,729
GMAG 160100Z AUTO 19005KT CAVOK 24/19 Q1015,GMAG,2025-08-16T01:00:00Z,29.031,-10.051,24,19,190,5,,6+,29.97,,,TRUE,,,,,,,,CAVOK,,,,,,,,VFR,,,,,,,,,,,,METAR,333
GMAD 160100Z 26007KT 8000 NSC 25/20 Q1013 NOSIG,GMAD,2025-08-16T01:00:00Z,30.325,-9.413,25,20,260,7,,4.97,29.91,,,,,,TRUE,,,,,CLR,,,,,,,,MVFR,,,,,,,,,,,,METAR,66
GLRB 160100Z 00000KT 9999 SCT012 25/21 Q1014 NOSIG,GLRB,2025-08-16T01:00:00Z,6.234,-10.362,25,21,0,0,,6+,29.94,,,,,,TRUE,,,,,SCT,1200,,,,,,,VFR,,,,,,,,,,,,METAR,12
GEML 160100Z AUTO 36003KT 340V050 CAVOK 23/21 Q1019,GEML,2025-08-16T01:00:00Z,35.278,-2.956,23,21,360,3,,6+,30.09,,,TRUE,,,,,,,,CAVOK,,,,,,,,VFR,,,,,,,,,,,,METAR,48
GECE 160100Z AUTO 13003KT 060V190 7000 OVC002 24/23 Q1019,GECE,2025-08-16T01:00:00Z,35.893,-5.306,24,23,130,3,,4.35,30.09,,,TRUE,,,,,,,,OVC,200,,,,,,,LIFR,,,,,,,,,,,,METAR,2
GCXO 160100Z AUTO 28013KT 9999 OVC003 19/18 Q1019,GCXO,2025-08-16T01:00:00Z,28.483,-16.342,19,18,280,13,,6+,30.09,,,TRUE,,,,,,,,OVC,300,,,,,,,LIFR,,,,,,,,,,,,METAR,623
GCTS 160100Z 06012KT 9999 FEW025 23/19 Q1016 NOSIG,GCTS,2025-08-16T01:00:00Z,28.047,-16.561,23,19,60,12,,6+,30.00,,,,,,TRUE,,,,,FEW,2500,,,,,,,VFR,,,,,,,,,,,,METAR,59
GCRR 160100Z AUTO 04009KT CAVOK 23/19 Q1015,GCRR,2025-08-16T01:00:00Z,28.952,-13.6,23,19,40,9,,6+,29.97,,,TRUE,,,,,,,,CAVOK,,,,,,,,VFR,,,,,,,,,,,,METAR,9
GCLP 160100Z 02020KT 9999 FEW025 24/20 Q1016 NOSIG,GCLP,2025-08-16T01:00:00Z,27.923,-15.389,24,20,20,20,,6+,30.00,,,,,,TRUE,,,,,FEW,2500,,,,,,,VFR,,,,,,,,,,,,METAR,16
GCLA 160100Z AUTO 32008KT 9999 FEW023 23/18 Q1018,GCLA,2025-08-16T01:00:00Z,28.633,-17.755,23,18,320,8,,6+,30.06,,,TRUE,,,,,,,,FEW,2300,,,,,,,VFR,,,,,,,,,,,,METAR,20
GCHI 160100Z AUTO 35018KT 9999 OVC016 23/20 Q1017,GCHI,2025-08-16T01:00:00Z,27.819,-17.889,23,20,350,18,,6+,30.03,,,TRUE,,,,,,,,OVC,1600,,,,,,,MVFR,,,,,,,,,,,,METAR,21
GCGM 160100Z AUTO 00000KT CAVOK 22/20 Q1016 RMK R09/VRB01KT ARP/00000KT,GCGM,2025-08-16T01:00:00Z,28.032,-17.211,22,20,0,0,,6+,30.00,,,TRUE,,,,,,,,CAVOK,,,,,,,,VFR,,,,,,,,,,,,METAR,217
GCFV 160100Z AUTO 01012KT 9999 SCT012 23/20 Q1016,GCFV,2025-08-16T01:00:00Z,28.445,-13.863,23,20,10,12,,6+,30.00,,,TRUE,,,,,,,,SCT,1200,,,,,,,VFR,,,,,,,,,,,,METAR,11
GBYD 160100Z VRB02KT 9000 -TSRA BKN010 FEW018CB BKN100 24/24 Q1013 CB/NW,GBYD,2025-08-16T01:00:00Z,13.341,-16.653,24,24,VRB,2,,5.59,29.91,,,,,,,,,,-TSRA,BKN,1000,FEW,1800,BKN,10000,,,MVFR,,,,,,,,,,,,METAR,29
GABS 160100Z 01002KT 9999 TS FEW008 FEW015CB 24/23 Q1016 BECMG NSW,GABS,2025-08-16T01:00:00Z,12.534,-7.95,24,23,10,2,,6+,30.00,,,,,,,,,,TS,FEW,800,FEW,1500,,,,,VFR,,,,,,,,,,,,METAR,375
FZAA 160100Z 27004KT 6000 NSC 22/15 Q1016 NOSIG,FZAA,2025-08-16T01:00:00Z,-4.387,15.448,22,15,270,4,,3.73,30.00,,,,,,TRUE,,,,,CLR,,,,,,,,MVFR,,,,,,,,,,,,METAR,309
FYWH 160100Z 25004KT CAVOK 02/M12 Q1022 NOSIG,FYWH,2025-08-16T01:00:00Z,-22.481,17.47,2,-12,250,4,,6+,30.18,,,,,,TRUE,,,,,CAVOK,,,,,,,,VFR,,,,,,,,,,,,METAR,1699
FYRU 160100Z AUTO 25001KT //// // ////// 13/M00 Q1020,FYRU,2025-08-16T01:00:00Z,-17.956,19.724,13,0,250,1,,,30.12,,,TRUE,,,,,,,,,,,,,,,,,,,,,,,,,,,,METAR,1104
FYOG 160100Z AUTO 12002KT 9999 -RA SCT008/// OVC014/// 12/12 Q1021,FYOG,2025-08-16T01:00:00Z,-28.585,16.447,12,12,120,2,,6+,30.15,,,TRUE,,,,,,,-RA,SCT,800,OVC,1400,,,,,MVFR,,,,,,,,,,,,METAR,6
FYOA 160100Z AUTO 24001KT //// // ////// 11/M11 Q1017,FYOA,2025-08-16T01:00:00Z,-17.878,15.953,11,-11,240,1,,,30.03,,,TRUE,,,,,,,,,,,,,,,,,,,,,,,,,,,,METAR,1099
FYLZ 160100Z AUTO /////KT //// // ////// 12/10 Q1020,FYLZ,2025-08-16T01:00:00Z,-26.687,15.243,12,10,,,,,30.12,,,TRUE,,,,,,,,,,,,,,,,,,,,,,,,,,,,METAR,129
FYKM 160100Z AUTO 05005KT //// // ////// 16/04 Q1017,FYKM,2025-08-16T01:00:00Z,-17.634,24.177,16,4,50,5,,,30.03,,,TRUE,,,,,,,,,,,,,,,,,,,,,,,,,,,,METAR,959
FYGF 160100Z AUTO 25004KT //// // ////// 08/M09 Q1021,FYGF,2025-08-16T01:00:00Z,-19.599,18.116,8,-9,250,4,,,30.15,,,TRUE,,,,,,,,,,,,,,,,,,,,,,,,,,,,METAR,1407
FVRG 160100Z 07004KT CAVOK 11/04 Q1023 NOSIG,FVRG,2025-08-16T01:00:00Z,-17.921,31.1,11,4,70,4,,6+,30.21,,,,,,TRUE,,,,,CAVOK,,,,,,,,VFR,,,,,,,,,,,,METAR,1490
FTTJ 160100Z 24007KT 8000 FEW026 25/25 Q1010 NOSIG,FTTJ,2025-08-16T01:00:00Z,12.134,15.034,25,25,240,7,,4.97,29.82,,,,,,TRUE,,,,,FEW,2600,,,,,,,MVFR,,,,,,,,,,,,METAR,295
FSIA 160100Z 16009KT 100V220 9999 FEW020 25/22 Q1009 NOSIG,FSIA,2025-08-16T01:00:00Z,-4.674,55.522,25,22,160,9,,6+,29.79,,,,,,TRUE,,,,,FEW,2000,,,,,,,VFR,,,,,,,,,,,,METAR,3
FQXA 160100Z VRB02KT 9999 FEW020 15/13 Q1021,FQXA,2025-08-16T01:00:00Z,-24.8932,33.7527,15,13,VRB,2,,6+,30.15,,,,,,,,,,,FEW,2000,,,,,,,VFR,,,,,,,,,,,,METAR,88
FQTT 160100Z 00000KT CAVOK 16/11 Q1017,FQTT,2025-08-16T01:00:00Z,-16.108,33.64,16,11,0,0,,6+,30.03,,,,,,,,,,,CAVOK,,,,,,,,VFR,,,,,,,,,,,,METAR,146
FQPB 160100Z /////KT 9999 BKN020 23/22 Q1015,FQPB,2025-08-16T01:00:00Z,-12.989,40.525,23,22,,,,6+,29.97,,,,,,,,,,,BKN,2000,,,,,,,MVFR,,,,,,,,,,,,METAR,101
FQNP 160100Z 21007KT 9999 BKN020 BKN100 21/18 Q1018,FQNP,2025-08-16T01:00:00Z,-15.106,39.282,21,18,210,7,,6+,30.06,,,,,,,,,,,BKN,2000,BKN,10000,,,,,MVFR,,,,,,,,,,,,METAR,434
FQMA 160100Z VRB01KT 9000 BKN020 18/17 Q1020 NOSIG RMK BR,FQMA,2025-08-16T01:00:00Z,-25.921,32.573,18,17,VRB,1,,5.59,30.12,,,,,,TRUE,,,,,BKN,2000,,,,,,,MVFR,,,,,,,,,,,,METAR,34
FQLC 160100Z 25006KT 9999 SCT020 13/12 Q1022,FQLC,2025-08-16T01:00:00Z,-13.271,35.265,13,12,250,6,,6+,30.18,,,,,,,,,,,SCT,2000,,,,,,,VFR,,,,,,,,,,,,METAR,1362
FOOL 160100Z 23006KT 9999 FEW013 24/21 Q1016 NOSIG,FOOL,2025-08-16T01:00:00Z,0.459,9.412,24,21,230,6,,6+,30.00,,,,,,TRUE,,,,,FEW,1300,,,,,,,VFR,,,,,,,,,,,,METAR,9
FNUE 160100Z AUTO 23002KT 9999 ////// ///// Q////,FNUE,2025-08-16T01:00:00Z,-11.768,19.898,,,230,2,,6+,0.00,,,TRUE,,,,,,,,,,,,,,,,VFR,,,,,,,,,,,,METAR,1354
FNUB 160100Z AUTO 22007KT 9999 ////// 16/M07 Q1025,FNUB,2025-08-16T01:00:00Z,-14.925,13.575,16,-7,220,7,,6+,30.27,,,TRUE,,,,,,,,,,,,,,,,VFR,,,,,,,,,,,,METAR,1749
FNLU 160100Z 09003KT9999K 9000 SCT020 19/17 Q1016,FNLU,2025-08-16T01:00:00Z,-8.858,13.231,19,17,,,,5.59,30.00,,,,,,,,,,,SCT,2000,,,,,,,VFR,,,,,,,,,,,,METAR,75
FNHU 160100Z AUTO 23005KT 8000 NCD 14/09 Q1023,FNHU,2025-08-16T01:00:00Z,-12.809,15.761,14,9,230,5,,4.97,30.21,,,TRUE,,,,,,,,CLR,,,,,,,,MVFR,,,,,,,,,,,,METAR,1697
FNGI 160100Z AUTO 22002KT CAVOK 14/M09 Q1020,FNGI,2025-08-16T01:00:00Z,-17.044,15.684,14,-9,220,2,,6+,30.12,,,TRUE,,,,,,,,CAVOK,,,,,,,,VFR,,,,,,,,,,,,METAR,1116
FNCT 160100Z AUTO 07003KT 9999 ////// ///// Q////,FNCT,2025-08-16T01:00:00Z,-12.479,13.487,,,70,3,,6+,0.00,,,TRUE,,,,,,,,,,,,,,,,VFR,,,,,,,,,,,,METAR,6
FMSD 160100Z 32004KT 9999 SCT016 20/119 Q1016,FMSD,2025-08-16T01:00:00Z,-25.038,46.956,,,320,4,,6+,30.00,,,,,,,,,,,SCT,1600,,,,,,,VFR,,,,,,,,,,,,METAR,7
FMNM 160100Z 14004KT CAVOK 20/19 Q1014,FMNM,2025-08-16T01:00:00Z,-15.667,46.352,20,19,140,4,,6+,29.94,,,,,,,,,,,CAVOK,,,,,,,,VFR,,,,,,,,,,,,METAR,18
FMMT 160100Z 00000KT 9999 FEW017 16/16 Q1015,FMMT,2025-08-16T01:00:00Z,-18.11,49.392,16,16,0,0,,6+,29.97,,,,,,,,,,,FEW,1700,,,,,,,VFR,,,,,,,,,,,,METAR,13
FMEP 160100Z AUTO 04008KT CAVOK 19/10 Q1016,FMEP,2025-08-16T01:00:00Z,-21.32,55.425,19,10,40,8,,6+,30.00,,,TRUE,,,,,,,,CAVOK,,,,,,,,VFR,,,,,,,,,,,,METAR,21
FMEE 160100Z AUTO 18004KT CAVOK 15/12 Q1016 NOSIG,FMEE,2025-08-16T01:00:00Z,-20.887,55.51,15,12,180,4,,6+,30.00,,,TRUE,,,TRUE,,,,,CAVOK,,,,,,,,VFR,,,,,,,,,,,,METAR,20
FKYS 160100Z 25001KT 8000 BKN010 20/19 Q1017 NOSIG,FKYS,2025-08-16T01:00:00Z,3.833,11.521,20,19,250,1,,4.97,30.03,,,,,,TRUE,,,,,BKN,1000,,,,,,,MVFR,,,,,,,,,,,,METAR,694
FKKD 160100Z 03004KT 340V070 3200 DZ SCT004 BKN010 FEW015CB 23/23 Q1014 TEMPO 2000 RADZ,FKKD,2025-08-16T01:00:00Z,4.006,9.72,23,23,30,4,,1.99,29.94,,,,,,,,,,DZ,SCT,400,BKN,1000,FEW,1500,,,IFR,,,,,,,,,,,,METAR,10
FIMR 160100Z 12010KT 9999 FEW018 BKN050 20/16 Q1016,FIMR,2025-08-16T01:00:00Z,-19.755,63.36,20,16,120,10,,6+,30.00,,,,,,,,,,,FEW,1800,BKN,5000,,,,,VFR,,,,,,,,,,,,METAR,31
FIMP 160100Z 32004KT 9999 SCT018 19/17 Q1016,FIMP,2025-08-16T01:00:00Z,-20.434,57.684,19,17,320,4,,6+,30.00,,,,,,,,,,,SCT,1800,,,,,,,VFR,,,,,,,,,,,,METAR,57
FGSL 160100Z 25009KT 9999 SCT008 24/23 Q1015 NOSIG,FGSL,2025-08-16T01:00:00Z,3.756,8.71,24,23,250,9,,6+,29.97,,,,,,TRUE,,,,,SCT,800,,,,,,,VFR,,,,,,,,,,,,METAR,23
FEFF 160100Z 15003KT 9999 FEW003 23/22 Q1013 NOSIG,FEFF,2025-08-16T01:00:00Z,4.399,18.519,23,22,150,3,,6+,29.91,,,,,,TRUE,,,,,FEW,300,,,,,,,VFR,,,,,,,,,,,,METAR,364
FCPP 160100Z 18005KT 6000 SCT008 SCT020 20/20 Q1016 NOSIG,FCPP,2025-08-16T01:00:00Z,-4.816,11.887,20,20,180,5,,3.73,30.00,,,,,,TRUE,,,,,SCT,800,SCT,2000,,,,,MVFR,,,,,,,,,,,,METAR,18
FCBB 160100Z 26003KT 7000 NSC 22/16 Q1017 NOSIG,FCBB,2025-08-16T01:00:00Z,-4.252,15.253,22,16,260,3,,4.35,30.03,,,,,,TRUE,,,,,CLR,,,,,,,,MVFR,,,,,,,,,,,,METAR,316
FBSK 160100Z 15005KT 120V190 CAVOK 13/M01 Q1019 NOSIG,FBSK,2025-08-16T01:00:00Z,-24.555,25.918,13,-1,150,5,,6+,30.09,,,,,,TRUE,,,,,CAVOK,,,,,,,,VFR,,,,,,,,,,,,METAR,1007
FBMN 160100Z 04007KT 360V060 CAVOK 20/M00 Q1016,FBMN,2025-08-16T01:00:00Z,-19.973,23.431,20,0,40,7,,6+,30.00,,,,,,,,,,,CAVOK,,,,,,,,VFR,,,,,,,,,,,,METAR,946
FAWK 160100Z AUTO /////KT //// // ////// 14/M00 Q1024,FAWK,2025-08-16T01:00:00Z,-25.83,28.223,14,0,,,,,30.24,,,TRUE,,,,,,,,,,,,,,,,,,,,,,,,,,,,METAR,1496
FAWB 160100Z AUTO 11005KT //// // ////// 11/01 Q1021,FAWB,2025-08-16T01:00:00Z,-25.654,28.224,11,1,110,5,,,30.15,,,TRUE,,,,,,,,,,,,,,,,,,,,,,,,,,,,METAR,1245
FAVV 160100Z AUTO 34010KT //// // ////// 14/00 Q1023,FAVV,2025-08-16T01:00:00Z,-26.566,27.961,14,0,340,10,,,30.21,,,TRUE,,,,,,,,,,,,,,,,,,,,,,,,,,,,METAR,1480
FAUT 160100Z AUTO 20006KT //// // ////// 14/10 Q1016,FAUT,2025-08-16T01:00:00Z,-31.546,28.673,14,10,200,6,,,30.00,,,TRUE,,,,,,,,,,,,,,,,,,,,,,,,,,,,METAR,735
FAUP 160100Z 18006KT CAVOK 09/03 Q1020 NOSIG,FAUP,2025-08-16T01:00:00Z,-28.399,21.26,9,3,180,6,,6+,30.12,,,,,,TRUE,,,,,CAVOK,,,,,,,,VFR,,,,,,,,,,,,METAR,845
FASI 160100Z AUTO 04003KT //// // ////// 11/01 Q1026,FASI,2025-08-16T01:00:00Z,-26.248,28.398,11,1,40,3,,,30.30,,,TRUE,,,,,,,,,,,,,,,,,,,,,,,,,,,,METAR,1627
FAPP 160100Z AUTO 26001KT //// // ////// 08/M00 Q1024,FAPP,2025-08-16T01:00:00Z,-23.845,29.459,8,0,260,1,,,30.24,,,TRUE,,,,,,,,,,,,,,,,,,,,,,,,,,,,METAR,1238
FAPN 160100Z AUTO 27002KT //// // ////// 09/03 Q1020,FAPN,2025-08-16T01:00:00Z,-25.334,27.173,9,3,270,2,,,30.12,,,TRUE,,,,,,,,,,,,,,,,,,,,,,,,,,,,METAR,1045
FAOR 160100Z 01014KT CAVOK 11/M01 Q1024 NOSIG,FAOR,2025-08-16T01:00:00Z,-26.139,28.246,11,-1,10,14,,6+,30.24,,,,,,TRUE,,,,,CAVOK,,,,,,,,VFR,,,,,,,,,,,,METAR,1684
FAMM 160100Z AUTO 04007KT //// // ////// 12/M00 Q1020,FAMM,2025-08-16T01:00:00Z,-25.798,25.548,12,0,40,7,,,30.12,,,TRUE,,,,,,,,,,,,,,,,,,,,,,,,,,,,METAR,1280
FALW 160100Z AUTO 03006KT //// // ////// 13/12 Q1019,FALW,2025-08-16T01:00:00Z,-32.972,18.158,13,12,30,6,,,30.09,,,TRUE,,,,,,,,,,,,,,,,,,,,,,,,,,,,METAR,31
FALE 160100Z 01006KT 9999 FEW028 19/16 Q1018 NOSIG,FALE,2025-08-16T01:00:00Z,-29.602,31.13,19,16,10,6,,6+,30.06,,,,,,TRUE,,,,,FEW,2800,,,,,,,VFR,,,,,,,,,,,,METAR,109
FAKM 160100Z AUTO 24005KT //// // ////// 08/M01 Q1019,FAKM,2025-08-16T01:00:00Z,-28.803,24.765,8,-1,240,5,,,30.09,,,TRUE,,,,,,,,,,,,,,,,,,,,,,,,,,,,METAR,1203
FAJB 160100Z AUTO 04001KT //// // ////// 10/01 Q1023,FAJB,2025-08-16T01:00:00Z,-26.15,28,10,1,40,1,,,30.21,,,TRUE,,,,,,,,,,,,,,,,,,,,,,,,,,,,METAR,1626
FAGG 160100Z AUTO 29006KT 9999 OVC026/// 13/12 Q1018,FAGG,2025-08-16T01:00:00Z,-34.006,22.379,13,12,290,6,,6+,30.06,,,TRUE,,,,,,,,OVC,2600,,,,,,,MVFR,,,,,,,,,,,,METAR,196
FACT 160100Z 03006KT 9999 FEW015 BKN040 13/12 Q1019 NOSIG,FACT,2025-08-16T01:00:00Z,-33.965,18.602,13,12,30,6,,6+,30.09,,,,,,TRUE,,,,,FEW,1500,BKN,4000,,,,,VFR,,,,,,,,,,,,METAR,48
FABL 160100Z AUTO VRB02KT 9999 // ///////// 09/01 Q1020,FABL,2025-08-16T01:00:00Z,-29.093,26.302,9,1,VRB,2,,6+,30.12,,,TRUE,,,,,,,,,,,,,,,,VFR,,,,,,,,,,,,METAR,1348
EPWR 160100Z 30006KT CAVOK 21/17 Q1017,EPWR,2025-08-16T01:00:00Z,51.1032,16.8998,21,17,300,6,,6+,30.03,,,,,,,,,,,CAVOK,,,,,,,,VFR,,,,,,,,,,,,METAR,118
EPWA 160100Z 17004KT CAVOK 19/14 Q1015 NOSIG,EPWA,2025-08-16T01:00:00Z,52.163,20.961,19,14,170,4,,6+,29.97,,,,,,TRUE,,,,,CAVOK,,,,,,,,VFR,,,,,,,,,,,,METAR,107
EPSY 160100Z VRB02KT CAVOK 18/14 Q1015,EPSY,2025-08-16T01:00:00Z,53.482,20.938,18,14,VRB,2,,6+,29.97,,,,,,,,,,,CAVOK,,,,,,,,VFR,,,,,,,,,,,,METAR,136
EPSC 160100Z 29004KT CAVOK 17/16 Q1018,EPSC,2025-08-16T01:00:00Z,53.585,14.902,17,16,290,4,,6+,30.06,,,,,,,,,,,CAVOK,,,,,,,,VFR,,,,,,,,,,,,METAR,47
EPRZ 160100Z 09003KT CAVOK 17/16 Q1017,EPRZ,2025-08-16T01:00:00Z,50.112,22.025,17,16,90,3,,6+,30.03,,,,,,,,,,,CAVOK,,,,,,,,VFR,,,,,,,,,,,,METAR,206
EPRA 160100Z 17007KT CAVOK 18/14 Q1017,EPRA,2025-08-16T01:00:00Z,51.39,21.211,18,14,170,7,,6+,30.03,,,,,,,,,,,CAVOK,,,,,,,,VFR,,,,,,,,,,,,METAR,182
EPPO 160100Z 33006KT CAVOK 20/16 Q1017,EPPO,2025-08-16T01:00:00Z,52.417,16.835,20,16,330,6,,6+,30.03,,,,,,,,,,,CAVOK,,,,,,,,VFR,,,,,,,,,,,,METAR,87
EPMO 160100Z 18006KT CAVOK 20/15 Q1015,EPMO,2025-08-16T01:00:00Z,52.452,20.642,20,15,180,6,,6+,29.97,,,,,,,,,,,CAVOK,,,,,,,,VFR,,,,,,,,,,,,METAR,102
EPLL 160100Z 06003KT CAVOK 18/15 Q1016,EPLL,2025-08-16T01:00:00Z,51.724,19.401,18,15,60,3,,6+,30.00,,,,,,,,,,,CAVOK,,,,,,,,VFR,,,,,,,,,,,,METAR,176
EPLB 160100Z 06001KT CAVOK 15/13 Q1017,EPLB,2025-08-16T01:00:00Z,51.239,22.714,15,13,60,1,,6+,30.03,,,,,,,,,,,CAVOK,,,,,,,,VFR,,,,,,,,,,,,METAR,206
EPKT 160100Z 01002KT CAVOK 15/14 Q1017,EPKT,2025-08-16T01:00:00Z,50.478,19.085,15,14,10,2,,6+,30.03,,,,,,,,,,,CAVOK,,,,,,,,VFR,,,,,,,,,,,,METAR,296
EPKK 160100Z VRB01KT CAVOK 17/16 Q1017,EPKK,2025-08-16T01:00:00Z,50.078,19.797,17,16,VRB,1,,6+,30.03,,,,,,,,,,,CAVOK,,,,,,,,VFR,,,,,,,,,,,,METAR,237
EPGD 160100Z 28010KT CAVOK 19/16 Q1015,EPGD,2025-08-16T01:00:00Z,54.379,18.466,19,16,280,10,,6+,29.97,,,,,,,,,,,CAVOK,,,,,,,,VFR,,,,,,,,,,,,METAR,136
EPBY 160100Z 30007KT CAVOK 19/16 Q1016,EPBY,2025-08-16T01:00:00Z,53.0962,17.9949,19,16,300,7,,6+,30.00,,,,,,,,,,,CAVOK,,,,,,,,VFR,,,,,,,,,,,,METAR,66
EINN 160100Z 05006KT 9999 FEW040 16/13 Q1027 NOSIG,EINN,2025-08-16T01:00:00Z,52.702,-8.925,16,13,50,6,,6+,30.32,,,,,,TRUE,,,,,FEW,4000,,,,,,,VFR,,,,,,,,,,,,METAR,20
EIME 160100Z 08007KT 9999 FEW009 14/14 Q1028,EIME,2025-08-16T01:00:00Z,53.306,-6.442,14,14,80,7,,6+,30.35,,,,,,,,,,,FEW,900,,,,,,,VFR,,,,,,,,,,,,METAR,90
EIDW 160100Z 07004KT 030V090 9999 FEW009 BKN013 13/13 Q1029 TEMPO BKN015,EIDW,2025-08-16T01:00:00Z,53.422,-6.298,13,13,70,4,,6+,30.38,,,,,,,,,,,FEW,900,BKN,1300,,,,,MVFR,,,,,,,,,,,,METAR,75
EICK 160100Z 08009KT 9999 FEW040 16/11 Q1026 NOSIG,EICK,2025-08-16T01:00:00Z,51.848,-8.479,16,11,80,9,,6+,30.30,,,,,,TRUE,,,,,FEW,4000,,,,,,,VFR,,,,,,,,,,,,METAR,158
DXXX 160100Z 22012KT 9999 SCT010 BKN016 24/22 Q1015 NOSIG,DXXX,2025-08-16T01:00:00Z,6.166,1.254,24,22,220,12,,6+,29.97,,,,,,TRUE,,,,,SCT,1000,BKN,1600,,,,,MVFR,,,,,,,,,,,,METAR,22
DTTZ 160100Z AUTO 11016KT NCD 30/18 Q1013,DTTZ,2025-08-16T01:00:00Z,33.94,8.111,30,18,110,16,,,29.91,,,TRUE,,,,,,,,CLR,,,,,,,,,,,,,,,,,,,,METAR,87
DTTX 160100Z 32005KT CAVOK Q1014,DTTX,2025-08-16T01:00:00Z,34.718,10.691,,,320,5,,6+,29.94,,,,,,,,,,,CAVOK,,,,,,,,VFR,,,,,,,,,,,,METAR,17
DTTN 160100Z AUTO 24004KT NCD 23/13 Q1016,DTTN,2025-08-16T01:00:00Z,36.483,8.8,23,13,240,4,,,30.00,,,TRUE,,,,,,,,CLR,,,,,,,,,,,,,,,,,,,,METAR,145
DTTL 160100Z AUTO 28006KT 230V330 NCD 26/24 Q1014,DTTL,2025-08-16T01:00:00Z,36.85,11.083,26,24,280,6,,,29.94,,,TRUE,,,,,,,,CLR,,,,,,,,,,,,,,,,,,,,METAR,18
DTTK 160100Z AUTO VRB02KT NCD 27/16 Q1015,DTTK,2025-08-16T01:00:00Z,35.667,10.1,27,16,VRB,2,,,29.97,,,TRUE,,,,,,,,CLR,,,,,,,,,,,,,,,,,,,,METAR,65
DTTJ 160100Z 21003KT 9999 FEW020 26/23 Q1014,DTTJ,2025-08-16T01:00:00Z,33.875,10.775,26,23,210,3,,6+,29.94,,,,,,,,,,,FEW,2000,,,,,,,VFR,,,,,,,,,,,,METAR,3
DTTF 160100Z AUTO 04003KT NCD 26/17 Q1017,DTTF,2025-08-16T01:00:00Z,34.422,8.822,26,17,40,3,,,30.03,,,TRUE,,,,,,,,CLR,,,,,,,,,,,,,,,,,,,,METAR,314
DTTD 160100Z AUTO VRB02KT NCD 26/14 Q1015,DTTD,2025-08-16T01:00:00Z,32.312,10.386,26,14,VRB,2,,,29.97,,,TRUE,,,,,,,,CLR,,,,,,,,,,,,,,,,,,,,METAR,306
DTTB 160100Z 24006KT 8000 FEW020 25/24 Q1015,DTTB,2025-08-16T01:00:00Z,37.245,9.791,25,24,240,6,,4.97,29.97,,,,,,,,,,,FEW,2000,,,,,,,MVFR,,,,,,,,,,,,METAR,4
DTTA 160100Z 24005KT 200V260 9999 FEW023 27/18 Q1014,DTTA,2025-08-16T01:00:00Z,36.851,10.227,27,18,240,5,,6+,29.94,,,,,,,,,,,FEW,2300,,,,,,,VFR,,,,,,,,,,,,METAR,4
DTNH 160100Z 25004KT 8000 R27///// FEW026 24/21 Q1014,DTNH,2025-08-16T01:00:00Z,36.074,10.436,24,21,250,4,,4.97,29.94,,,,,,,,,,,FEW,2600,,,,,,,MVFR,,,,,,,,,,,,METAR,1
DTMB 160100Z VRB02KT CAVOK 27/22 Q1014,DTMB,2025-08-16T01:00:00Z,35.758,10.755,27,22,VRB,2,,6+,29.94,,,,,,,,,,,CAVOK,,,,,,,,VFR,,,,,,,,,,,,METAR,1
DTKA 160100Z 19005KT 9999 FEW020 21/15 Q1016,DTKA,2025-08-16T01:00:00Z,36.98,8.877,21,15,190,5,,6+,30.00,,,,,,,,,,,FEW,2000,,,,,,,VFR,,,,,,,,,,,,METAR,70
DRRN 160100Z 26006KT 9000 FEW016 27/24 Q1011 NOSIG,DRRN,2025-08-16T01:00:00Z,13.483,2.17,27,24,260,6,,5.59,29.85,,,,,,TRUE,,,,,FEW,1600,,,,,,,VFR,,,,,,,,,,,,METAR,223
DNSO 160100Z 21004KT 9999 FEW009 23/22 Q1014,DNSO,2025-08-16T01:00:00Z,12.917,5.202,23,22,210,4,,6+,29.94,,,,,,,,,,,FEW,900,,,,,,,VFR,,,,,,,,,,,,METAR,302
DNMM 160100Z 20007KT 9999 SCT008 24/22 Q1015 NOSIG,DNMM,2025-08-16T01:00:00Z,6.577,3.321,24,22,200,7,,6+,29.97,,,,,,TRUE,,,,,SCT,800,,,,,,,VFR,,,,,,,,,,,,METAR,27
DNEN 160100Z 25005KT 9999 BKN010 25/23 Q1014 NOSIG,DNEN,2025-08-16T01:00:00Z,6.474,7.562,25,23,250,5,,6+,29.94,,,,,,TRUE,,,,,BKN,1000,,,,,,,MVFR,,,,,,,,,,,,METAR,142
DNAA 160100Z 33006KT 9999 -RA BKN007 23/21 Q1015 TEMPO 5000 -RA,DNAA,2025-08-16T01:00:00Z,9.007,7.263,23,21,330,6,,6+,29.97,,,,,,,,,,-RA,BKN,700,,,,,,,IFR,,,,,,,,,,,,METAR,338
DIAP 160100Z 25003KT 230V290 9999 SCT011 22/22 Q1015 TEMPO 4000 BR,DIAP,2025-08-16T01:00:00Z,5.261,-3.926,22,22,250,3,,6+,29.97,,,,,,,,,,,SCT,1100,,,,,,,VFR,,,,,,,,,,,,METAR,4
DGSI 160100Z 23007KT 9999 BKN010 23/22 Q1016 NOSIG,DGSI,2025-08-16T01:00:00Z,6.715,-1.591,23,22,230,7,,6+,30.00,,,,,,TRUE,,,,,BKN,1000,,,,,,,MVFR,,,,,,,,,,,,METAR,283
DGAA 160100Z 22011KT 9999 BKN010 BKN027 23/22 Q1015 NOSIG,DGAA,2025-08-16T01:00:00Z,5.6,-0.17,23,22,220,11,,6+,29.97,,,,,,TRUE,,,,,BKN,1000,BKN,2700,,,,,MVFR,,,,,,,,,,,,METAR,68
DFOO 160100Z 00000KT 9999 FEW016 22/21 Q1016,DFOO,2025-08-16T01:00:00Z,11.163,-4.322,22,21,0,0,,6+,30.00,,,,,,,,,,,FEW,1600,,,,,,,VFR,,,,,,,,,,,,METAR,461
DFFD 160100Z VRB02KT 9999 FEW020 26/25 Q1014 NOSIG,DFFD,2025-08-16T01:00:00Z,12.356,-1.512,26,25,VRB,2,,6+,29.94,,,,,,TRUE,,,,,FEW,2000,,,,,,,VFR,,,,,,,,,,,,METAR,309
DBBB 160100Z 23014KT 9999 SCT011 25/22 Q1014 NOSIG,DBBB,2025-08-16T01:00:00Z,6.357,2.384,25,22,230,14,,6+,29.94,,,,,,TRUE,,,,,SCT,1100,,,,,,,VFR,,,,,,,,,,,,METAR,4
DAUZ 160100Z 04014KT CAVOK 28/03 Q1016,DAUZ,2025-08-16T01:00:00Z,28.052,9.643,28,3,40,14,,6+,30.00,,,,,,,,,,,CAVOK,,,,,,,,VFR,,,,,,,,,,,,METAR,567
DAUU 160100Z 15004KT CAVOK 31/05 Q1012,DAUU,2025-08-16T01:00:00Z,31.917,5.413,31,5,150,4,,6+,29.88,,,,,,,,,,,CAVOK,,,,,,,,VFR,,,,,,,,,,,,METAR,147
DAUT 160100Z 01004KT CAVOK 34/02 Q1012,DAUT,2025-08-16T01:00:00Z,29.237,0.276,34,2,10,4,,6+,29.88,,,,,,,,,,,CAVOK,,,,,,,,VFR,,,,,,,,,,,,METAR,307
DAUO 160100Z 08008KT CAVOK 31/13 Q1013,DAUO,2025-08-16T01:00:00Z,33.513,6.782,31,13,80,8,,6+,29.91,,,,,,,,,,,CAVOK,,,,,,,,VFR,,,,,,,,,,,,METAR,55
DAUK 160100Z 05004KT CAVOK 32/09 Q1013,DAUK,2025-08-16T01:00:00Z,33.068,6.089,32,9,50,4,,6+,29.91,,,,,,,,,,,CAVOK,,,,,,,,VFR,,,,,,,,,,,,METAR,83
DAUI 160100Z 08006KT CAVOK 31/03 Q1012,DAUI,2025-08-16T01:00:00Z,27.251,2.512,31,3,80,6,,6+,29.88,,,,,,,,,,,CAVOK,,,,,,,,VFR,,,,,,,,,,,,METAR,271
DAUH 160100Z 15004KT CAVOK 33/07 Q1012,DAUH,2025-08-16T01:00:00Z,31.673,6.14,33,7,150,4,,6+,29.88,,,,,,,,,,,CAVOK,,,,,,,,VFR,,,,,,,,,,,,METAR,141
DAUG 160100Z 13004KT 060V170 CAVOK 31/04 Q1015,DAUG,2025-08-16T01:00:00Z,32.384,3.794,31,4,130,4,,6+,29.97,,,,,,,,,,,CAVOK,,,,,,,,VFR,,,,,,,,,,,,METAR,444
DAUE 160100Z 13004KT CAVOK 31/04 Q1014,DAUE,2025-08-16T01:00:00Z,30.571,2.86,31,4,130,4,,6+,29.94,,,,,,,,,,,CAVOK,,,,,,,,VFR,,,,,,,,,,,,METAR,396
DAUB 160100Z 14003KT CAVOK 33/08 Q1014,DAUB,2025-08-16T01:00:00Z,34.793,5.738,33,8,140,3,,6+,29.94,,,,,,,,,,,CAVOK,,,,,,,,VFR,,,,,,,,,,,,METAR,75
DAUA 160100Z 12006KT CAVOK 32/M01 Q1012,DAUA,2025-08-16T01:00:00Z,27.839,-0.186,32,-1,120,6,,6+,29.88,,,,,,,,,,,CAVOK,,,,,,,,VFR,,,,,,,,,,,,METAR,278
DATM 160100Z 10033G51KT 0100 SS SCT040CB BKN046 31/15 Q1012,DATM,2025-08-16T01:00:00Z,21.375,0.924,31,15,100,33,51,0.06,29.88,,,,,,,,,,SS,SCT,4000,BKN,4600,,,,,LIFR,,,,,,,,,,,,METAR,398
DAOY 160100Z 36006KT CAVOK 21/12 Q1024,DAOY,2025-08-16T01:00:00Z,33.721,1.091,21,12,360,6,,6+,30.24,,,,,,,,,,,CAVOK,,,,,,,,VFR,,,,,,,,,,,,METAR,1340
DAOV 160100Z 15004KT CAVOK 22/16 Q1021,DAOV,2025-08-16T01:00:00Z,35.208,0.147,22,16,150,4,,6+,30.15,,,,,,,,,,,CAVOK,,,,,,,,VFR,,,,,,,,,,,,METAR,506
DAOR 160100Z 06005KT 6000 NSC 34/02 Q1019,DAOR,2025-08-16T01:00:00Z,31.65,-2.261,34,2,60,5,,3.73,30.09,,,,,,,,,,,CLR,,,,,,,,MVFR,,,,,,,,,,,,METAR,809
DAOO 160100Z 33006KT 6000 SCT006 23/22 Q1019,DAOO,2025-08-16T01:00:00Z,35.623,-0.624,23,22,330,6,,3.73,30.09,,,,,,,,,,,SCT,600,,,,,,,MVFR,,,,,,,,,,,,METAR,87
DAON 160100Z 19002KT CAVOK 22/12 Q1020,DAON,2025-08-16T01:00:00Z,35.013,-1.457,22,12,190,2,,6+,30.12,,,,,,,,,,,CAVOK,,,,,,,,VFR,,,,,,,,,,,,METAR,245
DAOI 160100Z 06003KT CAVOK 28/08 Q1019,DAOI,2025-08-16T01:00:00Z,36.213,1.332,28,8,60,3,,6+,30.09,,,,,,,,,,,CAVOK,,,,,,,,VFR,,,,,,,,,,,,METAR,141
DAOF 160100Z 03004KT 8000 FEW046 33/// Q1013,DAOF,2025-08-16T01:00:00Z,27.7,-8.167,,,30,4,,4.97,29.91,,,,,,,,,,,FEW,4600,,,,,,,MVFR,,,,,,,,,,,,METAR,441
DAOB 160100Z 15003KT CAVOK 20/08 Q1024,DAOB,2025-08-16T01:00:00Z,35.345,1.476,20,8,150,3,,6+,30.24,,,,,,,,,,,CAVOK,,,,,,,,VFR,,,,,,,,,,,,METAR,976
DABT 160100Z 00000KT CAVOK 20/07 Q1022,DABT,2025-08-16T01:00:00Z,35.752,6.309,20,7,0,0,,6+,30.18,,,,,,,,,,,CAVOK,,,,,,,,VFR,,,,,,,,,,,,METAR,813
DABS 160100Z 33002KT CAVOK 20/06 Q1020,DABS,2025-08-16T01:00:00Z,35.432,8.121,20,6,330,2,,6+,30.12,,,,,,,,,,,CAVOK,,,,,,,,VFR,,,,,,,,,,,,METAR,806
DABC 160100Z 09003KT CAVOK 20/09 Q1021,DABC,2025-08-16T01:00:00Z,36.278,6.629,20,9,90,3,,6+,30.15,,,,,,,,,,,CAVOK,,,,,,,,VFR,,,,,,,,,,,,METAR,686
DABB 160100Z 18001KT CAVOK 23/21 Q1016,DABB,2025-08-16T01:00:00Z,36.822,7.809,23,21,180,1,,6+,30.00,,,,,,,,,,,CAVOK,,,,,,,,VFR,,,,,,,,,,,,METAR,3
DAAY 160100Z 01008KT CAVOK 21/05 Q1026,DAAY,2025-08-16T01:00:00Z,33.532,-0.248,21,5,10,8,,6+,30.30,,,,,,,,,,,CAVOK,,,,,,,,VFR,,,,,,,,,,,,METAR,1116
DAAV 160100Z VRB02KT 9999 FEW020 22/16 Q1017,DAAV,2025-08-16T01:00:00Z,36.795,5.877,22,16,VRB,2,,6+,30.03,,,,,,,,,,,FEW,2000,,,,,,,VFR,,,,,,,,,,,,METAR,11
DAAT 160100Z 08009KT CAVOK 27/06 Q1021,DAAT,2025-08-16T01:00:00Z,22.824,5.452,27,6,80,9,,6+,30.15,,,,,,,,,,,CAVOK,,,,,,,,VFR,,,,,,,,,,,,METAR,1372
DAAS 160100Z VRB02KT CAVOK 20/06 Q1023,DAAS,2025-08-16T01:00:00Z,36.18,5.33,20,6,VRB,2,,6+,30.21,,,,,,,,,,,CAVOK,,,,,,,,VFR,,,,,,,,,,,,METAR,1012
DAAP 160100Z 03004KT CAVOK 28/M02 Q1015,DAAP,2025-08-16T01:00:00Z,26.724,8.622,28,-2,30,4,,6+,29.97,,,,,,,,,,,CAVOK,,,,,,,,VFR,,,,,,,,,,,,METAR,542
DAAJ 160100Z 36008KT 6000 SCT046 32/02 Q1017,DAAJ,2025-08-16T01:00:00Z,24.286,9.464,32,2,360,8,,3.73,30.03,,,,,,,,,,,SCT,4600,,,,,,,MVFR,,,,,,,,,,,,METAR,962
DAAG 160100Z 17003KT 9999 FEW016 21/17 Q1018,DAAG,2025-08-16T01:00:00Z,36.691,3.215,21,17,170,3,,6+,30.06,,,,,,,,,,,FEW,1600,,,,,,,VFR,,,,,,,,,,,,METAR,18
DAAE 160100Z 23004KT CAVOK 21/15 Q1017,DAAE,2025-08-16T01:00:00Z,36.712,5.07,21,15,230,4,,6+,30.03,,,,,,,,,,,CAVOK,,,,,,,,VFR,,,,,,,,,,,,METAR,1
CZZJ 160100Z AUTO 08008KT 13/11 RMK AO1 SLP111 T01280111 58004,CZZJ,2025-08-16T01:00:00Z,53.583,-116.462,12.8,11.1,80,8,,,0.00,1011.1,,TRUE,TRUE,,,,,,,,,,,,,,,,-0.04,,,,,,,,,,,METAR,927
CZVL 160100Z AUTO 10008KT 9SM OVC016 12/10 A2990 RMK SLP138 DENSITY ALT 2500FT,CZVL,2025-08-16T01:00:00Z,53.67,-113.863,12,10,100,8,,9,29.90,1013.8,,TRUE,,,,,,,,OVC,1600,,,,,,,MVFR,,,,,,,,,,,,METAR,685
CZTB 160100Z AUTO 24005KT 26/20 RMK AO1 SLP128 T02580199 53008,CZTB,2025-08-16T01:00:00Z,48.369,-89.327,25.8,19.9,240,5,,,0.00,1012.8,,TRUE,TRUE,,,,,,,,,,,,,,,,0.08,,,,,,,,,,,METAR,197
CZST 160100Z 00000KT 15SM -RA BKN065 OVC090 17/15 A2946 RMK SC5AS3 LAST STFD OBS/NEXT 161300Z/ SLP979 DENSITY ALT 800FT,CZST,2025-08-16T01:00:00Z,55.935,-129.984,17,15,0,0,,15,29.46,997.9,,,,,,,,,-RA,BKN,6500,OVC,9000,,,,,VFR,,,,,,,,,,,,METAR,10
CZSP 160100Z AUTO 03005KT 17/11 RMK AO1 SLP227 T01670113 53007,CZSP,2025-08-16T01:00:00Z,46.45,-62.576,16.7,11.3,30,5,,,0.00,1022.7,,TRUE,TRUE,,,,,,,,,,,,,,,,0.07,,,,,,,,,,,METAR,31
CZSM 160100Z AUTO 06003KT 20/07 RMK AO1 SLP138 T01970071 56003,CZSM,2025-08-16T01:00:00Z,60.026,-111.929,19.7,7.1,60,3,,,0.00,1013.8,,TRUE,TRUE,,,,,,,,,,,,,,,,-0.03,,,,,,,,,,,METAR,203
CZRP 160100Z AUTO 26010KT 13/08 RMK AO1 SLP141 T01250078 55000,CZRP,2025-08-16T01:00:00Z,75.377,-105.715,12.5,7.8,260,10,,,0.00,1014.1,,TRUE,TRUE,,,,,,,,,,,,,,,,,,,,,,,,,,,METAR,6
CZPC 160100Z AUTO 26020G26KT 9SM CLR 21/09 A2990 RMK SLP118 DENSITY ALT 5500FT,CZPC,2025-08-16T01:00:00Z,49.522,-114.005,21,9,260,20,26,9,29.90,1011.8,,TRUE,,,,,,,,CLR,,,,,,,,VFR,,,,,,,,,,,,METAR,1187
CZMJ 160100Z AUTO 09008KT 18/07 RMK AO1 SLP178 T01800072 55005,CZMJ,2025-08-16T01:00:00Z,50.332,-105.538,18,7.2,90,8,,,0.00,1017.8,,TRUE,TRUE,,,,,,,,,,,,,,,,-0.05,,,,,,,,,,,METAR,571
CZMD 160100Z AUTO 26009G16KT 9SM OVC045 11/08 A2990 RMK ICE MISG SLP134,CZMD,2025-08-16T01:00:00Z,53.439,-91.766,11,8,260,9,16,9,29.90,1013.4,,TRUE,,,,,,,,OVC,4500,,,,,,,VFR,,,,,,,,,,,,METAR,276
CZKD 160100Z AUTO 34008KT 10/04 RMK AO1 SLP168 T01000035 51024,CZKD,2025-08-16T01:00:00Z,56.037,-96.51,10,3.5,340,8,,,0.00,1016.8,,TRUE,TRUE,,,,,,,,,,,,,,,,0.24,,,,,,,,,,,METAR,190
CZHY 160100Z AUTO 08009KT 19/08 RMK AO1 SLP129 T01870078 58006,CZHY,2025-08-16T01:00:00Z,60.839,-115.781,18.7,7.8,80,9,,,0.00,1012.9,,TRUE,TRUE,,,,,,,,,,,,,,,,-0.06,,,,,,,,,,,METAR,159
CZFS 160100Z AUTO 13008KT 24/04 RMK AO1 SLP095 T02360040 56009,CZFS,2025-08-16T01:00:00Z,61.76,-121.23,23.6,4,130,8,,,0.00,1009.5,,TRUE,TRUE,,,,,,,,,,,,,,,,-0.09,,,,,,,,,,,METAR,174
CZFA 160100Z 12010G17KT 080V150 30SM FEW039 FEW052 SCT083 BKN120 22/03 A2962 RMK CF1CU1CU4AC2 CF TR CU TR LAST STFD OBS/NXT 161300Z SLP047 DENSITY ALT 4000FT,CZFA,2025-08-16T01:00:00Z,62.211,-133.385,22,3,120,10,17,30,29.62,1004.7,,,,,,,,,,FEW,3900,FEW,5200,SCT,8300,BKN,12000,VFR,,,,,,,,,,,,METAR,702
CZEV 160100Z AUTO 34009KT 08/06 RMK AO1 SLP129 T00820059 51005,CZEV,2025-08-16T01:00:00Z,68.313,-133.496,8.2,5.9,340,9,,,0.00,1012.9,,TRUE,TRUE,,,,,,,,,,,,,,,,0.05,,,,,,,,,,,METAR,92
CZEL 160100Z AUTO 12003KT 22/16 RMK AO1 SLP205 T02200160 56005,CZEL,2025-08-16T01:00:00Z,43.642,-80.412,22,16,120,3,,,0.00,1020.5,,TRUE,TRUE,,,,,,,,,,,,,,,,-0.05,,,,,,,,,,,METAR,370
CZDB 160100Z AUTO 36003KT 13/10 RMK AO1 SLP224 T01250101 51011,CZDB,2025-08-16T01:00:00Z,45.422,-63.466,12.5,10.1,360,3,,,0.00,1022.4,,TRUE,TRUE,,,,,,,,,,,,,,,,0.11,,,,,,,,,,,METAR,38
CZCR 160100Z AUTO 22005KT 15/08 RMK AO1 SLP222 T01530080 53008,CZCR,2025-08-16T01:00:00Z,47.99,-66.334,15.3,8,220,5,,,0.00,1022.2,,TRUE,TRUE,,,,,,,,,,,,,,,,0.08,,,,,,,,,,,METAR,39
CZBF 160100Z AUTO 18003KT 9SM CLR 17/10 A3022 RMK SLP236,CZBF,2025-08-16T01:00:00Z,47.628,-65.746,17,10,180,3,,9,30.22,1023.6,,TRUE,,,,,,,,CLR,,,,,,,,VFR,,,,,,,,,,,,METAR,60
CYZY 160100Z AUTO VRB02KT 3SM -RA BR FEW031 BKN037 OVC045 14/13 A2968 RMK PCPN 3.5MM PAST HR SLP062 DENSITY ALT 3000FT,CYZY,2025-08-16T01:00:00Z,55.303,-123.135,14,13,VRB,2,,3,29.68,1006.2,,TRUE,,,,,,,-RA BR,FEW,3100,BKN,3700,OVC,4500,,,MVFR,,,,,,,,,,,,METAR,694
CYZX 160100Z 04003KT 030V110 15SM SCT250 17/09 A3019 RMK CI4 DENSITY ALT 166FT SLP225,CYZX,2025-08-16T01:00:00Z,44.985,-64.912,17,9,40,3,,15,30.19,1022.5,,,,,,,,,,SCT,25000,,,,,,,VFR,,,,,,,,,,,,METAR,28
CYZW 160100Z 15007KT 090V160 30SM SCT065TCU BKN090 OVC150 19/08 A2957 RMK TCU4AC2AC2 LAST STFD OBS/NXT 161300Z SLP029 DENSITY ALT 3700FT,CYZW,2025-08-16T01:00:00Z,60.175,-132.734,19,8,150,7,,30,29.57,1002.9,,,,,,,,,,SCT,6500,BKN,9000,OVC,15000,,,VFR,,,,,,,,,,,,METAR,700
CYZV 160100Z 31004KT 15SM FEW180 FEW240 10/06 A3020 RMK AC1CI1 CI TR SLP230,CYZV,2025-08-16T01:00:00Z,50.217,-66.26,10,6,310,4,,15,30.20,1023,,,,,,,,,,FEW,18000,FEW,24000,,,,,VFR,,,,,,,,,,,,METAR,43
CYZU 160100Z 12014G20KT 15SM OVC011 11/10 A2986 RMK SC8 SLP128 DENSITY ALT 2900FT,CYZU,2025-08-16T01:00:00Z,54.142,-115.785,11,10,120,14,20,15,29.86,1012.8,,,,,,,,,,OVC,1100,,,,,,,MVFR,,,,,,,,,,,,METAR,785
CYZT 160100Z 19007KT 15SM FEW005 SCT029 BKN060 BKN080 18/14 A2957 RMK SF1SC4SC3AC1 SF TR AC TR SLP014 DENSITY ALT 800FT,CYZT,2025-08-16T01:00:00Z,50.685,-127.369,18,14,190,7,,15,29.57,1001.4,,,,,,,,,,FEW,500,SCT,2900,BKN,6000,BKN,8000,VFR,,,,,,,,,,,,METAR,13
CYZS 160100Z 23009KT 15SM BKN040 08/04 A2989 RMK SC5 WIND EST SLP128,CYZS,2025-08-16T01:00:00Z,64.188,-83.351,8,4,230,9,,15,29.89,1012.8,,,,,,,,,,BKN,4000,,,,,,,VFR,,,,,,,,,,,,METAR,60
CYZR 160100Z AUTO 19003KT 9SM CLR 24/18 A3011 RMK SLP198 DENSITY ALT 1600FT,CYZR,2025-08-16T01:00:00Z,42.995,-82.307,24,18,190,3,,9,30.11,1019.8,,TRUE,,,,,,,,CLR,,,,,,,,VFR,,,,,,,,,,,,METAR,181
CYZF 160100Z 16006KT 100V180 15SM FEW058 BKN100 BKN240 20/08 A2993 RMK CU1AC4CI1 SLP144 DENSITY ALT 1400FT,CYZF,2025-08-16T01:00:00Z,62.475,-114.448,20,8,160,6,,15,29.93,1014.4,,,,,,,,,,FEW,5800,BKN,10000,BKN,24000,,,VFR,,,,,,,,,,,,METAR,202
CYZE 160100Z AUTO 17008KT 9SM SCT060 23/19 A3008 RMK SLP188 DENSITY ALT 1500FT,CYZE,2025-08-16T01:00:00Z,45.885,-82.57,23,19,170,8,,9,30.08,1018.8,,TRUE,,,,,,,,SCT,6000,,,,,,,VFR,,,,,,,,,,,,METAR,189
CYYZ 160100Z 12005KT 15SM FEW020 FEW080 24/18 A3012 RMK CF1AC1 CF TR AC TR SLP201 DENSITY ALT 1500FT,CYYZ,2025-08-16T01:00:00Z,43.679,-79.629,24,18,120,5,,15,30.12,1020.1,,,,,,,,,,FEW,2000,FEW,8000,,,,,VFR,,,,,,,,,,,,METAR,171
CYYY 160100Z 00000KT 30SM SCT240 14/05 A3019 RMK CI4 SLP226,CYYY,2025-08-16T01:00:00Z,48.609,-68.208,14,5,0,0,,30,30.19,1022.6,,,,,,,,,,SCT,24000,,,,,,,VFR,,,,,,,,,,,,METAR,43
CYYW 160100Z AUTO 30006KT 9SM CLR 21/10 A2988 RMK SLP109 DENSITY ALT 2100FT,CYYW,2025-08-16T01:00:00Z,50.296,-88.912,21,10,300,6,,9,29.88,1010.9,,TRUE,,,,,,,,CLR,,,,,,,,VFR,,,,,,,,,,,,METAR,320
CYYU 160100Z 23012KT 15SM FEW044 SCT065 BKN072 BKN083 24/17 A2991 RMK SC2SC2AC1AC2 SLP131 DENSITY ALT 2100FT,CYYU,2025-08-16T01:00:00Z,49.416,-82.47,24,17,230,12,,15,29.91,1013.1,,,,,,,,,,FEW,4400,SCT,6500,BKN,7200,BKN,8300,VFR,,,,,,,,,,,,METAR,228
CYYR 160100Z 02008KT 15SM FEW025 FEW070 FEW250 12/08 A3023 RMK SC1AC1CI1 DENSITY ALT -411FT SLP238,CYYR,2025-08-16T01:00:00Z,53.32,-60.417,12,8,20,8,,15,30.23,1023.8,,,,,,,,,,FEW,2500,FEW,7000,FEW,25000,,,VFR,,,,,,,,,,,,METAR,42
CYYQ 160100Z 36018G26KT 10SM SCT027 OVC043 08/06 A2991 RMK SC4SC4 SLP131,CYYQ,2025-08-16T01:00:00Z,58.745,-94.074,8,6,360,18,26,10+,29.91,1013.1,,,,,,,,,,SCT,2700,OVC,4300,,,,,VFR,,,,,,,,,,,,METAR,20
CYYN 160100Z AUTO 11012G22KT 9SM BKN120 BKN140 18/10 A2993 RMK SLP141 DENSITY ALT 3700FT,CYYN,2025-08-16T01:00:00Z,50.292,-107.691,18,10,110,12,22,9,29.93,1014.1,,TRUE,,,,,,,,BKN,12000,BKN,14000,,,,,VFR,,,,,,,,,,,,METAR,814
CYYJ 160100Z 12007KT 090V160 12SM -RA FEW009 FEW018 SCT055 OVC080 15/15 A2973 RMK SF1SC1SC2AS4 SLP070 DENSITY ALT 400FT,CYYJ,2025-08-16T01:00:00Z,48.642,-123.433,15,15,120,7,,12,29.73,1007,,,,,,,,,-RA,FEW,900,FEW,1800,SCT,5500,OVC,8000,VFR,,,,,,,,,,,,METAR,16
CYYH 160100Z 27009KT 15SM FEW050 FEW061 BKN180 BKN230 10/05 A2998 RMK SC1SC1AC3CC1 CC TR SLP155,CYYH,2025-08-16T01:00:00Z,69.543,-93.568,10,5,270,9,,15,29.98,1015.5,,,,,,,,,,FEW,5000,FEW,6100,BKN,18000,BKN,23000,VFR,,,,,,,,,,,,METAR,19
CYYG 160100Z 35003KT 15SM SKC 13/10 A3020 RMK SLP229,CYYG,2025-08-16T01:00:00Z,46.289,-63.128,13,10,350,3,,15,30.20,1022.9,,,,,,,,,,SKC,,,,,,,,VFR,,,,,,,,,,,,METAR,48
CYYF 160100Z 17019G29KT 15SM VCSH SCT042 BKN100 OVC170 23/15 A2976 RMK CU3AC3AC2 SLP076 DENSITY ALT 2600FT,CYYF,2025-08-16T01:00:00Z,49.46,-119.606,23,15,170,19,29,15,29.76,1007.6,,,,,,,,,VCSH,SCT,4200,BKN,10000,OVC,17000,,,VFR,,,,,,,,,,,,METAR,342
CYYE 160100Z 08010KT 20SM SCT078 BKN180 21/05 A2975 RMK AC3AC4 SLP085 DENSITY ALT 2500FT,CYYE,2025-08-16T01:00:00Z,58.839,-122.59,21,5,80,10,,20,29.75,1008.5,,,,,,,,,,SCT,7800,BKN,18000,,,,,VFR,,,,,,,,,,,,METAR,379
CYYD 160100Z 00000KT 10SM -RA FEW008 OVC045 15/14 A2954 RMK SF2SC6 SLP008 DENSITY ALT 2600FT,CYYD,2025-08-16T01:00:00Z,54.823,-127.185,15,14,0,0,,10+,29.54,1000.8,,,,,,,,,-RA,FEW,800,OVC,4500,,,,,VFR,,,,,,,,,,,,METAR,527
CYYC 160100Z 12005KT 15SM BKN160 BKN250 21/12 A2982 RMK AC7CI1 CI TR SLP102 DENSITY ALT 5200FT,CYYC,2025-08-16T01:00:00Z,51.116,-114.011,21,12,120,5,,15,29.82,1010.2,,,,,,,,,,BKN,16000,BKN,25000,,,,,VFR,,,,,,,,,,,,METAR,1085
CYYB 160100Z 26005KT 15SM FEW260 22/16 A3012 RMK CI2 SLP201 DENSITY ALT 2100FT,CYYB,2025-08-16T01:00:00Z,46.365,-79.423,22,16,260,5,,15,30.12,1020.1,,,,,,,,,,FEW,26000,,,,,,,VFR,,,,,,,,,,,,METAR,360
CYXX 160100Z 15005KT 2 1/4SM RA BR FEW006 BKN017 OVC037 18/18 A2977 RMK SF1SC5NS2 SLP081 DENSITY ALT 800FT,CYXX,2025-08-16T01:00:00Z,49.027,-122.377,18,18,150,5,,2.25,29.77,1008.1,,,,,,,,,RA BR,FEW,600,BKN,1700,OVC,3700,,,IFR,,,,,,,,,,,,METAR,54
CYXU 160100Z 24002KT 15SM FEW260 22/17 A3014 RMK CI1 CI TR HZ SLP204 DENSITY ALT 1700FT,CYXU,2025-08-16T01:00:00Z,43.039,-81.162,22,17,240,2,,15,30.14,1020.4,,,,,,,,,,FEW,26000,,,,,,,VFR,,,,,,,,,,,,METAR,278
CYXT 160100Z 02010G17KT 8SM -RA FEW002 FEW007 FEW034 OVC070 15/15 A2946 RMK SF1SF1SC1AC7 SF TR SF TR VIS E 2 SLP980 DENSITY ALT 1500FT,CYXT,2025-08-16T01:00:00Z,54.471,-128.577,15,15,20,10,17,8,29.46,998,,,,,,,,,-RA,FEW,200,FEW,700,FEW,3400,OVC,7000,VFR,,,,,,,,,,,,METAR,213
CYXS 160100Z AUTO 03004KT 9SM -RA SCT035 BKN055 OVC078 16/15 A2964 RMK PCPN 0.5MM PAST HR SLP045 DENSITY ALT 3200FT,CYXS,2025-08-16T01:00:00Z,53.884,-122.677,16,15,30,4,,9,29.64,1004.5,,TRUE,,,,,,,-RA,SCT,3500,BKN,5500,OVC,7800,,,VFR,,,,,,,,,,,,METAR,685
CYXR 160100Z AUTO 18006KT 9SM CLR 21/14 A3003 RMK SLP174 DENSITY ALT 1500FT,CYXR,2025-08-16T01:00:00Z,47.698,-79.852,21,14,180,6,,9,30.03,1017.4,,TRUE,,,,,,,,CLR,,,,,,,,VFR,,,,,,,,,,,,METAR,244
CYXL 160100Z 33009KT 15SM FEW060 FEW270 19/11 A2996 RMK SC1CI1 SC TR SLP150 DENSITY ALT 2000FT,CYXL,2025-08-16T01:00:00Z,50.114,-91.905,19,11,330,9,,15,29.96,1015,,,,,,,,,,FEW,6000,FEW,27000,,,,,VFR,,,,,,,,,,,,METAR,381
CYXJ 160100Z 09009KT 15SM FEW042 BKN087 OVC120 16/08 A2975 RMK SC2AC4AC2 SLP090 DENSITY ALT 3200FT,CYXJ,2025-08-16T01:00:00Z,56.247,-120.737,16,8,90,9,,15,29.75,1009,,,,,,,,,,FEW,4200,BKN,8700,OVC,12000,,,VFR,,,,,,,,,,,,METAR,700
CYXH 160100Z 33003KT 320V030 30SM BKN250 26/11 A2981 RMK CI5 SLP092 DENSITY ALT 4300FT,CYXH,2025-08-16T01:00:00Z,50.018,-110.717,26,11,330,3,,30,29.81,1009.2,,,,,,,,,,BKN,25000,,,,,,,VFR,,,,,,,,,,,,METAR,717
CYXE 160100Z 08007KT 15SM BKN077 OVC120 14/11 A3002 RMK AC7AC1 SLP183,CYXE,2025-08-16T01:00:00Z,52.172,-106.695,14,11,80,7,,15,30.02,1018.3,,,,,,,,,,BKN,7700,OVC,12000,,,,,VFR,,,,,,,,,,,,METAR,504
CYXC 160100Z 21010G17KT 25SM BKN053 20/10 A2993 RMK SC7 SLP129 DENSITY ALT 4400FT,CYXC,2025-08-16T01:00:00Z,49.614,-115.784,20,10,210,10,17,25,29.93,1012.9,,,,,,,,,,BKN,5300,,,,,,,VFR,,,,,,,,,,,,METAR,928
CYWL 160100Z 12018G25KT 14SM SCT018 BKN100 16/12 A2968 RMK CU4AC3 SLP054 DENSITY ALT 4200FT,CYWL,2025-08-16T01:00:00Z,52.186,-122.066,16,12,120,18,25,14,29.68,1005.4,,,,,,,,,,SCT,1800,BKN,10000,,,,,VFR,,,,,,,,,,,,METAR,942
CYWK 160100Z 16006KT 15SM SCT160 10/05 A3014 RMK AC3 SLP224,CYWK,2025-08-16T01:00:00Z,52.927,-66.874,10,5,160,6,,15,30.14,1022.4,,,,,,,,,,SCT,16000,,,,,,,VFR,,,,,,,,,,,,METAR,547
CYWH 160100Z 23002KT 3SM -RA BR SCT003 OVC050 14/14 A2975 RMK SF4SC4 SLP077,CYWH,2025-08-16T01:00:00Z,48.423,-123.387,14,14,230,2,,3,29.75,1007.7,,,,,,,,,-RA BR,SCT,300,OVC,5000,,,,,MVFR,,,,,,,,,,,,METAR,4
CYWG 160100Z 01005KT 15SM FEW100 FEW240 17/12 A3002 RMK AC1CI1 AC TR SLP172 DENSITY ALT 1200FT,CYWG,2025-08-16T01:00:00Z,49.916,-97.249,17,12,10,5,,15,30.02,1017.2,,,,,,,,,,FEW,10000,FEW,24000,,,,,VFR,,,,,,,,,,,,METAR,238
CYWE 160100Z AUTO VRB02KT 9SM CLR 20/05 A2993 RMK SLP151 DENSITY ALT 2100FT,CYWE,2025-08-16T01:00:00Z,64.192,-114.078,20,5,VRB,2,,9,29.93,1015.1,,TRUE,,,,,,,,CLR,,,,,,,,VFR,,,,,,,,,,,,METAR,374
CYVV 160100Z 00000KT 15SM FEW250 21/18 A3013 RMK CI1 SLP203 DENSITY ALT 1400FT,CYVV,2025-08-16T01:00:00Z,44.745,-81.107,21,18,0,0,,15,30.13,1020.3,,,,,,,,,,FEW,25000,,,,,,,VFR,,,,,,,,,,,,METAR,221
CYVT 160100Z AUTO 05003KT 010V080 9SM CLR 17/05 A3000 RMK SLP173 DENSITY ALT 2000FT,CYVT,2025-08-16T01:00:00Z,55.842,-108.418,17,5,50,3,,9,30.00,1017.3,,TRUE,,,,,,,,CLR,,,,,,,,VFR,,,,,,,,,,,,METAR,438
CYVR 160100Z 13018KT 6SM -RA BR FEW007 SCT030 OVC068 18/18 A2972 RMK SC2SC1AC5 SLP068 DENSITY ALT 700FT,CYVR,2025-08-16T01:00:00Z,49.183,-123.168,18,18,130,18,,6,29.72,1006.8,,,,,,,,,-RA BR,FEW,700,SCT,3000,OVC,6800,,,VFR,,,,,,,,,,,,METAR,2
CYVQ 160100Z 13012KT 30SM FEW060CB FEW270 26/09 A2969 RMK CB1CI1 CB TR CI TR CB DIST S SLP059 DENSITY ALT 1800FT,CYVQ,2025-08-16T01:00:00Z,65.278,-126.796,26,9,130,12,,30,29.69,1005.9,,,,,,,,,,FEW,6000,FEW,27000,,,,,VFR,,,,,,,,,,,,METAR,63
CYVP 160100Z 11006KT 15SM OVC072 12/05 A3001 RMK AS8 SLP166,CYVP,2025-08-16T01:00:00Z,58.1,-68.415,12,5,110,6,,15,30.01,1016.6,,,,,,,,,,OVC,7200,,,,,,,VFR,,,,,,,,,,,,METAR,28
CYVO 160100Z 18005KT 15SM BKN150 22/14 A3006 RMK AC5 SLP185 DENSITY ALT 2100FT,CYVO,2025-08-16T01:00:00Z,48.056,-77.779,22,14,180,5,,15,30.06,1018.5,,,,,,,,,,BKN,15000,,,,,,,VFR,,,,,,,,,,,,METAR,329
CYVM 160100Z AUTO 20008KT 9SM SCT100 OVC140 06/01 A2988 RMK SLP122,CYVM,2025-08-16T01:00:00Z,67.552,-64.026,6,1,200,8,,9,29.88,1012.2,,TRUE,,,,,,,,SCT,10000,OVC,14000,,,,,VFR,,,,,,,,,,,,METAR,3
CYVL 160100Z AUTO 13013G18KT 9SM CLR 23/05 A2977 RMK SLP091 DENSITY ALT 2200FT,CYVL,2025-08-16T01:00:00Z,67.021,-126.129,23,5,130,13,18,9,29.77,1009.1,,TRUE,,,,,,,,CLR,,,,,,,,VFR,,,,,,,,,,,,METAR,261
CYVC 160100Z 14004KT 15SM FEW044 SCT250 16/08 A3005 RMK CU1CI2 SLP188 DENSITY ALT 1600FT,CYVC,2025-08-16T01:00:00Z,55.15,-105.264,16,8,140,4,,15,30.05,1018.8,,,,,,,,,,FEW,4400,SCT,25000,,,,,VFR,,,,,,,,,,,,METAR,378
CYUY 160100Z 17006KT 15SM SCT150 21/13 A3004 RMK AC3 SLP175 DENSITY ALT 1800FT,CYUY,2025-08-16T01:00:00Z,48.209,-78.83,21,13,170,6,,15,30.04,1017.5,,,,,,,,,,SCT,15000,,,,,,,VFR,,,,,,,,,,,,METAR,304
CYUX 160100Z AUTO 25006KT 9SM SCT045 06/05 A2990 RMK SLP126,CYUX,2025-08-16T01:00:00Z,68.772,-81.233,6,5,250,6,,9,29.90,1012.6,,TRUE,,,,,,,,SCT,4500,,,,,,,VFR,,,,,,,,,,,,METAR,8
CYUL 160100Z 03003KT 320V050 15SM FEW180 FEW250 24/10 A3016 RMK AC1CI1 AC TR CI TR SLP214 DENSITY ALT 900FT,CYUL,2025-08-16T01:00:00Z,45.468,-73.742,24,10,30,3,,15,30.16,1021.4,,,,,,,,,,FEW,18000,FEW,25000,,,,,VFR,,,,,,,,,,,,METAR,31
CYTZ 160100Z AUTO 08007KT 9SM CLR 24/20 A3011 RMK SLP198 DENSITY ALT 1200FT,CYTZ,2025-08-16T01:00:00Z,43.627,-79.397,24,20,80,7,,9,30.11,1019.8,,TRUE,,,,,,,,CLR,,,,,,,,VFR,,,,,,,,,,,,METAR,76
CYTS 160100Z 19006KT 15SM FEW050 BKN170 22/17 A2998 RMK SC1AC5 SLP157 DENSITY ALT 2000FT,CYTS,2025-08-16T01:00:00Z,48.568,-81.378,22,17,190,6,,15,29.98,1015.7,,,,,,,,,,FEW,5000,BKN,17000,,,,,VFR,,,,,,,,,,,,METAR,290
CYTR 160100Z 00000KT 15SM SKC 21/15 A3013 RMK DENSITY ALT 1064FT SLP202,CYTR,2025-08-16T01:00:00Z,44.115,-77.531,21,15,0,0,,15,30.13,1020.2,,,,,,,,,,SKC,,,,,,,,VFR,,,,,,,,,,,,METAR,80
CYTL 160100Z AUTO 31011G21KT 9SM FEW023 SCT048 OVC060 12/09 A2982 RMK SLP106,CYTL,2025-08-16T01:00:00Z,53.816,-89.892,12,9,310,11,21,9,29.82,1010.6,,TRUE,,,,,,,,FEW,2300,SCT,4800,OVC,6000,,,VFR,,,,,,,,,,,,METAR,218
CYTH 160100Z 32006KT 15SM BKN056 11/06 A3001 RMK CU5 SLP175,CYTH,2025-08-16T01:00:00Z,55.803,-97.846,11,6,320,6,,15,30.01,1017.5,,,,,,,,,,BKN,5600,,,,,,,VFR,,,,,,,,,,,,METAR,212
CYTE 160100Z AUTO VRB03KT 9SM SCT120 06/01 A2993 RMK SLP140,CYTE,2025-08-16T01:00:00Z,64.23,-76.528,6,1,VRB,3,,9,29.93,1014,,TRUE,,,,,,,,SCT,12000,,,,,,,VFR,,,,,,,,,,,,METAR,49
CYSN 160100Z 09004KT 15SM FEW080 23/16 A3011 RMK AC2 LAST STFD OBS/NXT 161100Z SLP196 DENSITY ALT 1200FT,CYSN,2025-08-16T01:00:00Z,43.192,-79.176,23,16,90,4,,15,30.11,1019.6,,,,,,,,,,FEW,8000,,,,,,,VFR,,,,,,,,,,,,METAR,96
CYSM 160100Z 03004KT 15SM BKN075 20/07 A2991 RMK AC6 SLP138 DENSITY ALT 1400FT,CYSM,2025-08-16T01:00:00Z,60.026,-111.929,20,7,30,4,,15,29.91,1013.8,,,,,,,,,,BKN,7500,,,,,,,VFR,,,,,,,,,,,,METAR,203
CYSJ 160100Z 11007KT 15SM SCT270 18/05 A3020 RMK CI4 SLP228,CYSJ,2025-08-16T01:00:00Z,45.309,-65.886,18,5,110,7,,15,30.20,1022.8,,,,,,,,,,SCT,27000,,,,,,,VFR,,,,,,,,,,,,METAR,89
CYSF 160100Z AUTO 12003KT 100V160 9SM OVC060 13/11 A3001 RMK SLP174,CYSF,2025-08-16T01:00:00Z,59.252,-105.837,13,11,120,3,,9,30.01,1017.4,,TRUE,,,,,,,,OVC,6000,,,,,,,VFR,,,,,,,,,,,,METAR,238
CYSC 160100Z AUTO VRB02KT 9SM CLR 16/10 A3019 RMK SLP226,CYSC,2025-08-16T01:00:00Z,45.44,-71.692,16,10,VRB,2,,9,30.19,1022.6,,TRUE,,,,,,,,CLR,,,,,,,,VFR,,,,,,,,,,,,METAR,236
CYSB 160100Z 19009KT 20SM SKC 22/14 A3010 RMK SLP195 DENSITY ALT 2000FT,CYSB,2025-08-16T01:00:00Z,46.622,-80.799,22,14,190,9,,20,30.10,1019.5,,,,,,,,,,SKC,,,,,,,,VFR,,,,,,,,,,,,METAR,349
CYRT 160100Z 17006KT 15SM SCT057 BKN082 09/06 A2993 RMK SC3AC4 SH DIST SW-W CVCTV CLD EMBD SLP138,CYRT,2025-08-16T01:00:00Z,62.811,-92.1,9,6,170,6,,15,29.93,1013.8,,,,,,,,,,SCT,5700,BKN,8200,,,,,VFR,,,,,,,,,,,,METAR,29
CYRQ 160100Z AUTO 00000KT 9SM CLR 15/11 A3016 RMK SLP217,CYRQ,2025-08-16T01:00:00Z,46.358,-72.68,15,11,0,0,,9,30.16,1021.7,,TRUE,,,,,,,,CLR,,,,,,,,VFR,,,,,,,,,,,,METAR,58
CYRL 160100Z 31007KT 280V340 15SM BKN047 BKN240 15/08 A3001 RMK SC7CI1 CI TR SLP170 DENSITY ALT 1500FT,CYRL,2025-08-16T01:00:00Z,51.067,-93.799,15,8,310,7,,15,30.01,1017,,,,,,,,,,BKN,4700,BKN,24000,,,,,VFR,,,,,,,,,,,,METAR,370
CYRJ 160100Z 00000KT 25SM FEW230 14/11 A3014 RMK CI1 CI TR SLP211,CYRJ,2025-08-16T01:00:00Z,48.523,-72.266,14,11,0,0,,25,30.14,1021.1,,,,,,,,,,FEW,23000,,,,,,,VFR,,,,,,,,,,,,METAR,173
CYRB 160100Z 30008KT 15SM -RA BKN058 OVC073 02/01 A2997 RMK SC6AS2 SLP157,CYRB,2025-08-16T01:00:00Z,74.713,-94.982,2,1,300,8,,15,29.97,1015.7,,,,,,,,,-RA,BKN,5800,OVC,7300,,,,,VFR,,,,,,,,,,,,METAR,59
CYQZ 160100Z AUTO 14011G18KT 9SM FEW030 SCT034 SCT041 SCT130 20/14 A2960 RMK SLP031 DENSITY ALT 3100FT,CYQZ,2025-08-16T01:00:00Z,53.027,-122.506,20,14,140,11,18,9,29.60,1003.1,,TRUE,,,,,,,,FEW,3000,SCT,3400,SCT,4100,SCT,13000,VFR,,,,,,,,,,,,METAR,548
CYQY 160100Z 36014G20KT 15SM BKN022 17/12 A3014 RMK SC5 SLP210,CYQY,2025-08-16T01:00:00Z,46.166,-60.049,17,12,360,14,20,15,30.14,1021,,,,,,,,,,BKN,2200,,,,,,,MVFR,,,,,,,,,,,,METAR,58
CYQW 160100Z AUTO 13007KT 9SM -RA BKN071 OVC091 12/11 A3003 RMK SLP188,CYQW,2025-08-16T01:00:00Z,52.769,-108.251,12,11,130,7,,9,30.03,1018.8,,TRUE,,,,,,,-RA,BKN,7100,OVC,9100,,,,,VFR,,,,,,,,,,,,METAR,545
CYQU 160100Z 11015KT 25SM SCT031 BKN120 17/10 A2975 RMK SC3AC4 SLP086 DENSITY ALT 3100FT,CYQU,2025-08-16T01:00:00Z,55.182,-118.882,17,10,110,15,,25,29.75,1008.6,,,,,,,,,,SCT,3100,BKN,12000,,,,,VFR,,,,,,,,,,,,METAR,668
CYQT 160100Z 23005KT 20SM FEW160 25/20 A2990 RMK AC2 SLP127 DENSITY ALT 2000FT,CYQT,2025-08-16T01:00:00Z,48.374,-89.33,25,20,230,5,,20,29.90,1012.7,,,,,,,,,,FEW,16000,,,,,,,VFR,,,,,,,,,,,,METAR,197
CYQR 160100Z 09009KT 15SM BKN096 BKN160 BKN210 17/08 A3003 RMK AC5AC1CI1 SLP185 DENSITY ALT 2500FT,CYQR,2025-08-16T01:00:00Z,50.427,-104.67,17,8,90,9,,15,30.03,1018.5,,,,,,,,,,BKN,9600,BKN,16000,BKN,21000,,,VFR,,,,,,,,,,,,METAR,576
CYQQ 160100Z 14013KT 20SM SCT006 SCT023 BKN045 BKN075 17/15 A2966 RMK SF3SC1SC3AC1 DENSITY ALT 850FT SLP042,CYQQ,2025-08-16T01:00:00Z,49.712,-124.895,17,15,140,13,,20,29.66,1004.2,,,,,,,,,,SCT,600,SCT,2300,BKN,4500,BKN,7500,VFR,,,,,,,,,,,,METAR,24
CYQM 160100Z 10006KT 15SM FEW220 13/07 A3020 RMK CI1 SLP229,CYQM,2025-08-16T01:00:00Z,46.107,-64.682,13,7,100,6,,15,30.20,1022.9,,,,,,,,,,FEW,22000,,,,,,,VFR,,,,,,,,,,,,METAR,67
CYQL 160100Z 29011KT 30SM FEW130 SCT250 24/10 A2986 RMK AC2CI1 SLP107 DENSITY ALT 4900FT,CYQL,2025-08-16T01:00:00Z,49.627,-112.792,24,10,290,11,,30,29.86,1010.7,,,,,,,,,,FEW,13000,SCT,25000,,,,,VFR,,,,,,,,,,,,METAR,923
CYQK 160100Z 32006KT 280V340 20SM FEW050 FEW230 19/10 A3001 RMK SC1CI1 SC TR SLP167 DENSITY ALT 2100FT,CYQK,2025-08-16T01:00:00Z,49.791,-94.361,19,10,320,6,,20,30.01,1016.7,,,,,,,,,,FEW,5000,FEW,23000,,,,,VFR,,,,,,,,,,,,METAR,413
CYQI 160100Z 13004KT 15SM BKN250 18/15 A3016 RMK CI7 SLP216,CYQI,2025-08-16T01:00:00Z,43.831,-66.088,18,15,130,4,,15,30.16,1021.6,,,,,,,,,,BKN,25000,,,,,,,VFR,,,,,,,,,,,,METAR,37
CYQH 160100Z 10020KT 30SM SCT045 BKN092 BKN280 22/01 A2962 RMK CU3AC2CI1 SLP041 DENSITY ALT 4000FT,CYQH,2025-08-16T01:00:00Z,60.116,-128.832,22,1,100,20,,30,29.62,1004.1,,,,,,,,,,SCT,4500,BKN,9200,BKN,28000,,,VFR,,,,,,,,,,,,METAR,692
CYQG 160100Z AUTO 13005KT 8SM -RA CLR 21/19 A3012 RMK SLP199 DENSITY ALT 1300FT,CYQG,2025-08-16T01:00:00Z,42.269,-82.963,21,19,130,5,,8,30.12,1019.9,,TRUE,,,,,,,-RA,CLR,,,,,,,,VFR,,,,,,,,,,,,METAR,189
CYQF 160100Z AUTO 11010G17KT 9SM FEW100 18/12 A2982 RMK SLP109 DENSITY ALT 4200FT,CYQF,2025-08-16T01:00:00Z,52.179,-113.903,18,12,110,10,17,9,29.82,1010.9,,TRUE,,,,,,,,FEW,10000,,,,,,,VFR,,,,,,,,,,,,METAR,912
CYQD 160100Z AUTO VRB03KT 9SM CLR 14/06 A3006 RMK SLP190,CYQD,2025-08-16T01:00:00Z,53.975,-101.089,14,6,VRB,3,,9,30.06,1019,,TRUE,,,,,,,,CLR,,,,,,,,VFR,,,,,,,,,,,,METAR,268
CYQB 160100Z 00000KT 15SM FEW250 15/11 A3018 RMK CI1 CI TR SLP222,CYQB,2025-08-16T01:00:00Z,46.791,-71.396,15,11,0,0,,15,30.18,1022.2,,,,,,,,,,FEW,25000,,,,,,,VFR,,,,,,,,,,,,METAR,73
CYQA 160100Z AUTO 00000KT 9SM CLR 20/13 A3013 RMK SLP203 DENSITY ALT 1500FT,CYQA,2025-08-16T01:00:00Z,44.971,-79.303,20,13,0,0,,9,30.13,1020.3,,TRUE,,,,,,,,CLR,,,,,,,,VFR,,,,,,,,,,,,METAR,277
CYPY 160100Z AUTO 20005KT 160V240 9SM CLR 19/06 A2996 RMK SLP157 DENSITY ALT 1400FT,CYPY,2025-08-16T01:00:00Z,58.766,-111.117,19,6,200,5,,9,29.96,1015.7,,TRUE,,,,,,,,CLR,,,,,,,,VFR,,,,,,,,,,,,METAR,225
CYPW 160100Z 12019G33KT 15SM BKN005 BKN032 BKN060 17/17 A2968 RMK SF7SC1SC1 SC TR SC TR VIS N-E 1 1/2 LO CLD BR SLP054 DENSITY ALT 1100FT,CYPW,2025-08-16T01:00:00Z,49.835,-124.499,17,17,120,19,33,15,29.68,1005.4,,,,,,,,,,BKN,500,BKN,3200,BKN,6000,,,IFR,,,,,,,,,,,,METAR,122
CYPQ 160100Z AUTO 00000KT 9SM CLR 19/15 A3013 RMK SLP206 DENSITY ALT 1000FT,CYPQ,2025-08-16T01:00:00Z,44.232,-78.36,19,15,0,0,,9,30.13,1020.6,,TRUE,,,,,,,,CLR,,,,,,,,VFR,,,,,,,,,,,,METAR,190
CYPO 160100Z AUTO 27010G18KT 9SM FEW034 OVC071 14/10 A2964 RMK SLP038 DENSITY ALT 500FT,CYPO,2025-08-16T01:00:00Z,54.988,-85.439,14,10,270,10,18,9,29.64,1003.8,,TRUE,,,,,,,,FEW,3400,OVC,7100,,,,,VFR,,,,,,,,,,,,METAR,49
CYPL 160100Z AUTO 29016G26KT 9SM OVC055 16/08 A2993 RMK SLP140 DENSITY ALT 1700FT,CYPL,2025-08-16T01:00:00Z,51.449,-90.218,16,8,290,16,26,9,29.93,1014,,TRUE,,,,,,,,OVC,5500,,,,,,,VFR,,,,,,,,,,,,METAR,390
CYPE 160100Z AUTO 11012G21KT 9SM SCT050 18/08 A2980 RMK SLP106 DENSITY ALT 2800FT,CYPE,2025-08-16T01:00:00Z,56.228,-117.453,18,8,110,12,21,9,29.80,1010.6,,TRUE,,,,,,,,SCT,5000,,,,,,,VFR,,,,,,,,,,,,METAR,572
CYPD 160100Z AUTO 35006KT 310V020 9SM CLR 15/11 A3016 RMK SLP218,CYPD,2025-08-16T01:00:00Z,45.657,-61.374,15,11,350,6,,9,30.16,1021.8,,TRUE,,,,,,,,CLR,,,,,,,,VFR,,,,,,,,,,,,METAR,106
CYPA 160100Z 20003KT 15SM BKN120 BKN270 15/10 A3004 RMK AC6CI1 SLP186,CYPA,2025-08-16T01:00:00Z,53.217,-105.679,15,10,200,3,,15,30.04,1018.6,,,,,,,,,,BKN,12000,BKN,27000,,,,,VFR,,,,,,,,,,,,METAR,428
CYOW 160100Z 11007KT 15SM FEW160 FEW250 20/11 A3014 RMK AC1CI1 AC TR CI TR SLP209 DENSITY ALT 800FT,CYOW,2025-08-16T01:00:00Z,45.307,-75.66,20,11,110,7,,15,30.14,1020.9,,,,,,,,,,FEW,16000,FEW,25000,,,,,VFR,,,,,,,,,,,,METAR,111
CYOO 160100Z AUTO 11003KT 9SM CLR 23/17 A3013 RMK SLP203 DENSITY ALT 1300FT,CYOO,2025-08-16T01:00:00Z,43.921,-78.899,23,17,110,3,,9,30.13,1020.3,,TRUE,,,,,,,,CLR,,,,,,,,VFR,,,,,,,,,,,,METAR,136
CYOJ 160100Z 13010G16KT 080V150 15SM FEW040 FEW260 20/06 A2987 RMK SF1CI1 SF TR CI TR LAST STFD OBS/NXT 161400Z SLP127 DENSITY ALT 2000FT,CYOJ,2025-08-16T01:00:00Z,58.628,-117.174,20,6,130,10,16,15,29.87,1012.7,,,,,,,,,,FEW,4000,FEW,26000,,,,,VFR,,,,,,,,,,,,METAR,339
CYOD 160100Z 18005KT 12SM -RA FEW045 OVC070 14/09 A3000 RMK SC1AS7 DENSITY ALT 2155FT SLP176,CYOD,2025-08-16T01:00:00Z,54.41,-110.287,14,9,180,5,,12,30.00,1017.6,,,,,,,,,-RA,FEW,4500,OVC,7000,,,,,VFR,,,,,,,,,,,,METAR,540
CYNM 160100Z AUTO 17010KT 9SM CLR 21/14 A2997 RMK SLP156 DENSITY ALT 1800FT,CYNM,2025-08-16T01:00:00Z,49.759,-77.793,21,14,170,10,,9,29.97,1015.6,,TRUE,,,,,,,,CLR,,,,,,,,VFR,,,,,,,,,,,,METAR,276
CYNE 160100Z AUTO 32005KT 270V360 9SM OVC040 12/06 A3004 RMK SLP183,CYNE,2025-08-16T01:00:00Z,53.958,-97.845,12,6,320,5,,9,30.04,1018.3,,TRUE,,,,,,,,OVC,4000,,,,,,,VFR,,,,,,,,,,,,METAR,220
CYND 160100Z 07003KT 15SM FEW250 20/13 A3014 RMK CI1 CI TR LAST STFD OBS/NXT 161100Z SLP208 DENSITY ALT 700FT,CYND,2025-08-16T01:00:00Z,45.52,-75.563,20,13,70,3,,15,30.14,1020.8,,,,,,,,,,FEW,25000,,,,,,,VFR,,,,,,,,,,,,METAR,57
CYNA 160100Z AUTO 00000KT 9SM CLR 11/10 A3018 RMK SLP222,CYNA,2025-08-16T01:00:00Z,50.19,-61.789,11,10,0,0,,9,30.18,1022.2,,TRUE,,,,,,,,CLR,,,,,,,,VFR,,,,,,,,,,,,METAR,9
CYMX 160100Z 14003KT 25SM SKC 18/10 A3016 RMK SLP217,CYMX,2025-08-16T01:00:00Z,45.68,-74.038,18,10,140,3,,25,30.16,1021.7,,,,,,,,,,SKC,,,,,,,,VFR,,,,,,,,,,,,METAR,78
CYMT 160100Z AUTO 16007KT 9SM CLR 18/09 A3007 RMK SLP188 DENSITY ALT 1800FT,CYMT,2025-08-16T01:00:00Z,49.779,-74.527,18,9,160,7,,9,30.07,1018.8,,TRUE,,,,,,,,CLR,,,,,,,,VFR,,,,,,,,,,,,METAR,388
CYMO 160100Z AUTO 21008KT 9SM BKN040 22/19 A2976 RMK SLP081 DENSITY ALT 1100FT,CYMO,2025-08-16T01:00:00Z,51.292,-80.607,22,19,210,8,,9,29.76,1008.1,,TRUE,,,,,,,,BKN,4000,,,,,,,VFR,,,,,,,,,,,,METAR,8
CYMM 160100Z AUTO 11007KT 9SM BKN060 16/07 A2998 RMK SLP165 DENSITY ALT 1600FT,CYMM,2025-08-16T01:00:00Z,56.65,-111.221,16,7,110,7,,9,29.98,1016.5,,TRUE,,,,,,,,BKN,6000,,,,,,,VFR,,,,,,,,,,,,METAR,371
CYMH 160100Z AUTO 35006KT 9SM CLR 09/06 A3022 RMK SLP235,CYMH,2025-08-16T01:00:00Z,52.304,-55.833,9,6,350,6,,9,30.22,1023.5,,TRUE,,,,,,,,CLR,,,,,,,,VFR,,,,,,,,,,,,METAR,18
CYMA 160100Z 09006KT 050V140 20SM FEW070TCU 24/04 A2961 RMK TCU2 SLP035 DENSITY ALT 3400FT,CYMA,2025-08-16T01:00:00Z,63.616,-135.88,24,4,90,6,,20,29.61,1003.5,,,,,,,,,,FEW,7000,,,,,,,VFR,,,,,,,,,,,,METAR,519
CYLW 160100Z AUTO 33012KT 9SM -RA OVC055 18/17 A2978 RMK SLP086 DENSITY ALT 2300FT,CYLW,2025-08-16T01:00:00Z,49.953,-119.375,18,17,330,12,,9,29.78,1008.6,,TRUE,,,,,,,-RA,OVC,5500,,,,,,,VFR,,,,,,,,,,,,METAR,420
CYLL 160100Z 10008G15KT 8SM -SHRA OVC060 10/09 A2998 RMK SC8 SLP176,CYLL,2025-08-16T01:00:00Z,53.312,-110.074,10,9,100,8,15,8,29.98,1017.6,,,,,,,,,-SHRA,OVC,6000,,,,,,,VFR,,,,,,,,,,,,METAR,664
CYLH 160100Z AUTO 27010G19KT 230V330 9SM BKN071 BKN081 18/10 A2982 RMK SLP105 DENSITY ALT 1500FT,CYLH,2025-08-16T01:00:00Z,52.196,-87.936,18,10,270,10,19,9,29.82,1010.5,,TRUE,,,,,,,,BKN,7100,BKN,8100,,,,,VFR,,,,,,,,,,,,METAR,245
CYLD 160100Z 21005KT 15SM FEW150 SCT200 23/18 A3003 RMK AC1CI3 LAST STFD OBS/NEXT 1100 UTC SLP174 DENSITY ALT 2600FT,CYLD,2025-08-16T01:00:00Z,47.818,-83.358,23,18,210,5,,15,30.03,1017.4,,,,,,,,,,FEW,15000,SCT,20000,,,,,VFR,,,,,,,,,,,,METAR,449
CYKY 160100Z 09013G20KT 15SM SCT054 BKN100 BKN240 14/08 A2995 RMK SC4AC1CC1 SLP153 DENSITY ALT 2700FT,CYKY,2025-08-16T01:00:00Z,51.517,-109.175,14,8,90,13,20,15,29.95,1015.3,,,,,,,,,,SCT,5400,BKN,10000,BKN,24000,,,VFR,,,,,,,,,,,,METAR,692
CYKP 160100Z AUTO 27008G15KT 9SM CLR 22/12 A2978 RMK SLP080 DENSITY ALT 1700FT,CYKP,2025-08-16T01:00:00Z,51.659,-85.901,22,12,270,8,15,9,29.78,1008,,TRUE,,,,,,,,CLR,,,,,,,,VFR,,,,,,,,,,,,METAR,181
CYKJ 160100Z AUTO 22003KT 190V310 9SM OVC076 16/03 A3002 RMK SLP183 DENSITY ALT 2100FT,CYKJ,2025-08-16T01:00:00Z,57.256,-105.618,16,3,220,3,,9,30.02,1018.3,,TRUE,,,,,,,,OVC,7600,,,,,,,VFR,,,,,,,,,,,,METAR,519
CYKF 160100Z AUTO 11005KT 9SM FEW071 22/16 A3014 RMK SLP205 DENSITY ALT 1900FT,CYKF,2025-08-16T01:00:00Z,43.462,-80.386,22,16,110,5,,9,30.14,1020.5,,TRUE,,,,,,,,FEW,7100,,,,,,,VFR,,,,,,,,,,,,METAR,312
CYIV 160100Z AUTO 31011G20KT 9SM OVC046 12/06 A2997 RMK SLP158,CYIV,2025-08-16T01:00:00Z,53.857,-94.655,12,6,310,11,20,9,29.97,1015.8,,TRUE,,,,,,,,OVC,4600,,,,,,,VFR,,,,,,,,,,,,METAR,234
CYIO 160100Z AUTO 26003KT 9SM BKN071 06/05 A2987 RMK SLP120,CYIO,2025-08-16T01:00:00Z,72.694,-77.957,6,5,260,3,,9,29.87,1012,,TRUE,,,,,,,,BKN,7100,,,,,,,VFR,,,,,,,,,,,,METAR,61
CYIN 160100Z AUTO 15011G18KT 9SM FEW055 SCT150 BKN200 16/11 A2971 RMK SLP056 DENSITY ALT 4900FT,CYIN,2025-08-16T01:00:00Z,51.265,-121.681,16,11,150,11,18,9,29.71,1005.6,,TRUE,,,,,,,,FEW,5500,SCT,15000,BKN,20000,,,VFR,,,,,,,,,,,,METAR,1127
CYHZ 160100Z 02004KT 15SM SKC 15/10 A3020 RMK SLP228,CYHZ,2025-08-16T01:00:00Z,44.8781,-63.5136,15,10,20,4,,15,30.20,1022.8,,,,,,,,,,SKC,,,,,,,,VFR,,,,,,,,,,,,METAR,136
CYHY 160100Z 08013KT 15SM FEW080 FEW220 19/09 A2990 RMK AC1CI1 CI TR FU DIST NW-W SLP132 DENSITY ALT 1200FT,CYHY,2025-08-16T01:00:00Z,60.839,-115.781,19,9,80,13,,15,29.90,1013.2,,,,,,,,,,FEW,8000,FEW,22000,,,,,VFR,,,,,,,,,,,,METAR,159
CYHU 160100Z AUTO 07002KT 9SM CLR 21/12 A3016 RMK SLP215 DENSITY ALT 500FT,CYHU,2025-08-16T01:00:00Z,45.516,-73.415,21,12,70,2,,9,30.16,1021.5,,TRUE,,,,,,,,CLR,,,,,,,,VFR,,,,,,,,,,,,METAR,26
CYHM 160100Z 06003KT 12SM SKC 22/16 A3013 RMK SLP204 DENSITY ALT 1600FT,CYHM,2025-08-16T01:00:00Z,43.173,-79.936,22,16,60,3,,12,30.13,1020.4,,,,,,,,,,SKC,,,,,,,,VFR,,,,,,,,,,,,METAR,237
CYHK 160100Z AUTO 01010KT 9SM BKN150 08/04 A3002 RMK SLP173,CYHK,2025-08-16T01:00:00Z,68.633,-95.851,8,4,10,10,,9,30.02,1017.3,,TRUE,,,,,,,,BKN,15000,,,,,,,VFR,,,,,,,,,,,,METAR,36
CYHD 160100Z AUTO 31005KT 9SM CLR 20/11 A2997 RMK SLP155 DENSITY ALT 2200FT,CYHD,2025-08-16T01:00:00Z,49.83,-92.74,20,11,310,5,,9,29.97,1015.5,,TRUE,,,,,,,,CLR,,,,,,,,VFR,,,,,,,,,,,,METAR,414
CYGV 160100Z AUTO 23007KT 9SM CLR 11/10 A3019 RMK ICE MISG SLP227,CYGV,2025-08-16T01:00:00Z,50.286,-63.606,11,10,230,7,,9,30.19,1022.7,,TRUE,,,,,,,,CLR,,,,,,,,VFR,,,,,,,,,,,,METAR,32
CYGR 160100Z 02011KT 15SM SKC 17/12 A3019 RMK SLP225,CYGR,2025-08-16T01:00:00Z,47.425,-61.775,17,12,20,11,,15,30.19,1022.5,,,,,,,,,,SKC,,,,,,,,VFR,,,,,,,,,,,,METAR,4
CYGP 160100Z 00000KT 15SM SKC 09/06 A3021 RMK SLP231,CYGP,2025-08-16T01:00:00Z,48.777,-64.478,9,6,0,0,,15,30.21,1023.1,,,,,,,,,,SKC,,,,,,,,VFR,,,,,,,,,,,,METAR,31
CYGL 160100Z 20013G25KT 15SM -SHRA BKN026 OVC035 19/18 A2971 RMK SC5SC3 CVCTV CLD EMBD VIA CYQB SLP069 DENSITY ALT 1600FT,CYGL,2025-08-16T01:00:00Z,53.625,-77.7,19,18,200,13,25,15,29.71,1006.9,,,,,,,,,-SHRA,BKN,2600,OVC,3500,,,,,MVFR,,,,,,,,,,,,METAR,192
CYGK 160100Z 21002KT 15SM FEW060 22/13 A3015 RMK SC1 SC TR SLP210 DENSITY ALT 900FT,CYGK,2025-08-16T01:00:00Z,44.223,-76.599,22,13,210,2,,15,30.15,1021,,,,,,,,,,FEW,6000,,,,,,,VFR,,,,,,,,,,,,METAR,91
CYFS 160100Z 16008KT 070V190 15SM FEW260 24/05 A2980 RMK CI1 CI TR SLP097 DENSITY ALT 1900FT,CYFS,2025-08-16T01:00:00Z,61.76,-121.23,24,5,160,8,,15,29.80,1009.7,,,,,,,,,,FEW,26000,,,,,,,VFR,,,,,,,,,,,,METAR,174
CYFC 160100Z AUTO 00000KT 9SM CLR 15/12 A3017 RMK SLP217,CYFC,2025-08-16T01:00:00Z,45.873,-66.539,15,12,0,0,,9,30.17,1021.7,,TRUE,,,,,,,,CLR,,,,,,,,VFR,,,,,,,,,,,,METAR,16
CYFB 160100Z 14005KT 30SM BKN059 OVC260 07/02 A2999 RMK SC7CI1 SLP161,CYFB,2025-08-16T01:00:00Z,63.75,-68.544,7,2,140,5,,30,29.99,1016.1,,,,,,,,,,BKN,5900,OVC,26000,,,,,VFR,,,,,,,,,,,,METAR,23
CYEV 160100Z 33010KT 15SM OVC012 09/06 A2989 RMK SC8 SLP128,CYEV,2025-08-16T01:00:00Z,68.309,-133.5,9,6,330,10,,15,29.89,1012.8,,,,,,,,,,OVC,1200,,,,,,,MVFR,,,,,,,,,,,,METAR,74
CYEN 160100Z AUTO 08007KT 9SM BKN100 OVC150 21/11 A3002 RMK SLP174 DENSITY ALT 3000FT,CYEN,2025-08-16T01:00:00Z,49.207,-102.963,21,11,80,7,,9,30.02,1017.4,,TRUE,,,,,,,,BKN,10000,OVC,15000,,,,,VFR,,,,,,,,,,,,METAR,580
CYEK 160100Z AUTO 01009KT 9SM CLR 09/03 A2995 RMK SLP143,CYEK,2025-08-16T01:00:00Z,61.098,-94.072,9,3,10,9,,9,29.95,1014.3,,TRUE,,,,,,,,CLR,,,,,,,,VFR,,,,,,,,,,,,METAR,7
CYEG 160100Z 12014G21KT 20SM FEW020 SCT087 SCT120 BKN160 14/10 A2988 RMK SC2AC1AC1AC3 SLP131 DENSITY ALT 2900FT,CYEG,2025-08-16T01:00:00Z,53.308,-113.592,14,10,120,14,21,20,29.88,1013.1,,,,,,,,,,FEW,2000,SCT,8700,SCT,12000,BKN,16000,VFR,,,,,,,,,,,,METAR,710
CYDQ 160100Z AUTO 08011G17KT 9SM OVC046 18/09 A2973 RMK SLP079 DENSITY ALT 3200FT,CYDQ,2025-08-16T01:00:00Z,55.741,-120.188,18,9,80,11,17,9,29.73,1007.9,,TRUE,,,,,,,,OVC,4600,,,,,,,VFR,,,,,,,,,,,,METAR,658
CYDN 160100Z AUTO 06005KT 9SM CLR 15/11 A3006 RMK SLP187,CYDN,2025-08-16T01:00:00Z,51.1,-100.057,15,11,60,5,,9,30.06,1018.7,,TRUE,,,,,,,,CLR,,,,,,,,VFR,,,,,,,,,,,,METAR,302
CYDL 160100Z AUTO 08005KT 050V110 9SM BKN071 OVC089 18/07 A2958 RMK SLP019 DENSITY ALT 4000FT,CYDL,2025-08-16T01:00:00Z,58.426,-130.025,18,7,80,5,,9,29.58,1001.9,,TRUE,,,,,,,,BKN,7100,OVC,8900,,,,,VFR,,,,,,,,,,,,METAR,804
CYDF 160100Z 05011G19KT 15SM BKN032 13/08 A3020 RMK SC6 SLP229,CYDF,2025-08-16T01:00:00Z,49.212,-57.394,13,8,50,11,19,15,30.20,1022.9,,,,,,,,,,BKN,3200,,,,,,,VFR,,,,,,,,,,,,METAR,15
CYDC 160100Z 19005KT 160V220 20SM -RA SCT051 OVC090 22/13 A2977 RMK SC3AS5 LAST STFD OBS/NEXT 16 13OOZ SLP072 DENSITY ALT 3900FT,CYDC,2025-08-16T01:00:00Z,49.468,-120.514,22,13,190,5,,20,29.77,1007.2,,,,,,,,,-RA,SCT,5100,OVC,9000,,,,,VFR,,,,,,,,,,,,METAR,703
CYDB 160100Z 31013G18KT 15SM FEW035 SCT065TCU SCT100 BKN250 BKN270 15/08 A2963 RMK CU2TCU1AC1CI3CC1 CC TR DIST SH N-SE/ LAST STFD OBS/ NEXT 1600Z SLP062 DENSITY ALT 3600FT,CYDB,2025-08-16T01:00:00Z,61.37,-139.032,15,8,310,13,18,15,29.63,1006.2,,,,,,,,,,FEW,3500,SCT,6500,SCT,10000,BKN,25000,VFR,,,,,,,,,,,,METAR,807
CYDA 160100Z 20003KT 20SM FEW065 BKN120 BKN230 18/11 A2966 RMK CU1AC4CI2 SLP054 DENSITY ALT 2200FT,CYDA,2025-08-16T01:00:00Z,64.044,-139.127,18,11,200,3,,20,29.66,1005.4,,,,,,,,,,FEW,6500,BKN,12000,BKN,23000,,,VFR,,,,,,,,,,,,METAR,338
CYCQ 160100Z 08003KT 10SM OVC060 15/10 A2971 RMK SC8 DIST PCPN W LAST STFD OBS/NXT 161300Z SLP075 DENSITY ALT 2800FT,CYCQ,2025-08-16T01:00:00Z,55.689,-121.62,15,10,80,3,,10+,29.71,1007.5,,,,,,,,,,OVC,6000,,,,,,,VFR,,,,,,,,,,,,METAR,614
CYCP 160100Z 00000KT 5SM -SHRA BR SCT002 BKN038 OVC055TCU 14/14 A2981 RMK SF3SC3TCU2 LAST STFD OBS/NXT 161300Z SLP102 DENSITY ALT 2900FT,CYCP,2025-08-16T01:00:00Z,52.129,-119.29,14,14,0,0,,5,29.81,1010.2,,,,,,,,,-SHRA BR,SCT,200,BKN,3800,OVC,5500,,,MVFR,,,,,,,,,,,,METAR,677
CYCO 160100Z 05007KT 15SM FEW015 FEW160 FEW240 12/07 A2991 RMK CU1AS1CI1 CU TR CI TR SLP133,CYCO,2025-08-16T01:00:00Z,67.817,-115.135,12,7,50,7,,15,29.91,1013.3,,,,,,,,,,FEW,1500,FEW,16000,FEW,24000,,,VFR,,,,,,,,,,,,METAR,20
CYCK 160100Z AUTO 13003KT 9SM CLR 22/19 A3011 RMK SLP197 DENSITY ALT 1500FT,CYCK,2025-08-16T01:00:00Z,42.307,-82.085,22,19,130,3,,9,30.11,1019.7,,TRUE,,,,,,,,CLR,,,,,,,,VFR,,,,,,,,,,,,METAR,196
CYCG 160100Z 00000KT 10SM -SHRA FEW015 BKN034 OVC100 18/15 A2991 RMK SF1SC6AC2 SF TR CVCTV CLD EMBD SLP127 DENSITY ALT 2400FT,CYCG,2025-08-16T01:00:00Z,49.295,-117.634,18,15,0,0,,10+,29.91,1012.7,,,,,,,,,-SHRA,FEW,1500,BKN,3400,OVC,10000,,,VFR,,,,,,,,,,,,METAR,487
CYCD 160100Z 16014KT 10SM SCT010 BKN038 OVC094 18/17 A2969 RMK SF3SC3AC2 SLP057 DENSITY ALT 800FT,CYCD,2025-08-16T01:00:00Z,49.052,-123.874,18,17,160,14,,10+,29.69,1005.7,,,,,,,,,,SCT,1000,BKN,3800,OVC,9400,,,VFR,,,,,,,,,,,,METAR,30
CYCB 160100Z 22003KT 15SM FEW003 FEW150 BKN220 09/05 A3005 RMK SF1AC2CI3 SF TR SLP180,CYCB,2025-08-16T01:00:00Z,69.106,-105.116,9,5,220,3,,15,30.05,1018,,,,,,,,,,FEW,300,FEW,15000,BKN,22000,,,VFR,,,,,,,,,,,,METAR,19
CYCA 160100Z AUTO 36010G17KT 9SM CLR 07/05 A3026 RMK SLP249,CYCA,2025-08-16T01:00:00Z,53.683,-57.042,7,5,360,10,17,9,30.26,1024.9,,TRUE,,,,,,,,CLR,,,,,,,,VFR,,,,,,,,,,,,METAR,12
CYBX 160100Z 11009KT 15SM -RA BKN047 OVC061 11/09 A3022 RMK SC5SC3 SLP237,CYBX,2025-08-16T01:00:00Z,51.442,-57.188,11,9,110,9,,15,30.22,1023.7,,,,,,,,,-RA,BKN,4700,OVC,6100,,,,,VFR,,,,,,,,,,,,METAR,32
CYBW 160100Z AUTO VRB02KT 9SM OVC160 18/15 A2984 RMK SLP107 DENSITY ALT 5300FT,CYBW,2025-08-16T01:00:00Z,51.108,-114.382,18,15,VRB,2,,9,29.84,1010.7,,TRUE,,,,,,,,OVC,16000,,,,,,,VFR,,,,,,,,,,,,METAR,1197
CYBU 160100Z AUTO 12006KT 9SM SCT170 SCT190 16/09 A3004 RMK SLP186 DENSITY ALT 1500FT,CYBU,2025-08-16T01:00:00Z,53.333,-104.005,16,9,120,6,,9,30.04,1018.6,,TRUE,,,,,,,,SCT,17000,SCT,19000,,,,,VFR,,,,,,,,,,,,METAR,369
CYBR 160100Z 35006KT 15SM FEW035 BKN250 18/11 A3003 RMK SC1CI5 SLP181 DENSITY ALT 1900FT,CYBR,2025-08-16T01:00:00Z,49.91,-99.945,18,11,350,6,,15,30.03,1018.1,,,,,,,,,,FEW,3500,BKN,25000,,,,,VFR,,,,,,,,,,,,METAR,405
CYBQ 160100Z AUTO VRB02KT 9SM FEW022 BKN041 09/06 A3002 RMK SLP183,CYBQ,2025-08-16T01:00:00Z,58.707,-98.511,9,6,VRB,2,,9,30.02,1018.3,,TRUE,,,,,,,,FEW,2200,BKN,4100,,,,,VFR,,,,,,,,,,,,METAR,272
CYBL 160100Z 12009G15KT 6SM BR OVC008 18/16 A2964 RMK SC8 SLP038 DENSITY ALT 1100FT,CYBL,2025-08-16T01:00:00Z,49.951,-125.269,18,16,120,9,15,6,29.64,1003.8,,,,,,,,,BR,OVC,800,,,,,,,IFR,,,,,,,,,,,,METAR,94
CYBK 160100Z 30005KT 25SM -RA SCT052 BKN072 BKN100 14/07 A2997 RMK CU3AC3AC1 SLP151,CYBK,2025-08-16T01:00:00Z,64.306,-96.078,14,7,300,5,,25,29.97,1015.1,,,,,,,,,-RA,SCT,5200,BKN,7200,BKN,10000,,,VFR,,,,,,,,,,,,METAR,14
CYBG 160100Z 17004KT 25SM FEW250 12/11 A3017 RMK CI1 DENSITY ALT 211FT SLP219,CYBG,2025-08-16T01:00:00Z,48.331,-70.989,12,11,170,4,,25,30.17,1021.9,,,,,,,,,,FEW,25000,,,,,,,VFR,,,,,,,,,,,,METAR,151
CYBD 160100Z 20003KT 170V290 6SM -RA BR FEW006 FEW031 SCT059 BKN092 18/17 A2947 RMK SF1SC2SC2AC3 SF TR -RA INTMT LAST STFD OBS/NXT 151300Z SLP980 DENSITY ALT 1100FT,CYBD,2025-08-16T01:00:00Z,52.388,-126.589,18,17,200,3,,6,29.47,998,,,,,,,,,-RA BR,FEW,600,FEW,3100,SCT,5900,BKN,9200,VFR,,,,,,,,,,,,METAR,40
CYBC 160100Z AUTO 00000KT 9SM CLR 11/07 A3019 RMK SLP226,CYBC,2025-08-16T01:00:00Z,49.135,-68.202,11,7,0,0,,9,30.19,1022.6,,TRUE,,,,,,,,CLR,,,,,,,,VFR,,,,,,,,,,,,METAR,20
CYAZ 160100Z 16003KT 1/4SM FG VV002 14/14 A2971 RMK FG8 LAST STFD OBS/NXT 161300Z SLP062 DENSITY ALT 300FT,CYAZ,2025-08-16T01:00:00Z,49.08,-125.767,14,14,160,3,,0.25,29.71,1006.2,,,,,,,,,FG,OVX,0,,,,,,,LIFR,,,,,,,,,,,200,METAR,26
CYAY 160100Z AUTO 03009KT 9SM BKN046 OVC066 10/07 A3021 RMK SLP234,CYAY,2025-08-16T01:00:00Z,51.39,-56.081,10,7,30,9,,9,30.21,1023.4,,TRUE,,,,,,,,BKN,4600,OVC,6600,,,,,VFR,,,,,,,,,,,,METAR,23
CYAT 160100Z AUTO 30012G22KT 9SM CLR 23/14 A2966 RMK LTNG DIST SE SLP046 DENSITY ALT 1300FT,CYAT,2025-08-16T01:00:00Z,52.927,-82.432,23,14,300,12,22,9,29.66,1004.6,,TRUE,,,,,,,,CLR,,,,,,,,VFR,,,,,,,,,,,,METAR,4
CYAM 160100Z 15003KT 10SM FEW042 FEW095 BKN230 22/20 A3004 RMK SC1AC4CI2 SC TR HZ SLP175 DENSITY ALT 1500FT,CYAM,2025-08-16T01:00:00Z,46.484,-84.504,22,20,150,3,,10+,30.04,1017.5,,,,,,,,,,FEW,4200,FEW,9500,BKN,23000,,,VFR,,,,,,,,,,,,METAR,186
CYAH 160100Z AUTO 18015G23KT 9SM OVC055 16/10 A2986 RMK SLP123 DENSITY ALT 1500FT,CYAH,2025-08-16T01:00:00Z,53.757,-73.676,16,10,180,15,23,9,29.86,1012.3,,TRUE,,,,,,,,OVC,5500,,,,,,,VFR,,,,,,,,,,,,METAR,298
CXZV 160100Z AUTO 30002KT 10/06 RMK AO1 SLP226 T01040056 51003,CXZV,2025-08-16T01:00:00Z,50.217,-66.26,10.4,5.6,300,2,,,0.00,1022.6,,TRUE,TRUE,,,,,,,,,,,,,,,,0.03,,,,,,,,,,,METAR,43
CXZC 160100Z AUTO 21003KT 23/19 RMK AO1 SLP083 T02310187 56009,CXZC,2025-08-16T01:00:00Z,51.292,-80.618,23.1,18.7,210,3,,,0.00,1008.3,,TRUE,TRUE,,,,,,,,,,,,,,,,-0.09,,,,,,,,,,,METAR,8
CXYH 160100Z AUTO 17003KT 24/05 RMK AO1 SLP069 T02370049 57010,CXYH,2025-08-16T01:00:00Z,61.242,-123.742,23.7,4.9,170,3,,,0.00,1006.9,,TRUE,TRUE,,,,,,,,,,,,,,,,-0.1,,,,,,,,,,,METAR,197
CXWN 160100Z AUTO 01004KT 19/10 RMK AO1 SLP169 T01930100 51007,CXWN,2025-08-16T01:00:00Z,49.889,-97.13,19.3,10,10,4,,,0.00,1016.9,,TRUE,TRUE,,,,,,,,,,,,,,,,0.07,,,,,,,,,,,METAR,232
CXVN 160100Z AUTO 10004KT 25/18 RMK AO1 SLP196 T02540182 56007,CXVN,2025-08-16T01:00:00Z,43.183,-79.4,25.4,18.2,100,4,,,0.00,1019.6,,TRUE,TRUE,,,,,,,,,,,,,,,,-0.07,,,,,,,,,,,METAR,86
CXTV 160100Z AUTO 32010KT 08/07 RMK AO1 SLP128 T00780071 52007,CXTV,2025-08-16T01:00:00Z,68.746,-133.502,7.8,7.1,320,10,,,0.00,1012.8,,TRUE,TRUE,,,,,,,,,,,,,,,,0.07,,,,,,,,,,,METAR,91
CXTP 160100Z AUTO 01004KT 12/11 RMK AO1 SLP204 T01190114 51030,CXTP,2025-08-16T01:00:00Z,48.557,-53.975,11.9,11.4,10,4,,,0.00,1020.4,,TRUE,TRUE,,,,,,,,,,,,,,,,0.3,,,,,,,,,,,METAR,104
CXTO 160100Z AUTO 24/18 RMK AO1 SLP200 T02410183 56007,CXTO,2025-08-16T01:00:00Z,43.667,-79.4,24.1,18.3,,,,,0.00,1020,,TRUE,TRUE,,,,,,,,,,,,,,,,-0.07,,,,,,,,,,,METAR,115
CXTN 160100Z AUTO 21008KT 20/03 RMK AO1 SLP132 T01990031 57003,CXTN,2025-08-16T01:00:00Z,69.199,-122.359,19.9,3.1,210,8,,,0.00,1013.2,,TRUE,TRUE,,,,,,,,,,,,,,,,-0.03,,,,,,,,,,,METAR,564
CXTD 160100Z AUTO 03010G15KT 17/12 RMK AO1 PK WND 02017/0045 SLP219 T01740115 51010,CXTD,2025-08-16T01:00:00Z,45.608,-61.68,17.4,11.5,30,10,15,,0.00,1021.9,,TRUE,TRUE,,,,,,,,,,,,,,,,0.1,,,,,,,,,,,METAR,58
CXSH 160100Z AUTO 35001KT 17/12 RMK AO1 SLP219 T01730122 56001,CXSH,2025-08-16T01:00:00Z,46.564,-72.733,17.3,12.2,350,1,,,0.00,1021.9,,TRUE,TRUE,,,,,,,,,,,,,,,,-0.01,,,,,,,,,,,METAR,106
CXSE 160100Z AUTO 29005KT 08/06 RMK AO1 SLP164 T00750058 55000,CXSE,2025-08-16T01:00:00Z,73.766,-105.296,7.5,5.8,290,5,,,0.00,1016.4,,TRUE,TRUE,,,,,,,,,,,,,,,,,,,,,,,,,,,METAR,11
CXRH 160100Z AUTO 15005KT 13/09 RMK AO1 SLP214 T01290093 51020,CXRH,2025-08-16T01:00:00Z,49.57,-57.878,12.9,9.3,150,5,,,0.00,1021.4,,TRUE,TRUE,,,,,,,,,,,,,,,,0.2,,,,,,,,,,,METAR,68
CXRB 160100Z AUTO 32006KT 02/01 RMK AO1 SLP153 T00200012 58002,CXRB,2025-08-16T01:00:00Z,74.716,-94.983,2,1.2,320,6,,,0.00,1015.3,,TRUE,TRUE,,,,,,,,,,,,,,,,-0.02,,,,,,,,,,,METAR,30
CXPC 160100Z AUTO 23/14 RMK AO1 SLP199 T02260137 55009,CXPC,2025-08-16T01:00:00Z,45.344,-80.044,22.6,13.7,,,,,0.00,1019.9,,TRUE,TRUE,,,,,,,,,,,,,,,,-0.09,,,,,,,,,,,METAR,176
CXOX 160100Z AUTO 16004KT 16/06 RMK AO1 SLP181 T01590062 51003,CXOX,2025-08-16T01:00:00Z,55.146,-105.27,15.9,6.2,160,4,,,0.00,1018.1,,TRUE,TRUE,,,,,,,,,,,,,,,,0.03,,,,,,,,,,,METAR,381
CXNP 160100Z AUTO 00000KT 13/09 RMK AO1 SLP226 T01270089 52009,CXNP,2025-08-16T01:00:00Z,45.76,-64.241,12.7,8.9,0,0,,,0.00,1022.6,,TRUE,TRUE,,,,,,,,,,,,,,,,0.09,,,,,,,,,,,METAR,19
CXNM 160100Z AUTO 01006KT 11/11 RMK AO1 T01130111,CXNM,2025-08-16T01:00:00Z,46.818,-60.673,11.3,11.1,10,6,,,0.00,,,TRUE,TRUE,,,,,,,,,,,,,,,,,,,,,,,,,,,METAR,452
CXMY 160100Z AUTO 15/11 RMK AO1 T01520114,CXMY,2025-08-16T01:00:00Z,44.984,-62.484,15.2,11.4,,,,,0.00,,,TRUE,TRUE,,,,,,,,,,,,,,,,,,,,,,,,,,,METAR,37
CXMM 160100Z AUTO 11006KT 16/07 RMK AO1 SLP182 T01600069 57006,CXMM,2025-08-16T01:00:00Z,56.649,-111.221,16,6.9,110,6,,,0.00,1018.2,,TRUE,TRUE,,,,,,,,,,,,,,,,-0.06,,,,,,,,,,,METAR,372
CXMI 160100Z AUTO 01011KT 19/10 RMK AO1 SLP216 T01910101 52019,CXMI,2025-08-16T01:00:00Z,44.602,-63.534,19.1,10.1,10,11,,,0.00,1021.6,,TRUE,TRUE,,,,,,,,,,,,,,,,0.19,,,,,,,,,,,METAR,15
CXMD 160100Z AUTO 31003KT 21/10 RMK AO1 SLP167 T02120101 53001,CXMD,2025-08-16T01:00:00Z,49.188,-98.084,21.2,10.1,310,3,,,0.00,1016.7,,TRUE,TRUE,,,,,,,,,,,,,,,,0.01,,,,,,,,,,,METAR,297
CXLL 160100Z AUTO 35002KT 25/07 RMK AO1 SLP087 T02460073 56013,CXLL,2025-08-16T01:00:00Z,61.125,-122.851,24.6,7.3,350,2,,,0.00,1008.7,,TRUE,TRUE,,,,,,,,,,,,,,,,-0.13,,,,,,,,,,,METAR,180
CXLB 160100Z AUTO 35005KT 21/12 RMK AO1 SLP210 T02060115 53018,CXLB,2025-08-16T01:00:00Z,44.36,-64.296,20.6,11.5,350,5,,,0.00,1021,,TRUE,TRUE,,,,,,,,,,,,,,,,0.18,,,,,,,,,,,METAR,4
CXKT 160100Z AUTO 04001KT 16/11 RMK AO1 SLP228 T01630111 53016,CXKT,2025-08-16T01:00:00Z,45.067,-64.478,16.3,11.1,40,1,,,0.00,1022.8,,TRUE,TRUE,,,,,,,,,,,,,,,,0.16,,,,,,,,,,,METAR,48
CXKI 160100Z AUTO 16002KT 22/15 RMK AO1 SLP163 T02180149 55002,CXKI,2025-08-16T01:00:00Z,48.15,-80,21.8,14.9,160,2,,,0.00,1016.3,,TRUE,TRUE,,,,,,,,,,,,,,,,-0.02,,,,,,,,,,,METAR,328
CXKE 160100Z AUTO 12001KT 18/11 RMK AO1 SLP208 T01750110 56006,CXKE,2025-08-16T01:00:00Z,45.005,-75.637,17.5,11,120,1,,,0.00,1020.8,,TRUE,TRUE,,,,,,,,,,,,,,,,-0.06,,,,,,,,,,,METAR,99
CXKA 160100Z AUTO 23009KT 24/18 RMK AO1 SLP130 T02390177 53005,CXKA,2025-08-16T01:00:00Z,49.405,-82.443,23.9,17.7,230,9,,,0.00,1013,,TRUE,TRUE,,,,,,,,,,,,,,,,0.05,,,,,,,,,,,METAR,221
CXIB 160100Z AUTO 32001KT 16/12 RMK AO1 SLP211 T01560115 50027,CXIB,2025-08-16T01:00:00Z,46.663,-60.406,15.6,11.5,320,1,,,0.00,1021.1,,TRUE,TRUE,,,,,,,,,,,,,,,,0.27,,,,,,,,,,,METAR,6
CXHM 160100Z AUTO 03001KT 23/18 RMK AO1 SLP201 T02270175 56008,CXHM,2025-08-16T01:00:00Z,43.286,-79.905,22.7,17.5,30,1,,,0.00,1020.1,,TRUE,TRUE,,,,,,,,,,,,,,,,-0.08,,,,,,,,,,,METAR,105
CXHA 160100Z AUTO 13001KT 22/21 RMK AO1 SLP196 T02150213 55003,CXHA,2025-08-16T01:00:00Z,42.033,-82.896,21.5,21.3,130,1,,,0.00,1019.6,,TRUE,TRUE,,,,,,,,,,,,,,,,-0.03,,,,,,,,,,,METAR,193
CXGH 160100Z AUTO 36007KT 17/08 RMK AO1 SLP177 T01650082 51012,CXGH,2025-08-16T01:00:00Z,50.631,-96.984,16.5,8.2,360,7,,,0.00,1017.7,,TRUE,TRUE,,,,,,,,,,,,,,,,0.12,,,,,,,,,,,METAR,217
CXET 160100Z AUTO 14006KT 23/13 RMK AO1 SLP202 T02280134 55005,CXET,2025-08-16T01:00:00Z,44.234,-79.779,22.8,13.4,140,6,,,0.00,1020.2,,TRUE,TRUE,,,,,,,,,,,,,,,,-0.05,,,,,,,,,,,METAR,250
CXEG 160100Z AUTO 12015G20KT 14/10 RMK AO1 PK WND 11022/0023 SLP126 T01380100 58008,CXEG,2025-08-16T01:00:00Z,53.307,-113.606,13.8,10,120,15,20,,0.00,1012.6,,TRUE,TRUE,,,,,,,,,,,,,,,,-0.08,,,,,,,,,,,METAR,706
CXEC 160100Z AUTO 10006KT 12/10 RMK AO1 SLP137 T01210099 58008,CXEC,2025-08-16T01:00:00Z,53.573,-113.517,12.1,9.9,100,6,,,0.00,1013.7,,TRUE,TRUE,,,,,,,,,,,,,,,,-0.08,,,,,,,,,,,METAR,666
CXEA 160100Z AUTO 31007KT 16/10 RMK AO1 SLP162 T01640098 52014,CXEA,2025-08-16T01:00:00Z,50.631,-93.221,16.4,9.8,310,7,,,0.00,1016.2,,TRUE,TRUE,,,,,,,,,,,,,,,,0.14,,,,,,,,,,,METAR,351
CXDW 160100Z AUTO 35004KT 19/11 RMK AO1 SLP170 T01910112 55001,CXDW,2025-08-16T01:00:00Z,49.4,-98.319,19.1,11.2,350,4,,,0.00,1017,,TRUE,TRUE,,,,,,,,,,,,,,,,-0.01,,,,,,,,,,,METAR,341
CXDK 160100Z AUTO 07005KT 24/06 RMK AO1 SLP078 T02360064 56006,CXDK,2025-08-16T01:00:00Z,61.257,-124.468,23.6,6.4,70,5,,,0.00,1007.8,,TRUE,TRUE,,,,,,,,,,,,,,,,-0.06,,,,,,,,,,,METAR,269
CXDI 160100Z AUTO 00000KT 19/16 RMK AO1 SLP203 T01900158 55003,CXDI,2025-08-16T01:00:00Z,42.864,-80.545,19,15.8,0,0,,,0.00,1020.3,,TRUE,TRUE,,,,,,,,,,,,,,,,-0.03,,,,,,,,,,,METAR,234
CXDE 160100Z AUTO 12008KT 22/05 RMK AO1 SLP088 T02180047 56006,CXDE,2025-08-16T01:00:00Z,65.209,-123.434,21.8,4.7,120,8,,,0.00,1008.8,,TRUE,TRUE,,,,,,,,,,,,,,,,-0.06,,,,,,,,,,,METAR,208
CXCK 160100Z AUTO 03002KT 23/03 RMK AO1 PK WND 14019/0016 SLP020 T02280032 56020,CXCK,2025-08-16T01:00:00Z,62.115,-136.192,22.8,3.2,30,2,,,0.00,1002,,TRUE,TRUE,,,,,,,,,,,,,,,,-0.2,,,,,,,,,,,METAR,526
CXCA 160100Z AUTO 33001KT 21/18 RMK AO1 SLP121 T02120178 53005,CXCA,2025-08-16T01:00:00Z,49.154,-88.344,21.2,17.8,330,1,,,0.00,1012.1,,TRUE,TRUE,,,,,,,,,,,,,,,,0.05,,,,,,,,,,,METAR,228
CXBO 160100Z AUTO 02004KT 20/13 RMK AO1 2PAST HR M P0001 T01950133 50002,CXBO,2025-08-16T01:00:00Z,46.837,-71.197,19.5,13.3,20,4,,,0.00,,,TRUE,TRUE,,,,,,,,,,,,,,,,0.02,,,,,0.01,,,,,,METAR,8
CXBK 160100Z AUTO 16/10 RMK AO1 SLP177 T01640096 58006,CXBK,2025-08-16T01:00:00Z,50.201,-104.71,16.4,9.6,,,,,0.00,1017.7,,TRUE,TRUE,,,,,,,,,,,,,,,,-0.06,,,,,,,,,,,METAR,585
CXBI 160100Z AUTO 17002KT 22/15 RMK AO1 SLP210 T02180152 55004,CXBI,2025-08-16T01:00:00Z,44.484,-79.546,21.8,15.2,170,2,,,0.00,1021,,TRUE,TRUE,,,,,,,,,,,,,,,,-0.04,,,,,,,,,,,METAR,287
CXAT 160100Z AUTO 31011KT 07/02 RMK AO1 SLP131 T00690017 53001,CXAT,2025-08-16T01:00:00Z,73.006,-85.033,6.9,1.7,310,11,,,0.00,1013.1,,TRUE,TRUE,,,,,,,,,,,,,,,,0.01,,,,,,,,,,,METAR,10
CWZW 160100Z AUTO 12006KT 19/07 RMK AO1 SLP055 T01880073 55006,CWZW,2025-08-16T01:00:00Z,60.167,-132.733,18.8,7.3,120,6,,,0.00,1005.5,,TRUE,TRUE,,,,,,,,,,,,,,,,-0.06,,,,,,,,,,,METAR,683
CWZV 160100Z AUTO 16025KT 14/14 RMK AO1 9PAST HR 8015 PK WND 16030/0047 SLP914 P0007 T01410141 50019,CWZV,2025-08-16T01:00:00Z,51.936,-131.016,14.1,14.1,160,25,,,0.00,991.4,,TRUE,TRUE,,,,,,,,,,,,,,,,0.19,,,,,0.07,,,,,,METAR,83
CWZQ 160100Z AUTO 06006KT 15/11 RMK AO1 SLP213 T01450114 51008,CWZQ,2025-08-16T01:00:00Z,46.547,-61.049,14.5,11.4,60,6,,,0.00,1021.3,,TRUE,TRUE,,,,,,,,,,,,,,,,0.08,,,,,,,,,,,METAR,13
CWZO 160100Z AUTO 16013KT RMK AO1 PK WND 15018/0032,CWZO,2025-08-16T01:00:00Z,48.568,-123.265,,,160,13,,,0.00,,,TRUE,TRUE,,,,,,,,,,,,,,,,,,,,,,,,,,,METAR,5
CWZN 160100Z AUTO 01018G31KT 17/17 RMK AO1 PK WND 02031/0059 SLP142 T01670167 51019,CWZN,2025-08-16T01:00:00Z,47.368,-55.795,16.7,16.7,10,18,31,,0.00,1014.2,,TRUE,TRUE,,,,,,,,,,,,,,,,0.19,,,,,,,,,,,METAR,63
CWZL 160100Z AUTO 13021KT 14/13 RMK AO1 SLP932 T01430134 51011,CWZL,2025-08-16T01:00:00Z,53.03,-131.602,14.3,13.4,130,21,,,0.00,993.2,,TRUE,TRUE,,,,,,,,,,,,,,,,0.11,,,,,,,,,,,METAR,17
CWZG 160100Z AUTO 24003KT 16/09 RMK AO1 SLP111 T01560091 57002,CWZG,2025-08-16T01:00:00Z,51.194,-115.552,15.6,9.1,240,3,,,0.00,1011.1,,TRUE,TRUE,,,,,,,,,,,,,,,,-0.02,,,,,,,,,,,METAR,1402
CWZA 160100Z AUTO 29001KT 17/17 RMK AO1 3PAST HR 5003 SLP081 P0013 T01650167 50033,CWZA,2025-08-16T01:00:00Z,49.244,-121.759,16.5,16.7,290,1,,,0.00,1008.1,,TRUE,TRUE,,,,,,,,,,,,,,,,0.33,,,,,0.13,,,,,,METAR,18
CWYY 160100Z AUTO 15006KT 24/14 RMK AO1 SLP080 T02440142 58009,CWYY,2025-08-16T01:00:00Z,49.028,-119.441,24.4,14.2,150,6,,,0.00,1008,,TRUE,TRUE,,,,,,,,,,,,,,,,-0.09,,,,,,,,,,,METAR,284
CWYJ 160100Z AUTO 00000KT 16/16 RMK AO1 4PAST HR 0002 SLP075 P0009 T01620157 50024,CWYJ,2025-08-16T01:00:00Z,48.457,-123.305,16.2,15.7,0,0,,,0.00,1007.5,,TRUE,TRUE,,,,,,,,,,,,,,,,0.24,,,,,0.09,,,,,,METAR,59
CWXL 160100Z AUTO 30008KT 26/09 RMK AO1 SLP102 T02640090 56004,CWXL,2025-08-16T01:00:00Z,49.734,-111.45,26.4,9,300,8,,,0.00,1010.2,,TRUE,TRUE,,,,,,,,,,,,,,,,-0.04,,,,,,,,,,,METAR,815
CWXI 160100Z AUTO 11011KT 11/07 RMK AO1 SLP229 T01130067 51017,CWXI,2025-08-16T01:00:00Z,51.022,-57.096,11.3,6.7,110,11,,,0.00,1022.9,,TRUE,TRUE,,,,,,,,,,,,,,,,0.17,,,,,,,,,,,METAR,15
CWXC 160100Z AUTO 12001KT 12/10 RMK AO1 SLP220 T01160095 56004,CWXC,2025-08-16T01:00:00Z,48.894,-71.032,11.6,9.5,120,1,,,0.00,1022,,TRUE,TRUE,,,,,,,,,,,,,,,,-0.04,,,,,,,,,,,METAR,306
CWXA 160100Z AUTO 25005KT 18/09 RMK AO1 SLP129 T01800089 55000,CWXA,2025-08-16T01:00:00Z,51.083,-115.066,18,8.9,250,5,,,0.00,1012.9,,TRUE,TRUE,,,,,,,,,,,,,,,,,,,,,,,,,,,METAR,1303
CWWZ 160100Z AUTO 10004KT 25/18 RMK AO1 SLP197 T02530181 56005,CWWZ,2025-08-16T01:00:00Z,43.244,-79.218,25.3,18.1,100,4,,,0.00,1019.7,,TRUE,TRUE,,,,,,,,,,,,,,,,-0.05,,,,,,,,,,,METAR,75
CWWS 160100Z AUTO 33016G21KT 14/07 RMK AO1 PK WND 34021/0041 SLP185 T01410074 51013,CWWS,2025-08-16T01:00:00Z,52.819,-97.616,14.1,7.4,330,16,21,,0.00,1018.5,,TRUE,TRUE,,,,,,,,,,,,,,,,0.13,,,,,,,,,,,METAR,220
CWWL 160100Z AUTO 13022G32KT 15/15 RMK AO1 PK WND 13032/0057 SLP929 T01470147 51012,CWWL,2025-08-16T01:00:00Z,53.493,-130.638,14.7,14.7,130,22,32,,0.00,992.9,,TRUE,TRUE,,,,,,,,,,,,,,,,0.12,,,,,,,,,,,METAR,8
CWWK 160100Z AUTO 16004KT 19/18 RMK AO1 0PAST HR 6005 SLP081 P0012 T01860176 50030,CWWK,2025-08-16T01:00:00Z,49.018,-122.784,18.6,17.6,160,4,,,0.00,1008.1,,TRUE,TRUE,,,,,,,,,,,,,,,,0.3,,,,,0.12,,,,,,METAR,10
CWWF 160100Z AUTO 07005KT 18/09 RMK AO1 SLP171 T01840093 58009,CWWF,2025-08-16T01:00:00Z,49.695,-103.801,18.4,9.3,70,5,,,0.00,1017.1,,TRUE,TRUE,,,,,,,,,,,,,,,,-0.09,,,,,,,,,,,METAR,583
CWWE 160100Z AUTO 01003KT 16/11 RMK AO1 SLP217 T01600107 51017,CWWE,2025-08-16T01:00:00Z,43.989,-64.662,16,10.7,10,3,,,0.00,1021.7,,TRUE,TRUE,,,,,,,,,,,,,,,,0.17,,,,,,,,,,,METAR,4
CWWB 160100Z AUTO 08004KT 25/20 RMK AO1 SLP198 T02520203 56008,CWWB,2025-08-16T01:00:00Z,43.302,-79.791,25.2,20.3,80,4,,,0.00,1019.8,,TRUE,TRUE,,,,,,,,,,,,,,,,-0.08,,,,,,,,,,,METAR,77
CWWA 160100Z AUTO 07002KT 17/17 RMK AO1 8PAST HR 6008 SLP078 P0019 T01710168 50048,CWWA,2025-08-16T01:00:00Z,49.347,-123.193,17.1,16.8,70,2,,,0.00,1007.8,,TRUE,TRUE,,,,,,,,,,,,,,,,0.48,,,,,0.19,,,,,,METAR,172
CWVU 160100Z AUTO 01005KT 13/12 RMK AO1 SLP215 T01280115 53010,CWVU,2025-08-16T01:00:00Z,44.287,-66.342,12.8,11.5,10,5,,,0.00,1021.5,,TRUE,TRUE,,,,,,,,,,,,,,,,0.1,,,,,,,,,,,METAR,4
CWVT 160100Z AUTO 02003KT 17/04 RMK AO1 SLP189 T01690044 58002,CWVT,2025-08-16T01:00:00Z,55.841,-108.421,16.9,4.4,20,3,,,0.00,1018.9,,TRUE,TRUE,,,,,,,,,,,,,,,,-0.02,,,,,,,,,,,METAR,431
CWVQ 160100Z AUTO 00000KT 17/12 RMK AO1 SLP213 T01650115 58002,CWVQ,2025-08-16T01:00:00Z,45.427,-73.929,16.5,11.5,0,0,,,0.00,1021.3,,TRUE,TRUE,,,,,,,,,,,,,,,,-0.02,,,,,,,,,,,METAR,38
CWVP 160100Z AUTO 12004KT 20/14 RMK AO1 SLP121 T02010137 58009,CWVP,2025-08-16T01:00:00Z,49.64,-109.514,20.1,13.7,120,4,,,0.00,1012.1,,TRUE,TRUE,,,,,,,,,,,,,,,,-0.09,,,,,,,,,,,METAR,1269
CWVN 160100Z AUTO 14010G16KT 24/12 RMK AO1 PK WND 15020/0008 SLP122 T02410117 56011,CWVN,2025-08-16T01:00:00Z,49.058,-107.586,24.1,11.7,140,10,16,,0.00,1012.2,,TRUE,TRUE,,,,,,,,,,,,,,,,-0.11,,,,,,,,,,,METAR,792
CWVI 160100Z AUTO 08008KT 11/10 RMK AO1 2PAST HR 8005 SLP153 P0001 T01090098 50002,CWVI,2025-08-16T01:00:00Z,53.505,-112.098,10.9,9.8,80,8,,,0.00,1015.3,,TRUE,TRUE,,,,,,,,,,,,,,,,0.02,,,,,0.01,,,,,,METAR,640
CWVF 160100Z AUTO 15024KT 18/18 RMK AO1 PK WND 15026/0049 T01760176,CWVF,2025-08-16T01:00:00Z,49.106,-123.303,17.6,17.6,150,24,,,0.00,,,TRUE,TRUE,,,,,,,,,,,,,,,,,,,,,,,,,,,METAR,13
CWUX 160100Z AUTO 12002KT 13/10 RMK AO1 SLP224 T01320095 53001,CWUX,2025-08-16T01:00:00Z,48.298,-70.92,13.2,9.5,120,2,,,0.00,1022.4,,TRUE,TRUE,,,,,,,,,,,,,,,,0.01,,,,,,,,,,,METAR,150
CWUS 160100Z AUTO 15010G20KT 23/14 RMK AO1 PK WND 14026/0020 SLP077 T02260137 56012,CWUS,2025-08-16T01:00:00Z,49.563,-119.649,22.6,13.7,150,10,20,,0.00,1007.7,,TRUE,TRUE,,,,,,,,,,,,,,,,-0.12,,,,,,,,,,,METAR,455
CWTY 160100Z AUTO 00000KT 21/15 RMK AO1 SLP216 T02070150 58002,CWTY,2025-08-16T01:00:00Z,46.354,-72.516,20.7,15,0,0,,,0.00,1021.6,,TRUE,TRUE,,,,,,,,,,,,,,,,-0.02,,,,,,,,,,,METAR,8
CWTT 160100Z AUTO 01003KT 21/13 RMK AO1 T02130126,CWTT,2025-08-16T01:00:00Z,45.27,-72.17,21.3,12.6,10,3,,,0.00,,,TRUE,TRUE,,,,,,,,,,,,,,,,,,,,,,,,,,,METAR,210
CWTN 160100Z AUTO 32003KT 14/12 RMK AO1 SLP218 T01430121 56003,CWTN,2025-08-16T01:00:00Z,47.079,-70.781,14.3,12.1,320,3,,,0.00,1021.8,,TRUE,TRUE,,,,,,,,,,,,,,,,-0.03,,,,,,,,,,,METAR,5
CWTG 160100Z AUTO 31005KT 13/07 RMK AO1 SLP225 T01270067 58002,CWTG,2025-08-16T01:00:00Z,49.317,-67.381,12.7,6.7,310,5,,,0.00,1022.5,,TRUE,TRUE,,,,,,,,,,,,,,,,-0.02,,,,,,,,,,,METAR,6
CWTA 160100Z AUTO 01001KT 22/10 RMK AO1 SLP216 T02210103 52002,CWTA,2025-08-16T01:00:00Z,45.506,-73.579,22.1,10.3,10,1,,,0.00,1021.6,,TRUE,TRUE,,,,,,,,,,,,,,,,0.02,,,,,,,,,,,METAR,71
CWSW 160100Z 19004KT 120V220 7SM FEW035 BKN050 BKN058 BKN260 18/09 A2994 RMK SC1SC6SC1CI1 SC TR CI TR FU ALQDS LAST STFD OBS/NXT 161300Z SLP136 DENSITY ALT 5100FT,CWSW,2025-08-16T01:00:00Z,49.834,-114.881,18,9,190,4,,7,29.94,1013.6,,,,,,,,,,FEW,3500,BKN,5000,BKN,5800,BKN,26000,VFR,,,,,,,,,,,,METAR,1173
CWST 160100Z AUTO 07002KT 15/10 RMK AO1 SLP218 T01480103 56006,CWST,2025-08-16T01:00:00Z,47.354,-70.03,14.8,10.3,70,2,,,0.00,1021.8,,TRUE,TRUE,,,,,,,,,,,,,,,,-0.06,,,,,,,,,,,METAR,31
CWSS 160100Z AUTO 34001KT 15/12 RMK AO1 SLP219 T01470116 53008,CWSS,2025-08-16T01:00:00Z,45.21,-67.253,14.7,11.6,340,1,,,0.00,1021.9,,TRUE,TRUE,,,,,,,,,,,,,,,,0.08,,,,,,,,,,,METAR,27
CWSR 160100Z AUTO 12004KT 13/09 RMK AO1 SLP186 T01280088 55004,CWSR,2025-08-16T01:00:00Z,53.368,-107.553,12.8,8.8,120,4,,,0.00,1018.6,,TRUE,TRUE,,,,,,,,,,,,,,,,-0.04,,,,,,,,,,,METAR,589
CWSL 160100Z AUTO 21001KT 17/16 RMK AO1 5PAST HR 8010 SLP080 P0006 T01730164 50015,CWSL,2025-08-16T01:00:00Z,50.703,-119.291,17.3,16.4,210,1,,,0.00,1008,,TRUE,TRUE,,,,,,,,,,,,,,,,0.15,,,,,0.06,,,,,,METAR,353
CWSK 160100Z AUTO 13005KT 17/16 RMK AO1 6PAST HR 6010 SLP063 P0014 T01670155 50036,CWSK,2025-08-16T01:00:00Z,49.783,-123.161,16.7,15.5,130,5,,,0.00,1006.3,,TRUE,TRUE,,,,,,,,,,,,,,,,0.36,,,,,0.14,,,,,,METAR,59
CWSG 160100Z AUTO 17005KT 13/09 RMK AO1 SLP227 T01250090 55000,CWSG,2025-08-16T01:00:00Z,49.109,-66.655,12.5,9,170,5,,,0.00,1022.7,,TRUE,TRUE,,,,,,,,,,,,,,,,,,,,,,,,,,,METAR,5
CWSF 160100Z AUTO 18004KT 13/04 RMK AO1 SLP227 T01270044 50000,CWSF,2025-08-16T01:00:00Z,49.251,-65.325,12.7,4.4,180,4,,,0.00,1022.7,,TRUE,TRUE,,,,,,,,,,,,,,,,,,,,,,,,,,,METAR,15
CWSD 160100Z AUTO 08006KT 15/10 RMK AO1 SLP229 T01500102 53005,CWSD,2025-08-16T01:00:00Z,46.441,-63.837,15,10.2,80,6,,,0.00,1022.9,,TRUE,TRUE,,,,,,,,,,,,,,,,0.05,,,,,,,,,,,METAR,12
CWRZ 160100Z AUTO 32002KT 14/08 RMK AO1 SLP228 T01390083 53006,CWRZ,2025-08-16T01:00:00Z,48.419,-64.317,13.9,8.3,320,2,,,0.00,1022.8,,TRUE,TRUE,,,,,,,,,,,,,,,,0.06,,,,,,,,,,,METAR,16
CWRY 160100Z AUTO 29010KT 23/07 RMK AO1 PK WND 29017/0028 SLP119 T02300072 57003,CWRY,2025-08-16T01:00:00Z,49.133,-112.051,23,7.2,290,10,,,0.00,1011.9,,TRUE,TRUE,,,,,,,,,,,,,,,,-0.03,,,,,,,,,,,METAR,1048
CWRU 160100Z AUTO 14/ RMK AO1 25 0004Z T0141,CWRU,2025-08-16T01:00:00Z,50.112,-127.941,14.1,,,,,,0.00,,,TRUE,TRUE,,,,,,,,,,,,,,,,,,,,,,,,,,,METAR,76
CWRT 160100Z AUTO 00028KT 18/08 RMK AO1 SLP128 T01820083 58003,CWRT,2025-08-16T01:00:00Z,49.628,-114.482,18.2,8.3,VRB,28,,,0.00,1012.8,,TRUE,TRUE,,,,,,,,,,,,,,,,-0.03,,,,,,,,,,,METAR,1311
CWRO 160100Z AUTO 13019KT 15/15 RMK AO1 6PAST HR 3003 PK WND 11028/0007 SLP950 P0002 T01520146 50006,CWRO,2025-08-16T01:00:00Z,54.161,-131.66,15.2,14.6,130,19,,,0.00,995,,TRUE,TRUE,,,,,,,,,,,,,,,,0.06,,,,,0.02,,,,,,METAR,7
CWRN 160100Z AUTO 35014KT 18/13 RMK AO1 PK WND 34018/0009 SLP205 T01840131 51018,CWRN,2025-08-16T01:00:00Z,45.347,-60.98,18.4,13.1,350,14,,,0.00,1020.5,,TRUE,TRUE,,,,,,,,,,,,,,,,0.18,,,,,,,,,,,METAR,8
CWRM 160100Z AUTO 11005KT 17/13 RMK AO1 SLP075 T01730133 57003,CWRM,2025-08-16T01:00:00Z,52.431,-114.907,17.3,13.3,110,5,,,0.00,1007.5,,TRUE,TRUE,,,,,,,,,,,,,,,,-0.03,,,,,,,,,,,METAR,986
CWRK 160100Z AUTO 24001KT 20/14 RMK AO1 SLP205 T02030139 56005,CWRK,2025-08-16T01:00:00Z,45.072,-77.879,20.3,13.9,240,1,,,0.00,1020.5,,TRUE,TRUE,,,,,,,,,,,,,,,,-0.05,,,,,,,,,,,METAR,328
CWRJ 160100Z AUTO 09009KT 13/10 RMK AO1 SLP169 T01290102 58005,CWRJ,2025-08-16T01:00:00Z,51.565,-107.924,12.9,10.2,90,9,,,0.00,1016.9,,TRUE,TRUE,,,,,,,,,,,,,,,,-0.05,,,,,,,,,,,METAR,586
CWRA 160100Z AUTO 00021KT 16/ RMK AO1 SLP169 T0160 51007,CWRA,2025-08-16T01:00:00Z,46.659,-53.073,16,,VRB,21,,,0.00,1016.9,,TRUE,TRUE,,,,,,,,,,,,,,,,0.07,,,,,,,,,,,METAR,4
CWQV 160100Z AUTO 06003KT 19/ RMK AO1 T0186,CWQV,2025-08-16T01:00:00Z,48.26,-70.116,18.6,,60,3,,,0.00,,,TRUE,TRUE,,,,,,,,,,,,,,,,,,,,,,,,,,,METAR,4
CWQR 160100Z AUTO 29017KT 09/07 RMK AO1 PK WND 29019/0017 T00850074,CWQR,2025-08-16T01:00:00Z,50.221,-64.207,8.5,7.4,290,17,,,0.00,,,TRUE,TRUE,,,,,,,,,,,,,,,,,,,,,,,,,,,METAR,9
CWQP 160100Z AUTO 12003KT 20/16 RMK AO1 SLP207 T01990159 56010,CWQP,2025-08-16T01:00:00Z,43.84,-77.153,19.9,15.9,120,3,,,0.00,1020.7,,TRUE,TRUE,,,,,,,,,,,,,,,,-0.1,,,,,,,,,,,METAR,77
CWQO 160100Z AUTO 05001KT 11/07 RMK AO1 T01070071,CWQO,2025-08-16T01:00:00Z,48.416,-68.893,10.7,7.1,50,1,,,0.00,,,TRUE,TRUE,,,,,,,,,,,,,,,,,,,,,,,,,,,METAR,7
CWQK 160100Z AUTO 26003KT 15/15 RMK AO1 SLP080 T01510149 50004,CWQK,2025-08-16T01:00:00Z,48.298,-123.531,15.1,14.9,260,3,,,0.00,1008,,TRUE,TRUE,,,,,,,,,,,,,,,,0.04,,,,,,,,,,,METAR,5
CWQH 160100Z AUTO 00000KT 18/11 RMK AO1 SLP225 T01760109 53006,CWQH,2025-08-16T01:00:00Z,45.369,-71.824,17.6,10.9,0,0,,,0.00,1022.5,,TRUE,TRUE,,,,,,,,,,,,,,,,0.06,,,,,,,,,,,METAR,181
CWPZ 160100Z AUTO 13004KT 15/14 RMK AO1 7PAST HR 7013 SLP017 P0003 T01510138 50007,CWPZ,2025-08-16T01:00:00Z,54.383,-125.959,15.1,13.8,130,4,,,0.00,1001.7,,TRUE,TRUE,,,,,,,,,,,,,,,,0.07,,,,,0.03,,,,,,METAR,715
CWPR 160100Z AUTO 19004KT 22/13 RMK AO1 SLP069 T02220126 56007,CWPR,2025-08-16T01:00:00Z,49.468,-120.514,22.2,12.6,190,4,,,0.00,1006.9,,TRUE,TRUE,,,,,,,,,,,,,,,,-0.07,,,,,,,,,,,METAR,703
CWPO 160100Z AUTO 35003KT 18/12 RMK AO1 SLP180 T01750117 55000,CWPO,2025-08-16T01:00:00Z,49.191,-98.905,17.5,11.7,350,3,,,0.00,1018,,TRUE,TRUE,,,,,,,,,,,,,,,,,,,,,,,,,,,METAR,471
CWPK 160100Z AUTO 17002KT 16/11 RMK AO1 SLP216 T01620114 58009,CWPK,2025-08-16T01:00:00Z,47.922,-74.624,16.2,11.4,170,2,,,0.00,1021.6,,TRUE,TRUE,,,,,,,,,,,,,,,,-0.09,,,,,,,,,,,METAR,443
CWPE 160100Z AUTO 06003KT 17/10 RMK AO1 SLP220 T01740101 51009,CWPE,2025-08-16T01:00:00Z,45.058,-66.459,17.4,10.1,60,3,,,0.00,1022,,TRUE,TRUE,,,,,,,,,,,,,,,,0.09,,,,,,,,,,,METAR,9
CWPD 160100Z AUTO 21002KT 12/08 RMK AO1 SLP215 T01180082 53001,CWPD,2025-08-16T01:00:00Z,47.562,-71.229,11.8,8.2,210,2,,,0.00,1021.5,,TRUE,TRUE,,,,,,,,,,,,,,,,0.01,,,,,,,,,,,METAR,795
CWOY 160100Z AUTO 11003KT 15/08 RMK AO1 SLP188 T01460075,CWOY,2025-08-16T01:00:00Z,51.767,-104.2,14.6,7.5,110,3,,,0.00,1018.8,,TRUE,TRUE,,,,,,,,,,,,,,,,,,,,,,,,,,,METAR,557
CWOD 160100Z AUTO 18003KT 14/11 RMK AO1 SLP208 T01400114 56007,CWOD,2025-08-16T01:00:00Z,48.842,-72.546,14,11.4,180,3,,,0.00,1020.8,,TRUE,TRUE,,,,,,,,,,,,,,,,-0.07,,,,,,,,,,,METAR,150
CWOC 160100Z AUTO 13004KT 17/10 RMK AO1 SLP231 T01700104 51018,CWOC,2025-08-16T01:00:00Z,48.012,-65.332,17,10.4,130,4,,,0.00,1023.1,,TRUE,TRUE,,,,,,,,,,,,,,,,0.18,,,,,,,,,,,METAR,42
CWNZ 160100Z AUTO 22007G15KT 22/19 RMK AO1 PK WND 20017/0035 SLP121 T02160189 55005,CWNZ,2025-08-16T01:00:00Z,49.747,-84.164,21.6,18.9,220,7,15,,0.00,1012.1,,TRUE,TRUE,,,,,,,,,,,,,,,,-0.05,,,,,,,,,,,METAR,261
CWNQ 160100Z AUTO 12002KT 16/13 RMK AO1 SLP215 T01570130 58002,CWNQ,2025-08-16T01:00:00Z,46.226,-72.657,15.7,13,120,2,,,0.00,1021.5,,TRUE,TRUE,,,,,,,,,,,,,,,,-0.02,,,,,,,,,,,METAR,9
CWNP 160100Z AUTO 11003KT 17/16 RMK AO1 6PAST HR 0001 SLP116 P0002 T01680159 50006,CWNP,2025-08-16T01:00:00Z,50.269,-117.817,16.8,15.9,110,3,,,0.00,1011.6,,TRUE,TRUE,,,,,,,,,,,,,,,,0.06,,,,,0.02,,,,,,METAR,517
CWNM 160100Z AUTO 35004KT 18/15 RMK AO1 2PAST HR 1006 SLP129 P0001 T01780150 50002,CWNM,2025-08-16T01:00:00Z,49.491,-117.305,17.8,15,350,4,,,0.00,1012.9,,TRUE,TRUE,,,,,,,,,,,,,,,,0.02,,,,,0.01,,,,,,METAR,533
CWNK 160100Z AUTO 02005KT 20/12 RMK AO1 SLP169 T01950124 53001,CWNK,2025-08-16T01:00:00Z,49.498,-98.03,19.5,12.4,20,5,,,0.00,1016.9,,TRUE,TRUE,,,,,,,,,,,,,,,,0.01,,,,,,,,,,,METAR,271
CWNH 160100Z AUTO 13001KT 14/07 RMK AO1 SLP226 T01410066 58003,CWNH,2025-08-16T01:00:00Z,47.806,-69.548,14.1,6.6,130,1,,,0.00,1022.6,,TRUE,TRUE,,,,,,,,,,,,,,,,-0.03,,,,,,,,,,,METAR,147
CWNE 160100Z AUTO 07009KT 18/11 RMK AO1 SLP232 T01790112 53007,CWNE,2025-08-16T01:00:00Z,47.058,-63.997,17.9,11.2,70,9,,,0.00,1023.2,,TRUE,TRUE,,,,,,,,,,,,,,,,0.07,,,,,,,,,,,METAR,5
CWND 160100Z AUTO 32017KT RMK AO1 PK WND 31023/0002,CWND,2025-08-16T01:00:00Z,69.632,-135.445,,,320,17,,,0.00,,,TRUE,TRUE,,,,,,,,,,,,,,,,,,,,,,,,,,,METAR,14
CWNC 160100Z AUTO 07002KT 22/14 RMK AO1 SLP198 T02200142 56011,CWNC,2025-08-16T01:00:00Z,43.951,-78.165,22,14.2,70,2,,,0.00,1019.8,,TRUE,TRUE,,,,,,,,,,,,,,,,-0.11,,,,,,,,,,,METAR,71
CWMT 160100Z AUTO 03003KT 18/07 RMK AO1 SLP131 T01810069 57005,CWMT,2025-08-16T01:00:00Z,63.134,-117.245,18.1,6.9,30,3,,,0.00,1013.1,,TRUE,TRUE,,,,,,,,,,,,,,,,-0.05,,,,,,,,,,,METAR,274
CWMQ 160100Z AUTO 17006KT 25/15 RMK AO1 SLP098 T02480149 58014,CWMQ,2025-08-16T01:00:00Z,49.903,-109.466,24.8,14.9,170,6,,,0.00,1009.8,,TRUE,TRUE,,,,,,,,,,,,,,,,-0.14,,,,,,,,,,,METAR,767
CWMM 160100Z AUTO 15005KT 19/18 RMK AO1 9PAST HR 6007 SLP079 P0015 T01870180 50039,CWMM,2025-08-16T01:00:00Z,49.208,-122.69,18.7,18,150,5,,,0.00,1007.9,,TRUE,TRUE,,,,,,,,,,,,,,,,0.39,,,,,0.15,,,,,,METAR,2
CWMJ 160100Z AUTO 00000KT 17/15 RMK AO1 SLP205 T01730146 57005,CWMJ,2025-08-16T01:00:00Z,46.275,-75.992,17.3,14.6,0,0,,,0.00,1020.5,,TRUE,TRUE,,,,,,,,,,,,,,,,-0.05,,,,,,,,,,,METAR,198
CWME 160100Z AUTO 25018KT 16/15 RMK AO1 8PAST HR 0003 PK WND 25022/0054 SLP993 P0007 T01560151 50018,CWME,2025-08-16T01:00:00Z,52.187,-127.471,15.6,15.1,250,18,,,0.00,999.3,,TRUE,TRUE,,,,,,,,,,,,,,,,0.18,,,,,0.07,,,,,,METAR,23
CWLY 160100Z AUTO 21015G35KT 9SM SCT066 BKN080 BKN091 BKN170 21/15 A2966 RMK SLP045 DENSITY ALT 1900FT,CWLY,2025-08-16T01:00:00Z,50.224,-121.582,21,15,210,15,35,9,29.66,1004.5,,TRUE,,,,,,,,SCT,6600,BKN,8000,BKN,9100,BKN,17000,VFR,,,,,,,,,,,,METAR,228
CWLS 160100Z AUTO 25001KT 23/16 RMK AO1 SLP206 T02280163 56005,CWLS,2025-08-16T01:00:00Z,43.983,-80.74,22.8,16.3,250,1,,,0.00,1020.6,,TRUE,TRUE,,,,,,,,,,,,,,,,-0.05,,,,,,,,,,,METAR,413
CWLP 160100Z AUTO 12015KT 14/ RMK AO1 PK WND 11019/0040 SLP009 T0139 51002,CWLP,2025-08-16T01:00:00Z,50.94,-127.632,13.9,,120,15,,,0.00,1000.9,,TRUE,TRUE,,,,,,,,,,,,,,,,0.02,,,,,,,,,,,METAR,15
CWLM 160100Z AUTO 03002KT 16/16 RMK AO1 0PAST HR 0003 SLP070 P0012 T01620157 50030,CWLM,2025-08-16T01:00:00Z,48.413,-123.325,16.2,15.7,30,2,,,0.00,1007,,TRUE,TRUE,,,,,,,,,,,,,,,,0.3,,,,,0.12,,,,,,METAR,62
CWLE 160100Z AUTO 14/09 RMK AO1 SLP168 T01390088 58007,CWLE,2025-08-16T01:00:00Z,50.951,-107.143,13.9,8.8,,,,,0.00,1016.8,,TRUE,TRUE,,,,,,,,,,,,,,,,-0.07,,,,,,,,,,,METAR,666
CWLC 160100Z AUTO 18010G15KT 15/14 RMK AO1 T01460135,CWLC,2025-08-16T01:00:00Z,54.296,-130.609,14.6,13.5,180,10,15,,0.00,,,TRUE,TRUE,,,,,,,,,,,,,,,,,,,,,,,,,,,METAR,27
CWLB 160100Z AUTO 15006KT 13/07 RMK AO1 SLP167 T01260071 55001,CWLB,2025-08-16T01:00:00Z,54.769,-112.024,12.6,7.1,150,6,,,0.00,1016.7,,TRUE,TRUE,,,,,,,,,,,,,,,,-0.01,,,,,,,,,,,METAR,561
CWKX 160100Z AUTO 08006KT 18/07 RMK AO1 SLP018 T01750067 58013,CWKX,2025-08-16T01:00:00Z,58.429,-130.011,17.5,6.7,80,6,,,0.00,1001.8,,TRUE,TRUE,,,,,,,,,,,,,,,,-0.13,,,,,,,,,,,METAR,807
CWKO 160100Z AUTO 12010G15KT 20/10 RMK AO1 PK WND 11017/0014 SLP159 T01980102 58007,CWKO,2025-08-16T01:00:00Z,49.168,-105.979,19.8,10.2,120,10,15,,0.00,1015.9,,TRUE,TRUE,,,,,,,,,,,,,,,,-0.07,,,,,,,,,,,METAR,914
CWKK 160100Z AUTO 29012KT 21/15 RMK AO1 SLP118 T02090147 53004,CWKK,2025-08-16T01:00:00Z,49.713,-88.332,20.9,14.7,290,12,,,0.00,1011.8,,TRUE,TRUE,,,,,,,,,,,,,,,,0.04,,,,,,,,,,,METAR,259
CWKH 160100Z AUTO 16/16 RMK AO1 8PAST HR 8001 SLP067 P0011 T01590157 50028,CWKH,2025-08-16T01:00:00Z,48.568,-123.542,15.9,15.7,,,,,0.00,1006.7,,TRUE,TRUE,,,,,,,,,,,,,,,,0.28,,,,,0.11,,,,,,METAR,327
CWKG 160100Z AUTO 07002KT 18/09 RMK AO1 SLP223 T01750090 53015,CWKG,2025-08-16T01:00:00Z,44.432,-65.203,17.5,9,70,2,,,0.00,1022.3,,TRUE,TRUE,,,,,,,,,,,,,,,,0.15,,,,,,,,,,,METAR,154
CWJX 160100Z AUTO 09017G23KT 17/10 RMK AO1 PK WND 09024/0031 SLP127 T01670101 56012,CWJX,2025-08-16T01:00:00Z,50.876,-109.501,16.7,10.1,90,17,23,,0.00,1012.7,,TRUE,TRUE,,,,,,,,,,,,,,,,-0.12,,,,,,,,,,,METAR,671
CWJW 160100Z AUTO 04003KT 15/11 RMK AO1 SLP091 T01530113 58002,CWJW,2025-08-16T01:00:00Z,52.926,-118.03,15.3,11.3,40,3,,,0.00,1009.1,,TRUE,TRUE,,,,,,,,,,,,,,,,-0.02,,,,,,,,,,,METAR,1022
CWJV 160100Z AUTO 08001KT 17/16 RMK AO1 SLP089 T01710160 58014,CWJV,2025-08-16T01:00:00Z,50.223,-119.194,17.1,16,80,1,,,0.00,1008.9,,TRUE,TRUE,,,,,,,,,,,,,,,,-0.14,,,,,,,,,,,METAR,487
CWJU 160100Z AUTO 07012G24KT 13/13 RMK AO1 6PAST HR 8009 PK WND 06024/0055 SLP924 P0002 T01330132 50006,CWJU,2025-08-16T01:00:00Z,54.255,-133.058,13.3,13.2,70,12,24,,0.00,992.4,,TRUE,TRUE,,,,,,,,,,,,,,,,0.06,,,,,0.02,,,,,,METAR,47
CWJR 160100Z AUTO 33002KT 20/11 RMK AO1 SLP124 T02020114 58005,CWJR,2025-08-16T01:00:00Z,49.04,-116.483,20.2,11.4,330,2,,,0.00,1012.4,,TRUE,TRUE,,,,,,,,,,,,,,,,-0.05,,,,,,,,,,,METAR,642
CWJO 160100Z AUTO 04004KT 16/10 RMK AO1 SLP214 T01550101 57004,CWJO,2025-08-16T01:00:00Z,48.425,-71.143,15.5,10.1,40,4,,,0.00,1021.4,,TRUE,TRUE,,,,,,,,,,,,,,,,-0.04,,,,,,,,,,,METAR,113
CWJI 160100Z AUTO 10010KT 20/10 RMK AO1 PK WND 10017/0006 SLP159 T01950099 56008,CWJI,2025-08-16T01:00:00Z,49.729,-105.946,19.5,9.9,100,10,,,0.00,1015.9,,TRUE,TRUE,,,,,,,,,,,,,,,,-0.08,,,,,,,,,,,METAR,724
CWJH 160100Z AUTO 10001KT 15/06 RMK AO1 SLP183 T01520060 51004,CWJH,2025-08-16T01:00:00Z,56.333,-103.283,15.2,6,100,1,,,0.00,1018.3,,TRUE,TRUE,,,,,,,,,,,,,,,,0.04,,,,,,,,,,,METAR,345
CWJD 160100Z AUTO 01003KT 13/08 RMK AO1 SLP188 T01270075 52012,CWJD,2025-08-16T01:00:00Z,53.187,-99.268,12.7,7.5,10,3,,,0.00,1018.8,,TRUE,TRUE,,,,,,,,,,,,,,,,0.12,,,,,,,,,,,METAR,222
CWJC 160100Z AUTO 05007KT 12/04 RMK AO1 SLP182 T01190035 51009,CWJC,2025-08-16T01:00:00Z,61.132,-100.884,11.9,3.5,50,7,,,0.00,1018.2,,TRUE,TRUE,,,,,,,,,,,,,,,,0.09,,,,,,,,,,,METAR,340
CWJB 160100Z AUTO 00000KT 18/09 RMK AO1 T01760087,CWJB,2025-08-16T01:00:00Z,46.781,-71.288,17.6,8.7,0,0,,,0.00,,,TRUE,TRUE,,,,,,,,,,,,,,,,,,,,,,,,,,,METAR,90
CWIZ 160100Z AUTO 02001KT 18/13 RMK AO1 T01830134,CWIZ,2025-08-16T01:00:00Z,45.294,-73.35,18.3,13.4,20,1,,,0.00,,,TRUE,TRUE,,,,,,,,,,,,,,,,,,,,,,,,,,,METAR,45
CWIW 160100Z AUTO 16004KT 13/11 RMK AO1 SLP189 T01340108 53002,CWIW,2025-08-16T01:00:00Z,51.667,-105.4,13.4,10.8,160,4,,,0.00,1018.9,,TRUE,TRUE,,,,,,,,,,,,,,,,0.02,,,,,,,,,,,METAR,524
CWIT 160100Z AUTO 00000KT 17/11 RMK AO1 SLP216 T01660108 50001,CWIT,2025-08-16T01:00:00Z,45.167,-73.678,16.6,10.8,0,0,,,0.00,1021.6,,TRUE,TRUE,,,,,,,,,,,,,,,,0.01,,,,,,,,,,,METAR,53
CWIS 160100Z AUTO 18003KT 11/08 RMK AO1 SLP245 T01080083 56002,CWIS,2025-08-16T01:00:00Z,47.284,-70.637,10.8,8.3,180,3,,,0.00,1024.5,,TRUE,TRUE,,,,,,,,,,,,,,,,-0.02,,,,,,,,,,,METAR,720
CWIP 160100Z AUTO 29002KT 14/07 RMK AO1 T01420073,CWIP,2025-08-16T01:00:00Z,50.162,-66.434,14.2,7.3,290,2,,,0.00,,,TRUE,TRUE,,,,,,,,,,,,,,,,,,,,,,,,,,,METAR,27
CWIK 160100Z AUTO 04004KT 16/09 RMK AO1 SLP188 T01600092 50000,CWIK,2025-08-16T01:00:00Z,50.366,-102.567,16,9.2,40,4,,,0.00,1018.8,,TRUE,TRUE,,,,,,,,,,,,,,,,,,,,,,,,,,,METAR,597
CWIJ 160100Z AUTO 15005KT 18/07 RMK AO1 SLP170 T01790066 51001,CWIJ,2025-08-16T01:00:00Z,65.756,-111.246,17.9,6.6,150,5,,,0.00,1017,,TRUE,TRUE,,,,,,,,,,,,,,,,0.01,,,,,,,,,,,METAR,490
CWII 160100Z AUTO 34012KT 17/09 RMK AO1 PK WND 34018/0046 SLP177 T01740087 51009,CWII,2025-08-16T01:00:00Z,50.695,-96.562,17.4,8.7,340,12,,,0.00,1017.7,,TRUE,TRUE,,,,,,,,,,,,,,,,0.09,,,,,,,,,,,METAR,216
CWIG 160100Z AUTO 01003KT RMK AO1,CWIG,2025-08-16T01:00:00Z,47.074,-70.533,,,10,3,,,0.00,,,TRUE,TRUE,,,,,,,,,,,,,,,,,,,,,,,,,,,METAR,12
CWID 160100Z AUTO 14007KT 23/06 RMK AO1 SLP121 T02320064 56006,CWID,2025-08-16T01:00:00Z,61.317,-117.605,23.2,6.4,140,7,,,0.00,1012.1,,TRUE,TRUE,,,,,,,,,,,,,,,,-0.06,,,,,,,,,,,METAR,160
CWHV 160100Z AUTO 31001KT 18/11 RMK AO1 SLP223 T01810111 53001,CWHV,2025-08-16T01:00:00Z,46.205,-70.785,18.1,11.1,310,1,,,0.00,1022.3,,TRUE,TRUE,,,,,,,,,,,,,,,,0.01,,,,,,,,,,,METAR,227
CWHT 160100Z AUTO 31005KT 16/11 RMK AO1 2PAST HR 6012 SLP031 P0001 T01610112 50002,CWHT,2025-08-16T01:00:00Z,60.773,-137.581,16.1,11.2,310,5,,,0.00,1003.1,,TRUE,TRUE,,,,,,,,,,,,,,,,0.02,,,,,0.01,,,,,,METAR,601
CWHQ 160100Z AUTO 03001KT 12/11 RMK AO1 T01240114,CWHQ,2025-08-16T01:00:00Z,46.691,-71.972,12.4,11.4,30,1,,,0.00,,,TRUE,TRUE,,,,,,,,,,,,,,,,,,,,,,,,,,,METAR,56
CWHO 160100Z AUTO 00010KT 07/02 RMK AO1 SLP253 T00740018 50003,CWHO,2025-08-16T01:00:00Z,55.448,-60.23,7.4,1.8,VRB,10,,,0.00,1025.3,,TRUE,TRUE,,,,,,,,,,,,,,,,0.03,,,,,,,,,,,METAR,16
CWHL 160100Z AUTO 16009KT 14/13 RMK AO1 4PAST HR 3008 PK WND 16019/0013 SLP959 P0002 T01390133 50004,CWHL,2025-08-16T01:00:00Z,54.172,-130.361,13.9,13.3,160,9,,,0.00,995.9,,TRUE,TRUE,,,,,,,,,,,,,,,,0.04,,,,,0.02,,,,,,METAR,5
CWGY 160100Z AUTO 10016G21KT 15/08 RMK AO1 PK WND 10024/0027 SLP139 T01470075 56012,CWGY,2025-08-16T01:00:00Z,51.67,-110.206,14.7,7.5,100,16,21,,0.00,1013.9,,TRUE,TRUE,,,,,,,,,,,,,,,,-0.12,,,,,,,,,,,METAR,709
CWGW 160100Z AUTO 18004KT 18/09 RMK AO1 SLP135 T01830090 57002,CWGW,2025-08-16T01:00:00Z,49.745,-114.884,18.3,9,180,4,,,0.00,1013.5,,TRUE,TRUE,,,,,,,,,,,,,,,,-0.02,,,,,,,,,,,METAR,1137
CWGT 160100Z AUTO 12023KT 17/16 RMK AO1 PK WND 11029/0002 SLP045 T01710155 58001,CWGT,2025-08-16T01:00:00Z,49.487,-124.435,17.1,15.5,120,23,,,0.00,1004.5,,TRUE,TRUE,,,,,,,,,,,,,,,,-0.01,,,,,,,,,,,METAR,5
CWGR 160100Z AUTO 01010KT 17/12 RMK AO1 SLP224 T01690122 52007,CWGR,2025-08-16T01:00:00Z,47.425,-61.775,16.9,12.2,10,10,,,0.00,1022.4,,TRUE,TRUE,,,,,,,,,,,,,,,,0.07,,,,,,,,,,,METAR,4
CWGM 160100Z AUTO 24012KT 20/08 RMK AO1 PK WND 23023/0016 SLP120 T01950079 57005,CWGM,2025-08-16T01:00:00Z,49.133,-113.806,19.5,7.9,240,12,,,0.00,1012,,TRUE,TRUE,,,,,,,,,,,,,,,,-0.05,,,,,,,,,,,METAR,1292
CWGL 160100Z AUTO 14005KT 25/14 RMK AO1 SLP188 T02540142 55006,CWGL,2025-08-16T01:00:00Z,44.55,-79.218,25.4,14.2,140,5,,,0.00,1018.8,,TRUE,TRUE,,,,,,,,,,,,,,,,-0.06,,,,,,,,,,,METAR,220
CWGD 160100Z AUTO 09001KT 21/17 RMK AO1 SLP198 T02120166 55006,CWGD,2025-08-16T01:00:00Z,43.765,-81.712,21.2,16.6,90,1,,,0.00,1019.8,,TRUE,TRUE,,,,,,,,,,,,,,,,-0.06,,,,,,,,,,,METAR,214
CWGB 160100Z AUTO 12018G23KT 16/16 RMK AO1 PK WND 12023/0050 SLP048 T01610161 57006,CWGB,2025-08-16T01:00:00Z,49.336,-124.149,16.1,16.1,120,18,23,,0.00,1004.8,,TRUE,TRUE,,,,,,,,,,,,,,,,-0.06,,,,,,,,,,,METAR,6
CWFQ 160100Z AUTO 00000KT 20/10 RMK AO1 SLP221 T02040095 53001,CWFQ,2025-08-16T01:00:00Z,45.05,-72.861,20.4,9.5,0,0,,,0.00,1022.1,,TRUE,TRUE,,,,,,,,,,,,,,,,0.01,,,,,,,,,,,METAR,190
CWFJ 160100Z AUTO 28001KT 23/08 RMK AO1 SLP108 T02310075 58003,CWFJ,2025-08-16T01:00:00Z,49.2,-113.278,23.1,7.5,280,1,,,0.00,1010.8,,TRUE,TRUE,,,,,,,,,,,,,,,,-0.03,,,,,,,,,,,METAR,1142
CWFF 160100Z AUTO 16001KT 15/10 RMK AO1 SLP190 T01470103 50001,CWFF,2025-08-16T01:00:00Z,52.817,-104.601,14.7,10.3,160,1,,,0.00,1019,,TRUE,TRUE,,,,,,,,,,,,,,,,0.01,,,,,,,,,,,METAR,482
CWEZ 160100Z AUTO 14018KT 17/16 RMK AO1 4PAST HR 5002 PK WND 14024/0002 SLP074 P0009 T01660164 50024,CWEZ,2025-08-16T01:00:00Z,48.783,-123.046,16.6,16.4,140,18,,,0.00,1007.4,,TRUE,TRUE,,,,,,,,,,,,,,,,0.24,,,,,0.09,,,,,,METAR,23
CWEW 160100Z AUTO 11002KT 18/13 RMK AO1 SLP218 T01780134 56004,CWEW,2025-08-16T01:00:00Z,45.809,-73.435,17.8,13.4,110,2,,,0.00,1021.8,,TRUE,TRUE,,,,,,,,,,,,,,,,-0.04,,,,,,,,,,,METAR,17
CWEU 160100Z 00000KT 15SM FEW022 FEW250 06/M01 A2993 RMK SC1CI1 SC TR SLP143,CWEU,2025-08-16T01:00:00Z,79.989,-85.934,6,-1,0,0,,15,29.93,1014.3,,,,,,,,,,FEW,2200,FEW,25000,,,,,VFR,,,,,,,,,,,,METAR,2
CWER 160100Z AUTO 36004KT RMK AO1,CWER,2025-08-16T01:00:00Z,46.997,-70.808,,,360,4,,,0.00,,,TRUE,TRUE,,,,,,,,,,,,,,,,,,,,,,,,,,,METAR,4
CWEQ 160100Z AUTO 06005KT 15/08 RMK AO1 SLP189 T01460078 52008,CWEQ,2025-08-16T01:00:00Z,52.115,-101.233,14.6,7.8,60,5,,,0.00,1018.9,,TRUE,TRUE,,,,,,,,,,,,,,,,0.08,,,,,,,,,,,METAR,331
CWEP 160100Z AUTO 01012KT 18/13 RMK AO1 PK WND 01018/0006 SLP223 T01790133 53007,CWEP,2025-08-16T01:00:00Z,46.46,-61.988,17.9,13.3,10,12,,,0.00,1022.3,,TRUE,TRUE,,,,,,,,,,,,,,,,0.07,,,,,,,,,,,METAR,9
CWEL 160100Z AUTO 12016KT 17/16 RMK AO1 PK WND 12024/0007 SLP053 T01690161 56006,CWEL,2025-08-16T01:00:00Z,49.209,-123.808,16.9,16.1,120,16,,,0.00,1005.3,,TRUE,TRUE,,,,,,,,,,,,,,,,-0.06,,,,,,,,,,,METAR,
CWEK 160100Z AUTO 07020G25KT 15/14 RMK AO1 PK WND 05028/0012 SLP954 T01540139 53001,CWEK,2025-08-16T01:00:00Z,54.58,-130.698,15.4,13.9,70,20,25,,0.00,995.4,,TRUE,TRUE,,,,,,,,,,,,,,,,0.01,,,,,,,,,,,METAR,8
CWEH 160100Z AUTO 09007KT 20/15 RMK AO1 SLP120 T01960150 58011,CWEH,2025-08-16T01:00:00Z,49.438,-108.989,19.6,15,90,7,,,0.00,1012,,TRUE,TRUE,,,,,,,,,,,,,,,,-0.11,,,,,,,,,,,METAR,1077
CWEF 160100Z AUTO 00036KT 17/13 RMK AO1 SLP207 T01740133 51011,CWEF,2025-08-16T01:00:00Z,47.226,-60.141,17.4,13.3,VRB,36,,,0.00,1020.7,,TRUE,TRUE,,,,,,,,,,,,,,,,0.11,,,,,,,,,,,METAR,27
CWEB 160100Z AUTO 16/15 RMK AO1 SLP054 T01570150 53008,CWEB,2025-08-16T01:00:00Z,49.383,-126.543,15.7,15,,,,,0.00,1005.4,,TRUE,TRUE,,,,,,,,,,,,,,,,0.08,,,,,,,,,,,METAR,1
CWDZ 160100Z AUTO 10011G18KT 21/12 RMK AO1 PK WND 12022/0043 SLP086 T02140120 56012,CWDZ,2025-08-16T01:00:00Z,51.445,-112.677,21.4,12,100,11,18,,0.00,1008.6,,TRUE,TRUE,,,,,,,,,,,,,,,,-0.12,,,,,,,,,,,METAR,689
CWDV 160100Z AUTO 28004KT 20/11 RMK AO1 SLP144 T02040113 53008,CWDV,2025-08-16T01:00:00Z,49.033,-90.467,20.4,11.3,280,4,,,0.00,1014.4,,TRUE,TRUE,,,,,,,,,,,,,,,,0.08,,,,,,,,,,,METAR,487
CWDQ 160100Z AUTO 12002KT 18/10 RMK AO1 SLP219 T01790100 55002,CWDQ,2025-08-16T01:00:00Z,47.415,-72.788,17.9,10,120,2,,,0.00,1021.9,,TRUE,TRUE,,,,,,,,,,,,,,,,-0.02,,,,,,,,,,,METAR,174
CWDO 160100Z AUTO 04010KT 10/07 RMK AO1 SLP221 T01020067 53024,CWDO,2025-08-16T01:00:00Z,49.688,-54.8,10.2,6.7,40,10,,,0.00,1022.1,,TRUE,TRUE,,,,,,,,,,,,,,,,0.24,,,,,,,,,,,METAR,89
CWDM 160100Z AUTO 34004KT 10/07 RMK AO1 SLP217 T01000071 51015,CWDM,2025-08-16T01:00:00Z,50.465,-59.64,10,7.1,340,4,,,0.00,1021.7,,TRUE,TRUE,,,,,,,,,,,,,,,,0.15,,,,,,,,,,,METAR,2
CWDK 160100Z AUTO 23005KT 19/11 RMK AO1 SLP109 T01890112 50001,CWDK,2025-08-16T01:00:00Z,50.006,-113.631,18.9,11.2,230,5,,,0.00,1010.9,,TRUE,TRUE,,,,,,,,,,,,,,,,0.01,,,,,,,,,,,METAR,1014
CWDJ 160100Z AUTO 09008KT 17/08 RMK AO1 SLP177 T01690076 58006,CWDJ,2025-08-16T01:00:00Z,50.408,-104.58,16.9,7.6,90,8,,,0.00,1017.7,,TRUE,TRUE,,,,,,,,,,,,,,,,-0.06,,,,,,,,,,,METAR,576
CWDC 160100Z AUTO 18003KT 15/09 RMK AO1 SLP169 T01450086 56002,CWDC,2025-08-16T01:00:00Z,59.56,-108.487,14.5,8.6,180,3,,,0.00,1016.9,,TRUE,TRUE,,,,,,,,,,,,,,,,-0.02,,,,,,,,,,,METAR,311
CWDA 160100Z AUTO 02005KT 10/06 RMK AO1 SLP238 T00980062 51016,CWDA,2025-08-16T01:00:00Z,50.721,-56.113,9.8,6.2,20,5,,,0.00,1023.8,,TRUE,TRUE,,,,,,,,,,,,,,,,0.16,,,,,,,,,,,METAR,30
CWCT 160100Z AUTO 12014G20KT 15/08 RMK AO1 PK WND 11020/0056 SLP139 T01520081 57010,CWCT,2025-08-16T01:00:00Z,52.074,-111.448,15.2,8.1,120,14,20,,0.00,1013.9,,TRUE,TRUE,,,,,,,,,,,,,,,,-0.1,,,,,,,,,,,METAR,793
CWCJ 160100Z AUTO 20004KT 20/18 RMK AO1 SLP139 T01980184 57008,CWCJ,2025-08-16T01:00:00Z,48.588,-86.295,19.8,18.4,200,4,,,0.00,1013.9,,TRUE,TRUE,,,,,,,,,,,,,,,,-0.08,,,,,,,,,,,METAR,207
CWCF 160100Z AUTO 32007KT 14/07 RMK AO1 SLP174 T01360071 51011,CWCF,2025-08-16T01:00:00Z,52.36,-97.022,13.6,7.1,320,7,,,0.00,1017.4,,TRUE,TRUE,,,,,,,,,,,,,,,,0.11,,,,,,,,,,,METAR,219
CWBZ 160100Z AUTO 00000KT 15/14 RMK AO1 SLP212 T01510142 56002,CWBZ,2025-08-16T01:00:00Z,45.121,-74.289,15.1,14.2,0,0,,,0.00,1021.2,,TRUE,TRUE,,,,,,,,,,,,,,,,-0.02,,,,,,,,,,,METAR,49
CWBY 160100Z AUTO 30001KT 12/09 RMK AO1 SLP230 T01190089 53005,CWBY,2025-08-16T01:00:00Z,49.839,-64.293,11.9,8.9,300,1,,,0.00,1023,,TRUE,TRUE,,,,,,,,,,,,,,,,0.05,,,,,,,,,,,METAR,56
CWBV 160100Z AUTO 01014KT 18/14 RMK AO1 PK WND 01019/0036 SLP204 T01790135 51020,CWBV,2025-08-16T01:00:00Z,44.825,-62.338,17.9,13.5,10,14,,,0.00,1020.4,,TRUE,TRUE,,,,,,,,,,,,,,,,0.2,,,,,,,,,,,METAR,16
CWBU 160100Z AUTO 15005KT 16/09 RMK AO1 SLP180 T01600086 51005,CWBU,2025-08-16T01:00:00Z,53.333,-104.005,16,8.6,150,5,,,0.00,1018,,TRUE,TRUE,,,,,,,,,,,,,,,,0.05,,,,,,,,,,,METAR,369
CWBT 160100Z AUTO 30004KT 11/09 RMK AO1 SLP228 T01130091 53006,CWBT,2025-08-16T01:00:00Z,50.271,-64.226,11.3,9.1,300,4,,,0.00,1022.8,,TRUE,TRUE,,,,,,,,,,,,,,,,0.06,,,,,,,,,,,METAR,12
CWBS 160100Z AUTO 17005KT 24/11 RMK AO1 T02360112,CWBS,2025-08-16T01:00:00Z,46.189,-72.916,23.6,11.2,170,5,,,0.00,,,TRUE,TRUE,,,,,,,,,,,,,,,,,,,,,,,,,,,METAR,3
CWBK 160100Z AUTO 02011KT 18/13 RMK AO1 SLP225 T01840134 51009,CWBK,2025-08-16T01:00:00Z,45.764,-62.681,18.4,13.4,20,11,,,0.00,1022.5,,TRUE,TRUE,,,,,,,,,,,,,,,,0.09,,,,,,,,,,,METAR,2
CWBA 160100Z AUTO 20001KT 20/15 RMK AO1 T02030150,CWBA,2025-08-16T01:00:00Z,46.71,-79.101,20.3,15,200,1,,,0.00,,,TRUE,TRUE,,,,,,,,,,,,,,,,,,,,,,,,,,,METAR,181
CWAV 160100Z AUTO 13006KT 18/13 RMK AO1 SLP093 T01840134 56001,CWAV,2025-08-16T01:00:00Z,51.777,-114.681,18.4,13.4,130,6,,,0.00,1009.3,,TRUE,TRUE,,,,,,,,,,,,,,,,-0.01,,,,,,,,,,,METAR,1115
CWAR 160100Z AUTO 05017KT 17/16 RMK AO1 PK WND 06022/0011 SLP177 T01670159 53023,CWAR,2025-08-16T01:00:00Z,47.294,-53.993,16.7,15.9,50,17,,,0.00,1017.7,,TRUE,TRUE,,,,,,,,,,,,,,,,0.23,,,,,,,,,,,METAR,6
CWAQ 160100Z AUTO 11009KT 21/11 RMK AO1 PK WND 09018/0017 SLP154 T02080110 58010,CWAQ,2025-08-16T01:00:00Z,49.05,-105.483,20.8,11,110,9,,,0.00,1015.4,,TRUE,TRUE,,,,,,,,,,,,,,,,-0.1,,,,,,,,,,,METAR,761
CWAF 160100Z AUTO 10006KT 09/ RMK AO1 T0092,CWAF,2025-08-16T01:00:00Z,48.069,-69.556,9.2,,100,6,,,0.00,,,TRUE,TRUE,,,,,,,,,,,,,,,,,,,,,,,,,,,METAR,6
CWAE 160100Z 00000KT 3SM -RA BR FEW008 BKN033 OVC110 14/14 A2974 RMK ST2SC3AS3 LAST OBS/NXT 161300Z WIND EST SLP069 DENSITY ALT 2800FT,CWAE,2025-08-16T01:00:00Z,50.129,-122.955,14,14,0,0,,3,29.74,1006.9,,,,,,,,,-RA BR,FEW,800,BKN,3300,OVC,11000,,,MVFR,,,,,,,,,,,,METAR,658
CTRA 160100Z AUTO 30003KT 19/10 RMK AO1 SLP157 T01940096 53009,CTRA,2025-08-16T01:00:00Z,49.664,-93.733,19.4,9.6,300,3,,,0.00,1015.7,,TRUE,TRUE,,,,,,,,,,,,,,,,0.09,,,,,,,,,,,METAR,432
CTNK 160100Z AUTO 00000KT 19/14 RMK AO1 SLP209 T01880140 55002,CTNK,2025-08-16T01:00:00Z,45.533,-78.266,18.8,14,0,0,,,0.00,1020.9,,TRUE,TRUE,,,,,,,,,,,,,,,,-0.02,,,,,,,,,,,METAR,405
CTCK 160100Z AUTO 09001KT 16/12 RMK AO1 SLP208 T01630122 55001,CTCK,2025-08-16T01:00:00Z,45.251,-74.963,16.3,12.2,90,1,,,0.00,1020.8,,TRUE,TRUE,,,,,,,,,,,,,,,,-0.01,,,,,,,,,,,METAR,84
CMGB 160100Z AUTO 05002KT 20/13 RMK AO1 SLP221 T01950128 50002,CMGB,2025-08-16T01:00:00Z,45.373,-72.774,19.5,12.8,50,2,,,0.00,1022.1,,TRUE,TRUE,,,,,,,,,,,,,,,,0.02,,,,,,,,,,,METAR,87
CMFM 160100Z AUTO 30002KT 11/09 RMK AO1 SLP244 T01050090 51001,CMFM,2025-08-16T01:00:00Z,47.323,-71.148,10.5,9,300,2,,,0.00,1024.4,,TRUE,TRUE,,,,,,,,,,,,,,,,0.01,,,,,,,,,,,METAR,663
CERM 160100Z AUTO 33001KT 11/09 RMK AO1 SLP231 T01100094 52004,CERM,2025-08-16T01:00:00Z,47.417,-68.325,11,9.4,330,1,,,0.00,1023.1,,TRUE,TRUE,,,,,,,,,,,,,,,,0.04,,,,,,,,,,,METAR,151
CAHR 160100Z AUTO 00000KT 14/10 RMK AO1 SLP230 T01390097 53006,CAHR,2025-08-16T01:00:00Z,46.344,-63.17,13.9,9.7,0,0,,,0.00,1023,,TRUE,TRUE,,,,,,,,,,,,,,,,0.06,,,,,,,,,,,METAR,52
BIRK 160100Z 19009KT CAVOK 11/09 Q1023,BIRK,2025-08-16T01:00:00Z,64.129,-21.941,11,9,190,9,,6+,30.21,,,,,,,,,,,CAVOK,,,,,,,,VFR,,,,,,,,,,,,METAR,12
BIKF 160100Z 21015KT 9999 BKN008 10/09 Q1023,BIKF,2025-08-16T01:00:00Z,63.987,-22.614,10,9,210,15,,6+,30.21,,,,,,,,,,,BKN,800,,,,,,,IFR,,,,,,,,,,,,METAR,49
BIEG 160100Z 24015G25KT 200V300 CAVOK 20/12 Q1016,BIEG,2025-08-16T01:00:00Z,65.275,-14.409,20,12,240,15,25,6+,30.00,,,,,,,,,,,CAVOK,,,,,,,,VFR,,,,,,,,,,,,METAR,20
AYPY 160100Z 15015G20KT 9999 FEW030 29/21 Q1011,AYPY,2025-08-16T01:00:00Z,-9.443,147.216,29,21,150,15,20,6+,29.85,,,,,,,,,,,FEW,3000,,,,,,,VFR,,,,,,,,,,,,METAR,44
AYMH 160100Z 12013KT 9999 SCT035 21/15 Q1022,AYMH,2025-08-16T01:00:00Z,-5.831,144.3,21,15,120,13,,6+,30.18,,,,,,,,,,,SCT,3500,,,,,,,VFR,,,,,,,,,,,,METAR,1634
AGGH 160100Z 07007KT 9999 FEW018 FEW019CB SCT100 29/26 Q1011,AGGH,2025-08-16T01:00:00Z,-9.43,160.047,29,26,70,7,,6+,29.85,,,,,,,,,,,FEW,1800,FEW,1900,SCT,10000,,,VFR,,,,,,,,,,,,METAR,6
SCBA 160059Z AUTO 27007KT 9999 BKN180/// 05/01 Q1014,SCBA,2025-08-16T00:59:00Z,-45.913,-71.694,5,1,270,7,,6+,29.94,,,TRUE,,,,,,,,BKN,18000,,,,,,,VFR,,,,,,,,,,,,METAR,516
MMIO 160059Z RTD 02012KT 10SM BKN200 26/10 A3020 RMK 8/008,MMIO,2025-08-16T00:59:00Z,25.544,-100.928,26,10,20,12,,10+,30.20,,,,,,,,,,,BKN,20000,,,,,,,VFR,,,,,,,,,,,,METAR,1430
KOTH 160059Z 21008KT 5SM -RA BR SCT007 BKN014 OVC020 19/19 A3001 RMK AO2 P0000,KOTH,2025-08-16T00:59:00Z,43.4194,-124.244,19,19,210,8,,5,30.01,,,,TRUE,,,,,,-RA BR,SCT,700,BKN,1400,OVC,2000,,,MVFR,,,,,,0.005,,,,,,SPECI,3
KNOZ 160059Z AUTO 16014KT CLR 37/13 A2977 RMK AO2 SLP030 T03670128 $,KNOZ,2025-08-16T00:59:00Z,32.55,-114.512,36.7,12.8,160,14,,,29.77,1003,,TRUE,TRUE,TRUE,,,,,,CLR,,,,,,,,,,,,,,,,,,,,METAR,78
KBBG 160059Z 00000KT 10SM CLR 30/22 A3008,KBBG,2025-08-16T00:59:00Z,36.5259,-93.1969,30,22,0,0,,10+,30.08,,,,,,,,,,,CLR,,,,,,,,VFR,,,,,,,,,,,,METAR,403
PKMR 160058Z 15003KT 15SM SCT014 BKN045 BKN110 OVC130 28/25 A2984 RMK RAE30 SLP107 T02750252,PKMR,2025-08-16T00:58:00Z,7.09,171.383,27.5,25.2,150,3,,15,29.84,1010.7,,,,,,,,,,SCT,1400,BKN,4500,BKN,11000,OVC,13000,VFR,,,,,,,,,,,,METAR,7
KROG 160058Z AUTO 22006KT 10SM SCT060 31/22 A3009 RMK AO2 SLP171 T03060217 TSNO,KROG,2025-08-16T00:58:00Z,36.3749,-94.1078,30.6,21.7,220,6,,10+,30.09,1017.1,,TRUE,TRUE,,,TRUE,,,,SCT,6000,,,,,,,VFR,,,,,,,,,,,,METAR,407
KP68 160058Z AUTO 28017G25KT 30/M01 A3003 RMK AO1 WSHFT 0041 T03001011,KP68,2025-08-16T00:58:00Z,39.602,-116.006,30,-1.1,280,17,25,,30.03,,,TRUE,TRUE,,,,,,,,,,,,,,,,,,,,,,,,,,,SPECI,1813
KMRH 160058Z AUTO 05003KT 10SM CLR 27/24 A3005 RMK AO2 SLP175 T02670239 $,KMRH,2025-08-16T00:58:00Z,34.7326,-76.6566,26.7,23.9,50,3,,10+,30.05,1017.5,,TRUE,TRUE,TRUE,,,,,,CLR,,,,,,,,VFR,,,,,,,,,,,,METAR,2
KMEI 160058Z 23003KT 10SM CLR 29/26 A3010 RMK AO2 SLP189 T02890261 $,KMEI,2025-08-16T00:58:00Z,32.3348,-88.7507,28.9,26.1,230,3,,10+,30.10,1018.9,,,TRUE,TRUE,,,,,,CLR,,,,,,,,VFR,,,,,,,,,,,,METAR,90
KEUF 160058Z AUTO 00000KT 10SM CLR 24/23 A3010 RMK AO1 SLP189 T02440233,KEUF,2025-08-16T00:58:00Z,31.9516,-85.1312,24.4,23.3,0,0,,10+,30.10,1018.9,,TRUE,TRUE,,,,,,,CLR,,,,,,,,VFR,,,,,,,,,,,,METAR,87
KBKF 160058Z 34004KT 10SM BKN120 BKN220 30/05 A3006 RMK AO2A SLP090 T02950049,KBKF,2025-08-16T00:58:00Z,39.713,-104.758,29.5,4.9,340,4,,10+,30.06,1009,,,TRUE,,,,,,,BKN,12000,BKN,22000,,,,,VFR,,,,,,,,,,,,METAR,1703
KBCR 160058Z AUTO 15003KT 10SM FEW047 26/24 A3011 RMK AO2 RAB10E23 SLP155 P0000 T02560244,KBCR,2025-08-16T00:58:00Z,30.8432,-85.6043,25.6,24.4,150,3,,10+,30.11,1015.5,,TRUE,TRUE,,,,,,,FEW,4700,,,,,,,VFR,,,,,,0.005,,,,,,METAR,26
PHNG 160057Z AUTO 06013KT 10SM 28/21 A3002 RMK AO2 SLP161 T02830206 $,PHNG,2025-08-16T00:57:00Z,21.45,-157.763,28.3,20.6,60,13,,10+,30.02,1016.1,,TRUE,TRUE,TRUE,,,,,,,,,,,,,,VFR,,,,,,,,,,,,METAR,1
KSUE 160057Z AUTO 18007KT 10SM CLR 23/20 A3006 RMK AO2 SLP176 T02330200,KSUE,2025-08-16T00:57:00Z,44.847,-87.425,23.3,20,180,7,,10+,30.06,1017.6,,TRUE,TRUE,,,,,,,CLR,,,,,,,,VFR,,,,,,,,,,,,METAR,215
KNYL 160057Z 17012KT 10SM CLR 38/13 A2975 RMK AO2 SLP070 T03780133,KNYL,2025-08-16T00:57:00Z,32.66,-114.608,37.8,13.3,170,12,,10+,29.75,1007,,,TRUE,,,,,,,CLR,,,,,,,,VFR,,,,,,,,,,,,METAR,58
KNJW 160057Z AUTO 00000KT 10SM FEW110 24/22 A3014 RMK AO2 TSE53 SLP121 T02390222,KNJW,2025-08-16T00:57:00Z,32.792,-88.832,23.9,22.2,0,0,,10+,30.14,1012.1,,TRUE,TRUE,,,,,,,FEW,11000,,,,,,,VFR,,,,,,,,,,,,METAR,165
KNFL 160057Z 35006KT 9SM SCT080 SCT120 SCT150 SCT250 34/01 A2988 RMK AO2 SLP093 VIRGA DSNT S-SW T03440006,KNFL,2025-08-16T00:57:00Z,39.417,-118.705,34.4,0.6,350,6,,9,29.88,1009.3,,,TRUE,,,,,,,SCT,8000,SCT,12000,SCT,15000,SCT,25000,VFR,,,,,,,,,,,,METAR,1199
KMNM 160057Z AUTO 19007KT 10SM OVC080 26/22 A3005 RMK AO2 SLP170 T02560217 $,KMNM,2025-08-16T00:57:00Z,45.126,-87.639,25.6,21.7,190,7,,10+,30.05,1017,,TRUE,TRUE,TRUE,,,,,,OVC,8000,,,,,,,VFR,,,,,,,,,,,,METAR,188
KFLG 160057Z 02006KT 10SM -RA FEW034 BKN080 OVC095 15/11 A3033 RMK AO2 LTG DSNT N AND SE AND S RAB48 TSB42E57 SLP183 P0000 T01500111,KFLG,2025-08-16T00:57:00Z,35.1443,-111.666,15,11.1,20,6,,10+,30.33,1018.3,,,TRUE,,,,,,-RA,FEW,3400,BKN,8000,OVC,9500,,,VFR,,,,,,0.005,,,,,,METAR,2134
TJSJ 160056Z 01007KT 10SM FEW025 SCT080 29/24 A2997 RMK AO2 SLP148 T02890239 $,TJSJ,2025-08-16T00:56:00Z,18.4326,-66.0107,28.9,23.9,10,7,,10+,29.97,1014.8,,,TRUE,TRUE,,,,,,FEW,2500,SCT,8000,,,,,VFR,,,,,,,,,,,,METAR,3
RJOI 160056Z 12005KT 9999 FEW020 30/25 A2997 RMK AO2 SLP147 T03000250,RJOI,2025-08-16T00:56:00Z,34.144,132.236,30,25,120,5,,6+,29.97,1014.7,,,TRUE,,,,,,,FEW,2000,,,,,,,VFR,,,,,,,,,,,,METAR,2
PTPN 160056Z 06005KT 15SM SCT018 BKN300 32/26 A2983 ,PTPN,2025-08-16T00:56:00Z,6.986,158.21,32,26,60,5,,15,29.83,,,,,,,,,,,SCT,1800,BKN,30000,,,,,VFR,,,,,,,,,,,,METAR,3
POKA 160056Z AUTO 25010KT 10SM OVC025 11/07 A3021 RMK AO2 SLP233 T01110072 PNO $,POKA,2025-08-16T00:56:00Z,60.569,-165.246,11.1,7.2,250,10,,10+,30.21,1023.3,,TRUE,TRUE,TRUE,,,,,,OVC,2500,,,,,,,MVFR,,,,,,,,,,,,METAR,19
PMDY 160056Z AUTO 12007KT 10SM FEW018 29/24 A3015 RMK AO2 SLP209 T02890239,PMDY,2025-08-16T00:56:00Z,28.206,-177.382,28.9,23.9,120,7,,10+,30.15,1020.9,,TRUE,TRUE,,,,,,,FEW,1800,,,,,,,VFR,,,,,,,,,,,,METAR,6
PFZK 160056Z AUTO 30011KT 10SM FEW028 BKN034 OVC044 13/06 A3014 RMK AO2 SLP205 T01280056,PFZK,2025-08-16T00:56:00Z,60.9156,-161.488,12.8,5.6,300,11,,10+,30.14,1020.5,,TRUE,TRUE,,,,,,,FEW,2800,BKN,3400,OVC,4400,,,VFR,,,,,,,,,,,,METAR,16
PFYU 160056Z VRB05KT 10SM OVC040 14/07 A2983 RMK AO2 SLP112 T01440072,PFYU,2025-08-16T00:56:00Z,66.572,-145.243,14.4,7.2,VRB,5,,10+,29.83,1011.2,,,TRUE,,,,,,,OVC,4000,,,,,,,VFR,,,,,,,,,,,,METAR,130
PFWS 160056Z AUTO 33012G18KT 10SM SCT065 16/05 RMK AO2 SLPNO T01610050 $,PFWS,2025-08-16T00:56:00Z,58.704,-157.005,16.1,5,330,12,18,10+,0.00,,,TRUE,TRUE,TRUE,,,,,,SCT,6500,,,,,,,VFR,,,,,,,,,,,,METAR,40
PFNO 160056Z AUTO 28010G17KT 10SM CLR 13/06 A3000 RMK AO2 SLP160 T01330056 $,PFNO,2025-08-16T00:56:00Z,66.819,-161.024,13.3,5.6,280,10,17,10+,30.00,1016,,TRUE,TRUE,TRUE,,,,,,CLR,,,,,,,,VFR,,,,,,,,,,,,METAR,14
PFKW 160056Z AUTO 10SM SCT029 OVC046 A3016 RMK AO2 SLPNO FZRANO PNO $,PFKW,2025-08-16T00:56:00Z,60.793,-161.44,,,,,,10+,30.16,,,TRUE,TRUE,TRUE,,,TRUE,,,SCT,2900,OVC,4600,,,,,VFR,,,,,,,,,,,,METAR,4
PFKT 160056Z AUTO 25012KT 4SM -RA BR OVC006 09/09 A3001 RMK AO2 RAB47 SLP163 P0000 T00940094,PFKT,2025-08-16T00:56:00Z,65.33,-166.479,9.4,9.4,250,12,,4,30.01,1016.3,,TRUE,TRUE,,,,,,-RA BR,OVC,600,,,,,,,IFR,,,,,,0.005,,,,,,METAR,8
PFKO 160056Z AUTO 25010KT 10SM OVC021 12/08 RMK AO2 SLPNO T01170078 $,PFKO,2025-08-16T00:56:00Z,63.0334,-163.532,11.7,7.8,250,10,,10+,0.00,,,TRUE,TRUE,TRUE,,,,,,OVC,2100,,,,,,,MVFR,,,,,,,,,,,,METAR,13
PFCL 160056Z AUTO 10SM SCT055 16/05 A3009 RMK AO2 SLP183 T01610050 $,PFCL,2025-08-16T00:56:00Z,58.837,-158.526,16.1,5,,,,10+,30.09,1018.3,,TRUE,TRUE,TRUE,,,,,,SCT,5500,,,,,,,VFR,,,,,,,,,,,,METAR,23
PAZK 160056Z AUTO 36004KT 10SM BKN026 OVC031 08/04 A2974 RMK AO2 RAE16B41E56 SLP095 P0000 T00780044 $,PAZK,2025-08-16T00:56:00Z,61.938,-147.169,7.8,4.4,360,4,,10+,29.74,1009.5,,TRUE,TRUE,TRUE,,,,,,BKN,2600,OVC,3100,,,,,MVFR,,,,,,0.005,,,,,,METAR,1002
PAWS 160056Z AUTO 15006KT 10SM SCT050 OVC065 A2975 RMK AO2 RAB16E31 SLPNO P0000 FZRANO $,PAWS,2025-08-16T00:56:00Z,61.571,-149.538,,,150,6,,10+,29.75,,,TRUE,TRUE,TRUE,,,TRUE,,,SCT,5000,OVC,6500,,,,,VFR,,,,,,0.005,,,,,,METAR,102
PAWN 160056Z AUTO 19005KT 10SM OVC100 13/06 A2999 RMK AO2 SLP167 T01280056,PAWN,2025-08-16T00:56:00Z,67.567,-162.977,12.8,5.6,190,5,,10+,29.99,1016.7,,TRUE,TRUE,,,,,,,OVC,10000,,,,,,,VFR,,,,,,,,,,,,METAR,26
PAWM 160056Z AUTO 21005KT 5SM -RA BR BKN010 OVC017 09/09 A3004 RMK AO2 RAB05 CIG 007V014 SLP176 T00940094 PNO $,PAWM,2025-08-16T00:56:00Z,64.688,-163.41,9.4,9.4,210,5,,5,30.04,1017.6,,TRUE,TRUE,TRUE,,,,,-RA BR,BKN,1000,OVC,1700,,,,,MVFR,,,,,,,,,,,,METAR,80
PAWG 160056Z 30006KT 10SM SCT070 OVC090 16/13 A2944 RMK AO2 RAE29 SLP969 P0000 T01610133 $,PAWG,2025-08-16T00:56:00Z,56.486,-132.377,16.1,13.3,300,6,,10+,29.44,996.9,,,TRUE,TRUE,,,,,,SCT,7000,OVC,9000,,,,,VFR,,,,,,0.005,,,,,,METAR,6
PAVD 160056Z 08016G26KT 10SM FEW050 BKN080 20/06 A2965 RMK AO2 PK WND 08035/0032 SLP038 T02000061 $,PAVD,2025-08-16T00:56:00Z,61.133,-146.251,20,6.1,80,16,26,10+,29.65,1003.8,,,TRUE,TRUE,,,,,,FEW,5000,BKN,8000,,,,,VFR,,,,,,,,,,,,METAR,21
PATQ 160056Z AUTO 11006KT 10SM CLR 08/01 A3001 RMK AO2 SLP166 T00830011 TSNO,PATQ,2025-08-16T00:56:00Z,70.469,-157.428,8.3,1.1,110,6,,10+,30.01,1016.6,,TRUE,TRUE,,,TRUE,,,,CLR,,,,,,,,VFR,,,,,,,,,,,,METAR,28
PATG 160056Z AUTO 33009KT 10SM OVC042 16/07 A3015 RMK AO2 SLP211 T01560072,PATG,2025-08-16T00:56:00Z,59.051,-160.398,15.6,7.2,330,9,,10+,30.15,1021.1,,TRUE,TRUE,,,,,,,OVC,4200,,,,,,,VFR,,,,,,,,,,,,METAR,1
PASX 160056Z AUTO VRB05KT 10SM OVC080 17/02 A2977 RMK AO2 SLP086 T01670022 TSNO,PASX,2025-08-16T00:56:00Z,60.476,-151.053,16.7,2.2,VRB,5,,10+,29.77,1008.6,,TRUE,TRUE,,,TRUE,,,,OVC,8000,,,,,,,VFR,,,,,,,,,,,,METAR,28
PASM 160056Z AUTO 27007KT 10SM BKN026 OVC031 12/07 A3014 RMK AO2 SLP214 T01170067,PASM,2025-08-16T00:56:00Z,62.057,-163.298,11.7,6.7,270,7,,10+,30.14,1021.4,,TRUE,TRUE,,,,,,,BKN,2600,OVC,3100,,,,,MVFR,,,,,,,,,,,,METAR,108
PASK 160056Z AUTO 25012G17KT 10SM CLR 13/07 A3001 RMK AO2 SLP157 T01330072,PASK,2025-08-16T00:56:00Z,66.599,-159.991,13.3,7.2,250,12,17,10+,30.01,1015.7,,TRUE,TRUE,,,,,,,CLR,,,,,,,,VFR,,,,,,,,,,,,METAR,3
PASA 160056Z AUTO 27012KT 10SM CLR 11/10 A3004 RMK AO2 SLP172 T01110100,PASA,2025-08-16T00:56:00Z,63.689,-170.49,11.1,10,270,12,,10+,30.04,1017.2,,TRUE,TRUE,,,,,,,CLR,,,,,,,,VFR,,,,,,,,,,,,METAR,9
PARY 160056Z AUTO 31004KT 10SM OVC049 13/04 A2996 RMK AO2 SLP149 T01280044 TSNO,PARY,2025-08-16T00:56:00Z,64.731,-155.463,12.8,4.4,310,4,,10+,29.96,1014.9,,TRUE,TRUE,,,TRUE,,,,OVC,4900,,,,,,,VFR,,,,,,,,,,,,METAR,185
PARC 160056Z AUTO 00000KT 10SM -RA FEW010 OVC047 11/09 A2979 RMK AO2 SLP115 P0001 T01060089 TSNO,PARC,2025-08-16T00:56:00Z,68.113,-145.576,10.6,8.9,0,0,,10+,29.79,1011.5,,TRUE,TRUE,,,TRUE,,,-RA,FEW,1000,OVC,4700,,,,,VFR,,,,,,0.01,,,,,,METAR,626
PAQH 160056Z AUTO 26011KT 10SM CLR 13/08 A3020 RMK AO2 SLP227 T01280083,PAQH,2025-08-16T00:56:00Z,59.751,-161.842,12.8,8.3,260,11,,10+,30.20,1022.7,,TRUE,TRUE,,,,,,,CLR,,,,,,,,VFR,,,,,,,,,,,,METAR,8
PAPN 160056Z AUTO 31018KT 9SM CLR 13/08 A3010 RMK AO2 SLP194 T01330078 $,PAPN,2025-08-16T00:56:00Z,57.578,-157.569,13.3,7.8,310,18,,9,30.10,1019.4,,TRUE,TRUE,TRUE,,,,,,CLR,,,,,,,,VFR,,,,,,,,,,,,METAR,19
PAPM 160056Z AUTO 30013KT 10SM CLR 12/10 A3020 RMK AO2 SLP228 T01220100 TSNO,PAPM,2025-08-16T00:56:00Z,59.011,-161.82,12.2,10,300,13,,10+,30.20,1022.8,,TRUE,TRUE,,,TRUE,,,,CLR,,,,,,,,VFR,,,,,,,,,,,,METAR,4
PAPG 160056Z 07004KT 10SM BKN095 13/12 A2947 RMK AO2 RAE39 SLP983 P0000 T01330122,PAPG,2025-08-16T00:56:00Z,56.805,-132.935,13.3,12.2,70,4,,10+,29.47,998.3,,,TRUE,,,,,,,BKN,9500,,,,,,,VFR,,,,,,0.005,,,,,,METAR,24
PAPE 160056Z AUTO 32009G17KT 9SM CLR 17/04 A3008 RMK AO2 SLP183 T01720044,PAPE,2025-08-16T00:56:00Z,55.9096,-159.16,17.2,4.4,320,9,17,9,30.08,1018.3,,TRUE,TRUE,,,,,,,CLR,,,,,,,,VFR,,,,,,,,,,,,METAR,15
PAOO 160056Z AUTO 29009KT 10SM OVC025 12/07 A3020 RMK AO2 SLP230 T01170067 TSNO $,PAOO,2025-08-16T00:56:00Z,60.537,-165.089,11.7,6.7,290,9,,10+,30.20,1023,,TRUE,TRUE,TRUE,,TRUE,,,,OVC,2500,,,,,,,MVFR,,,,,,,,,,,,METAR,15
PAOH 160056Z AUTO 28003KT 10SM OVC085 17/13 A2949 RMK AO2 SLP988 T01720128,PAOH,2025-08-16T00:56:00Z,58.108,-135.448,17.2,12.8,280,3,,10+,29.49,998.8,,TRUE,TRUE,,,,,,,OVC,8500,,,,,,,VFR,,,,,,,,,,,,METAR,
PANW 160056Z AUTO 33014G22KT 10SM BKN060 15/04 A3007 RMK AO2 SLP189 T01500039,PANW,2025-08-16T00:56:00Z,59.451,-157.325,15,3.9,330,14,22,10+,30.07,1018.9,,TRUE,TRUE,,,,,,,BKN,6000,,,,,,,VFR,,,,,,,,,,,,METAR,100
PANV 160056Z AUTO 28009KT 10SM FEW027 BKN048 OVC080 13/07 A3006 RMK AO2 SLP259 T01330072 TSNO,PANV,2025-08-16T00:56:00Z,62.647,-160.191,13.3,7.2,280,9,,10+,30.06,1025.9,,TRUE,TRUE,,,TRUE,,,,FEW,2700,BKN,4800,OVC,8000,,,VFR,,,,,,,,,,,,METAR,91
PANU 160056Z AUTO 29011G18KT 10SM BKN060 16/02 A3001 RMK AO2 SLP070 T01610017,PANU,2025-08-16T00:56:00Z,64.7304,-158.075,16.1,1.7,290,11,18,10+,30.01,1007,,TRUE,TRUE,,,,,,,BKN,6000,,,,,,,VFR,,,,,,,,,,,,METAR,117
PANA 160056Z AUTO 29008KT 3SM HZ BKN031 OVC043 14/08 A3016 RMK AO2 SLP213 T01390083 TSNO,PANA,2025-08-16T00:56:00Z,60.694,-161.978,13.9,8.3,290,8,,3,30.16,1021.3,,TRUE,TRUE,,,TRUE,,,HZ,BKN,3100,OVC,4300,,,,,MVFR,,,,,,,,,,,,METAR,7
PAMO 160056Z AUTO 26006KT 10SM BKN026 BKN032 12/07 A3014 RMK AO2 SLP210 T01220067,PAMO,2025-08-16T00:56:00Z,62.095,-163.686,12.2,6.7,260,6,,10+,30.14,1021,,TRUE,TRUE,,,,,,,BKN,2600,BKN,3200,,,,,MVFR,,,,,,,,,,,,METAR,93
PAMM 160056Z AUTO 03008KT 9SM -RA OVC060 17/14 A2940 RMK AO2 SLP947 P0001 T01670139 $,PAMM,2025-08-16T00:56:00Z,55.131,-131.578,16.7,13.9,30,8,,9,29.40,994.7,,TRUE,TRUE,TRUE,,,,,-RA,OVC,6000,,,,,,,VFR,,,,,,0.01,,,,,,METAR,
PAMH 160056Z AUTO 00000KT 10SM OVC041 10/05 A2997 RMK AO2 SLP147 T01000050 TSNO,PAMH,2025-08-16T00:56:00Z,63.889,-152.292,10,5,0,0,,10+,29.97,1014.7,,TRUE,TRUE,,,TRUE,,,,OVC,4100,,,,,,,VFR,,,,,,,,,,,,METAR,200
PAMD 160056Z AUTO 29009KT 10SM BKN100 17/13 A2956 RMK AO2 SLP011 T01670133 $,PAMD,2025-08-16T00:56:00Z,59.442,-146.317,16.7,13.3,290,9,,10+,29.56,1001.1,,TRUE,TRUE,TRUE,,,,,,BKN,10000,,,,,,,VFR,,,,,,,,,,,,METAR,20
PAMB 160056Z AUTO 33009KT 10SM SCT055 16/05 A3010 RMK AO2 SLP194 T01610050,PAMB,2025-08-16T00:56:00Z,58.986,-159.05,16.1,5,330,9,,10+,30.10,1019.4,,TRUE,TRUE,,,,,,,SCT,5500,,,,,,,VFR,,,,,,,,,,,,METAR,28
PALG 160056Z AUTO VRB06KT 10SM OVC032 13/07 A3012 RMK AO2 SLP202 T01280067,PALG,2025-08-16T00:56:00Z,61.538,-160.34,12.8,6.7,VRB,6,,10+,30.12,1020.2,,TRUE,TRUE,,,,,,,OVC,3200,,,,,,,VFR,,,,,,,,,,,,METAR,13
PAKP 160056Z AUTO 05010KT 10SM -RA BKN033 OVC041 02/00 A2993 RMK AO2 SLPNO P0000 T00220000 FZRANO,PAKP,2025-08-16T00:56:00Z,68.136,-151.74,2.2,0,50,10,,10+,29.93,,,TRUE,TRUE,,,,TRUE,,-RA,BKN,3300,OVC,4100,,,,,VFR,,,,,,0.005,,,,,,METAR,649
PAKK 160056Z AUTO 19010G17KT 10SM FEW031 13/08 A2998 RMK AO2 SLP162 T01280083,PAKK,2025-08-16T00:56:00Z,64.939,-161.156,12.8,8.3,190,10,17,10+,29.98,1016.2,,TRUE,TRUE,,,,,,,FEW,3100,,,,,,,VFR,,,,,,,,,,,,METAR,56
PAKI 160056Z AUTO 25011KT 10SM BKN022 11/07 A3020 RMK AO2 SLP226 T01110072,PAKI,2025-08-16T00:56:00Z,59.935,-164.033,11.1,7.2,250,11,,10+,30.20,1022.6,,TRUE,TRUE,,,,,,,BKN,2200,,,,,,,MVFR,,,,,,,,,,,,METAR,4
PAKH 160056Z AUTO 31029G41KT 10SM CLR 15/04 A2992 RMK AO2 PK WND 30049/0014 SLP130 T01500039 PNO $,PAKH,2025-08-16T00:56:00Z,56.94,-154.181,15,3.9,310,29,41,10+,29.92,1013,,TRUE,TRUE,TRUE,,,,,,CLR,,,,,,,,VFR,,,,,,,,,,,,METAR,15
PAIN 160056Z AUTO 36011G15KT 10SM SCT039 BKN049 OVC100 09/03 A2993 RMK AO2 RAB19E40 SLP150 P0000 T00890033 TSNO,PAIN,2025-08-16T00:56:00Z,63.733,-148.912,8.9,3.3,360,11,15,10+,29.93,1015,,TRUE,TRUE,,,TRUE,,,,SCT,3900,BKN,4900,OVC,10000,,,VFR,,,,,,0.005,,,,,,METAR,525
PAII 160056Z AUTO 31010G14KT 10SM CLR 15/08 A3013 RMK AO2 SLP199 T01500078,PAII,2025-08-16T00:56:00Z,58.186,-157.375,15,7.8,310,10,14,10+,30.13,1019.9,,TRUE,TRUE,,,,,,,CLR,,,,,,,,VFR,,,,,,,,,,,,METAR,31
PAIG 160056Z AUTO 30010G21KT 10SM SCT065 16/04 A3002 RMK AO2 SLP174 T01610044 PNO $,PAIG,2025-08-16T00:56:00Z,59.325,-155.897,16.1,4.4,300,10,21,10+,30.02,1017.4,,TRUE,TRUE,TRUE,,,,,,SCT,6500,,,,,,,VFR,,,,,,,,,,,,METAR,24
PAHY 160056Z AUTO 00000KT 6SM -RA OVC055 A2939 RMK AO2 SLPNO P0007 FZRANO $,PAHY,2025-08-16T00:56:00Z,55.202,-132.825,,,0,0,,6,29.39,,,TRUE,TRUE,TRUE,,,TRUE,,-RA,OVC,5500,,,,,,,VFR,,,,,,0.07,,,,,,METAR,
PAHL 160056Z AUTO 31007G14KT 10SM CLR 15/03 A2994 RMK AO2 SLP143 T01500033 TSNO,PAHL,2025-08-16T00:56:00Z,65.699,-156.353,15,3.3,310,7,14,10+,29.94,1014.3,,TRUE,TRUE,,,TRUE,,,,CLR,,,,,,,,VFR,,,,,,,,,,,,METAR,49
PAHC 160056Z AUTO 24011KT 10SM FEW031 SCT035 OVC049 12/07 A3009 RMK AO2 SLP191 T01220072,PAHC,2025-08-16T00:56:00Z,62.191,-159.773,12.2,7.2,240,11,,10+,30.09,1019.1,,TRUE,TRUE,,,,,,,FEW,3100,SCT,3500,OVC,4900,,,VFR,,,,,,,,,,,,METAR,21
PAGS 160056Z AUTO 25004KT 10SM CLR 18/13 A2949 RMK AO2 RAE36 SLP987 P0000 T01780128,PAGS,2025-08-16T00:56:00Z,58.425,-135.707,17.8,12.8,250,4,,10+,29.49,998.7,,TRUE,TRUE,,,,,,,CLR,,,,,,,,VFR,,,,,,0.005,,,,,,METAR,9
PAGH 160056Z AUTO 32013KT 10SM CLR 14/02 A2994 RMK AO2 SLP142 T01390017,PAGH,2025-08-16T00:56:00Z,66.886,-157.159,13.9,1.7,320,13,,10+,29.94,1014.2,,TRUE,TRUE,,,,,,,CLR,,,,,,,,VFR,,,,,,,,,,,,METAR,56
PAGA 160056Z AUTO 32008KT 10SM OVC065 15/04 A2998 RMK AO2 SLP153 T01500039 TSNO $,PAGA,2025-08-16T00:56:00Z,64.738,-156.92,15,3.9,320,8,,10+,29.98,1015.3,,TRUE,TRUE,TRUE,,TRUE,,,,OVC,6500,,,,,,,VFR,,,,,,,,,,,,METAR,39
PAFE 160056Z AUTO 00000KT 10SM FEW060 SCT075 OVC100 14/12 A2949 RMK AO2 SLP993 T01390122 $,PAFE,2025-08-16T00:56:00Z,56.961,-133.91,13.9,12.2,0,0,,10+,29.49,999.3,,TRUE,TRUE,TRUE,,,,,,FEW,6000,SCT,7500,OVC,10000,,,VFR,,,,,,,,,,,,METAR,1
PAEM 160056Z AUTO 27010KT 10SM OVC024 12/07 A3011 RMK AO2 SLP195 T01170072,PAEM,2025-08-16T00:56:00Z,62.785,-164.488,11.7,7.2,270,10,,10+,30.11,1019.5,,TRUE,TRUE,,,,,,,OVC,2400,,,,,,,MVFR,,,,,,,,,,,,METAR,2
PADU 160056Z 07012KT 10SM FEW034 SCT050 14/10 A3035 RMK AO2 SLP278 T01440100,PADU,2025-08-16T00:56:00Z,53.896,-166.543,14.4,10,70,12,,10+,30.35,1027.8,,,TRUE,,,,,,,FEW,3400,SCT,5000,,,,,VFR,,,,,,,,,,,,METAR,4
PADL 160056Z 34008KT 10SM BKN060 17/04 A3009 RMK AO2 SLP190 T01670044 $,PADL,2025-08-16T00:56:00Z,59.04,-158.507,16.7,4.4,340,8,,10+,30.09,1019,,,TRUE,TRUE,,,,,,BKN,6000,,,,,,,VFR,,,,,,,,,,,,METAR,20
PADK 160056Z AUTO 14013KT 9SM -RA FEW017 SCT027 OVC049 11/10 A3020 RMK AO2 SLP225 T01110100 PNO $,PADK,2025-08-16T00:56:00Z,51.881,-176.644,11.1,10,140,13,,9,30.20,1022.5,,TRUE,TRUE,TRUE,,,,,-RA,FEW,1700,SCT,2700,OVC,4900,,,VFR,,,,,,,,,,,,METAR,3
PABV 160056Z AUTO 18006KT 10SM -RA SCT050 OVC065 16/08 A2976 RMK AO2 RAB31 SLP077 P0000 T01560083,PABV,2025-08-16T00:56:00Z,61.416,-149.511,15.6,8.3,180,6,,10+,29.76,1007.7,,TRUE,TRUE,,,,,,-RA,SCT,5000,OVC,6500,,,,,VFR,,,,,,0.005,,,,,,METAR,21
PABL 160056Z AUTO 25006KT 10SM CLR 14/06 A3000 RMK AO2 SLP160 T01440056,PABL,2025-08-16T00:56:00Z,65.979,-161.146,14.4,5.6,250,6,,10+,30.00,1016,,TRUE,TRUE,,,,,,,CLR,,,,,,,,VFR,,,,,,,,,,,,METAR,7
KY50 160056Z AUTO 21005KT 10SM CLR 27/21 A3005 RMK AO2 SLP168 T02720211 $,KY50,2025-08-16T00:56:00Z,44.0435,-89.304,27.2,21.1,210,5,,10+,30.05,1016.8,,TRUE,TRUE,TRUE,,,,,,CLR,,,,,,,,VFR,,,,,,,,,,,,METAR,261
KWWD 160056Z AUTO 06007KT 10SM OVC013 25/23 A3014 RMK AO2 SLP207 T02500228,KWWD,2025-08-16T00:56:00Z,39.0108,-74.9079,25,22.8,60,7,,10+,30.14,1020.7,,TRUE,TRUE,,,,,,,OVC,1300,,,,,,,MVFR,,,,,,,,,,,,METAR,4
KWVL 160056Z AUTO 00000KT 10SM CLR 21/12 A3016 RMK AO2 SLP236 T02060122,KWVL,2025-08-16T00:56:00Z,44.5301,-69.6753,20.6,12.2,0,0,,10+,30.16,1023.6,,TRUE,TRUE,,,,,,,CLR,,,,,,,,VFR,,,,,,,,,,,,METAR,87
KWMC 160056Z AUTO VRB06G18KT 10SM CLR 33/M01 A2990 RMK AO2 LTG DSNT E SLP069 T03331006,KWMC,2025-08-16T00:56:00Z,40.9018,-117.808,33.3,-0.6,VRB,6,18,10+,29.90,1006.9,,TRUE,TRUE,,,,,,,CLR,,,,,,,,VFR,,,,,,,,,,,,METAR,1311
KWJF 160056Z 23019G31KT 10SM CLR 30/08 A2992 RMK AO2 PK WND 22031/0011 SLP110 T03000078,KWJF,2025-08-16T00:56:00Z,34.7412,-118.213,30,7.8,230,19,31,10+,29.92,1011,,,TRUE,,,,,,,CLR,,,,,,,,VFR,,,,,,,,,,,,METAR,712
KVPZ 160056Z AUTO 19003KT 10SM CLR 28/22 A3009 RMK AO2 SLP182 T02780217,KVPZ,2025-08-16T00:56:00Z,41.4535,-86.998,27.8,21.7,190,3,,10+,30.09,1018.2,,TRUE,TRUE,,,,,,,CLR,,,,,,,,VFR,,,,,,,,,,,,METAR,235
KVIS 160056Z AUTO 30010KT 10SM CLR 35/11 A2983 RMK AO2 SLP099 T03500106 $,KVIS,2025-08-16T00:56:00Z,36.3135,-119.388,35,10.6,300,10,,10+,29.83,1009.9,,TRUE,TRUE,TRUE,,,,,,CLR,,,,,,,,VFR,,,,,,,,,,,,METAR,92
KVBT 160056Z AUTO 21006KT 10SM CLR 31/23 A3009 RMK AO2 SLP176 T03060228,KVBT,2025-08-16T00:56:00Z,36.3444,-94.2211,30.6,22.8,210,6,,10+,30.09,1017.6,,TRUE,TRUE,,,,,,,CLR,,,,,,,,VFR,,,,,,,,,,,,METAR,390
KUKI 160056Z AUTO 01010G19KT 10SM CLR 28/14 A2990 RMK AO2 PK WND 34026/0000 SLP119 T02780139,KUKI,2025-08-16T00:56:00Z,39.1278,-123.2,27.8,13.9,10,10,19,10+,29.90,1011.9,,TRUE,TRUE,,,,,,,CLR,,,,,,,,VFR,,,,,,,,,,,,METAR,183
KUDG 160056Z AUTO 00000KT 10SM SCT050 26/26 A3007 RMK AO2 LTG DSNT SW SLP182 T02610261 PNO $,KUDG,2025-08-16T00:56:00Z,34.4474,-79.8902,26.1,26.1,0,0,,10+,30.07,1018.2,,TRUE,TRUE,TRUE,,,,,,SCT,5000,,,,,,,VFR,,,,,,,,,,,,METAR,57
KUCP 160056Z AUTO 07003KT 4SM HZ CLR 22/17 A3015 RMK AO2 SLP218 T02220172,KUCP,2025-08-16T00:56:00Z,41.0228,-80.4153,22.2,17.2,70,3,,4,30.15,1021.8,,TRUE,TRUE,,,,,,HZ,CLR,,,,,,,,MVFR,,,,,,,,,,,,METAR,313
KTVF 160056Z AUTO 00000KT 10SM CLR 22/13 A3002 RMK AO2 SLP166 T02170128 PNO $,KTVF,2025-08-16T00:56:00Z,48.0597,-96.1787,21.7,12.8,0,0,,10+,30.02,1016.6,,TRUE,TRUE,TRUE,,,,,,CLR,,,,,,,,VFR,,,,,,,,,,,,METAR,339
KTPH 160056Z AUTO 17012KT 10SM CLR 30/M07 A3004 RMK AO2 PK WND 18028/0001 SLP096 T03001072,KTPH,2025-08-16T00:56:00Z,38.0505,-117.091,30,-7.2,170,12,,10+,30.04,1009.6,,TRUE,TRUE,,,,,,,CLR,,,,,,,,VFR,,,,,,,,,,,,METAR,1647
KSXT 160056Z AUTO 00000KT 10SM FEW055 SCT075 19/13 A3009 RMK AO2 SLP151 T01940128,KSXT,2025-08-16T00:56:00Z,42.6,-123.366,19.4,12.8,0,0,,10+,30.09,1015.1,,TRUE,TRUE,,,,,,,FEW,5500,SCT,7500,,,,,VFR,,,,,,,,,,,,METAR,1151
KSRC 160056Z AUTO 20004KT 10SM CLR 31/23 A3006 RMK AO2 SLP174 T03110233,KSRC,2025-08-16T00:56:00Z,35.2134,-91.7393,31.1,23.3,200,4,,10+,30.06,1017.4,,TRUE,TRUE,,,,,,,CLR,,,,,,,,VFR,,,,,,,,,,,,METAR,80
KSPD 160056Z AUTO 19016G24KT 32/09 A3004 RMK AO1 PK WND 19026/0036 SLP101 T03220089,KSPD,2025-08-16T00:56:00Z,37.2834,-102.614,32.2,8.9,190,16,24,,30.04,1010.1,,TRUE,TRUE,,,,,,,,,,,,,,,,,,,,,,,,,,,METAR,1340
KSOP 160056Z AUTO 00000KT 10SM CLR 26/25 A3010 RMK AO2 SLP193 T02560250 $,KSOP,2025-08-16T00:56:00Z,35.2371,-79.3921,25.6,25,0,0,,10+,30.10,1019.3,,TRUE,TRUE,TRUE,,,,,,CLR,,,,,,,,VFR,,,,,,,,,,,,METAR,135
KSMN 160056Z AUTO 31010KT 9SM CLR 33/04 A2984 RMK AO2 SLP067 T03280044,KSMN,2025-08-16T00:56:00Z,45.1283,-113.883,32.8,4.4,310,10,,9,29.84,1006.7,,TRUE,TRUE,,,,,,,CLR,,,,,,,,VFR,,,,,,,,,,,,METAR,1228
KSLG 160056Z AUTO 14003KT 10SM CLR 29/23 A3008 RMK AO2 SLP171 T02940233,KSLG,2025-08-16T00:56:00Z,36.1941,-94.488,29.4,23.3,140,3,,10+,30.08,1017.1,,TRUE,TRUE,,,,,,,CLR,,,,,,,,VFR,,,,,,,,,,,,METAR,361
KSLE 160056Z 19010KT 10SM BKN038 BKN055 OVC075 23/17 A2991 RMK AO2 RAE05 SLP127 P0000 T02280167 $,KSLE,2025-08-16T00:56:00Z,44.9049,-123.001,22.8,16.7,190,10,,10+,29.91,1012.7,,,TRUE,TRUE,,,,,,BKN,3800,BKN,5500,OVC,7500,,,VFR,,,,,,0.005,,,,,,METAR,63
KSHV 160056Z 13008KT 10SM FEW060 FEW140 SCT250 34/22 A3005 RMK OCNL LTG DSNT SE CB DSNT SE SLPNO,KSHV,2025-08-16T00:56:00Z,32.4473,-93.8244,34,22,130,8,,10+,30.05,,,,,,,,,,,FEW,6000,FEW,14000,SCT,25000,,,VFR,,,,,,,,,,,,METAR,70
KSGT 160056Z AUTO 22010KT 10SM CLR 29/23 A3007 RMK AO2 SLP181 T02940228,KSGT,2025-08-16T00:56:00Z,34.5998,-91.5763,29.4,22.8,220,10,,10+,30.07,1018.1,,TRUE,TRUE,,,,,,,CLR,,,,,,,,VFR,,,,,,,,,,,,METAR,67
KSGJ 160056Z AUTO 00000KT 10SM CLR 29/26 A3008 RMK AO2 SLP185 T02890256 $,KSGJ,2025-08-16T00:56:00Z,29.9592,-81.341,28.9,25.6,0,0,,10+,30.08,1018.5,,TRUE,TRUE,TRUE,,,,,,CLR,,,,,,,,VFR,,,,,,,,,,,,METAR,2
KSGH 160056Z AUTO 00000KT 10SM CLR 26/23 A3014 RMK AO2 SLP199 T02560233,KSGH,2025-08-16T00:56:00Z,39.8358,-83.8443,25.6,23.3,0,0,,10+,30.14,1019.9,,TRUE,TRUE,,,,,,,CLR,,,,,,,,VFR,,,,,,,,,,,,METAR,318
KSFZ 160056Z AUTO 00000KT 10SM CLR 17/16 A3022 RMK AO2 SLP229 T01720161 $,KSFZ,2025-08-16T00:56:00Z,41.9168,-71.4924,17.2,16.1,0,0,,10+,30.22,1022.9,,TRUE,TRUE,TRUE,,,,,,CLR,,,,,,,,VFR,,,,,,,,,,,,METAR,129
KSFO 160056Z 27032G46KT 10SM FEW005 20/14 A2989 RMK AO2 PK WND 27046/0056 SLP120 T02000144,KSFO,2025-08-16T00:56:00Z,37.6196,-122.366,20,14.4,270,32,46,10+,29.89,1012,,,TRUE,,,,,,,FEW,500,,,,,,,VFR,,,,,,,,,,,,METAR,2
KSFM 160056Z AUTO 00000KT 10SM CLR 16/13 A3020 RMK AO2 SLP230 T01610133,KSFM,2025-08-16T00:56:00Z,43.3876,-70.7154,16.1,13.3,0,0,,10+,30.20,1023,,TRUE,TRUE,,,,,,,CLR,,,,,,,,VFR,,,,,,,,,,,,METAR,70
KSDY 160056Z AUTO 09010KT 7SM CLR 25/14 A2994 RMK AO2 SLP133 T02500144,KSDY,2025-08-16T00:56:00Z,47.7029,-104.195,25,14.4,90,10,,7,29.94,1013.3,,TRUE,TRUE,,,,,,,CLR,,,,,,,,VFR,,,,,,,,,,,,METAR,600
KSDF 160056Z 10007KT 10SM FEW060 FEW300 30/23 A3009 RMK AO2 SLP183 T03000228,KSDF,2025-08-16T00:56:00Z,38.1774,-85.7308,30,22.8,100,7,,10+,30.09,1018.3,,,TRUE,,,,,,,FEW,6000,FEW,30000,,,,,VFR,,,,,,,,,,,,METAR,146
KSBP 160056Z AUTO 31009KT 10SM FU CLR 20/13 A2996 RMK AO2 SLP143 T02000133,KSBP,2025-08-16T00:56:00Z,35.2382,-120.644,20,13.3,310,9,,10+,29.96,1014.3,,TRUE,TRUE,,,,,,FU,CLR,,,,,,,,VFR,,,,,,,,,,,,METAR,52
KRUT 160056Z AUTO 16006KT 10SM CLR 21/13 A3019 RMK AO2 SLP215 T02060133 $,KRUT,2025-08-16T00:56:00Z,43.53,-72.9517,20.6,13.3,160,6,,10+,30.19,1021.5,,TRUE,TRUE,TRUE,,,,,,CLR,,,,,,,,VFR,,,,,,,,,,,,METAR,238
KRKD 160056Z AUTO 27004KT 10SM CLR 18/12 A3019 RMK AO2 SLP224 T01780122 $,KRKD,2025-08-16T00:56:00Z,44.0611,-69.1014,17.8,12.2,270,4,,10+,30.19,1022.4,,TRUE,TRUE,TRUE,,,,,,CLR,,,,,,,,VFR,,,,,,,,,,,,METAR,15
KRDM 160056Z 32015G21KT 10SM CLR 25/12 A2997 RMK AO2 SLP127 T02500117,KRDM,2025-08-16T00:56:00Z,44.2558,-121.141,25,11.7,320,15,21,10+,29.97,1012.7,,,TRUE,,,,,,,CLR,,,,,,,,VFR,,,,,,,,,,,,METAR,930
KPWT 160056Z AUTO 20011KT 4SM RA BR OVC005 18/18 A2982 RMK AO2 SLP099 P0000 T01830183,KPWT,2025-08-16T00:56:00Z,47.4942,-122.759,18.3,18.3,200,11,,4,29.82,1009.9,,TRUE,TRUE,,,,,,RA BR,OVC,500,,,,,,,IFR,,,,,,0.005,,,,,,METAR,143
KPWG 160056Z AUTO 13013KT 10SM CLR 32/22 A3002 RMK AO2 SLP158 T03220222,KPWG,2025-08-16T00:56:00Z,31.4891,-97.3202,32.2,22.2,130,13,,10+,30.02,1015.8,,TRUE,TRUE,,,,,,,CLR,,,,,,,,VFR,,,,,,,,,,,,METAR,178
KPVU 160056Z 14012KT 10SM CLR 29/09 A2999 RMK AO2 SLP092 T02940094 $,KPVU,2025-08-16T00:56:00Z,40.224,-111.725,29.4,9.4,140,12,,10+,29.99,1009.2,,,TRUE,TRUE,,,,,,CLR,,,,,,,,VFR,,,,,,,,,,,,METAR,1370
KPVC 160056Z AUTO 00000KT 10SM CLR 17/16 A3021 RMK AO2 SLP229 T01670161,KPVC,2025-08-16T00:56:00Z,42.0743,-70.2183,16.7,16.1,0,0,,10+,30.21,1022.9,,TRUE,TRUE,,,,,,,CLR,,,,,,,,VFR,,,,,,,,,,,,METAR,1
KPTV 160056Z AUTO 30009KT 10SM CLR 36/13 A2984 RMK AO2 SLP100 T03560128 $,KPTV,2025-08-16T00:56:00Z,36.0274,-119.063,35.6,12.8,300,9,,10+,29.84,1010,,TRUE,TRUE,TRUE,,,,,,CLR,,,,,,,,VFR,,,,,,,,,,,,METAR,132
KPRX 160056Z AUTO 18004KT 10SM CLR 32/22 A3003 RMK AO2 SLP163 T03220217,KPRX,2025-08-16T00:56:00Z,33.6359,-95.4514,32.2,21.7,180,4,,10+,30.03,1016.3,,TRUE,TRUE,,,,,,,CLR,,,,,,,,VFR,,,,,,,,,,,,METAR,165
KPQI 160056Z AUTO 00000KT 10SM CLR 16/12 A3020 RMK AO2 SLP253 T01560117,KPQI,2025-08-16T00:56:00Z,46.697,-68.054,15.6,11.7,0,0,,10+,30.20,1025.3,,TRUE,TRUE,,,,,,,CLR,,,,,,,,VFR,,,,,,,,,,,,METAR,154
KPIB 160056Z AUTO 00000KT 10SM CLR 27/24 A3012 RMK AO2 SLP196 T02670239 PNO $,KPIB,2025-08-16T00:56:00Z,31.4727,-89.3383,26.7,23.9,0,0,,10+,30.12,1019.6,,TRUE,TRUE,TRUE,,,,,,CLR,,,,,,,,VFR,,,,,,,,,,,,METAR,91
KP60 160056Z AUTO 00000KT 23/01 A3025 RMK AO1 SLP164 T02280011,KP60,2025-08-16T00:56:00Z,44.5448,-110.422,22.8,1.1,0,0,,,30.25,1016.4,,TRUE,TRUE,,,,,,,,,,,,,,,,,,,,,,,,,,,METAR,2377
KP53 160056Z AUTO 11008KT 20/19 A3001 RMK AO1 PK WND 31032/0027 SLP160 P0046 T02000189 $,KP53,2025-08-16T00:56:00Z,46.412,-86.6504,20,18.9,110,8,,,30.01,1016,,TRUE,TRUE,TRUE,,,,,,,,,,,,,,,,,,,,0.46,,,,,,METAR,185
KP28 160056Z AUTO 15007KT 36/20 A2994 RMK AO1 SLP119 T03560200 $,KP28,2025-08-16T00:56:00Z,37.2664,-98.5463,35.6,20,150,7,,,29.94,1011.9,,TRUE,TRUE,TRUE,,,,,,,,,,,,,,,,,,,,,,,,,,METAR,469
KOXC 160056Z 15008KT 10SM OVC060 23/23 A3020 RMK AO2 SLP233 T02330233 $,KOXC,2025-08-16T00:56:00Z,41.4741,-73.1353,23.3,23.3,150,8,,10+,30.20,1023.3,,,TRUE,TRUE,,,,,,OVC,6000,,,,,,,VFR,,,,,,,,,,,,METAR,211
KOWB 160056Z 04003KT 10SM CLR 31/22 A3008 RMK AO2 SLP182 T03110217,KOWB,2025-08-16T00:56:00Z,37.7297,-87.1683,31.1,21.7,40,3,,10+,30.08,1018.2,,,TRUE,,,,,,,CLR,,,,,,,,VFR,,,,,,,,,,,,METAR,121
KOTG 160056Z AUTO 13004KT 10SM CLR 27/26 A2997 RMK AO2 SLP140 T02670261,KOTG,2025-08-16T00:56:00Z,43.6525,-95.5759,26.7,26.1,130,4,,10+,29.97,1014,,TRUE,TRUE,,,,,,,CLR,,,,,,,,VFR,,,,,,,,,,,,METAR,478
KOLU 160056Z AUTO 14008KT 10SM CLR 31/26 A2993 RMK AO2 SLP123 T03060256,KOLU,2025-08-16T00:56:00Z,41.4472,-97.3391,30.6,25.6,140,8,,10+,29.93,1012.3,,TRUE,TRUE,,,,,,,CLR,,,,,,,,VFR,,,,,,,,,,,,METAR,438
KOKK 160056Z AUTO 00000KT 10SM CLR 26/24 A3012 RMK AO2 SLP193 T02610239 $,KOKK,2025-08-16T00:56:00Z,40.5304,-86.055,26.1,23.9,0,0,,10+,30.12,1019.3,,TRUE,TRUE,TRUE,,,,,,CLR,,,,,,,,VFR,,,,,,,,,,,,METAR,251
KOFK 160056Z AUTO 09004KT 10SM CLR 29/26 A2993 RMK AO2 SLP120 T02890261,KOFK,2025-08-16T00:56:00Z,41.9799,-97.4335,28.9,26.1,90,4,,10+,29.93,1012,,TRUE,TRUE,,,,,,,CLR,,,,,,,,VFR,,,,,,,,,,,,METAR,476
KOCH 160056Z AUTO 14005KT 10SM CLR 32/24 A3005 RMK AO2 LTG DSNT S SLP176 T03170244,KOCH,2025-08-16T00:56:00Z,31.5809,-94.7081,31.7,24.4,140,5,,10+,30.05,1017.6,,TRUE,TRUE,,,,,,,CLR,,,,,,,,VFR,,,,,,,,,,,,METAR,105
KOAJ 160056Z 00000KT 10SM CLR 26/25 A3006 RMK AO2 SLP182 T02610250 $,KOAJ,2025-08-16T00:56:00Z,34.8251,-77.6189,26.1,25,0,0,,10+,30.06,1018.2,,,TRUE,TRUE,,,,,,CLR,,,,,,,,VFR,,,,,,,,,,,,METAR,26
KNYG 160056Z AUTO 11005KT 7SM CLR 28/24 A3010 RMK AO2 SLP195 T02830244,KNYG,2025-08-16T00:56:00Z,38.503,-77.301,28.3,24.4,110,5,,7,30.10,1019.5,,TRUE,TRUE,,,,,,,CLR,,,,,,,,VFR,,,,,,,,,,,,METAR,2
KNTU 160056Z 08006KT 10SM FEW012 SCT020 SCT250 26/24 A3007 RMK AO2 SLP186 T02560239,KNTU,2025-08-16T00:56:00Z,36.8209,-76.0277,25.6,23.9,80,6,,10+,30.07,1018.6,,,TRUE,,,,,,,FEW,1200,SCT,2000,SCT,25000,,,VFR,,,,,,,,,,,,METAR,6
KNSE 160056Z 20005KT 10SM FEW035CB SCT060 BKN110 BKN250 24/23 A3013 RMK AO2 RAB04E49 TSE56 SLP189 T1 SET P0007 T02390228 $,KNSE,2025-08-16T00:56:00Z,30.728,-87.022,23.9,22.8,200,5,,10+,30.13,1018.9,,,TRUE,TRUE,,,,,,FEW,3500,SCT,6000,BKN,11000,BKN,25000,VFR,,,,,,0.07,,,,,,METAR,56
KNQI 160056Z AUTO 15011G19KT 10SM FEW070 28/23 A2996 RMK AO2 RAB12E22 SLP143 P0000 T02830233 TSNO $,KNQI,2025-08-16T00:56:00Z,27.507,-97.81,28.3,23.3,150,11,19,10+,29.96,1014.3,,TRUE,TRUE,TRUE,,TRUE,,,,FEW,7000,,,,,,,VFR,,,,,,0.005,,,,,,METAR,15
KNPA 160056Z 06010KT 10SM BKN033 BKN090 BKN250 26/22 A3012 RMK AO2 PK WND 01028/0019 SLP200 FRQ LTGICCG DSNT N-E CB DSNT N-E T1 SET T02610222 $,KNPA,2025-08-16T00:56:00Z,30.356,-87.323,26.1,22.2,60,10,,10+,30.12,1020,,,TRUE,TRUE,,,,,,BKN,3300,BKN,9000,BKN,25000,,,VFR,,,,,,,,,,,,METAR,6
KNLC 160056Z 36010KT 10SM FEW070 FEW180 37/10 A2982 RMK AO2 SLP095 RH/19 T03670100 $,KNLC,2025-08-16T00:56:00Z,36.3024,-119.94,36.7,10,360,10,,10+,29.82,1009.5,,,TRUE,TRUE,,,,,,FEW,7000,FEW,18000,,,,,VFR,,,,,,,,,,,,METAR,69
KNJK 160056Z 13011KT 10SM CLR 40/16 A2972 RMK AO2 SLP079 T04000161 $,KNJK,2025-08-16T00:56:00Z,32.823,-115.668,40,16.1,130,11,,10+,29.72,1007.9,,,TRUE,TRUE,,,,,,CLR,,,,,,,,VFR,,,,,,,,,,,,METAR,-15
KNID 160056Z AUTO 10SM CLR 37/M01 A2986 RMK AO2 SLP089 T03721011 $,KNID,2025-08-16T00:56:00Z,35.688,-117.69,37.2,-1.1,,,,10+,29.86,1008.9,,TRUE,TRUE,TRUE,,,,,,CLR,,,,,,,,VFR,,,,,,,,,,,,METAR,682
KNGP 160056Z AUTO 15012KT 10SM CLR 28/23 A2997 RMK AO2 SLP149 T02780233,KNGP,2025-08-16T00:56:00Z,27.688,-97.292,27.8,23.3,150,12,,10+,29.97,1014.9,,TRUE,TRUE,,,,,,,CLR,,,,,,,,VFR,,,,,,,,,,,,METAR,5
KNCA 160056Z AUTO 35005KT 10SM RMK AO2 SLPNO $,KNCA,2025-08-16T00:56:00Z,34.7062,-77.4406,,,350,5,,10+,0.00,,,TRUE,TRUE,TRUE,,,,,,,,,,,,,,VFR,,,,,,,,,,,,METAR,9
KNBC 160056Z 00000KT 10SM RA CLR 25/24 A3006 RMK AO2 SLP180 P0000 T02500239,KNBC,2025-08-16T00:56:00Z,32.477,-80.722,25,23.9,0,0,,10+,30.06,1018,,,TRUE,,,,,,RA,CLR,,,,,,,,VFR,,,,,,0.005,,,,,,METAR,9
KMVN 160056Z AUTO 00000KT 10SM CLR 29/24 A3007 RMK AO2 SLP182 T02940239 $,KMVN,2025-08-16T00:56:00Z,38.3284,-88.853,29.4,23.9,0,0,,10+,30.07,1018.2,,TRUE,TRUE,TRUE,,,,,,CLR,,,,,,,,VFR,,,,,,,,,,,,METAR,145
KMTW 160056Z AUTO 18008KT 10SM CLR 23/21 A3006 RMK AO2 SLP177 T02330206,KMTW,2025-08-16T00:56:00Z,44.1322,-87.6819,23.3,20.6,180,8,,10+,30.06,1017.7,,TRUE,TRUE,,,,,,,CLR,,,,,,,,VFR,,,,,,,,,,,,METAR,197
KMTC 160056Z 13004KT 10SM FEW250 24/18 A3007 RMK AO2A SLP184 T02380175 $,KMTC,2025-08-16T00:56:00Z,42.6045,-82.8353,23.8,17.5,130,4,,10+,30.07,1018.4,,,TRUE,TRUE,,,,,,FEW,25000,,,,,,,VFR,,,,,,,,,,,,METAR,177
KMQY 160056Z 00000KT 10SM CLR 28/25 A3010 RMK AO2 SLP194 T02830250,KMQY,2025-08-16T00:56:00Z,36.0029,-86.5144,28.3,25,0,0,,10+,30.10,1019.4,,,TRUE,,,,,,,CLR,,,,,,,,VFR,,,,,,,,,,,,METAR,156
KMOB 160056Z 00000KT 10SM SCT035CB SCT050 BKN200 27/25 A3012 RMK AO2 SLP194 FRQ LTGICCGCC N-E TS N-E MOV NE T02720250,KMOB,2025-08-16T00:56:00Z,30.6882,-88.2459,27.2,25,0,0,,10+,30.12,1019.4,,,TRUE,,,,,,,SCT,3500,SCT,5000,BKN,20000,,,VFR,,,,,,,,,,,,METAR,67
KMML 160056Z AUTO 14004KT 10SM CLR 28/24 A2995 RMK AO2 SLP134 T02830239,KMML,2025-08-16T00:56:00Z,44.4504,-95.8215,28.3,23.9,140,4,,10+,29.95,1013.4,,TRUE,TRUE,,,,,,,CLR,,,,,,,,VFR,,,,,,,,,,,,METAR,358
KMKT 160056Z AUTO 13007KT 10SM BKN043 26/23 A3000 RMK AO2 LTG DSNT E TSB21E51 SLP155 T02610233,KMKT,2025-08-16T00:56:00Z,44.2184,-93.9179,26.1,23.3,130,7,,10+,30.00,1015.5,,TRUE,TRUE,,,,,,,BKN,4300,,,,,,,VFR,,,,,,,,,,,,METAR,309
KMJX 160056Z AUTO 00000KT 10SM CLR 23/22 A3016 RMK AO2 SLP217 T02280217 $,KMJX,2025-08-16T00:56:00Z,39.9235,-74.297,22.8,21.7,0,0,,10+,30.16,1021.7,,TRUE,TRUE,TRUE,,,,,,CLR,,,,,,,,VFR,,,,,,,,,,,,METAR,22
KMHS 160056Z AUTO 10SM FEW100 26/09 A2997 RMK AO2 SLP136 T02610089,KMHS,2025-08-16T00:56:00Z,41.3149,-122.317,26.1,8.9,,,,10+,29.97,1013.6,,TRUE,TRUE,,,,,,,FEW,10000,,,,,,,VFR,,,,,,,,,,,,METAR,1080
KMDT 160056Z 00000KT 10SM BKN095 BKN110 28/23 A3011 RMK AO2 SLP194 T02830228,KMDT,2025-08-16T00:56:00Z,40.1962,-76.7725,28.3,22.8,0,0,,10+,30.11,1019.4,,,TRUE,,,,,,,BKN,9500,BKN,11000,,,,,VFR,,,,,,,,,,,,METAR,91
KMBL 160056Z AUTO 00000KT 10SM CLR 23/18 A3007 RMK AO2 SLP180 T02280183,KMBL,2025-08-16T00:56:00Z,44.2714,-86.2377,22.8,18.3,0,0,,10+,30.07,1018,,TRUE,TRUE,,,,,,,CLR,,,,,,,,VFR,,,,,,,,,,,,METAR,187
KM19 160056Z AUTO 15004KT 10SM CLR 30/23 A3005 RMK AO2 SLP188 T03000233 $,KM19,2025-08-16T00:56:00Z,35.643,-91.1735,30,23.3,150,4,,10+,30.05,1018.8,,TRUE,TRUE,TRUE,,,,,,CLR,,,,,,,,VFR,,,,,,,,,,,,METAR,72
KLWS 160056Z 35008KT 10SM CLR 31/11 A2982 RMK AO2 SLP089 T03060106 $,KLWS,2025-08-16T00:56:00Z,46.3746,-117.015,30.6,10.6,350,8,,10+,29.82,1008.9,,,TRUE,TRUE,,,,,,CLR,,,,,,,,VFR,,,,,,,,,,,,METAR,435
KLRD 160056Z 13015KT 10SM CLR 32/22 A2993 RMK AO2 SLP130 T03220222 $,KLRD,2025-08-16T00:56:00Z,27.551,-99.4614,32.2,22.2,130,15,,10+,29.93,1013,,,TRUE,TRUE,,,,,,CLR,,,,,,,,VFR,,,,,,,,,,,,METAR,150
KLNR 160056Z AUTO 34003KT 10SM -RA FEW070 SCT095 SCT110 26/23 A3005 RMK AO2 RAB29 PRESRR SLP168 P0001 T02560233,KLNR,2025-08-16T00:56:00Z,43.2111,-90.1874,25.6,23.3,340,3,,10+,30.05,1016.8,,TRUE,TRUE,,,,,,-RA,FEW,7000,SCT,9500,SCT,11000,,,VFR,,,,,,0.01,,,,,,METAR,218
KLEW 160056Z AUTO 15004KT 10SM CLR 21/14 A3019 RMK AO2 SLP227 T02060139 PNO $,KLEW,2025-08-16T00:56:00Z,44.0444,-70.2853,20.6,13.9,150,4,,10+,30.19,1022.7,,TRUE,TRUE,TRUE,,,,,,CLR,,,,,,,,VFR,,,,,,,,,,,,METAR,81
KLCI 160056Z AUTO 19008KT 10SM CLR 23/12 A3019 RMK AO2 SLP223 T02280117 PNO $,KLCI,2025-08-16T00:56:00Z,43.5718,-71.4254,22.8,11.7,190,8,,10+,30.19,1022.3,,TRUE,TRUE,TRUE,,,,,,CLR,,,,,,,,VFR,,,,,,,,,,,,METAR,166
KLBT 160056Z AUTO 00000KT 10SM CLR 27/24 A3006 RMK AO2 SLP178 T02670244,KLBT,2025-08-16T00:56:00Z,34.6082,-79.059,26.7,24.4,0,0,,10+,30.06,1017.8,,TRUE,TRUE,,,,,,,CLR,,,,,,,,VFR,,,,,,,,,,,,METAR,37
KLBL 160056Z AUTO 18015G23KT 10SM CLR 33/17 A2999 RMK AO2 PK WND 18028/0041 SLP117 T03330167 PNO $,KLBL,2025-08-16T00:56:00Z,37.0375,-100.957,33.3,16.7,180,15,23,10+,29.99,1011.7,,TRUE,TRUE,TRUE,,,,,,CLR,,,,,,,,VFR,,,,,,,,,,,,METAR,877
KLAS 160056Z 20010G22KT 10SM FEW140 SCT200 37/08 A2983 RMK AO2 LTG DSNT NW SLP070 T03720078,KLAS,2025-08-16T00:56:00Z,36.0719,-115.163,37.2,7.8,200,10,22,10+,29.83,1007,,,TRUE,,,,,,,FEW,14000,SCT,20000,,,,,VFR,,,,,,,,,,,,METAR,662
KKLS 160056Z AUTO 16009KT 10SM SCT045 BKN050 OVC065 22/18 A2987 RMK AO2 SLP120 T02170178,KKLS,2025-08-16T00:56:00Z,46.118,-122.898,21.7,17.8,160,9,,10+,29.87,1012,,TRUE,TRUE,,,,,,,SCT,4500,BKN,5000,OVC,6500,,,VFR,,,,,,,,,,,,METAR,4
KJXN 160056Z 00000KT 10SM CLR 23/19 A3012 RMK AO2 SLP194 T02280194,KJXN,2025-08-16T00:56:00Z,42.259,-84.4589,22.8,19.4,0,0,,10+,30.12,1019.4,,,TRUE,,,,,,,CLR,,,,,,,,VFR,,,,,,,,,,,,METAR,303
KJRB 160056Z AUTO 15003KT 10SM CLR 26/23 A3017 RMK AO2 SLP213 T02560228,KJRB,2025-08-16T00:56:00Z,40.701,-74.009,25.6,22.8,150,3,,10+,30.17,1021.3,,TRUE,TRUE,,,,,,,CLR,,,,,,,,VFR,,,,,,,,,,,,METAR,2
KJMS 160056Z AUTO 07004KT 10SM CLR 21/14 A3001 RMK AO2 SLP158 T02110144,KJMS,2025-08-16T00:56:00Z,46.9259,-98.6704,21.1,14.4,70,4,,10+,30.01,1015.8,,TRUE,TRUE,,,,,,,CLR,,,,,,,,VFR,,,,,,,,,,,,METAR,455
KJHW 160056Z AUTO 33003KT 10SM CLR 22/15 A3019 RMK AO2 SLP219 T02220150 $,KJHW,2025-08-16T00:56:00Z,42.1534,-79.2542,22.2,15,330,3,,10+,30.19,1021.9,,TRUE,TRUE,TRUE,,,,,,CLR,,,,,,,,VFR,,,,,,,,,,,,METAR,520
KJAX 160056Z 00000KT 10SM FEW035 SCT250 27/24 A3006 RMK AO2 SLP179 FRQ LTGIC DSNT SW CB DSNT SW T02720244 $,KJAX,2025-08-16T00:56:00Z,30.4953,-81.6937,27.2,24.4,0,0,,10+,30.06,1017.9,,,TRUE,TRUE,,,,,,FEW,3500,SCT,25000,,,,,VFR,,,,,,,,,,,,METAR,8
KJAC 160056Z 18010KT 10SM OVC110 23/03 A3018 RMK AO2 SLPNO T02330028,KJAC,2025-08-16T00:56:00Z,43.6129,-110.737,23.3,2.8,180,10,,10+,30.18,,,,TRUE,,,,,,,OVC,11000,,,,,,,VFR,,,,,,,,,,,,METAR,1967
KIWD 160056Z AUTO 22003KT 10SM CLR 26/22 A3000 RMK AO2 SLP152 T02560222,KIWD,2025-08-16T00:56:00Z,46.5321,-90.126,25.6,22.2,220,3,,10+,30.00,1015.2,,TRUE,TRUE,,,,,,,CLR,,,,,,,,VFR,,,,,,,,,,,,METAR,373
KITH 160056Z 07004KT 10SM CLR 21/15 A3018 RMK AO2 SLP213 T02110150,KITH,2025-08-16T00:56:00Z,42.4931,-76.4569,21.1,15,70,4,,10+,30.18,1021.3,,,TRUE,,,,,,,CLR,,,,,,,,VFR,,,,,,,,,,,,METAR,338
KISP 160056Z 15005KT 10SM FEW009 24/22 A3017 RMK AO2 SLP213 T02390217 $,KISP,2025-08-16T00:56:00Z,40.7939,-73.1018,23.9,21.7,150,5,,10+,30.17,1021.3,,,TRUE,TRUE,,,,,,FEW,900,,,,,,,VFR,,,,,,,,,,,,METAR,25
KISO 160056Z 00000KT 10SM CLR 26/23 A3008,KISO,2025-08-16T00:56:00Z,35.324,-77.6187,26,23,0,0,,10+,30.08,,,,,,,,,,,CLR,,,,,,,,VFR,,,,,,,,,,,,METAR,27
KISM 160056Z 00000KT 10SM CLR 29/26 A3008 RMK AO2 LTG DSNT SW AND W SLP184 T02890256 $,KISM,2025-08-16T00:56:00Z,28.2924,-81.4371,28.9,25.6,0,0,,10+,30.08,1018.4,,,TRUE,TRUE,,,,,,CLR,,,,,,,,VFR,,,,,,,,,,,,METAR,25
KINW 160056Z AUTO 36003KT 10SM CLR 28/08 A3016 RMK AO2 SLP135 T02830083,KINW,2025-08-16T00:56:00Z,35.028,-110.722,28.3,8.3,360,3,,10+,30.16,1013.5,,TRUE,TRUE,,,,,,,CLR,,,,,,,,VFR,,,,,,,,,,,,METAR,1492
KILE 160056Z AUTO 15014KT CLR 31/20 A3003 RMK AO2 SLP157 T03110200 PWINO,KILE,2025-08-16T00:56:00Z,31.084,-97.6885,31.1,20,150,14,,,30.03,1015.7,,TRUE,TRUE,,,,,TRUE,,CLR,,,,,,,,,,,,,,,,,,,,METAR,256
KHYS 160056Z AUTO 16016KT 10SM CLR 34/18 A2993 RMK AO2 SLP115 T03390183 $,KHYS,2025-08-16T00:56:00Z,38.8392,-99.2742,33.9,18.3,160,16,,10+,29.93,1011.5,,TRUE,TRUE,TRUE,,,,,,CLR,,,,,,,,VFR,,,,,,,,,,,,METAR,607
KHYI 160056Z 13013KT 10SM CLR 31/22 A3002 RMK AO2 SLP156 T03110222,KHYI,2025-08-16T00:56:00Z,29.8958,-97.8664,31.1,22.2,130,13,,10+,30.02,1015.6,,,TRUE,,,,,,,CLR,,,,,,,,VFR,,,,,,,,,,,,METAR,180
KHYA 160056Z 05003KT 10SM CLR 19/17 A3018 RMK AO2 SLP221 T01890167,KHYA,2025-08-16T00:56:00Z,41.6719,-70.2697,18.9,16.7,50,3,,10+,30.18,1022.1,,,TRUE,,,,,,,CLR,,,,,,,,VFR,,,,,,,,,,,,METAR,11
KHWV 160056Z AUTO 00000KT 8SM CLR 22/21 A3017 RMK AO2 SLP216 T02220206,KHWV,2025-08-16T00:56:00Z,40.8212,-72.8674,22.2,20.6,0,0,,8,30.17,1021.6,,TRUE,TRUE,,,,,,,CLR,,,,,,,,VFR,,,,,,,,,,,,METAR,20
KHPN 160056Z 16004KT 10SM CLR 23/19 A3017 RMK AO2 SLP209 T02330189,KHPN,2025-08-16T00:56:00Z,41.0624,-73.7046,23.3,18.9,160,4,,10+,30.17,1020.9,,,TRUE,,,,,,,CLR,,,,,,,,VFR,,,,,,,,,,,,METAR,113
KHND 160056Z 20013G21KT 10SM SCT110 37/08 A2986 RMK AO2 LTG DSNT NW SLP095 T03720083 $,KHND,2025-08-16T00:56:00Z,35.9658,-115.134,37.2,8.3,200,13,21,10+,29.86,1009.5,,,TRUE,TRUE,,,,,,SCT,11000,,,,,,,VFR,,,,,,,,,,,,METAR,740
KHNB 160056Z AUTO 00000KT 10SM CLR 27/26 A3009 RMK AO2 SLP184 T02670261,KHNB,2025-08-16T00:56:00Z,38.2505,-86.9473,26.7,26.1,0,0,,10+,30.09,1018.4,,TRUE,TRUE,,,,,,,CLR,,,,,,,,VFR,,,,,,,,,,,,METAR,159
KHEZ 160056Z AUTO 00000KT 10SM CLR 25/22 A3009 RMK AO2 SLP187 T02500222 $,KHEZ,2025-08-16T00:56:00Z,31.6159,-91.2973,25,22.2,0,0,,10+,30.09,1018.7,,TRUE,TRUE,TRUE,,,,,,CLR,,,,,,,,VFR,,,,,,,,,,,,METAR,82
KHEF 160056Z AUTO 11005KT 10SM CLR 28/23 A3011 RMK AO2 SLP200 T02780228,KHEF,2025-08-16T00:56:00Z,38.724,-77.5175,27.8,22.8,110,5,,10+,30.11,1020,,TRUE,TRUE,,,,,,,CLR,,,,,,,,VFR,,,,,,,,,,,,METAR,53
KGXY 160056Z AUTO 11005KT 10SM CLR 28/11 A3002 RMK AO2 SLP125 T02830106 $,KGXY,2025-08-16T00:56:00Z,40.4345,-104.63,28.3,10.6,110,5,,10+,30.02,1012.5,,TRUE,TRUE,TRUE,,,,,,CLR,,,,,,,,VFR,,,,,,,,,,,,METAR,1420
KGVQ 160056Z AUTO 09006KT 10SM SCT070 22/13 A3015 RMK AO2 SLP205 T02220133,KGVQ,2025-08-16T00:56:00Z,43.0298,-78.1665,22.2,13.3,90,6,,10+,30.15,1020.5,,TRUE,TRUE,,,,,,,SCT,7000,,,,,,,VFR,,,,,,,,,,,,METAR,279
KGUC 160056Z AUTO 21008KT 10SM SCT095 BKN110 19/09 A3032 RMK AO2 SLP200 T01890089 $,KGUC,2025-08-16T00:56:00Z,38.5322,-106.942,18.9,8.9,210,8,,10+,30.32,1020,,TRUE,TRUE,TRUE,,,,,,SCT,9500,BKN,11000,,,,,VFR,,,,,,,,,,,,METAR,2337
KGTU 160056Z 14007KT 10SM CLR 31/21 A3003 RMK AO2 SLP162 T03110206,KGTU,2025-08-16T00:56:00Z,30.6809,-97.6767,31.1,20.6,140,7,,10+,30.03,1016.2,,,TRUE,,,,,,,CLR,,,,,,,,VFR,,,,,,,,,,,,METAR,232
KGTR 160056Z 21006KT 10SM BKN047 28/25 A3011 RMK AO2 SLP196 T02830250,KGTR,2025-08-16T00:56:00Z,33.456,-88.593,28.3,25,210,6,,10+,30.11,1019.6,,,TRUE,,,,,,,BKN,4700,,,,,,,VFR,,,,,,,,,,,,METAR,80
KGRD 160056Z AUTO 30005KT 10SM CLR 25/20 A3014 RMK AO2 LTG DSNT S AND SW SLP197 T02500200,KGRD,2025-08-16T00:56:00Z,34.2539,-82.1526,25,20,300,5,,10+,30.14,1019.7,,TRUE,TRUE,,,,,,,CLR,,,,,,,,VFR,,,,,,,,,,,,METAR,188
KGPZ 160056Z AUTO 34005KT 10SM CLR 24/16 A3003 RMK AO2 SLP163 T02390161,KGPZ,2025-08-16T00:56:00Z,47.2029,-93.5071,23.9,16.1,340,5,,10+,30.03,1016.3,,TRUE,TRUE,,,,,,,CLR,,,,,,,,VFR,,,,,,,,,,,,METAR,410
KGON 160056Z 10005KT 10SM SCT070 22/21 A3018 RMK AO2 SLP218 T02220211,KGON,2025-08-16T00:56:00Z,41.3279,-72.0489,22.2,21.1,100,5,,10+,30.18,1021.8,,,TRUE,,,,,,,SCT,7000,,,,,,,VFR,,,,,,,,,,,,METAR,2
KGNR 160056Z AUTO 10004KT 17/07 A3020 RMK AO1 SLP226 T01720067,KGNR,2025-08-16T00:56:00Z,45.4649,-69.5543,17.2,6.7,100,4,,,30.20,1022.6,,TRUE,TRUE,,,,,,,,,,,,,,,,,,,,,,,,,,,METAR,426
KGNA 160056Z AUTO 29003KT 23/20 A2994 RMK AO1 SLP132 T02330200 $,KGNA,2025-08-16T00:56:00Z,47.745,-90.346,23.3,20,290,3,,,29.94,1013.2,,TRUE,TRUE,TRUE,,,,,,,,,,,,,,,,,,,,,,,,,,METAR,186
KGDV 160056Z AUTO 08014KT 10SM SCT070 27/14 A2991 RMK AO2 SLP113 T02720144 TSNO,KGDV,2025-08-16T00:56:00Z,47.14,-104.813,27.2,14.4,80,14,,10+,29.91,1011.3,,TRUE,TRUE,,,TRUE,,,,SCT,7000,,,,,,,VFR,,,,,,,,,,,,METAR,749
KGBD 160056Z AUTO 15010KT 10SM CLR 33/22 A2996 RMK AO2 SLP123 T03280217 $,KGBD,2025-08-16T00:56:00Z,38.3405,-98.8592,32.8,21.7,150,10,,10+,29.96,1012.3,,TRUE,TRUE,TRUE,,,,,,CLR,,,,,,,,VFR,,,,,,,,,,,,METAR,573
KGAI 160056Z AUTO 00000KT 10SM BKN080 OVC100 26/26 A3014 RMK AO2 SLP213 T02610261 PNO $,KGAI,2025-08-16T00:56:00Z,39.1696,-77.1653,26.1,26.1,0,0,,10+,30.14,1021.3,,TRUE,TRUE,TRUE,,,,,,BKN,8000,OVC,10000,,,,,VFR,,,,,,,,,,,,METAR,151
KGAD 160056Z AUTO 00000KT CLR 24/24 A3012 RMK AO2 SLPNO T02440244 PWINO $,KGAD,2025-08-16T00:56:00Z,33.9686,-86.0917,24.4,24.4,0,0,,,30.12,,,TRUE,TRUE,TRUE,,,,TRUE,,CLR,,,,,,,,,,,,,,,,,,,,METAR,169
KFSD 160056Z 18011KT 10SM FEW025 FEW150 SCT250 28/24 A2994 RMK AO2 SLP127 T02830244,KFSD,2025-08-16T00:56:00Z,43.5775,-96.7539,28.3,24.4,180,11,,10+,29.94,1012.7,,,TRUE,,,,,,,FEW,2500,FEW,15000,SCT,25000,,,VFR,,,,,,,,,,,,METAR,433
KFOD 160056Z AUTO 17009KT 10SM CLR 27/24 A2997 RMK AO2 RAE07 SLP153 P0000 T02670239 $,KFOD,2025-08-16T00:56:00Z,42.549,-94.182,26.7,23.9,170,9,,10+,29.97,1015.3,,TRUE,TRUE,TRUE,,,,,,CLR,,,,,,,,VFR,,,,,,0.005,,,,,,METAR,347
KFNL 160056Z 22006KT 10SM CLR 29/09 A3005 RMK AO2 LTG DSNT NW SLP107 T02890089 $,KFNL,2025-08-16T00:56:00Z,40.4427,-105.01,28.9,8.9,220,6,,10+,30.05,1010.7,,,TRUE,TRUE,,,,,,CLR,,,,,,,,VFR,,,,,,,,,,,,METAR,1529
KFLP 160056Z AUTO 00000KT 10SM FEW075 31/22 A3005 RMK AO2 SLP168 T03060222 $,KFLP,2025-08-16T00:56:00Z,36.2925,-92.5851,30.6,22.2,0,0,,10+,30.05,1016.8,,TRUE,TRUE,TRUE,,,,,,FEW,7500,,,,,,,VFR,,,,,,,,,,,,METAR,215
KFKL 160056Z AUTO 00000KT 10SM CLR A3018 RMK AO2 SLPNO FZRANO $,KFKL,2025-08-16T00:56:00Z,41.3806,-79.8603,,,0,0,,10+,30.18,,,TRUE,TRUE,TRUE,,,TRUE,,,CLR,,,,,,,,VFR,,,,,,,,,,,,METAR,468
KFCI 160056Z AUTO 09003KT 10SM SCT038 28/24 A3010 RMK AO2 SLP202 T02780239,KFCI,2025-08-16T00:56:00Z,37.407,-77.522,27.8,23.9,90,3,,10+,30.10,1020.2,,TRUE,TRUE,,,,,,,SCT,3800,,,,,,,VFR,,,,,,,,,,,,METAR,63
KEWK 160056Z AUTO 15009KT 10SM CLR 31/23 A2999 RMK AO2 SLP136 T03110228 $,KEWK,2025-08-16T00:56:00Z,38.0621,-97.275,31.1,22.8,150,9,,10+,29.99,1013.6,,TRUE,TRUE,TRUE,,,,,,CLR,,,,,,,,VFR,,,,,,,,,,,,METAR,468
KEUL 160056Z AUTO 35005KT 10SM CLR 32/09 A2984 RMK AO2 SLP083 T03220094 PNO $,KEUL,2025-08-16T00:56:00Z,43.6405,-116.63,32.2,9.4,350,5,,10+,29.84,1008.3,,TRUE,TRUE,TRUE,,,,,,CLR,,,,,,,,VFR,,,,,,,,,,,,METAR,741
KESC 160056Z AUTO 18005KT 10SM FEW095 24/22 A3003 RMK AO2 SLP168 T02390222,KESC,2025-08-16T00:56:00Z,45.7225,-87.0893,23.9,22.2,180,5,,10+,30.03,1016.8,,TRUE,TRUE,,,,,,,FEW,9500,,,,,,,VFR,,,,,,,,,,,,METAR,180
KENV 160056Z AUTO 24008KT 10SM CLR 34/M01 A2993 RMK AO2 SLP088 T03441011,KENV,2025-08-16T00:56:00Z,40.7211,-114.031,34.4,-1.1,240,8,,10+,29.93,1008.8,,TRUE,TRUE,,,,,,,CLR,,,,,,,,VFR,,,,,,,,,,,,METAR,1291
KELZ 160056Z AUTO 12003KT 10SM BKN075 23/16 A3020 RMK AO2 SLP216 T02330161,KELZ,2025-08-16T00:56:00Z,42.1077,-77.9842,23.3,16.1,120,3,,10+,30.20,1021.6,,TRUE,TRUE,,,,,,,BKN,7500,,,,,,,VFR,,,,,,,,,,,,METAR,639
KEKY 160056Z AUTO 23004KT 10SM FEW120 24/23 A3015 RMK AO2 SLP181 T02440233,KEKY,2025-08-16T00:56:00Z,33.314,-86.925,24.4,23.3,230,4,,10+,30.15,1018.1,,TRUE,TRUE,,,,,,,FEW,12000,,,,,,,VFR,,,,,,,,,,,,METAR,213
KEKQ 160056Z AUTO 00000KT 6SM BR CLR 24/24 A3014 RMK AO2 LTG DSNT N SLP193 T02390239,KEKQ,2025-08-16T00:56:00Z,36.8576,-84.8562,23.9,23.9,0,0,,6,30.14,1019.3,,TRUE,TRUE,,,,,,BR,CLR,,,,,,,,VFR,,,,,,,,,,,,METAR,291
KEKO 160056Z AUTO 22010KT 10SM CLR 30/M01 A2996 RMK AO2 SLP091 T03001006,KEKO,2025-08-16T00:56:00Z,40.824,-115.786,30,-0.6,220,10,,10+,29.96,1009.1,,TRUE,TRUE,,,,,,,CLR,,,,,,,,VFR,,,,,,,,,,,,METAR,1541
KEHR 160056Z AUTO 00000KT 10SM CLR 27/23 A3008 RMK AO2 SLP182 T02670233,KEHR,2025-08-16T00:56:00Z,37.8066,-87.6824,26.7,23.3,0,0,,10+,30.08,1018.2,,TRUE,TRUE,,,,,,,CLR,,,,,,,,VFR,,,,,,,,,,,,METAR,117
KEGE 160056Z 09009KT 10SM BKN100 21/11 A3021 RMK AO2 RAB18E32 SLP155 P0000 T02110106 $,KEGE,2025-08-16T00:56:00Z,39.6448,-106.918,21.1,10.6,90,9,,10+,30.21,1015.5,,,TRUE,TRUE,,,,,,BKN,10000,,,,,,,VFR,,,,,,0.005,,,,,,METAR,1993
KEEN 160056Z AUTO 29003KT 10SM CLR 22/15 A3019 RMK AO2 SLP222 T02220150 $,KEEN,2025-08-16T00:56:00Z,42.898,-72.2695,22.2,15,290,3,,10+,30.19,1022.2,,TRUE,TRUE,TRUE,,,,,,CLR,,,,,,,,VFR,,,,,,,,,,,,METAR,143
KEED 160056Z AUTO 18015KT 10SM CLR 41/15 A2977 RMK AO2 PK WND 20026/0043 SLP041 T04110150,KEED,2025-08-16T00:56:00Z,34.7678,-114.618,41.1,15,180,15,,10+,29.77,1004.1,,TRUE,TRUE,,,,,,,CLR,,,,,,,,VFR,,,,,,,,,,,,METAR,271
KEAU 160056Z 19007KT 10SM SCT080 BKN095 BKN120 21/17 A3004 RMK AO2 LTG DSNT ALQDS RAE00 SLP167 P0000 T02060167,KEAU,2025-08-16T00:56:00Z,44.8665,-91.4881,20.6,16.7,190,7,,10+,30.04,1016.7,,,TRUE,,,,,,,SCT,8000,BKN,9500,BKN,12000,,,VFR,,,,,,0.005,,,,,,METAR,271
KEAR 160056Z AUTO 16010KT 10SM CLR 30/22 A2992 RMK AO2 SLP110 T03000222,KEAR,2025-08-16T00:56:00Z,40.7193,-99.0086,30,22.2,160,10,,10+,29.92,1011,,TRUE,TRUE,,,,,,,CLR,,,,,,,,VFR,,,,,,,,,,,,METAR,649
KDYR 160056Z AUTO 00000KT 10SM CLR 29/24 A3008 RMK AO2 SLP188 T02940244,KDYR,2025-08-16T00:56:00Z,35.9957,-89.4057,29.4,24.4,0,0,,10+,30.08,1018.8,,TRUE,TRUE,,,,,,,CLR,,,,,,,,VFR,,,,,,,,,,,,METAR,98
KDWU 160056Z AUTO 00000KT 10SM CLR 26/23 A3011 RMK AO2 SLP191 T02610228,KDWU,2025-08-16T00:56:00Z,38.556,-82.7375,26.1,22.8,0,0,,10+,30.11,1019.1,,TRUE,TRUE,,,,,,,CLR,,,,,,,,VFR,,,,,,,,,,,,METAR,165
KDVL 160056Z AUTO 00000KT 10SM FEW120 21/13 A3003 RMK AO2 SLP172 T02110128,KDVL,2025-08-16T00:56:00Z,48.1136,-98.9034,21.1,12.8,0,0,,10+,30.03,1017.2,,TRUE,TRUE,,,,,,,FEW,12000,,,,,,,VFR,,,,,,,,,,,,METAR,439
KDIK 160056Z AUTO 09011KT 10SM CLR 23/14 A2994 RMK AO2 SLP130 T02280144,KDIK,2025-08-16T00:56:00Z,46.7997,-102.797,22.8,14.4,90,11,,10+,29.94,1013,,TRUE,TRUE,,,,,,,CLR,,,,,,,,VFR,,,,,,,,,,,,METAR,788
KDIJ 160056Z AUTO 19007KT 10SM CLR 23/04 A3016 RMK AO2 SLP148 T02330044 $,KDIJ,2025-08-16T00:56:00Z,43.745,-111.091,23.3,4.4,190,7,,10+,30.16,1014.8,,TRUE,TRUE,TRUE,,,,,,CLR,,,,,,,,VFR,,,,,,,,,,,,METAR,1896
KDAY 160056Z 03005KT 10SM FEW055 FEW070 27/21 A3013 RMK AO2 SLP194 T02670206,KDAY,2025-08-16T00:56:00Z,39.9064,-84.2185,26.7,20.6,30,5,,10+,30.13,1019.4,,,TRUE,,,,,,,FEW,5500,FEW,7000,,,,,VFR,,,,,,,,,,,,METAR,303
KD07 160056Z AUTO 10008KT 28/18 A2994 RMK AO1 SLP123 T02780183,KD07,2025-08-16T00:56:00Z,45.0326,-102.02,27.8,18.3,100,8,,,29.94,1012.3,,TRUE,TRUE,,,,,,,,,,,,,,,,,,,,,,,,,,,METAR,786
KCXY 160056Z 00000KT 10SM FEW090 OVC110 28/22 A3012 RMK AO2 SLP197 T02780217,KCXY,2025-08-16T00:56:00Z,40.2184,-76.8552,27.8,21.7,0,0,,10+,30.12,1019.7,,,TRUE,,,,,,,FEW,9000,OVC,11000,,,,,VFR,,,,,,,,,,,,METAR,102
KCWI 160056Z AUTO 22008KT 10SM FEW042 BKN055 OVC100 22/19 A3004 RMK AO2 PK WND 27027/0003 LTG DSNT E-SW TSB15E30 SLP173 P0005 T02170194,KCWI,2025-08-16T00:56:00Z,41.8295,-90.3328,21.7,19.4,220,8,,10+,30.04,1017.3,,TRUE,TRUE,,,,,,,FEW,4200,BKN,5500,OVC,10000,,,VFR,,,,,,0.05,,,,,,METAR,212
KCVN 160056Z AUTO 15010KT 10SM CLR 31/11 A3011 RMK AO2 SLP150 T03060111 $,KCVN,2025-08-16T00:56:00Z,34.4227,-103.08,30.6,11.1,150,10,,10+,30.11,1015,,TRUE,TRUE,TRUE,,,,,,CLR,,,,,,,,VFR,,,,,,,,,,,,METAR,1278
KCTB 160056Z AUTO 28018KT 10SM SCT110 24/05 A2990 RMK AO2 PK WND 28026/0012 SLP101 T02440050,KCTB,2025-08-16T00:56:00Z,48.6036,-112.377,24.4,5,280,18,,10+,29.90,1010.1,,TRUE,TRUE,,,,,,,SCT,11000,,,,,,,VFR,,,,,,,,,,,,METAR,1172
KCOE 160056Z AUTO 16005KT 10SM OVC060 25/12 A2991 RMK AO2 SLP128 T02500122,KCOE,2025-08-16T00:56:00Z,47.7719,-116.833,25,12.2,160,5,,10+,29.91,1012.8,,TRUE,TRUE,,,,,,,OVC,6000,,,,,,,VFR,,,,,,,,,,,,METAR,693
KCOD 160056Z AUTO 19010KT 10SM CLR 30/02 A2999 RMK AO2 SLP098 T03000022,KCOD,2025-08-16T00:56:00Z,44.52,-109.027,30,2.2,190,10,,10+,29.99,1009.8,,TRUE,TRUE,,,,,,,CLR,,,,,,,,VFR,,,,,,,,,,,,METAR,1550
KCIU 160056Z AUTO 19003KT 10SM CLR 23/17 A3007 RMK AO2 SLP179 T02330167,KCIU,2025-08-16T00:56:00Z,46.2531,-84.4773,23.3,16.7,190,3,,10+,30.07,1017.9,,TRUE,TRUE,,,,,,,CLR,,,,,,,,VFR,,,,,,,,,,,,METAR,242
KCHS 160056Z 26003KT 10SM BKN200 26/24 A3006 RMK AO2 SLP177 T02610239,KCHS,2025-08-16T00:56:00Z,32.8994,-80.0407,26.1,23.9,260,3,,10+,30.06,1017.7,,,TRUE,,,,,,,BKN,20000,,,,,,,VFR,,,,,,,,,,,,METAR,12
KCGZ 160056Z AUTO 19006KT 10SM CLR 34/16 A2988 RMK AO2 SLP103 T03440156 $,KCGZ,2025-08-16T00:56:00Z,32.9531,-111.773,34.4,15.6,190,6,,10+,29.88,1010.3,,TRUE,TRUE,TRUE,,,,,,CLR,,,,,,,,VFR,,,,,,,,,,,,METAR,444
KCEC 160056Z AUTO 29003KT 10SM OVC007 19/17 A3005 RMK AO2 SLP174 T01890167,KCEC,2025-08-16T00:56:00Z,41.7836,-124.238,18.9,16.7,290,3,,10+,30.05,1017.4,,TRUE,TRUE,,,,,,,OVC,700,,,,,,,IFR,,,,,,,,,,,,METAR,17
KBZN 160056Z 09003KT 10SM CLR 30/04 A2990 RMK AO2 SLP083 T03000039,KBZN,2025-08-16T00:56:00Z,45.7876,-111.162,30,3.9,90,3,,10+,29.90,1008.3,,,TRUE,,,,,,,CLR,,,,,,,,VFR,,,,,,,,,,,,METAR,1349
KBVX 160056Z AUTO 14003KT 10SM CLR 32/23 A3007 RMK AO2 SLP177 T03220228,KBVX,2025-08-16T00:56:00Z,35.7259,-91.6517,32.2,22.8,140,3,,10+,30.07,1017.7,,TRUE,TRUE,,,,,,,CLR,,,,,,,,VFR,,,,,,,,,,,,METAR,137
KBTP 160056Z AUTO 09003KT 10SM CLR 23/18 A3016 RMK AO2 SLP212 T02330178 $,KBTP,2025-08-16T00:56:00Z,40.7765,-79.9568,23.3,17.8,90,3,,10+,30.16,1021.2,,TRUE,TRUE,TRUE,,,,,,CLR,,,,,,,,VFR,,,,,,,,,,,,METAR,375
KBOK 160056Z AUTO 28005KT 4SM HZ BKN004 OVC009 A3005 RMK AO2 CIG 002V007 SLPNO PNO $,KBOK,2025-08-16T00:56:00Z,42.0754,-124.29,,,280,5,,4,30.05,,,TRUE,TRUE,TRUE,,,,,HZ,BKN,400,OVC,900,,,,,LIFR,,,,,,,,,,,,METAR,140
KBMI 160056Z 17004KT 10SM CLR 29/24 A3009 RMK AO2 SLP179 T02890244,KBMI,2025-08-16T00:56:00Z,40.4777,-88.9144,28.9,24.4,170,4,,10+,30.09,1017.9,,,TRUE,,,,,,,CLR,,,,,,,,VFR,,,,,,,,,,,,METAR,262
KBLM 160056Z AUTO 13004KT 10SM CLR 23/23 A3017 RMK AO2 SLP215 T02280228,KBLM,2025-08-16T00:56:00Z,40.1822,-74.1207,22.8,22.8,130,4,,10+,30.17,1021.5,,TRUE,TRUE,,,,,,,CLR,,,,,,,,VFR,,,,,,,,,,,,METAR,45
KBKX 160056Z AUTO 13007KT 10SM CLR 27/23 A2994 RMK AO2 SLP138 T02720233,KBKX,2025-08-16T00:56:00Z,44.3075,-96.8183,27.2,23.3,130,7,,10+,29.94,1013.8,,TRUE,TRUE,,,,,,,CLR,,,,,,,,VFR,,,,,,,,,,,,METAR,494
KBJJ 160056Z AUTO 00000KT 10SM CLR 23/21 A3015 RMK AO2 SLP201 T02280211,KBJJ,2025-08-16T00:56:00Z,40.8732,-81.8886,22.8,21.1,0,0,,10+,30.15,1020.1,,TRUE,TRUE,,,,,,,CLR,,,,,,,,VFR,,,,,,,,,,,,METAR,338
KBIH 160056Z AUTO 15015G22KT 10SM CLR 33/M05 A2992 RMK AO2 SLP082 T03331050,KBIH,2025-08-16T00:56:00Z,37.3711,-118.359,33.3,-5,150,15,22,10+,29.92,1008.2,,TRUE,TRUE,,,,,,,CLR,,,,,,,,VFR,,,,,,,,,,,,METAR,1252
KBID 160056Z AUTO 07006KT 10SM FEW065 21/18 A3019 RMK AO2 SLP223 T02060178 PNO $,KBID,2025-08-16T00:56:00Z,41.1668,-71.5757,20.6,17.8,70,6,,10+,30.19,1022.3,,TRUE,TRUE,TRUE,,,,,,FEW,6500,,,,,,,VFR,,,,,,,,,,,,METAR,32
KBHB 160056Z AUTO 22003KT 10SM CLR 18/12 A3019 RMK AO2 SLP225 T01780122,KBHB,2025-08-16T00:56:00Z,44.4549,-68.3617,17.8,12.2,220,3,,10+,30.19,1022.5,,TRUE,TRUE,,,,,,,CLR,,,,,,,,VFR,,,,,,,,,,,,METAR,21
KAWO 160056Z AUTO 15015G22KT 10SM -RA BKN017 OVC022 18/18 A2980 RMK AO2 SLP094 P0004 T01830183,KAWO,2025-08-16T00:56:00Z,48.1584,-122.159,18.3,18.3,150,15,22,10+,29.80,1009.4,,TRUE,TRUE,,,,,,-RA,BKN,1700,OVC,2200,,,,,MVFR,,,,,,0.04,,,,,,METAR,38
KAUO 160056Z AUTO 34003KT 10SM CLR 24/23 A3012 RMK AO2 SLP186 T02390233 $,KAUO,2025-08-16T00:56:00Z,32.617,-85.4342,23.9,23.3,340,3,,10+,30.12,1018.6,,TRUE,TRUE,TRUE,,,,,,CLR,,,,,,,,VFR,,,,,,,,,,,,METAR,231
KASH 160056Z 00000KT 10SM CLR 22/13 A3021 RMK AO2 SLP227 T02200130 $,KASH,2025-08-16T00:56:00Z,42.7798,-71.5141,22,13,0,0,,10+,30.21,1022.7,,,TRUE,TRUE,,,,,,CLR,,,,,,,,VFR,,,,,,,,,,,,METAR,56
KART 160056Z AUTO 00000KT 10SM CLR 18/14 A3014 RMK AO2 SLP204 T01780139,KART,2025-08-16T00:56:00Z,43.9888,-76.0261,17.8,13.9,0,0,,10+,30.14,1020.4,,TRUE,TRUE,,,,,,,CLR,,,,,,,,VFR,,,,,,,,,,,,METAR,100
KARG 160056Z AUTO 17005KT 10SM CLR 30/24 A3006 RMK AO2 SLP176 T03000239 $,KARG,2025-08-16T00:56:00Z,36.1256,-90.9216,30,23.9,170,5,,10+,30.06,1017.6,,TRUE,TRUE,TRUE,,,,,,CLR,,,,,,,,VFR,,,,,,,,,,,,METAR,82
KAND 160056Z AUTO 24005KT 6SM RA BR SCT110 23/22 A3014 RMK AO2 LTG DSNT S RAB37 TSE2357 SLP196 P0002 T02330217,KAND,2025-08-16T00:56:00Z,34.498,-82.7092,23.3,21.7,240,5,,6,30.14,1019.6,,TRUE,TRUE,,,,,,RA BR,SCT,11000,,,,,,,VFR,,,,,,0.02,,,,,,METAR,233
KALK 160056Z AUTO 10005KT 10SM SCT110 26/12 A3018 RMK AO2 SLP129 T02560122,KALK,2025-08-16T00:56:00Z,31.606,-110.428,25.6,12.2,100,5,,10+,30.18,1012.9,,TRUE,TRUE,,,,,,,SCT,11000,,,,,,,VFR,,,,,,,,,,,,METAR,1451
KAJO 160056Z AUTO 28013G18KT 10SM CLR 25/16 A2991 RMK AO2 SLP123 T02500161,KAJO,2025-08-16T00:56:00Z,33.8956,-117.596,25,16.1,280,13,18,10+,29.91,1012.3,,TRUE,TRUE,,,,,,,CLR,,,,,,,,VFR,,,,,,,,,,,,METAR,161
KAIZ 160056Z AUTO 16003KT 10SM FEW075 33/21 A3004 RMK AO2 SLP161 T03280211,KAIZ,2025-08-16T00:56:00Z,38.1005,-92.5475,32.8,21.1,160,3,,10+,30.04,1016.1,,TRUE,TRUE,,,,,,,FEW,7500,,,,,,,VFR,,,,,,,,,,,,METAR,263
KAFJ 160056Z AUTO 00000KT 10SM CLR 23/19 A3017 RMK AO2 SLP209 T02280189 $,KAFJ,2025-08-16T00:56:00Z,40.1362,-80.2851,22.8,18.9,0,0,,10+,30.17,1020.9,,TRUE,TRUE,TRUE,,,,,,CLR,,,,,,,,VFR,,,,,,,,,,,,METAR,360
K8D3 160056Z AUTO 01005KT 24/20 A2995 RMK AO1 SLP125 T02440200,K8D3,2025-08-16T00:56:00Z,45.669,-96.9918,24.4,20,10,5,,,29.95,1012.5,,TRUE,TRUE,,,,,,,,,,,,,,,,,,,,,,,,,,,METAR,535
K79J 160056Z AUTO 00000KT 10SM CLR 25/23 A3013 RMK AO2 RAE11 SLP199 P0000 T02500233 TSNO,K79J,2025-08-16T00:56:00Z,31.3061,-86.3902,25,23.3,0,0,,10+,30.13,1019.9,,TRUE,TRUE,,,TRUE,,,,CLR,,,,,,,,VFR,,,,,,0.005,,,,,,METAR,93
K2WX 160056Z AUTO 11010KT 28/16 A2991 RMK AO1 SLP105 T02830156,K2WX,2025-08-16T00:56:00Z,45.6043,-103.547,28.3,15.6,110,10,,,29.91,1010.5,,TRUE,TRUE,,,,,,,,,,,,,,,,,,,,,,,,,,,METAR,925
K1M4 160056Z AUTO 34003KT 8SM TSRA BKN033 OVC060 23/22 A3018 RMK AO2 LTG DSNT E AND S SLP976 P0029 T02330222 $,K1M4,2025-08-16T00:56:00Z,34.2832,-87.5986,23.3,22.2,340,3,,8,30.18,997.6,,TRUE,TRUE,TRUE,,,,,TSRA,BKN,3300,OVC,6000,,,,,VFR,,,,,,0.29,,,,,,METAR,283
TXKF 160055Z 29006KT 9999 FEW020 SCT300 28/25 Q1020 ,TXKF,2025-08-16T00:55:00Z,32.364,-64.679,28,25,290,6,,6+,30.12,,,,,,,,,,,FEW,2000,SCT,30000,,,,,VFR,,,,,,,,,,,,METAR,4
TNCE 160055Z AUTO 02006KT 330V070 //// // ///////// 27/23 Q1012 RE//,TNCE,2025-08-16T00:55:00Z,17.497,-62.979,27,23,20,6,,,29.88,,,TRUE,,,,,,,,,,,,,,,,,,,,,,,,,,,,METAR,38
TNCB 160055Z 07011KT 040V100 9999 FEW016 29/25 Q1012,TNCB,2025-08-16T00:55:00Z,12.133,-68.277,29,25,70,11,,6+,29.88,,,,,,,,,,,FEW,1600,,,,,,,VFR,,,,,,,,,,,,METAR,6
RKSO 160055Z 22007KT 6SM HZ SCT017 BKN150 30/25 A2995 RMK AO2A SLP145 T03000250 FZRANO $,RKSO,2025-08-16T00:55:00Z,37.091,127.03,30,25,220,7,,6,29.95,1014.5,,,TRUE,TRUE,,,TRUE,,HZ,SCT,1700,BKN,15000,,,,,VFR,,,,,,,,,,,,METAR,10
RKSG 160055Z 17004KT 10SM SCT024 BKN075 BKN180 30/24 A2995 RMK AO2A SLP145 T02980237 $,RKSG,2025-08-16T00:55:00Z,36.962,127.031,29.8,23.7,170,4,,10+,29.95,1014.5,,,TRUE,TRUE,,,,,,SCT,2400,BKN,7500,BKN,18000,,,VFR,,,,,,,,,,,,METAR,12
RKJK 160055Z 14004KT 10SM SCT014 BKN250 29/25 A2996 RMK AO2A SLP149 T02940247 $,RKJK,2025-08-16T00:55:00Z,35.9,126.618,29.4,24.7,140,4,,10+,29.96,1014.9,,,TRUE,TRUE,,,,,,SCT,1400,BKN,25000,,,,,VFR,,,,,,,,,,,,METAR,8
RJTY 160055Z 06005KT 7SM FEW024 SCT035 30/23 A3002 RMK AO2A SLP165 T03020231,RJTY,2025-08-16T00:55:00Z,35.749,139.349,30.2,23.1,60,5,,7,30.02,1016.5,,,TRUE,,,,,,,FEW,2400,SCT,3500,,,,,VFR,,,,,,,,,,,,METAR,136
RJTR 160055Z AUTO 18004KT 10SM SCT023 BKN035 OVC140 30/24 A2999 RMK AO2 SLP154 T03030244 $,RJTR,2025-08-16T00:55:00Z,35.514,139.395,30.3,24.4,180,4,,10+,29.99,1015.4,,TRUE,TRUE,TRUE,,,,,,SCT,2300,BKN,3500,OVC,14000,,,VFR,,,,,,,,,,,,METAR,106
PWAK 160055Z AUTO 07009KT 10SM SCT022 33/24 A2994 RMK AO2 SLP141 T03260243,PWAK,2025-08-16T00:55:00Z,19.287,166.623,32.6,24.3,70,9,,10+,29.94,1014.1,,TRUE,TRUE,,,,,,,SCT,2200,,,,,,,VFR,,,,,,,,,,,,METAR,7
PHSF 160055Z AUTO 26011KT 9SM CLR 25/15 A3037 RMK AO2 SLP163 T02490149 $,PHSF,2025-08-16T00:55:00Z,19.758,-155.557,24.9,14.9,260,11,,9,30.37,1016.3,,TRUE,TRUE,TRUE,,,,,,CLR,,,,,,,,VFR,,,,,,,,,,,,METAR,1863
PHHI 160055Z AUTO 08015G18KT 10SM BKN030 28/19 A3006 RMK AO2 SLP169 T02840187 $,PHHI,2025-08-16T00:55:00Z,21.478,-158.044,28.4,18.7,80,15,18,10+,30.06,1016.9,,TRUE,TRUE,TRUE,,,,,,BKN,3000,,,,,,,MVFR,,,,,,,,,,,,METAR,246
PGWT 160055Z 10004KT 7SM SCT018 30/24 A2991,PGWT,2025-08-16T00:55:00Z,14.997,145.624,30,24,100,4,,7,29.91,,,,,,,,,,,SCT,1800,,,,,,,VFR,,,,,,,,,,,,METAR,84
PGUA 160055Z 11006KT 10SM SCT018 FEW050 30/24 A2991 RMK AO2A SLP119 T02980242 $,PGUA,2025-08-16T00:55:00Z,13.583,144.918,29.8,24.2,110,6,,10+,29.91,1011.9,,,TRUE,TRUE,,,,,,SCT,1800,FEW,5000,,,,,VFR,,,,,,,,,,,,METAR,159
PASY 160055Z 03012KT 7SM OVC004 13/12 A3016 RMK AO2A SLP216 T01300121 PNO FZRANO $,PASY,2025-08-16T00:55:00Z,52.711,174.107,13,12.1,30,12,,7,30.16,1021.6,,,TRUE,TRUE,,,TRUE,,,OVC,400,,,,,,,LIFR,,,,,,,,,,,,METAR,6
PASV 160055Z AUTO 34009G18KT 250V040 10SM FEW029 BKN042 10/05 A3000 RMK AO2 SHRAB2200E0043 SLP168 T00950048,PASV,2025-08-16T00:55:00Z,61.101,-155.577,9.5,4.8,340,9,18,10+,30.00,1016.8,,TRUE,TRUE,,,,,,,FEW,2900,BKN,4200,,,,,VFR,,,,,,,,,,,,METAR,462
PAIM 160055Z AUTO 34007KT 270V060 10SM OVC025 09/04 A2991 RMK AO2 LTG DSNT E SLP135 T00870038,PAIM,2025-08-16T00:55:00Z,65.994,-153.695,8.7,3.8,340,7,,10+,29.91,1013.5,,TRUE,TRUE,,,,,,,OVC,2500,,,,,,,MVFR,,,,,,,,,,,,METAR,309
PAFR 160055Z AUTO 16006KT 10SM OVC050 16/08 A2974 RMK AO2 SLP073 T01570080 $,PAFR,2025-08-16T00:55:00Z,61.263,-149.66,15.7,8,160,6,,10+,29.74,1007.3,,TRUE,TRUE,TRUE,,,,,,OVC,5000,,,,,,,VFR,,,,,,,,,,,,METAR,106
PAFB 160055Z 28008KT 10SM BKN024 OVC039 11/06 A2991 RMK AO2A SLP136 T01100057 $,PAFB,2025-08-16T00:55:00Z,64.836,-147.614,11,5.7,280,8,,10+,29.91,1013.6,,,TRUE,TRUE,,,,,,BKN,2400,OVC,3900,,,,,MVFR,,,,,,,,,,,,METAR,137
PAEI 160055Z 25007KT 10SM FEW029 OVC035 11/04 A2990 RMK AO2A SLP131 T01050044 $,PAEI,2025-08-16T00:55:00Z,64.654,-147.094,10.5,4.4,250,7,,10+,29.90,1013.1,,,TRUE,TRUE,,,,,,FEW,2900,OVC,3500,,,,,VFR,,,,,,,,,,,,METAR,166
PAEH 160055Z AUTO 34011KT 310V050 10SM BKN014 11/08 A3021 RMK AO2 SLP233 T01080077 $,PAEH,2025-08-16T00:55:00Z,58.652,-162.062,10.8,7.7,340,11,,10+,30.21,1023.3,,TRUE,TRUE,TRUE,,,,,,BKN,1400,,,,,,,MVFR,,,,,,,,,,,,METAR,101
PAED 160055Z 36004KT 10SM BKN050 BKN070 17/04 A2972 RMK AO2A SLP060 SH DSNT NE T01710037 $,PAED,2025-08-16T00:55:00Z,61.25,-149.837,17.1,3.7,360,4,,10+,29.72,1006,,,TRUE,TRUE,,,,,,BKN,5000,BKN,7000,,,,,VFR,,,,,,,,,,,,METAR,54
OTBH 160055Z 02009KT 9000 HZ CLR 35/27 A2935 Q0994 RMK AO2A SLP939 T03510269 FZRANO $,OTBH,2025-08-16T00:55:00Z,25.117,51.315,35.1,26.9,20,9,,5.59,29.35,993.9,,,TRUE,TRUE,,,TRUE,,HZ,CLR,,,,,,,,VFR,,,,,,,,,,,,METAR,40
OKAS 160055Z AUTO 28007KT 9999 CLR 33/M01 A2945 RMK AO2 SLP965 T03321012 $,OKAS,2025-08-16T00:55:00Z,29.347,47.521,33.2,-1.2,280,7,,6+,29.45,996.5,,TRUE,TRUE,TRUE,,,,,,CLR,,,,,,,,VFR,,,,,,,,,,,,METAR,144
OEPS 160055Z 25001KT 9999 FEW180 FEW210 32/M03 A2953 RMK AO2A SLP941 WND DATA ESTMD T03231027,OEPS,2025-08-16T00:55:00Z,24.063,47.581,32.3,-2.7,250,1,,6+,29.53,994.1,,,TRUE,,,,,,,FEW,18000,FEW,21000,,,,,VFR,,,,,,,,,,,,METAR,503
NZCM 160055Z AUTO VRB06KT 9999 OVC100 M21/M31 A2881 RMK AO2 SLP763 T12131312,NZCM,2025-08-16T00:55:00Z,-77.85,166.667,-21.3,-31.2,VRB,6,,6+,28.81,976.3,,TRUE,TRUE,,,,,,,OVC,10000,,,,,,,VFR,,,,,,,,,,,,METAR,24
NSTU 160055Z VRB05KT 12SM FEW020TCU SCT040 BKN100 29/24 A2992 RMK TCU OHD SLP132 T02940235,NSTU,2025-08-16T00:55:00Z,-14.337,-170.721,29.4,23.5,VRB,5,,12,29.92,1013.2,,,,,,,,,,FEW,2000,SCT,4000,BKN,10000,,,VFR,,,,,,,,,,,,METAR,8
MMQT 160055Z 05010KT 6SM BKN020 BKN090 OVC200 18/14 A3038 RMK 8/757 -DZ,MMQT,2025-08-16T00:55:00Z,20.617,-100.194,18,14,50,10,,6,30.38,,,,,,,,,,,BKN,2000,BKN,9000,OVC,20000,,,MVFR,,,,,,,,,,,,METAR,1909
MMEP 160055Z 19006KT 8SM SCT020 SCT080 BKN180 23/22 A3014 RMK 8/463,MMEP,2025-08-16T00:55:00Z,21.418,-104.842,23,22,190,6,,8,30.14,,,,,,,,,,,SCT,2000,SCT,8000,BKN,18000,,,VFR,,,,,,,,,,,,METAR,921
LIVM 160055Z AUTO /////KT //// ///// Q////,LIVM,2025-08-16T00:55:00Z,44.441,12.296,,,,,,,0.00,,,TRUE,,,,,,,,,,,,,,,,,,,,,,,,,,,,METAR,6
LIVF 160055Z AUTO 22007KT //// // ///////// 23/06 Q//// RMK ///,LIVF,2025-08-16T00:55:00Z,43.517,12.728,23,6,220,7,,,0.00,,,TRUE,,,,,,,,,,,,,,,,,,,,,,,,,,,,METAR,549
LIVE 160055Z AUTO 36005KT //// // ///////// 15/11 Q1027,LIVE,2025-08-16T00:55:00Z,46.833,10.5,15,11,360,5,,,30.32,,,TRUE,,,,,,,,,,,,,,,,,,,,,,,,,,,,METAR,1684
LIVD 160055Z AUTO VRB02KT //// 13/13 Q1027,LIVD,2025-08-16T00:55:00Z,46.729,12.228,13,13,VRB,2,,,30.32,,,TRUE,,,,,,,,,,,,,,,,,,,,,,,,,,,,METAR,1221
LIVC 160055Z AUTO 03027KT //// // ///////// 13/09 Q1029 RMK ///,LIVC,2025-08-16T00:55:00Z,44.194,10.7,13,9,30,27,,,30.38,,,TRUE,,,,,,,,,,,,,,,,,,,,,,,,,,,,METAR,2139
LIRY 160055Z AUTO VRB02KT //// // ///////// 19/17 Q1016,LIRY,2025-08-16T00:55:00Z,-99.99,-99.99,19,17,VRB,2,,,30.00,,,TRUE,,,,,,,,,,,,,,,,,,,,,,,,,,,,METAR,9999
LIRT 160055Z AUTO 34010KT 300V020 //// // ///////// 19/10 Q1019 RMK ///,LIRT,2025-08-16T00:55:00Z,41.047,15.233,19,10,340,10,,,30.09,,,TRUE,,,,,,,,,,,,,,,,,,,,,,,,,,,,METAR,1058
LIRS 160055Z 02004KT CAVOK 22/19 Q1015 RMK SKC VIS MIN 9999 WIND THR03 02004KT WIND THR21 04003KT BLU,LIRS,2025-08-16T00:55:00Z,42.76,11.072,22,19,20,4,,6+,29.97,,,,,,,,,,,CAVOK,,,,,,,,VFR,,,,,,,,,,,,METAR,3
LIRM 160055Z 02005KT 9999 SCT030 20/16 Q1014 RMK BKN SCT100 VIS MIN 9999 WIND THR06 06006KT BLU,LIRM,2025-08-16T00:55:00Z,41.061,14.082,20,16,20,5,,6+,29.94,,,,,,,,,,,SCT,3000,,,,,,,VFR,,,,,,,,,,,,METAR,6
LIRK 160055Z AUTO 09015KT //// // ///////// 16/// Q1026,LIRK,2025-08-16T00:55:00Z,42.466,12.979,,,90,15,,,30.30,,,TRUE,,,,,,,,,,,,,,,,,,,,,,,,,,,,METAR,1721
LIQW 160055Z AUTO 31009KT //// // ///////// 23/16 Q1015 RMK /// WIND THR14 30008KT,LIQW,2025-08-16T00:55:00Z,44.088,9.987,23,16,310,9,,,29.97,,,TRUE,,,,,,,,,,,,,,,,,,,,,,,,,,,,METAR,6
LIQO 160055Z AUTO VRB02KT //// // ///////// 23/13 Q1018 RMK ///,LIQO,2025-08-16T00:55:00Z,42.387,11.17,23,13,VRB,2,,,30.06,,,TRUE,,,,,,,,,,,,,,,,,,,,,,,,,,,,METAR,627
LIQC 160055Z AUTO 06008KT 9999 ///////// 24/16 Q1012 RMK /// VIS MIN 9999,LIQC,2025-08-16T00:55:00Z,40.558,14.201,24,16,60,8,,6+,29.88,,,TRUE,,,,,,,,,,,,,,,,VFR,,,,,,,,,,,,METAR,154
LIPS 160055Z 36007KT CAVOK 26/18 Q1015 RMK SKC VIS MIN 9999 WIND THR26 36007KT WIND THR08 01007KT BLU,LIPS,2025-08-16T00:55:00Z,45.689,12.101,26,18,360,7,,6+,29.97,,,,,,,,,,,CAVOK,,,,,,,,VFR,,,,,,,,,,,,METAR,42
LIPL 160055Z /////KT CAVOK 25/18 Q1016 RMK BKN FEW180 SCT210 VIS MIN 9999 WIND THR31 04004KT WIND THR13 33002KT BLU,LIPL,2025-08-16T00:55:00Z,45.432,10.268,25,18,,,,6+,30.00,,,,,,,,,,,CAVOK,,,,,,,,VFR,,,,,,,,,,,,METAR,96
LIPI 160055Z 34005KT CAVOK 23/18 Q1015 RMK SKC VIS MIN 9999 WIND THR06 36006KT WIND THR24 02006KT BLU,LIPI,2025-08-16T00:55:00Z,45.979,13.049,23,18,340,5,,6+,29.97,,,,,,,,,,,CAVOK,,,,,,,,VFR,,,,,,,,,,,,METAR,49
LIPF 160055Z AUTO VRB01KT //// // ///////// 24/15 Q1015 RMK ///,LIPF,2025-08-16T00:55:00Z,44.814,11.61,24,15,VRB,1,,,29.97,,,TRUE,,,,,,,,,,,,,,,,,,,,,,,,,,,,METAR,5
LIPC 160055Z 26005KT CAVOK 21/15 Q1015 RMK SKC VIS MIN 9999 WIND THR11 25006KT WIND THR29 26006KT BLU,LIPC,2025-08-16T00:55:00Z,44.224,12.307,21,15,260,5,,6+,29.97,,,,,,,,,,,CAVOK,,,,,,,,VFR,,,,,,,,,,,,METAR,10
LIMY 160055Z AUTO 23013KT //// // ///////// 24/15 Q1020 RMK ///,LIMY,2025-08-16T00:55:00Z,44.258,7.794,24,15,230,13,,,30.12,,,TRUE,,,,,,,,,,,,,,,,,,,,,,,,,,,,METAR,1742
LIMK 160055Z AUTO 30005KT //// // ///////// 25/18 Q1020 RMK ///,LIMK,2025-08-16T00:55:00Z,45.033,7.731,25,18,300,5,,,30.12,,,TRUE,,,,,,,,,,,,,,,,,,,,,,,,,,,,METAR,693
LIMH 160055Z AUTO 08006KT //// 05/M03 Q1038,LIMH,2025-08-16T00:55:00Z,45.935,7.707,5,-3,80,6,,,30.65,,,TRUE,,,,,,,,,,,,,,,,,,,,,,,,,,,,METAR,3473
LIED 160055Z 35001KT CAVOK 25/23 Q1014 RMK SKC VIS MIN 9999 WIND THR34 34003KT WIND THR16 34002KT BLU,LIED,2025-08-16T00:55:00Z,39.354,8.973,25,23,350,1,,6+,29.94,,,,,,,,,,,CAVOK,,,,,,,,VFR,,,,,,,,,,,,METAR,26
LICZ 160055Z 25004KT CAVOK 21/19 Q1013 RMK SKC VIS MIN 9999 WIND THR28 24004KT WIND THR10 /////KT A2993 BLU,LICZ,2025-08-16T00:55:00Z,37.406,14.919,21,19,250,4,,6+,29.91,,,,,,,,,,,CAVOK,,,,,,,,VFR,,,,,,,,,,,,METAR,22
LICT 160055Z 00000KT 9999 FEW018 23/22 Q1013 RMK FEW VIS MIN 9999 WIND THR13 00000KT BLU,LICT,2025-08-16T00:55:00Z,37.911,12.488,23,22,0,0,,6+,29.91,,,,,,,,,,,FEW,1800,,,,,,,VFR,,,,,,,,,,,,METAR,4
LICF 160055Z AUTO 29004KT //// // ///////// 27/21 Q1013 RMK ///,LICF,2025-08-16T00:55:00Z,38.2,15.549,27,21,290,4,,,29.91,,,TRUE,,,,,,,,,,,,,,,,,,,,,,,,,,,,METAR,66
LIBY 160055Z AUTO 35003KT //// 24/20 Q1012,LIBY,2025-08-16T00:55:00Z,39.811,18.342,24,20,350,3,,,29.88,,,TRUE,,,,,,,,,,,,,,,,,,,,,,,,,,,,METAR,105
LIBV 160055Z 02005KT CAVOK 20/14 Q1015 RMK BKN SCT100 SCT150 VIS MIN 9999 WIND THR32 03008KT WIND THR14 02004KT BLU,LIBV,2025-08-16T00:55:00Z,40.766,16.935,20,14,20,5,,6+,29.97,,,,,,,,,,,CAVOK,,,,,,,,VFR,,,,,,,,,,,,METAR,344
LIBQ 160055Z AUTO 08005KT //// // ///////// 16/06 Q1022 RMK ///,LIBQ,2025-08-16T00:55:00Z,39.331,16.396,16,6,80,5,,,30.18,,,TRUE,,,,,,,,,,,,,,,,,,,,,,,,,,,,METAR,1660
LIBN 160055Z 01008KT CAVOK 25/21 Q1012 RMK FEW FEW100 VIS MIN 9999 WIND THR14 01008KT WIND THR32 01008KT BLU,LIBN,2025-08-16T00:55:00Z,40.238,18.138,25,21,10,8,,6+,29.88,,,,,,,,,,,CAVOK,,,,,,,,VFR,,,,,,,,,,,,METAR,46
LIBA 160055Z 27006KT CAVOK 23/17 Q1013 RMK SCT SCT130 VIS MIN 9999 WIND THR11 28009KT WIND THR29 /////KT BLU,LIBA,2025-08-16T00:55:00Z,41.538,15.714,23,17,270,6,,6+,29.91,,,,,,,,,,,CAVOK,,,,,,,,VFR,,,,,,,,,,,,METAR,55
KXNO 160055Z AUTO 00000KT 10SM CLR 29/26 A3004 RMK AO2 LTG DSNT NW-N SLP172 T02850255 $,KXNO,2025-08-16T00:55:00Z,33.612,-81.07,28.5,25.5,0,0,,10+,30.04,1017.2,,TRUE,TRUE,TRUE,,,,,,CLR,,,,,,,,VFR,,,,,,,,,,,,METAR,94
KXMR 160055Z AUTO 15006KT 10SM CLR 30/24 A3002 RMK AO2 LTG DSNT W SLP169 T02990240 $,KXMR,2025-08-16T00:55:00Z,28.4674,-80.5589,29.9,24,150,6,,10+,30.02,1016.9,,TRUE,TRUE,TRUE,,,,,,CLR,,,,,,,,VFR,,,,,,,,,,,,METAR,5
KXIF 160055Z AUTO 00000KT 10SM CLR 24/23 A3013 RMK AO2 SLP201 T02390225 $,KXIF,2025-08-16T00:55:00Z,-99.99,-99.99,23.9,22.5,0,0,,10+,30.13,1020.1,,TRUE,TRUE,TRUE,,,,,,CLR,,,,,,,,VFR,,,,,,,,,,,,METAR,9999
KWRI 160055Z AUTO 12005KT 10SM FEW120 24/21 A3015 RMK AO2 SLP208 T02370206 $,KWRI,2025-08-16T00:55:00Z,40.016,-74.591,23.7,20.6,120,5,,10+,30.15,1020.8,,TRUE,TRUE,TRUE,,,,,,FEW,12000,,,,,,,VFR,,,,,,,,,,,,METAR,35
KWRB 160055Z AUTO 34006KT 10SM SCT060 29/25 A3004 RMK AO2 SLP172 T02940247,KWRB,2025-08-16T00:55:00Z,32.639,-83.593,29.4,24.7,340,6,,10+,30.04,1017.2,,TRUE,TRUE,,,,,,,SCT,6000,,,,,,,VFR,,,,,,,,,,,,METAR,82
KWHP 160055Z 14008G13KT 10SM SKC 25/15 A2995,KWHP,2025-08-16T00:55:00Z,34.2596,-118.415,25,15,140,8,13,10+,29.95,,,,,,,,,,,SKC,,,,,,,,VFR,,,,,,,,,,,,METAR,302
KVPS 160055Z AUTO 29008KT 10SM VCTS OVC130 25/23 A3011 RMK AO2 RAB2355E09 TSB2355E27 SLP202 P0001 T02530231 $,KVPS,2025-08-16T00:55:00Z,30.483,-86.526,25.3,23.1,290,8,,10+,30.11,1020.2,,TRUE,TRUE,TRUE,,,,,VCTS,OVC,13000,,,,,,,VFR,,,,,,0.01,,,,,,METAR,21
KVGN 160055Z AUTO 32007KT 8SM BKN013 17/14 A2998 RMK AO2 SLP154 T01690136 $,KVGN,2025-08-16T00:55:00Z,34.8494,-120.6,16.9,13.6,320,7,,8,29.98,1015.4,,TRUE,TRUE,TRUE,,,,,,BKN,1300,,,,,,,MVFR,,,,,,,,,,,,METAR,93
KVAD 160055Z AUTO 29007KT 10SM CLR 29/25 A3003 RMK AO2 SLP169 T02900247 $,KVAD,2025-08-16T00:55:00Z,30.979,-83.192,29,24.7,290,7,,10+,30.03,1016.9,,TRUE,TRUE,TRUE,,,,,,CLR,,,,,,,,VFR,,,,,,,,,,,,METAR,70
KU19 160055Z AUTO 15010G20KT 10SM CLR 34/M02 A2991 RMK AO2 PK WND 11036/25 SLPNO T03401019,KU19,2025-08-16T00:55:00Z,40.1604,-113.351,34,-1.9,150,10,20,10+,29.91,,,TRUE,TRUE,,,,,,,CLR,,,,,,,,VFR,,,,,,,,,,,,METAR,1310
KU16 160055Z AUTO 14016G21KT 10SM CLR 33/01 A2991 RMK AO2 SLP068 T03300009,KU16,2025-08-16T00:55:00Z,41.059,-113.083,33,0.9,140,16,21,10+,29.91,1006.8,,TRUE,TRUE,,,,,,,CLR,,,,,,,,VFR,,,,,,,,,,,,METAR,1292
KTTS 160055Z AUTO 13003KT 10SM CLR 29/25 A3003 RMK AO2 SLP173 T02900247 $,KTTS,2025-08-16T00:55:00Z,28.5987,-80.6815,29,24.7,130,3,,10+,30.03,1017.3,,TRUE,TRUE,TRUE,,,,,,CLR,,,,,,,,VFR,,,,,,,,,,,,METAR,1
KTQS 160055Z AUTO 32005KT 6SM HZ OVC008 15/13 A3000 RMK AO2 SLP162 T01540131 $,KTQS,2025-08-16T00:55:00Z,34.633,-120.617,15.4,13.1,320,5,,6,30.00,1016.2,,TRUE,TRUE,TRUE,,,,,HZ,OVC,800,,,,,,,IFR,,,,,,,,,,,,METAR,34
KTIK 160055Z AUTO 18007KT 10SM CLR 32/21 A2996 RMK AO2 SLP131 T03180213 $,KTIK,2025-08-16T00:55:00Z,35.415,-97.386,31.8,21.3,180,7,,10+,29.96,1013.1,,TRUE,TRUE,TRUE,,,,,,CLR,,,,,,,,VFR,,,,,,,,,,,,METAR,387
KTDR 160055Z AUTO 00000KT 9SM CLR 28/24 A3004 RMK AO2 SLP173 T02760238,KTDR,2025-08-16T00:55:00Z,30.038,-85.528,27.6,23.8,0,0,,9,30.04,1017.3,,TRUE,TRUE,,,,,,,CLR,,,,,,,,VFR,,,,,,,,,,,,METAR,4
KTBX 160055Z AUTO 08015G21KT 10SM CLR 23/M03 A3027 RMK AO2,KTBX,2025-08-16T00:55:00Z,43.4644,-108.238,23,-3,80,15,21,10+,30.27,,,TRUE,TRUE,,,,,,,CLR,,,,,,,,VFR,,,,,,,,,,,,METAR,2230
KTBN 160055Z AUTO 16004KT 10SM CLR 31/21 A3004 RMK AO2 SLP162 T03100209,KTBN,2025-08-16T00:55:00Z,37.7445,-92.1447,31,20.9,160,4,,10+,30.04,1016.2,,TRUE,TRUE,,,,,,,CLR,,,,,,,,VFR,,,,,,,,,,,,METAR,349
KT70 160055Z AUTO 14015KT 10SM CLR 34/21 A2992 RMK AO2 LTG DSNT NW SLP117 T03440207 $,KT70,2025-08-16T00:55:00Z,29.117,-100.473,34.4,20.7,140,15,,10+,29.92,1011.7,,TRUE,TRUE,TRUE,,,,,,CLR,,,,,,,,VFR,,,,,,,,,,,,METAR,296
KSZL 160055Z 17004KT 10SM CLR 31/24 A3002 RMK AO2A SLP159 T03070236 VISNO RWY01 CHINO RWY01 $,KSZL,2025-08-16T00:55:00Z,38.736,-93.55,30.7,23.6,170,4,,10+,30.02,1015.9,,,TRUE,TRUE,,,,,,CLR,,,,,,,,VFR,,,,,,,,,,,,METAR,259
KSXS 160055Z AUTO 27003KT 10SM BKN240 25/23 A3011 RMK AO2 LTG DSNT S-SW SLP194 T02490226 $,KSXS,2025-08-16T00:55:00Z,31.364,-85.846,24.9,22.6,270,3,,10+,30.11,1019.4,,TRUE,TRUE,TRUE,,,,,,BKN,24000,,,,,,,VFR,,,,,,,,,,,,METAR,120
KSVN 160055Z 00000KT 10SM SCT200 SCT220 25/23 A3003 RMK AO2A LTG DSNT SW RAB2356E00RAB02E04 TSB2356E11 SLPNO P//// T02500232 CHINO RWY28 $,KSVN,2025-08-16T00:55:00Z,32.011,-81.131,25,23.2,0,0,,10+,30.03,,,,TRUE,TRUE,,,,,,SCT,20000,SCT,22000,,,,,VFR,,,,,,,,,,,,METAR,13
KSUU 160055Z AUTO 22016KT 10SM CLR 30/13 A2979 RMK AO2 SLP094 T03000128 $,KSUU,2025-08-16T00:55:00Z,38.25,-121.938,30,12.8,220,16,,10+,29.79,1009.4,,TRUE,TRUE,TRUE,,,,,,CLR,,,,,,,,VFR,,,,,,,,,,,,METAR,9
KSSC 160055Z AUTO 00000KT 10SM CLR 29/26 A3003 RMK AO2 SLP168 T02940257 $,KSSC,2025-08-16T00:55:00Z,33.978,-80.466,29.4,25.7,0,0,,10+,30.03,1016.8,,TRUE,TRUE,TRUE,,,,,,CLR,,,,,,,,VFR,,,,,,,,,,,,METAR,71
KSLI 160055Z AUTO 19009KT 8SM SCT019 22/16 A2990 RMK AO2 SLP128 T02210159,KSLI,2025-08-16T00:55:00Z,33.796,-118.042,22.1,15.9,190,9,,8,29.90,1012.8,,TRUE,TRUE,,,,,,,SCT,1900,,,,,,,VFR,,,,,,,,,,,,METAR,8
KSKF 160055Z AUTO 10014KT 10SM CLR 34/19 A2994 RMK AO2 SLP129 T03360189 $,KSKF,2025-08-16T00:55:00Z,29.392,-98.581,33.6,18.9,100,14,,10+,29.94,1012.9,,TRUE,TRUE,TRUE,,,,,,CLR,,,,,,,,VFR,,,,,,,,,,,,METAR,214
KSKA 160055Z 22009KT 10SM OVC065 25/11 A2989 RMK AO2A SLPNO T02480106 $,KSKA,2025-08-16T00:55:00Z,47.612,-117.679,24.8,10.6,220,9,,10+,29.89,,,,TRUE,TRUE,,,,,,OVC,6500,,,,,,,VFR,,,,,,,,,,,,METAR,754
KSHM 160055Z AUTO 21005KT 10SM BKN140 28/07 A3010 RMK AO2 SLP100 T02750068 $,KSHM,2025-08-16T00:55:00Z,38.8,-104.52,27.5,6.8,210,5,,10+,30.10,1010,,TRUE,TRUE,TRUE,,,,,,BKN,14000,,,,,,,VFR,,,,,,,,,,,,METAR,1900
KSEQ 160055Z AUTO 14015G21KT 9SM CLR 32/22 A2995 RMK AO2 LTG DSNT W SLP137 T03180219,KSEQ,2025-08-16T00:55:00Z,29.566,-97.908,31.8,21.9,140,15,21,9,29.95,1013.7,,TRUE,TRUE,,,,,,,CLR,,,,,,,,VFR,,,,,,,,,,,,METAR,160
KSCK 160055Z 25018KT 10SM CLR 33/11 A2981 RMK AO2 SLP094 T03280111,KSCK,2025-08-16T00:55:00Z,37.89,-121.226,32.8,11.1,250,18,,10+,29.81,1009.4,,,TRUE,,,,,,,CLR,,,,,,,,VFR,,,,,,,,,,,,METAR,8
KRYM 160055Z AUTO 09003KT 10SM BKN046 26/23 A2995 RMK AO2 SLP140 T02570226 $,KRYM,2025-08-16T00:55:00Z,46.0878,-94.353,25.7,22.6,90,3,,10+,29.95,1014,,TRUE,TRUE,TRUE,,,,,,BKN,4600,,,,,,,VFR,,,,,,,,,,,,METAR,344
KRNO 160055Z 28017G23KT 10SM FEW090 SCT150 BKN200 32/02 A2995 RMK AO2 WSHFT 0002 SLP080 T03220022,KRNO,2025-08-16T00:55:00Z,39.5077,-119.768,32.2,2.2,280,17,23,10+,29.95,1008,,,TRUE,,,,,,,FEW,9000,SCT,15000,BKN,20000,,,VFR,,,,,,,,,,,,METAR,1344
KRND 160055Z AUTO 12015KT 10SM CLR 32/20 A2998 RMK AO2 SLP143 T03220204,KRND,2025-08-16T00:55:00Z,29.537,-98.268,32.2,20.4,120,15,,10+,29.98,1014.3,,TRUE,TRUE,,,,,,,CLR,,,,,,,,VFR,,,,,,,,,,,,METAR,224
KRIV 160055Z AUTO 31010KT 10SM CLR 28/14 A2991 RMK AO2 SLP116 T02810143,KRIV,2025-08-16T00:55:00Z,33.878,-117.244,28.1,14.3,310,10,,10+,29.91,1011.6,,TRUE,TRUE,,,,,,,CLR,,,,,,,,VFR,,,,,,,,,,,,METAR,454
KRDR 160055Z AUTO 02005KT 10SM CLR 21/14 A2998 RMK AO2 SLP157 T02140138 $,KRDR,2025-08-16T00:55:00Z,47.9477,-97.4029,21.4,13.8,20,5,,10+,29.98,1015.7,,TRUE,TRUE,TRUE,,,,,,CLR,,,,,,,,VFR,,,,,,,,,,,,METAR,276
KQTZ 160055Z 27004KT 9000 HZ SKC 31/06 A2940 RMK SLP960 FIRST,KQTZ,2025-08-16T00:55:00Z,-99.99,-99.99,31,6,270,4,,5.59,29.40,996,,,,,,,,,HZ,SKC,,,,,,,,VFR,,,,,,,,,,,,METAR,9999
KQBR 160055Z AUTO 14007KT 10SM BKN200 32/04 A2997 RMK AO2 SLP021 WND DATA ESTMD T03200038,KQBR,2025-08-16T00:55:00Z,-99.99,-99.99,32,3.8,140,7,,10+,29.97,1002.1,,TRUE,TRUE,,,,,,,BKN,20000,,,,,,,VFR,,,,,,,,,,,,METAR,9999
KPSM 160055Z 00000KT 10SM CLR 19/12 A3018 RMK AO2A SLP222 T01910119,KPSM,2025-08-16T00:55:00Z,43.0677,-70.8127,19.1,11.9,0,0,,10+,30.18,1022.2,,,TRUE,,,,,,,CLR,,,,,,,,VFR,,,,,,,,,,,,METAR,34
KPOE 160055Z 22004KT 8SM FEW260 26/23 A3004 RMK AO2A LTG DSNT NE SLP172 T02640232,KPOE,2025-08-16T00:55:00Z,31.047,-93.194,26.4,23.2,220,4,,8,30.04,1017.2,,,TRUE,,,,,,,FEW,26000,,,,,,,VFR,,,,,,,,,,,,METAR,98
KPOB 160055Z AUTO 00000KT 10SM FEW044 28/25 A3006 RMK AO2 SLP179 T02790249 $,KPOB,2025-08-16T00:55:00Z,35.175,-79.008,27.9,24.9,0,0,,10+,30.06,1017.9,,TRUE,TRUE,TRUE,,,,,,FEW,4400,,,,,,,VFR,,,,,,,,,,,,METAR,57
KPHP 160055Z AUTO 10011KT 10SM CLR 32/21 A2987 RMK AO2 SLP088 T03220211 $,KPHP,2025-08-16T00:55:00Z,44.051,-101.601,32.2,21.1,100,11,,10+,29.87,1008.8,,TRUE,TRUE,TRUE,,,,,,CLR,,,,,,,,VFR,,,,,,,,,,,,METAR,673
KPAM 160055Z 15004KT 10SM BKN180 28/24 A3009 RMK AO2A SLP192 T02760240,KPAM,2025-08-16T00:55:00Z,30.071,-85.577,27.6,24,150,4,,10+,30.09,1019.2,,,TRUE,,,,,,,BKN,18000,,,,,,,VFR,,,,,,,,,,,,METAR,4
KP58 160055Z AUTO 15004KT 24/18 A3010 RMK AO1 SLP183 T02390183 $,KP58,2025-08-16T00:55:00Z,44.0217,-82.7929,23.9,18.3,150,4,,,30.10,1018.3,,TRUE,TRUE,TRUE,,,,,,,,,,,,,,,,,,,,,,,,,,METAR,180
KOZR 160055Z AUTO 30004KT 10SM BKN220 26/22 A3009 RMK AO2 LTG DSNT S SLP188 T02550224 $,KOZR,2025-08-16T00:55:00Z,31.2767,-85.7105,25.5,22.4,300,4,,10+,30.09,1018.8,,TRUE,TRUE,TRUE,,,,,,BKN,22000,,,,,,,VFR,,,,,,,,,,,,METAR,90
KOFF 160055Z 15006KT 7SM SCT080 BKN120 BKN250 31/25 A2995 RMK AO2A SLPNO WND DATA ESTMD ALSTG/SLP ESTMD T03100251 $,KOFF,2025-08-16T00:55:00Z,41.122,-95.91,31,25.1,150,6,,7,29.95,,,,TRUE,TRUE,,,,,,SCT,8000,BKN,12000,BKN,25000,,,VFR,,,,,,,,,,,,METAR,308
KNTD 160055Z 27012KT 10SM FEW012 21/16 A2995 RMK AO2 SLP143 T02060161 $,KNTD,2025-08-16T00:55:00Z,34.124,-119.123,20.6,16.1,270,12,,10+,29.95,1014.3,,,TRUE,TRUE,,,,,,FEW,1200,,,,,,,VFR,,,,,,,,,,,,METAR,1
KNKX 160055Z AUTO 18008KT 10SM CLR 21/14 A2995 RMK AO2 SLP137 T02110144,KNKX,2025-08-16T00:55:00Z,32.865,-117.137,21.1,14.4,180,8,,10+,29.95,1013.7,,TRUE,TRUE,,,,,,,CLR,,,,,,,,VFR,,,,,,,,,,,,METAR,138
KNKT 160055Z 11003KT 10SM FEW037 27/25 A3006 RMK AO2 TSE32 SLP176 T02670250,KNKT,2025-08-16T00:55:00Z,34.897,-76.881,26.7,25,110,3,,10+,30.06,1017.6,,,TRUE,,,,,,,FEW,3700,,,,,,,VFR,,,,,,,,,,,,METAR,8
KNBG 160055Z 00000KT 10SM BKN130 BKN250 24/23 A3007 RMK SLP182 T02440233,KNBG,2025-08-16T00:55:00Z,29.837,-90.024,24.4,23.3,0,0,,10+,30.07,1018.2,,,,,,,,,,BKN,13000,BKN,25000,,,,,VFR,,,,,,,,,,,,METAR,
KMXF 160055Z AUTO 00000KT 10SM OVC170 24/23 A3009 RMK AO2 LTG DSNT W DZB2355E13RAB13E27DZB27E33 SLP190 P0001 T02430232,KMXF,2025-08-16T00:55:00Z,32.3877,-86.3724,24.3,23.2,0,0,,10+,30.09,1019,,TRUE,TRUE,,,,,,,OVC,17000,,,,,,,VFR,,,,,,0.01,,,,,,METAR,47
KMUO 160055Z AUTO 31009KT 8SM CLR 34/00 A2986 RMK AO2 SLP080 T03370003,KMUO,2025-08-16T00:55:00Z,43.03,-115.859,33.7,0.3,310,9,,8,29.86,1008,,TRUE,TRUE,,,,,,,CLR,,,,,,,,VFR,,,,,,,,,,,,METAR,915
KMUI 160055Z 00000KT 10SM OVC090 27/23 A3011 RMK AO2A SLP195 T02700226,KMUI,2025-08-16T00:55:00Z,40.4381,-76.5643,27,22.6,0,0,,10+,30.11,1019.5,,,TRUE,,,,,,,OVC,9000,,,,,,,VFR,,,,,,,,,,,,METAR,146
KMMT 160055Z AUTO 00000KT 10SM CLR 29/26 A3002 RMK AO2 LTG DSNT W-NW SLP166 T02860256 $,KMMT,2025-08-16T00:55:00Z,33.922,-80.802,28.6,25.6,0,0,,10+,30.02,1016.6,,TRUE,TRUE,TRUE,,,,,,CLR,,,,,,,,VFR,,,,,,,,,,,,METAR,76
KMKG 160055Z 15004KT 10SM FEW250 26/18 A3006 RMK AO2 SLP176 T02610178,KMKG,2025-08-16T00:55:00Z,43.1711,-86.2368,26.1,17.8,150,4,,10+,30.06,1017.6,,,TRUE,,,,,,,FEW,25000,,,,,,,VFR,,,,,,,,,,,,METAR,190
KMIB 160055Z 12005KT 10SM BKN100 22/11 A2998 RMK AO2A SLP155 T02180112,KMIB,2025-08-16T00:55:00Z,48.4062,-101.341,21.8,11.2,120,5,,10+,29.98,1015.5,,,TRUE,,,,,,,BKN,10000,,,,,,,VFR,,,,,,,,,,,,METAR,505
KMGE 160055Z 18003KT 10SM SCT042 OVC200 24/23 A3011 RMK AO2A SLP185 P0007 T02370226 $,KMGE,2025-08-16T00:55:00Z,33.9189,-84.5266,23.7,22.6,180,3,,10+,30.11,1018.5,,,TRUE,TRUE,,,,,,SCT,4200,OVC,20000,,,,,VFR,,,,,,0.07,,,,,,METAR,309
KMFV 160055Z AUTO 08003KT 10SM CLR 24/22 A3010 RMK AO2 T02400220,KMFV,2025-08-16T00:55:00Z,37.646,-75.763,24,22,80,3,,10+,30.10,,,TRUE,TRUE,,,,,,,CLR,,,,,,,,VFR,,,,,,,,,,,,METAR,13
KMCF 160055Z AUTO 29004KT 10SM SCT050 BKN070 31/25 A3006 RMK AO2 LTG DSNT NE TSB2355E06 SLP182 T03110254,KMCF,2025-08-16T00:55:00Z,27.8598,-82.5133,31.1,25.4,290,4,,10+,30.06,1018.2,,TRUE,TRUE,,,,,,,SCT,5000,BKN,7000,,,,,VFR,,,,,,,,,,,,METAR,3
KLUF 160055Z AUTO 12011KT 10SM FEW095 FEW180 39/14 A2981 RMK AO2 LTG DSNT SW-W SLP078 T03850136 $,KLUF,2025-08-16T00:55:00Z,33.538,-112.38,38.5,13.6,120,11,,10+,29.81,1007.8,,TRUE,TRUE,TRUE,,,,,,FEW,9500,FEW,18000,,,,,VFR,,,,,,,,,,,,METAR,333
KLTS 160055Z AUTO 15012KT 10SM CLR 33/20 A2996 RMK AO2 SLP125 T03310202 $,KLTS,2025-08-16T00:55:00Z,34.666,-99.27,33.1,20.2,150,12,,10+,29.96,1012.5,,TRUE,TRUE,TRUE,,,,,,CLR,,,,,,,,VFR,,,,,,,,,,,,METAR,416
KLSV 160055Z AUTO 16015G22KT 10SM CLR 38/08 A2975 RMK AO2 PK WND 18026/25 LTG DSNT W SLP042 T03810079 $,KLSV,2025-08-16T00:55:00Z,36.236,-115.034,38.1,7.9,160,15,22,10+,29.75,1004.2,,TRUE,TRUE,TRUE,,,,,,CLR,,,,,,,,VFR,,,,,,,,,,,,METAR,563
KLSF 160055Z AUTO 00000KT 10SM CLR 26/23 A3006 RMK AO2 SLP182 T02570233 $,KLSF,2025-08-16T00:55:00Z,32.3239,-84.9826,25.7,23.3,0,0,,10+,30.06,1018.2,,TRUE,TRUE,TRUE,,,,,,CLR,,,,,,,,VFR,,,,,,,,,,,,METAR,68
KLRF 160055Z AUTO 20007G16KT 10SM CLR 33/23 A3005 RMK AO2 SLP174 T03260229 $,KLRF,2025-08-16T00:55:00Z,34.92,-92.131,32.6,22.9,200,7,16,10+,30.05,1017.4,,TRUE,TRUE,TRUE,,,,,,CLR,,,,,,,,VFR,,,,,,,,,,,,METAR,85
KLOR 160055Z AUTO 29003KT 10SM FEW250 25/23 A3011 RMK AO2 LTG DSNT SW SLP178 T02460228,KLOR,2025-08-16T00:55:00Z,31.36,-85.749,24.6,22.8,290,3,,10+,30.11,1017.8,,TRUE,TRUE,,,,,,,FEW,25000,,,,,,,VFR,,,,,,,,,,,,METAR,92
KLLJ 160055Z AUTO 28010G22KT 10SM CLR 32/M03 A2994 RMK AO2 SLP068 T03171033,KLLJ,2025-08-16T00:55:00Z,44.523,-114.216,31.7,-3.3,280,10,22,10+,29.94,1006.8,,TRUE,TRUE,,,,,,,CLR,,,,,,,,VFR,,,,,,,,,,,,METAR,1535
KLGF 160055Z AUTO 20015G19KT 9SM CLR 39/19 A2975 RMK AO2 SLP070 T03880186 $,KLGF,2025-08-16T00:55:00Z,32.868,-114.393,38.8,18.6,200,15,19,9,29.75,1007,,TRUE,TRUE,TRUE,,,,,,CLR,,,,,,,,VFR,,,,,,,,,,,,METAR,118
KLFI 160055Z 09008KT 10SM SCT015 26/23 A3008 RMK AO2A SLP192 T02640232 $,KLFI,2025-08-16T00:55:00Z,37.088,-76.349,26.4,23.2,90,8,,10+,30.08,1019.2,,,TRUE,TRUE,,,,,,SCT,1500,,,,,,,VFR,,,,,,,,,,,,METAR,2
KLCK 160055Z AUTO 00000KT 10SM CLR 27/22 A3012 RMK AO2 T02660215,KLCK,2025-08-16T00:55:00Z,39.83,-82.919,26.6,21.5,0,0,,10+,30.12,,,TRUE,TRUE,,,,,,,CLR,,,,,,,,VFR,,,,,,,,,,,,METAR,225
KIRK 160055Z AUTO 11003KT 10SM CLR 29/25 A3006 RMK AO2 SLP173 T02890250 $,KIRK,2025-08-16T00:55:00Z,40.0966,-92.5469,28.9,25,110,3,,10+,30.06,1017.3,,TRUE,TRUE,TRUE,,,,,,CLR,,,,,,,,VFR,,,,,,,,,,,,METAR,292
KIAB 160055Z AUTO 18009KT 10SM CLR 33/23 A2996 RMK AO2 SLP129 T03290226,KIAB,2025-08-16T00:55:00Z,37.622,-97.268,32.9,22.6,180,9,,10+,29.96,1012.9,,TRUE,TRUE,,,,,,,CLR,,,,,,,,VFR,,,,,,,,,,,,METAR,413
KHST 160055Z AUTO 07004KT 10SM CLR 29/24 A3006 RMK AO2 SLP183 T02900243 VISNO RWY24 $,KHST,2025-08-16T00:55:00Z,25.49,-80.379,29,24.3,70,4,,10+,30.06,1018.3,,TRUE,TRUE,TRUE,,,,,,CLR,,,,,,,,VFR,,,,,,,,,,,,METAR,1
KHOP 160055Z AUTO 02003KT 10SM CLR 30/21 A3006 RMK AO2 SLP174 T02980209,KHOP,2025-08-16T00:55:00Z,36.672,-87.495,29.8,20.9,20,3,,10+,30.06,1017.4,,TRUE,TRUE,,,,,,,CLR,,,,,,,,VFR,,,,,,,,,,,,METAR,170
KHMN 160055Z AUTO 26008KT 10SM SCT110 31/12 A3011 RMK AO2 SLP114 T03060115 $,KHMN,2025-08-16T00:55:00Z,32.852,-106.108,30.6,11.5,260,8,,10+,30.11,1011.4,,TRUE,TRUE,TRUE,,,,,,SCT,11000,,,,,,,VFR,,,,,,,,,,,,METAR,1240
KHLR 160055Z AUTO 16012G19KT 8SM CLR 31/20 A3001 RMK AO2 LTG DSNT W SLP151 T03140200,KHLR,2025-08-16T00:55:00Z,31.1361,-97.7149,31.4,20,160,12,19,8,30.01,1015.1,,TRUE,TRUE,,,,,,,CLR,,,,,,,,VFR,,,,,,,,,,,,METAR,271
KHIF 160055Z 12006KT 10SM FEW160 BKN190 31/00 A2998 RMK AO2A SLP080 T03070001,KHIF,2025-08-16T00:55:00Z,41.111,-111.962,30.7,0.1,120,6,,10+,29.98,1008,,,TRUE,,,,,,,FEW,16000,BKN,19000,,,,,VFR,,,,,,,,,,,,METAR,1461
KHFF 160055Z AUTO 00000KT 10SM CLR 28/24 A3006 RMK AO2 SLP178 T02750241 $,KHFF,2025-08-16T00:55:00Z,35.0424,-79.4973,27.5,24.1,0,0,,10+,30.06,1017.8,,TRUE,TRUE,TRUE,,,,,,CLR,,,,,,,,VFR,,,,,,,,,,,,METAR,100
KHEY 160055Z AUTO 32003KT 10SM FEW170 25/23 A3010 RMK AO2 LTG DSNT SW-W SLP192 T02540232,KHEY,2025-08-16T00:55:00Z,31.348,-85.655,25.4,23.2,320,3,,10+,30.10,1019.2,,TRUE,TRUE,,,,,,,FEW,17000,,,,,,,VFR,,,,,,,,,,,,METAR,95
KGUS 160055Z AUTO 13005KT 10SM CLR 28/22 A3007 RMK AO2 SLP178 T02750220 $,KGUS,2025-08-16T00:55:00Z,40.6375,-86.1631,27.5,22,130,5,,10+,30.07,1017.8,,TRUE,TRUE,TRUE,,,,,,CLR,,,,,,,,VFR,,,,,,,,,,,,METAR,245
KGUR 160055Z AUTO 03005KT 8SM FEW170 30/08 A2998 RMK AO2 SLP123 T03020080,KGUR,2025-08-16T00:55:00Z,42.261,-104.732,30.2,8,30,5,,8,29.98,1012.3,,TRUE,TRUE,,,,,,,FEW,17000,,,,,,,VFR,,,,,,,,,,,,METAR,1341
KGTB 160055Z AUTO 00000KT 10SM CLR 21/09 A3013 RMK AO2 SLP200 T02100089 $,KGTB,2025-08-16T00:55:00Z,44.0617,-75.7218,21,8.9,0,0,,10+,30.13,1020,,TRUE,TRUE,TRUE,,,,,,CLR,,,,,,,,VFR,,,,,,,,,,,,METAR,206
KGSB 160055Z 00000KT 10SM FEW040 FEW090 SCT220 27/23 A3007 RMK AO2A SLP182 T02700228 $,KGSB,2025-08-16T00:55:00Z,35.3446,-77.9458,27,22.8,0,0,,10+,30.07,1018.2,,,TRUE,TRUE,,,,,,FEW,4000,FEW,9000,SCT,22000,,,VFR,,,,,,,,,,,,METAR,33
KGRK 160055Z AUTO 14013KT 10SM FEW055 31/21 A3002 RMK AO2 LTG DSNT W SLP151 T03140209,KGRK,2025-08-16T00:55:00Z,31.0779,-97.8323,31.4,20.9,140,13,,10+,30.02,1015.1,,TRUE,TRUE,,,,,,,FEW,5500,,,,,,,VFR,,,,,,,,,,,,METAR,311
KGPI 160055Z 02007KT 10SM FEW100 24/08 A2991 RMK AO2 SLP119 T02390078 $,KGPI,2025-08-16T00:55:00Z,48.3041,-114.264,23.9,7.8,20,7,,10+,29.91,1011.9,,,TRUE,TRUE,,,,,,FEW,10000,,,,,,,VFR,,,,,,,,,,,,METAR,903
KGOV 160055Z AUTO 00000KT 8SM CLR 24/17 A3009 RMK AO2 SLP191 T02350170 $,KGOV,2025-08-16T00:55:00Z,44.681,-84.727,23.5,17,0,0,,8,30.09,1019.1,,TRUE,TRUE,TRUE,,,,,,CLR,,,,,,,,VFR,,,,,,,,,,,,METAR,350
KGFA 160055Z AUTO 28007KT 10SM BKN170 31/05 A2984 RMK AO2 SLP079 T03090053 $,KGFA,2025-08-16T00:55:00Z,47.505,-111.187,30.9,5.3,280,7,,10+,29.84,1007.9,,TRUE,TRUE,TRUE,,,,,,BKN,17000,,,,,,,VFR,,,,,,,,,,,,METAR,1058
KFTK 160055Z AUTO 35004KT 10SM CLR 27/24 A3007 RMK AO2 SLP177 T02650243,KFTK,2025-08-16T00:55:00Z,37.907,-85.973,26.5,24.3,350,4,,10+,30.07,1017.7,,TRUE,TRUE,,,,,,,CLR,,,,,,,,VFR,,,,,,,,,,,,METAR,225
KFRI 160055Z AUTO 16010KT 10SM CLR 33/22 A2994 RMK AO2 SLP125 T03330217 $,KFRI,2025-08-16T00:55:00Z,39.0568,-96.7617,33.3,21.7,160,10,,10+,29.94,1012.5,,TRUE,TRUE,TRUE,,,,,,CLR,,,,,,,,VFR,,,,,,,,,,,,METAR,232
KFHU 160055Z AUTO 12006KT 10SM BKN190 BKN220 25/15 A3017 RMK AO2 LTG DSNT SE-W SLP153 T02540145,KFHU,2025-08-16T00:55:00Z,31.586,-110.348,25.4,14.5,120,6,,10+,30.17,1015.3,,TRUE,TRUE,,,,,,,BKN,19000,BKN,22000,,,,,VFR,,,,,,,,,,,,METAR,1424
KFFO 160055Z AUTO 00000KT 10SM SCT050 BKN060 28/23 A3011 RMK AO2 SLP191 T02770226,KFFO,2025-08-16T00:55:00Z,39.837,-84.035,27.7,22.6,0,0,,10+,30.11,1019.1,,TRUE,TRUE,,,,,,,SCT,5000,BKN,6000,,,,,VFR,,,,,,,,,,,,METAR,250
KFEW 160055Z AUTO 35006KT 10SM OVC120 26/09 A3013 RMK AO2 LTG DSNT E SLP118 T02620086 $,KFEW,2025-08-16T00:55:00Z,41.141,-104.869,26.2,8.6,350,6,,10+,30.13,1011.8,,TRUE,TRUE,TRUE,,,,,,OVC,12000,,,,,,,VFR,,,,,,,,,,,,METAR,1877
KFCS 160055Z AUTO 14003KT 10SM OVC130 27/07 A3008 RMK AO2 SLP114 T02740067 $,KFCS,2025-08-16T00:55:00Z,38.6756,-104.751,27.4,6.7,140,3,,10+,30.08,1011.4,,TRUE,TRUE,TRUE,,,,,,OVC,13000,,,,,,,VFR,,,,,,,,,,,,METAR,1789
KFBG 160055Z AUTO 00000KT 10SM FEW050 FEW095 FEW120 29/25 A3006 RMK AO2 DZB2356E18 SLP180 P0000 T02880247 RVRNO $,KFBG,2025-08-16T00:55:00Z,35.131,-78.932,28.8,24.7,0,0,,10+,30.06,1018,,TRUE,TRUE,TRUE,,,,,,FEW,5000,FEW,9500,FEW,12000,,,VFR,,,,,,0.005,,,,,,METAR,69
KFAF 160055Z 09005KT 10SM CLR 27/23 A3005 RMK AO2A SLP179 T02730233 $,KFAF,2025-08-16T00:55:00Z,37.134,-76.61,27.3,23.3,90,5,,10+,30.05,1017.9,,,TRUE,TRUE,,,,,,CLR,,,,,,,,VFR,,,,,,,,,,,,METAR,3
KEND 160055Z AUTO 19015KT 10SM CLR 34/20 A2993 RMK AO2 SLP119 T03420198 $,KEND,2025-08-16T00:55:00Z,36.338,-97.919,34.2,19.8,190,15,,10+,29.93,1011.9,,TRUE,TRUE,TRUE,,,,,,CLR,,,,,,,,VFR,,,,,,,,,,,,METAR,392
KEGI 160055Z AUTO 28005KT 10SM FEW015 SCT160 25/24 A3013 RMK AO2 LTG DSNT SE-NW RAE10RAB11E16RAB23E23RAB34E38 TSB2355E24 PRESRR SLP202 P//// T02480236 $,KEGI,2025-08-16T00:55:00Z,30.653,-86.525,24.8,23.6,280,5,,10+,30.13,1020.2,,TRUE,TRUE,TRUE,,,,,,FEW,1500,SCT,16000,,,,,VFR,,,,,,,,,,,,METAR,59
KEDW 160055Z 24020G26KT 50SM CLR 33/01 A2986 RMK AO2A PK WND 23026/11 SLP086 T03340012,KEDW,2025-08-16T00:55:00Z,34.908,-117.874,33.4,1.2,240,20,26,50,29.86,1008.6,,,TRUE,,,,,,,CLR,,,,,,,,VFR,,,,,,,,,,,,METAR,698
KEAT 160055Z AUTO 26003KT 10SM BKN065 OVC110 26/14 A2980 RMK AO2 RAB37E46 SLP083 P0000 T02560144,KEAT,2025-08-16T00:55:00Z,47.3975,-120.201,25.6,14.4,260,3,,10+,29.80,1008.3,,TRUE,TRUE,,,,,,,BKN,6500,OVC,11000,,,,,VFR,,,,,,0.005,,,,,,METAR,375
KDYS 160055Z AUTO 15012KT 10SM CLR 34/15 A2998 RMK AO2 SLP121 T03420146,KDYS,2025-08-16T00:55:00Z,32.406,-99.85,34.2,14.6,150,12,,10+,29.98,1012.1,,TRUE,TRUE,,,,,,,CLR,,,,,,,,VFR,,,,,,,,,,,,METAR,544
KDOV 160055Z AUTO 10007KT 10SM OVC014 25/23 A3011 RMK AO2 CIG 013 RWY14 CIG 013 RWY19 SLP200 T02540229,KDOV,2025-08-16T00:55:00Z,39.13,-75.465,25.4,22.9,100,7,,10+,30.11,1020,,TRUE,TRUE,,,,,,,OVC,1400,,,,,,,MVFR,,,,,,,,,,,,METAR,6
KDLH 160055Z 20005KT 10SM FEW022 24/22 A3000 RMK AO2 SLP156 T02390217 $,KDLH,2025-08-16T00:55:00Z,46.8435,-92.1866,23.9,21.7,200,5,,10+,30.00,1015.6,,,TRUE,TRUE,,,,,,FEW,2200,,,,,,,VFR,,,,,,,,,,,,METAR,434
KDLF 160055Z AUTO 11010KT 10SM CLR 36/18 A2989 RMK AO2 SLP107 T03600176 $,KDLF,2025-08-16T00:55:00Z,29.3666,-100.785,36,17.6,110,10,,10+,29.89,1010.7,,TRUE,TRUE,TRUE,,,,,,CLR,,,,,,,,VFR,,,,,,,,,,,,METAR,328
KDAA 160055Z AUTO 00000KT 10SM OVC095 27/23 A3007 RMK AO2 SLP185 T02650231 $,KDAA,2025-08-16T00:55:00Z,38.714,-77.178,26.5,23.1,0,0,,10+,30.07,1018.5,,TRUE,TRUE,TRUE,,,,,,OVC,9500,,,,,,,VFR,,,,,,,,,,,,METAR,17
KCWN 160055Z AUTO 02004KT 10SM BKN120 OVC140 27/05 A3017 RMK AO2 SLP014 T02710054 $,KCWN,2025-08-16T00:55:00Z,38.748,-104.847,27.1,5.4,20,4,,10+,30.17,1001.4,,TRUE,TRUE,TRUE,,,,,,BKN,12000,OVC,14000,,,,,VFR,,,,,,,,,,,,METAR,2040
KCWF 160055Z 10008KT 10SM CLR 27/23 A3005,KCWF,2025-08-16T00:55:00Z,30.2216,-93.1467,27,23,100,8,,10+,30.05,,,,,,,,,,,CLR,,,,,,,,VFR,,,,,,,,,,,,METAR,4
KCVS 160055Z AUTO 15011KT 10SM FEW100 32/09 A3008 RMK AO2 SLP114 T03160091 $,KCVS,2025-08-16T00:55:00Z,34.381,-103.322,31.6,9.1,150,11,,10+,30.08,1011.4,,TRUE,TRUE,TRUE,,,,,,FEW,10000,,,,,,,VFR,,,,,,,,,,,,METAR,1305
KCOF 160055Z AUTO 15007KT 10SM CLR 30/25 A3003 RMK AO2 LTG DSNT W SLP174 T03040245 $,KCOF,2025-08-16T00:55:00Z,28.242,-80.608,30.4,24.5,150,7,,10+,30.03,1017.4,,TRUE,TRUE,TRUE,,,,,,CLR,,,,,,,,VFR,,,,,,,,,,,,METAR,1
KCNW 160055Z 14008KT 10SM CLR 32/20 A3000,KCNW,2025-08-16T00:55:00Z,31.637,-97.071,32,20,140,8,,10+,30.00,,,,,,,,,,,CLR,,,,,,,,VFR,,,,,,,,,,,,METAR,139
KCNK 160055Z AUTO 18010KT 10SM CLR 33/22 A2994 RMK AO2 SLP118 T03330217 $,KCNK,2025-08-16T00:55:00Z,39.5513,-97.6508,33.3,21.7,180,10,,10+,29.94,1011.8,,TRUE,TRUE,TRUE,,,,,,CLR,,,,,,,,VFR,,,,,,,,,,,,METAR,445
KCMA 160055Z AUTO 26011KT 10SM CLR 22/16 A2994 RMK AO2 SLP146 T02170161,KCMA,2025-08-16T00:55:00Z,34.2114,-119.088,21.7,16.1,260,11,,10+,29.94,1014.6,,TRUE,TRUE,,,,,,,CLR,,,,,,,,VFR,,,,,,,,,,,,METAR,20
KCEF 160055Z 14006KT 10SM CLR 24/17 A3014 RMK AO2A SLP209 T02400167,KCEF,2025-08-16T00:55:00Z,42.201,-72.525,24,16.7,140,6,,10+,30.14,1020.9,,,TRUE,,,,,,,CLR,,,,,,,,VFR,,,,,,,,,,,,METAR,72
KCAO 160055Z AUTO 20013G22KT 10SM CLR 30/07 A3012 RMK AO2 PK WND 19026/2357 SLP122 T03000072,KCAO,2025-08-16T00:55:00Z,36.4483,-103.154,30,7.2,200,13,22,10+,30.12,1012.2,,TRUE,TRUE,,,,,,,CLR,,,,,,,,VFR,,,,,,,,,,,,METAR,1517
KBLV 160055Z AUTO 17004KT 10SM CLR 31/24 A3003 RMK AO2 SLP167 T03130241,KBLV,2025-08-16T00:55:00Z,38.54,-89.845,31.3,24.1,170,4,,10+,30.03,1016.7,,TRUE,TRUE,,,,,,,CLR,,,,,,,,VFR,,,,,,,,,,,,METAR,134
KBKT 160055Z AUTO 00000KT 10SM FEW039 FEW055 26/24 A3010 RMK AO2 SLP192 T02600242,KBKT,2025-08-16T00:55:00Z,37.082,-77.953,26,24.2,0,0,,10+,30.10,1019.2,,TRUE,TRUE,,,,,,,FEW,3900,FEW,5500,,,,,VFR,,,,,,,,,,,,METAR,134
KBIX 160055Z AUTO 30004KT 10SM FEW220 29/24 A3007 RMK AO2 SLP185 T02870244,KBIX,2025-08-16T00:55:00Z,30.415,-88.922,28.7,24.4,300,4,,10+,30.07,1018.5,,TRUE,TRUE,,,,,,,FEW,22000,,,,,,,VFR,,,,,,,,,,,,METAR,4
KBIF 160055Z AUTO M 10SM OVC140 31/14 A3007 RMK AO2 LTG DSNT SE PRESRR SLP111 T03100137 $,KBIF,2025-08-16T00:55:00Z,31.861,-106.369,31,13.7,,,,10+,30.07,1011.1,,TRUE,TRUE,TRUE,,,,,,OVC,14000,,,,,,,VFR,,,,,,,,,,,,METAR,1201
KBAD 160055Z AUTO 11008KT 10SM CLR 32/23 A3004 RMK AO2 LTG DSNT S SLP175 T03230232,KBAD,2025-08-16T00:55:00Z,32.488,-93.658,32.3,23.2,110,8,,10+,30.04,1017.5,,TRUE,TRUE,,,,,,,CLR,,,,,,,,VFR,,,,,,,,,,,,METAR,49
KBAB 160055Z AUTO 18009KT 10SM CLR 36/09 A2976 RMK AO2 SLP080 T03620089 $,KBAB,2025-08-16T00:55:00Z,39.145,-121.436,36.2,8.9,180,9,,10+,29.76,1008,,TRUE,TRUE,TRUE,,,,,,CLR,,,,,,,,VFR,,,,,,,,,,,,METAR,31
KANJ 160055Z AUTO 18003KT 10SM CLR 23/17 A3005 RMK AO2 SLP171 T02330172,KANJ,2025-08-16T00:55:00Z,46.48,-84.3581,23.3,17.2,180,3,,10+,30.05,1017.1,,TRUE,TRUE,,,,,,,CLR,,,,,,,,VFR,,,,,,,,,,,,METAR,220
KAFF 160055Z 36003KT 10SM SCT150 BKN170 27/05 A3015 RMK AO2A SLP110 T02650054,KAFF,2025-08-16T00:55:00Z,38.971,-104.816,26.5,5.4,360,3,,10+,30.15,1011,,,TRUE,,,,,,,SCT,15000,BKN,17000,,,,,VFR,,,,,,,,,,,,METAR,2003
KADW 160055Z 07003KT 10SM FEW100 27/23 A3009 RMK SLP194 T02730229 FZRANO TSNO $,KADW,2025-08-16T00:55:00Z,38.8215,-76.8654,27.3,22.9,70,3,,10+,30.09,1019.4,,,,TRUE,,TRUE,TRUE,,,FEW,10000,,,,,,,VFR,,,,,,,,,,,,METAR,87
KABH 160055Z AUTO 22005KT 10SM SCT150 27/07 A3013 RMK AO2 SLP124 T02690073,KABH,2025-08-16T00:55:00Z,38.7587,-104.299,26.9,7.3,220,5,,10+,30.13,1012.4,,TRUE,TRUE,,,,,,,SCT,15000,,,,,,,VFR,,,,,,,,,,,,METAR,1838
KAAT 160055Z AUTO 34013KT 10SM CLR 29/05 A2998 RMK AO2 SLP113 T02940050,KAAT,2025-08-16T00:55:00Z,41.4836,-120.561,29.4,5,340,13,,10+,29.98,1011.3,,TRUE,TRUE,,,,,,,CLR,,,,,,,,VFR,,,,,,,,,,,,METAR,1336
K9L2 160055Z AUTO 20018G24KT 8SM CLR 33/06 A2987 RMK AO2 PK WND 24027/38 SLP090 T03290062,K9L2,2025-08-16T00:55:00Z,34.996,-117.857,32.9,6.2,200,18,24,8,29.87,1009,,TRUE,TRUE,,,,,,,CLR,,,,,,,,VFR,,,,,,,,,,,,METAR,697
K4MR 160055Z AUTO 23008KT 10SM CLR 30/12 A3006 RMK AO2 LTG DSNT SW SLP083 T02950124 $,K4MR,2025-08-16T00:55:00Z,34.29,-103.791,29.5,12.4,230,8,,10+,30.06,1008.3,,TRUE,TRUE,TRUE,,,,,,CLR,,,,,,,,VFR,,,,,,,,,,,,METAR,1339
K2DP 160055Z AUTO 01005KT M M CLR 26/24 A3004 RMK AO2 SLP179 T02570241 RVRNO PWINO TSNO $,K2DP,2025-08-16T00:55:00Z,35.672,-75.892,25.7,24.1,10,5,,,30.04,1017.9,,TRUE,TRUE,TRUE,,TRUE,,TRUE,,CLR,,,,,,,,,,,,,,,,,,,,METAR,1
K1YT 160055Z AUTO 20010KT 10SM SCT095 BKN120 BKN150 26/14 A2978 RMK AO2 SLP080 T02630141 $,K1YT,2025-08-16T00:55:00Z,46.668,-120.457,26.3,14.1,200,10,,10+,29.78,1008,,TRUE,TRUE,TRUE,,,,,,SCT,9500,BKN,12000,BKN,15000,,,VFR,,,,,,,,,,,,METAR,423
K1OW 160055Z AUTO 19014G28KT 9SM TS SCT095 SCT110 BKN140 25/11 A3019 RMK AO2 PK WND 21036/21 RAE2355RAB15E52 TSE2355TSB15 SLP155 P0000 T02470105 $,K1OW,2025-08-16T00:55:00Z,40.885,-103.999,24.7,10.5,190,14,28,9,30.19,1015.5,,TRUE,TRUE,TRUE,,,,,TS,SCT,9500,SCT,11000,BKN,14000,,,VFR,,,,,,0.005,,,,,,METAR,1650
K1OM 160055Z AUTO 12008KT 10SM CLR 27/13 A2985 RMK AO2 SLP086 T02740133 $,K1OM,2025-08-16T00:55:00Z,47.328,-108.927,27.4,13.3,120,8,,10+,29.85,1008.6,,TRUE,TRUE,TRUE,,,,,,CLR,,,,,,,,VFR,,,,,,,,,,,,METAR,1088
K1NW 160055Z AUTO 20023G32KT 10SM VCTS FEW070 BKN090 OVC110 26/11 A2996 RMK AO2 PK WND 21041/09 RAE2355RAB13E45 TSE45 PRESFR SLP083 P0001 T02560106 $,K1NW,2025-08-16T00:55:00Z,40.632,-103.836,25.6,10.6,200,23,32,10+,29.96,1008.3,,TRUE,TRUE,TRUE,,,,,VCTS,FEW,7000,BKN,9000,OVC,11000,,,VFR,,,,,,0.01,,,,,,METAR,1461
K1NN 160055Z AUTO 04003KT 10SM OVC110 21/08 A3000 RMK AO2 SLP165 T02120078 $,K1NN,2025-08-16T00:55:00Z,48.76,-101.59,21.2,7.8,40,3,,10+,30.00,1016.5,,TRUE,TRUE,TRUE,,,,,,OVC,11000,,,,,,,VFR,,,,,,,,,,,,METAR,516
K1NM 160055Z AUTO 20006KT 10SM CLR 28/14 A2986 RMK AO2 SLP085 T02750141 $,K1NM,2025-08-16T00:55:00Z,47.059,-109.031,27.5,14.1,200,6,,10+,29.86,1008.5,,TRUE,TRUE,TRUE,,,,,,CLR,,,,,,,,VFR,,,,,,,,,,,,METAR,1169
K1MW 160055Z AUTO 25012G24KT 10SM VCTS FEW065 SCT090 OVC130 29/09 A2996 RMK AO2 PK WND 22028/21 TSE2355TSB40E54 SLP088 T02900086 $,K1MW,2025-08-16T00:55:00Z,40.704,-103.477,29,8.6,250,12,24,10+,29.96,1008.8,,TRUE,TRUE,TRUE,,,,,VCTS,FEW,6500,SCT,9000,OVC,13000,,,VFR,,,,,,,,,,,,METAR,1338
K1MN 160055Z AUTO 07004KT 10SM OVC100 20/15 A3000 RMK AO2 SLP163 T02000152 $,K1MN,2025-08-16T00:55:00Z,48.67,-101.88,20,15.2,70,4,,10+,30.00,1016.3,,TRUE,TRUE,TRUE,,,,,,OVC,10000,,,,,,,VFR,,,,,,,,,,,,METAR,569
K1MM 160055Z AUTO 09005KT 10SM CLR 30/16 A2987 RMK AO2 SLP076 T02970161 $,K1MM,2025-08-16T00:55:00Z,47.014,-109.63,29.7,16.1,90,5,,10+,29.87,1007.6,,TRUE,TRUE,TRUE,,,,,,CLR,,,,,,,,VFR,,,,,,,,,,,,METAR,1256
K1LN 160055Z AUTO 07006KT 10SM OVC100 20/12 A3000 RMK AO2 SLP163 T02010121 $,K1LN,2025-08-16T00:55:00Z,48.79,-102.27,20.1,12.1,70,6,,10+,30.00,1016.3,,TRUE,TRUE,TRUE,,,,,,OVC,10000,,,,,,,VFR,,,,,,,,,,,,METAR,601
K1KW 160055Z AUTO 09006KT 10SM VCTS FEW180 SCT240 31/15 A2997 RMK AO2 SLP082 T03080152 $,K1KW,2025-08-16T00:55:00Z,41.137,-103.488,30.8,15.2,90,6,,10+,29.97,1008.2,,TRUE,TRUE,TRUE,,,,,VCTS,FEW,18000,SCT,24000,,,,,VFR,,,,,,,,,,,,METAR,1443
K1KN 160055Z AUTO 10004KT 10SM OVC090 19/14 A3002 RMK AO2 SLP168 T01930135 $,K1KN,2025-08-16T00:55:00Z,48.55,-102.12,19.3,13.5,100,4,,10+,30.02,1016.8,,TRUE,TRUE,TRUE,,,,,,OVC,9000,,,,,,,VFR,,,,,,,,,,,,METAR,693
K1KM 160055Z AUTO 17008KT 10SM CLR 30/08 A2989 RMK AO2 SLP081 T02990077 $,K1KM,2025-08-16T00:55:00Z,46.444,-109.801,29.9,7.7,170,8,,10+,29.89,1008.1,,TRUE,TRUE,TRUE,,,,,,CLR,,,,,,,,VFR,,,,,,,,,,,,METAR,1332
K1JW 160055Z AUTO 07008KT 10SM FEW170 29/17 A2994 RMK AO2 LTG DSNT SW-W SLP079 T02930174 $,K1JW,2025-08-16T00:55:00Z,40.961,-103.199,29.3,17.4,70,8,,10+,29.94,1007.9,,TRUE,TRUE,TRUE,,,,,,FEW,17000,,,,,,,VFR,,,,,,,,,,,,METAR,1382
K1JN 160055Z AUTO 07006KT 10SM OVC090 19/14 A3001 RMK AO2 SLP165 T01940136 $,K1JN,2025-08-16T00:55:00Z,48.41,-101.89,19.4,13.6,70,6,,10+,30.01,1016.5,,TRUE,TRUE,TRUE,,,,,,OVC,9000,,,,,,,VFR,,,,,,,,,,,,METAR,670
K1JM 160055Z AUTO 01009KT 10SM M 28/08 A2986 RMK AO2 SLP091 T02750084 $,K1JM,2025-08-16T00:55:00Z,47.751,-111.547,27.5,8.4,10,9,,10+,29.86,1009.1,,TRUE,TRUE,TRUE,,,,,,,,,,,,,,VFR,,,,,,,,,,,,METAR,1154
K1IN 160055Z AUTO 08008KT 10SM OVC090 21/13 A2998 RMK AO2 SLP153 T02090131 PWINO $,K1IN,2025-08-16T00:55:00Z,48.34,-102.3,20.9,13.1,80,8,,10+,29.98,1015.3,,TRUE,TRUE,TRUE,,,,TRUE,,OVC,9000,,,,,,,VFR,,,,,,,,,,,,METAR,678
K1IM 160055Z AUTO 03010KT 10SM CLR 31/03 A2982 RMK AO2 SLP069 T03100031 $,K1IM,2025-08-16T00:55:00Z,47.312,-111.473,31,3.1,30,10,,10+,29.82,1006.9,,TRUE,TRUE,TRUE,,,,,,CLR,,,,,,,,VFR,,,,,,,,,,,,METAR,1110
K1HW 160055Z AUTO 09005KT 10SM BKN150 30/19 A2992 RMK AO2 SLP082 T03010185 $,K1HW,2025-08-16T00:55:00Z,41.325,-102.83,30.1,18.5,90,5,,10+,29.92,1008.2,,TRUE,TRUE,TRUE,,,,,,BKN,15000,,,,,,,VFR,,,,,,,,,,,,METAR,1265
K1HM 160055Z AUTO 01010KT 10SM FEW150 27/04 A2987 RMK AO2 LTG DSNT S SLP097 T02740038 $,K1HM,2025-08-16T00:55:00Z,47.698,-111.943,27.4,3.8,10,10,,10+,29.87,1009.7,,TRUE,TRUE,TRUE,,,,,,FEW,15000,,,,,,,VFR,,,,,,,,,,,,METAR,1181
K1GW 160055Z AUTO 14006KT 10SM FEW170 29/17 A2997 RMK AO2 LTG DSNT SW-W SLP094 T02890174 $,K1GW,2025-08-16T00:55:00Z,41.208,-103.097,28.9,17.4,140,6,,10+,29.97,1009.4,,TRUE,TRUE,TRUE,,,,,,FEW,17000,,,,,,,VFR,,,,,,,,,,,,METAR,1335
K1GN 160055Z AUTO 06007KT 10SM CLR 21/13 A2998 RMK AO2 SLP155 T02110128 $,K1GN,2025-08-16T00:55:00Z,48.12,-101.96,21.1,12.8,60,7,,10+,29.98,1015.5,,TRUE,TRUE,TRUE,,,,,,CLR,,,,,,,,VFR,,,,,,,,,,,,METAR,644
K1GM 160055Z AUTO 24010KT 10SM CLR 29/04 A2985 RMK AO2 SLP078 T02880043 $,K1GM,2025-08-16T00:55:00Z,47.325,-112.093,28.8,4.3,240,10,,10+,29.85,1007.8,,TRUE,TRUE,TRUE,,,,,,CLR,,,,,,,,VFR,,,,,,,,,,,,METAR,1317
K1EW 160055Z AUTO 17022G32KT 9SM TS BKN090 BKN110 27/10 A3006 RMK AO2 PK WND 18032/48 TSE2355TSB17 SLP113 T02720095 $,K1EW,2025-08-16T00:55:00Z,41.103,-103.983,27.2,9.5,170,22,32,9,30.06,1011.3,,TRUE,TRUE,TRUE,,,,,TS,BKN,9000,BKN,11000,,,,,VFR,,,,,,,,,,,,METAR,1609
K1EM 160055Z AUTO 10010KT 10SM CLR 28/14 A2985 RMK AO2 SLP084 T02770136 $,K1EM,2025-08-16T00:55:00Z,47.454,-109.416,27.7,13.6,100,10,,10+,29.85,1008.4,,TRUE,TRUE,TRUE,,,,,,CLR,,,,,,,,VFR,,,,,,,,,,,,METAR,1118
K1DN 160055Z AUTO 07010KT 10SM CLR 21/13 M RMK AO2 SLPNO T02130132 $,K1DN,2025-08-16T00:55:00Z,47.8,-101.3,21.3,13.2,70,10,,10+,0.00,,,TRUE,TRUE,TRUE,,,,,,CLR,,,,,,,,VFR,,,,,,,,,,,,METAR,632
K1DM 160055Z AUTO 03006KT 10SM CLR 30/12 A2985 RMK AO2 SLP083 T02960116 $,K1DM,2025-08-16T00:55:00Z,47.376,-109.814,29.6,11.6,30,6,,10+,29.85,1008.3,,TRUE,TRUE,TRUE,,,,,,CLR,,,,,,,,VFR,,,,,,,,,,,,METAR,1093
K1CW 160055Z AUTO 05005KT 10SM CLR 31/13 A2998 RMK AO2 LTG DSNT S-SW SLP088 T03050133 PWINO $,K1CW,2025-08-16T00:55:00Z,41.581,-103.573,30.5,13.3,50,5,,10+,29.98,1008.8,,TRUE,TRUE,TRUE,,,,TRUE,,CLR,,,,,,,,VFR,,,,,,,,,,,,METAR,1370
K1CM 160055Z AUTO 31009KT 10SM CLR 29/05 M RMK AO2 SLPNO T02880049 $,K1CM,2025-08-16T00:55:00Z,47.096,-110.164,28.8,4.9,310,9,,10+,0.00,,,TRUE,TRUE,TRUE,,,,,,CLR,,,,,,,,VFR,,,,,,,,,,,,METAR,1338
K1BW 160055Z AUTO 04005KT 10SM CLR 29/11 A3007 RMK AO2 LTG DSNT SE-S SLP110 T02860107 $,K1BW,2025-08-16T00:55:00Z,41.511,-103.995,28.6,10.7,40,5,,10+,30.07,1011,,TRUE,TRUE,TRUE,,,,,,CLR,,,,,,,,VFR,,,,,,,,,,,,METAR,1606
K1BN 160055Z AUTO 05005KT 10SM CLR 21/13 A2998 RMK AO2 SLP154 T02060133 $,K1BN,2025-08-16T00:55:00Z,47.91,-100.93,20.6,13.3,50,5,,10+,29.98,1015.4,,TRUE,TRUE,TRUE,,,,,,CLR,,,,,,,,VFR,,,,,,,,,,,,METAR,589
K1BM 160055Z AUTO 01007KT 10SM CLR 29/08 M RMK AO2 SLPNO T02910082 $,K1BM,2025-08-16T00:55:00Z,47.285,-110.359,29.1,8.2,10,7,,10+,0.00,,,TRUE,TRUE,TRUE,,,,,,CLR,,,,,,,,VFR,,,,,,,,,,,,METAR,1234
K1AW 160055Z AUTO 03006KT 10SM OVC170 28/11 A3005 RMK AO2 LTG DSNT E-S SLP101 T02800111 $,K1AW,2025-08-16T00:55:00Z,41.329,-104.265,28,11.1,30,6,,10+,30.05,1010.1,,TRUE,TRUE,TRUE,,,,,,OVC,17000,,,,,,,VFR,,,,,,,,,,,,METAR,1670
K1AM 160055Z AUTO 03006KT 10SM CLR 29/04 M RMK AO2 SLPNO T02920039 $,K1AM,2025-08-16T00:55:00Z,47.281,-110.801,29.2,3.9,30,6,,10+,0.00,,,TRUE,TRUE,TRUE,,,,,,CLR,,,,,,,,VFR,,,,,,,,,,,,METAR,1228
FJDG 160055Z 10010KT 9999 FEW020 FEW050 BKN090 26/23 A2977 RMK SLP078 T025602333,FJDG,2025-08-16T00:55:00Z,-7.313,72.411,25.6,23.3,100,10,,6+,29.77,1007.8,,,,,,,,,,FEW,2000,FEW,5000,BKN,9000,,,VFR,,,,,,,,,,,,METAR,3
ETOU 160055Z AUTO 02007KT 9999 CLR 23/13 A3016 RMK AO2 SLP212 T02250130,ETOU,2025-08-16T00:55:00Z,50.048,8.329,22.5,13,20,7,,6+,30.16,1021.2,,TRUE,TRUE,,,,,,,CLR,,,,,,,,VFR,,,,,,,,,,,,METAR,141
ETIK 160055Z AUTO 00000KT 9999 CLR 20/17 A3013 RMK AO2 LTG DSNT N SLP197 T02010165,ETIK,2025-08-16T00:55:00Z,49.472,10.39,20.1,16.5,0,0,,6+,30.13,1019.7,,TRUE,TRUE,,,,,,,CLR,,,,,,,,VFR,,,,,,,,,,,,METAR,326
ETIH 160055Z AUTO 00000KT 9999 CLR 20/16 A3011 RMK AO2 SLP187 T01980158,ETIH,2025-08-16T00:55:00Z,49.216,11.839,19.8,15.8,0,0,,6+,30.11,1018.7,,TRUE,TRUE,,,,,,,CLR,,,,,,,,VFR,,,,,,,,,,,,METAR,436
ETIC 160055Z AUTO 00000KT 9999 CLR 20/16 A3010 RMK AO2 SLP186 T01970161,ETIC,2025-08-16T00:55:00Z,49.696,11.941,19.7,16.1,0,0,,6+,30.10,1018.6,,TRUE,TRUE,,,,,,,CLR,,,,,,,,VFR,,,,,,,,,,,,METAR,414
ETEB 160055Z AUTO 35007KT 9999 CLR 23/16 A3012 RMK AO2 SLP201 T02250158 PWINO $,ETEB,2025-08-16T00:55:00Z,49.308,10.639,22.5,15.8,350,7,,6+,30.12,1020.1,,TRUE,TRUE,TRUE,,,,TRUE,,CLR,,,,,,,,VFR,,,,,,,,,,,,METAR,466
ETAR 160055Z AUTO 00000KT 9999 CLR 16/14 A3014 RMK AO2 SLP205 T01580143,ETAR,2025-08-16T00:55:00Z,49.437,7.6,15.8,14.3,0,0,,6+,30.14,1020.5,,TRUE,TRUE,,,,,,,CLR,,,,,,,,VFR,,,,,,,,,,,,METAR,231
ETAD 160055Z AUTO 02007KT 9999 CLR 20/14 A3019 RMK AO2 SLP207 T02010138,ETAD,2025-08-16T00:55:00Z,49.979,6.698,20.1,13.8,20,7,,6+,30.19,1020.7,,TRUE,TRUE,,,,,,,CLR,,,,,,,,VFR,,,,,,,,,,,,METAR,365
EHFS 160055Z AUTO 01008KT 340V040 9999 SCT014/// OVC016/// 19/16 Q1025,EHFS,2025-08-16T00:55:00Z,51.441,3.596,19,16,10,8,,6+,30.27,,,TRUE,,,,,,,,SCT,1400,OVC,1600,,,,,MVFR,,,,,,,,,,,,METAR,1
EGVA 160055Z AUTO 05007KT 9999 CLR 19/14 A3032 RMK AO2 SLP269 T01870140 $,EGVA,2025-08-16T00:55:00Z,51.682,-1.79,18.7,14,50,7,,6+,30.32,1026.9,,TRUE,TRUE,TRUE,,,,,,CLR,,,,,,,,VFR,,,,,,,,,,,,METAR,84
EGUN 160055Z AUTO 04008KT 9999 OVC014 17/13 A3034 RMK AO2 SLP277 T01680133 $,EGUN,2025-08-16T00:55:00Z,52.362,0.486,16.8,13.3,40,8,,6+,30.34,1027.7,,TRUE,TRUE,TRUE,,,,,,OVC,1400,,,,,,,MVFR,,,,,,,,,,,,METAR,10
EGUL 160055Z AUTO 01005KT 9999 OVC013 17/14 A3034 RMK AO2 CIG 012 RWY05 SLP278 T01730136 FZRANO $,EGUL,2025-08-16T00:55:00Z,52.409,0.561,17.3,13.6,10,5,,6+,30.34,1027.8,,TRUE,TRUE,TRUE,,,TRUE,,,OVC,1300,,,,,,,MVFR,,,,,,,,,,,,METAR,8
EBLB 160055Z AUTO VRB02KT //// NCD 14/13 Q1025,EBLB,2025-08-16T00:55:00Z,50.482,6.181,14,13,VRB,2,,,30.27,,,TRUE,,,,,,,,CLR,,,,,,,,,,,,,,,,,,,,METAR,563
EBFS 160055Z AUTO VRB01KT 9999 FEW160/// OVC220/// 17/15 Q1024 BLU,EBFS,2025-08-16T00:55:00Z,50.243,4.646,17,15,VRB,1,,6+,30.24,,,TRUE,,,,,,,,FEW,16000,OVC,22000,,,,,VFR,,,,,,,,,,,,METAR,276
EBDT 160055Z AUTO 36007KT 9999 OVC008/// 19/17 Q1024 GRN,EBDT,2025-08-16T00:55:00Z,51.005,5.067,19,17,360,7,,6+,30.24,,,TRUE,,,,,,,,OVC,800,,,,,,,IFR,,,,,,,,,,,,METAR,25
EBCV 160055Z AUTO 02007KT 5000 BR OVC006/// 18/17 Q1024 YLO,EBCV,2025-08-16T00:55:00Z,50.576,3.831,18,17,20,7,,3.11,30.24,,,TRUE,,,,,,,BR,OVC,600,,,,,,,IFR,,,,,,,,,,,,METAR,56
EBBL 160055Z AUTO 01005KT 9999 OVC009/// 18/16 Q1024 GRN,EBBL,2025-08-16T00:55:00Z,51.168,5.47,18,16,10,5,,6+,30.24,,,TRUE,,,,,,,,OVC,900,,,,,,,IFR,,,,,,,,,,,,METAR,50
EBBE 160055Z AUTO 36006KT 9999 BKN006/// 18/17 Q1024 YLO,EBBE,2025-08-16T00:55:00Z,50.759,4.768,18,17,360,6,,6+,30.24,,,TRUE,,,,,,,,BKN,600,,,,,,,IFR,,,,,,,,,,,,METAR,127
BGTL 160055Z AUTO 36003KT 9999 OVC060 06/M01 A2988 RMK AO2 SLP100 T00611009 TSNO $,BGTL,2025-08-16T00:55:00Z,76.527,-68.758,6.1,-0.9,360,3,,6+,29.88,1010,,TRUE,TRUE,TRUE,,TRUE,,,,OVC,6000,,,,,,,VFR,,,,,,,,,,,,METAR,79
PTTP 160054Z 05005KT 15SM SCT018 BKN130 OVC300 31/27 A2986 RMK SLP111 T03100268,PTTP,2025-08-16T00:54:00Z,6.96,158.21,31,26.8,50,5,,15,29.86,1011.1,,,,,,,,,,SCT,1800,BKN,13000,OVC,30000,,,VFR,,,,,,,,,,,,METAR,36
PHOG 160054Z 05018G28KT 10SM FEW040 32/20 A2999 RMK AO2 PK WND 03031/0043 SLP159 T03170200 $,PHOG,2025-08-16T00:54:00Z,20.8887,-156.435,31.7,20,50,18,28,10+,29.99,1015.9,,,TRUE,TRUE,,,,,,FEW,4000,,,,,,,VFR,,,,,,,,,,,,METAR,14
PHMK 160054Z 05014G23KT 10SM SCT055 29/19 A3003 RMK AO2 SLP170 T02890194,PHMK,2025-08-16T00:54:00Z,21.1545,-157.096,28.9,19.4,50,14,23,10+,30.03,1017,,,TRUE,,,,,,,SCT,5500,,,,,,,VFR,,,,,,,,,,,,METAR,135
PGUM 160054Z 12007KT 10SM FEW070 31/24 A2991 RMK AO2 SLP118 T03060244,PGUM,2025-08-16T00:54:00Z,13.4796,144.796,30.6,24.4,120,7,,10+,29.91,1011.8,,,TRUE,,,,,,,FEW,7000,,,,,,,VFR,,,,,,,,,,,,METAR,74
PGSN 160054Z 14006KT 10SM SCT020 31/25 A2990,PGSN,2025-08-16T00:54:00Z,15.116,145.72,31,25,140,6,,10+,29.90,,,,,,,,,,,SCT,2000,,,,,,,VFR,,,,,,,,,,,,METAR,65
PAKN 160054Z 34014G23KT 10SM BKN065 16/03 A3002 RMK AO2 SLP165 T01560028 $,PAKN,2025-08-16T00:54:00Z,58.683,-156.656,15.6,2.8,340,14,23,10+,30.02,1016.5,,,TRUE,TRUE,,,,,,BKN,6500,,,,,,,VFR,,,,,,,,,,,,METAR,20
PAHN 160054Z AUTO 00000KT 10SM BKN080 OVC090 17/12 A2948 RMK AO2 RAB14E24 SLP987 P0000 T01670122 TSNO,PAHN,2025-08-16T00:54:00Z,59.243,-135.511,16.7,12.2,0,0,,10+,29.48,998.7,,TRUE,TRUE,,,TRUE,,,,BKN,8000,OVC,9000,,,,,VFR,,,,,,0.005,,,,,,METAR,15
MMSD 160054Z 32005KT 10SM FEW040 BKN250 32/19 A2994 RMK 8/408,MMSD,2025-08-16T00:54:00Z,23.157,-109.72,32,19,320,5,,10+,29.94,,,,,,,,,,,FEW,4000,BKN,25000,,,,,VFR,,,,,,,,,,,,METAR,107
KWLD 160054Z AUTO 16008KT 10SM CLR 32/22 A2999 RMK AO2 SLP141 T03220222,KWLD,2025-08-16T00:54:00Z,37.1649,-97.035,32.2,22.2,160,8,,10+,29.99,1014.1,,TRUE,TRUE,,,,,,,CLR,,,,,,,,VFR,,,,,,,,,,,,METAR,351
KVTA 160054Z AUTO 00000KT 9SM CLR 23/22 A3012 RMK AO2 SLP193 T02330217,KVTA,2025-08-16T00:54:00Z,40.0263,-82.4635,23.3,21.7,0,0,,9,30.12,1019.3,,TRUE,TRUE,,,,,,,CLR,,,,,,,,VFR,,,,,,,,,,,,METAR,268
KVSF 160054Z AUTO 00000KT 10SM CLR 19/14 A3019 RMK AO2 SLP221 T01940139,KVSF,2025-08-16T00:54:00Z,43.3421,-72.5213,19.4,13.9,0,0,,10+,30.19,1022.1,,TRUE,TRUE,,,,,,,CLR,,,,,,,,VFR,,,,,,,,,,,,METAR,176
KVAY 160054Z AUTO VRB03KT 10SM CLR 24/20 A3014 RMK AO2 SLP206 T02390200,KVAY,2025-08-16T00:54:00Z,39.9408,-74.8407,23.9,20,VRB,3,,10+,30.14,1020.6,,TRUE,TRUE,,,,,,,CLR,,,,,,,,VFR,,,,,,,,,,,,METAR,15
KUZA 160054Z AUTO 10SM -RA SCT120 23/22 A3012 RMK AO2 LTG DSNT W RAE27B45 TSE20 SLP188 P0017 T02280217,KUZA,2025-08-16T00:54:00Z,34.9836,-81.0562,22.8,21.7,,,,10+,30.12,1018.8,,TRUE,TRUE,,,,,,-RA,SCT,12000,,,,,,,VFR,,,,,,0.17,,,,,,METAR,198
KUIN 160054Z AUTO 10004KT 10SM CLR 31/25 A3005 RMK AO2 SLP168 T03060250 $,KUIN,2025-08-16T00:54:00Z,39.9371,-91.1966,30.6,25,100,4,,10+,30.05,1016.8,,TRUE,TRUE,TRUE,,,,,,CLR,,,,,,,,VFR,,,,,,,,,,,,METAR,233
KTQE 160054Z AUTO 13006KT 10SM CLR 29/26 A2992 RMK AO2 SLP119 T02890261,KTQE,2025-08-16T00:54:00Z,41.763,-96.1797,28.9,26.1,130,6,,10+,29.92,1011.9,,TRUE,TRUE,,,,,,,CLR,,,,,,,,VFR,,,,,,,,,,,,METAR,312
KTAD 160054Z AUTO 21013G21KT 10SM CLR 28/08 A3014 RMK AO2 SLP120 T02830078,KTAD,2025-08-16T00:54:00Z,37.2618,-104.332,28.3,7.8,210,13,21,10+,30.14,1012,,TRUE,TRUE,,,,,,,CLR,,,,,,,,VFR,,,,,,,,,,,,METAR,1751
KSYR 160054Z 01004KT 10SM FEW300 22/13 A3015 RMK AO2 SLP205 T02220128,KSYR,2025-08-16T00:54:00Z,43.1111,-76.1038,22.2,12.8,10,4,,10+,30.15,1020.5,,,TRUE,,,,,,,FEW,30000,,,,,,,VFR,,,,,,,,,,,,METAR,125
KSUS 160054Z 00000KT 10SM CLR 29/24 A3003 RMK AO2 SLP159 T02940239,KSUS,2025-08-16T00:54:00Z,38.6575,-90.6557,29.4,23.9,0,0,,10+,30.03,1015.9,,,TRUE,,,,,,,CLR,,,,,,,,VFR,,,,,,,,,,,,METAR,140
KSLC 160054Z 16003KT 10SM FEW120 SCT150 BKN200 BKN250 32/02 A2994 RMK AO2 SLP073 VIRGA T03170022 $,KSLC,2025-08-16T00:54:00Z,40.7707,-111.965,31.7,2.2,160,3,,10+,29.94,1007.3,,,TRUE,TRUE,,,,,,FEW,12000,SCT,15000,BKN,20000,BKN,25000,VFR,,,,,,,,,,,,METAR,1286
KSJN 160054Z AUTO VRB04KT 10SM CLR 24/11 A3021 RMK AO2 SLP140 T02440111,KSJN,2025-08-16T00:54:00Z,34.5184,-109.38,24.4,11.1,VRB,4,,10+,30.21,1014,,TRUE,TRUE,,,,,,,CLR,,,,,,,,VFR,,,,,,,,,,,,METAR,1747
KSET 160054Z AUTO 06004KT 10SM CLR 30/25 A3003 RMK AO2 SLP161 T03000250,KSET,2025-08-16T00:54:00Z,38.9304,-90.4329,30,25,60,4,,10+,30.03,1016.1,,TRUE,TRUE,,,,,,,CLR,,,,,,,,VFR,,,,,,,,,,,,METAR,133
KSBY 160054Z 03004KT 10SM CLR 24/23 A3012 RMK AO2 SLP200 T02440228,KSBY,2025-08-16T00:54:00Z,38.3409,-75.5132,24.4,22.8,30,4,,10+,30.12,1020,,,TRUE,,,,,,,CLR,,,,,,,,VFR,,,,,,,,,,,,METAR,14
KSBN 160054Z 16007KT 10SM CLR 28/21 A3008 RMK AO2 SLP179 T02830206,KSBN,2025-08-16T00:54:00Z,41.7072,-86.3163,28.3,20.6,160,7,,10+,30.08,1017.9,,,TRUE,,,,,,,CLR,,,,,,,,VFR,,,,,,,,,,,,METAR,236
KRSP 160054Z AUTO 13006KT 10SM CLR 24/20 A3020 RMK AO2 SLP215 T02440200 PWINO $,KRSP,2025-08-16T00:54:00Z,39.646,-77.468,24.4,20,130,6,,10+,30.20,1021.5,,TRUE,TRUE,TRUE,,,,TRUE,,CLR,,,,,,,,VFR,,,,,,,,,,,,METAR,555
KROC 160054Z 09007KT 10SM FEW070 FEW140 24/13 A3014 RMK AO2 SLP207 T02390128 $,KROC,2025-08-16T00:54:00Z,43.1172,-77.6754,23.9,12.8,90,7,,10+,30.14,1020.7,,,TRUE,TRUE,,,,,,FEW,7000,FEW,14000,,,,,VFR,,,,,,,,,,,,METAR,166
KROA 160054Z 00000KT 10SM SCT075 26/21 A3016 RMK AO2 SLP200 T02610206,KROA,2025-08-16T00:54:00Z,37.3172,-79.9737,26.1,20.6,0,0,,10+,30.16,1020,,,TRUE,,,,,,,SCT,7500,,,,,,,VFR,,,,,,,,,,,,METAR,349
KRKS 160054Z AUTO 26013KT 10SM FEW065 FEW090 BKN110 24/03 A3019 RMK AO2 PK WND 25027/0000 SLP139 T02440028,KRKS,2025-08-16T00:54:00Z,41.5947,-109.053,24.4,2.8,260,13,,10+,30.19,1013.9,,TRUE,TRUE,,,,,,,FEW,6500,FEW,9000,BKN,11000,,,VFR,,,,,,,,,,,,METAR,2062
KRIC 160054Z 08005KT 10SM FEW046 FEW110 SCT300 27/23 A3009 RMK AO2 SLP192 T02720228 $,KRIC,2025-08-16T00:54:00Z,37.5115,-77.3234,27.2,22.8,80,5,,10+,30.09,1019.2,,,TRUE,TRUE,,,,,,FEW,4600,FEW,11000,SCT,30000,,,VFR,,,,,,,,,,,,METAR,51
KRFD 160054Z 17003KT 10SM OVC250 26/22 A3007 RMK AO2 SLP179 T02610222 $,KRFD,2025-08-16T00:54:00Z,42.1915,-89.0876,26.1,22.2,170,3,,10+,30.07,1017.9,,,TRUE,TRUE,,,,,,OVC,25000,,,,,,,VFR,,,,,,,,,,,,METAR,222
KRDG 160054Z 22005KT 5SM -RA FEW036 BKN046 OVC075 26/22 A3012 RMK AO2 RAB42 SLP203 P0002 T02610222,KRDG,2025-08-16T00:54:00Z,40.3734,-75.9593,26.1,22.2,220,5,,5,30.12,1020.3,,,TRUE,,,,,,-RA,FEW,3600,BKN,4600,OVC,7500,,,MVFR,,,,,,0.02,,,,,,METAR,101
KRBL 160054Z AUTO 17012KT 10SM CLR 37/11 A2975 RMK AO2 SLP068 T03720111,KRBL,2025-08-16T00:54:00Z,40.1519,-122.255,37.2,11.1,170,12,,10+,29.75,1006.8,,TRUE,TRUE,,,,,,,CLR,,,,,,,,VFR,,,,,,,,,,,,METAR,107
KPTW 160054Z AUTO VRB03KT SCT075 BKN110 28/20 A3016 RMK AO2 SLP207 T02780200 $,KPTW,2025-08-16T00:54:00Z,40.238,-75.5549,27.8,20,VRB,3,,,30.16,1020.7,,TRUE,TRUE,TRUE,,,,,,SCT,7500,BKN,11000,,,,,,,,,,,,,,,,,METAR,88
KPSF 160054Z AUTO 00000KT 10SM CLR 19/16 A3020 RMK AO2 SLP203 T01940161,KPSF,2025-08-16T00:54:00Z,42.4268,-73.2891,19.4,16.1,0,0,,10+,30.20,1020.3,,TRUE,TRUE,,,,,,,CLR,,,,,,,,VFR,,,,,,,,,,,,METAR,352
KPNE 160054Z 12009KT 10SM FEW120 26/19 A3016 RMK AO2 SLP210 T02610194,KPNE,2025-08-16T00:54:00Z,40.0789,-75.0133,26.1,19.4,120,9,,10+,30.16,1021,,,TRUE,,,,,,,FEW,12000,,,,,,,VFR,,,,,,,,,,,,METAR,32
KPLN 160054Z AUTO 00000KT 10SM CLR 21/15 A3007 RMK AO2 SLP180 T02110150,KPLN,2025-08-16T00:54:00Z,45.5644,-84.7929,21.1,15,0,0,,10+,30.07,1018,,TRUE,TRUE,,,,,,,CLR,,,,,,,,VFR,,,,,,,,,,,,METAR,215
KPIA 160054Z 21003KT 10SM FEW042 31/24 A3007 RMK AO2 SLP176 T03060244,KPIA,2025-08-16T00:54:00Z,40.6675,-89.6842,30.6,24.4,210,3,,10+,30.07,1017.6,,,TRUE,,,,,,,FEW,4200,,,,,,,VFR,,,,,,,,,,,,METAR,200
KPHL 160054Z 13005KT 10SM FEW045 FEW110 SCT250 27/21 A3014 RMK AO2 SLP205 T02720211 $,KPHL,2025-08-16T00:54:00Z,39.8733,-75.2268,27.2,21.1,130,5,,10+,30.14,1020.5,,,TRUE,TRUE,,,,,,FEW,4500,FEW,11000,SCT,25000,,,VFR,,,,,,,,,,,,METAR,2
KPHF 160054Z 09007KT 10SM CLR 26/23 A3009 RMK AO2 SLP188 T02560233,KPHF,2025-08-16T00:54:00Z,37.1322,-76.494,25.6,23.3,90,7,,10+,30.09,1018.8,,,TRUE,,,,,,,CLR,,,,,,,,VFR,,,,,,,,,,,,METAR,12
KORH 160054Z 11006KT 10SM CLR 21/13 A3023 RMK AO2 SLP234 T02060133,KORH,2025-08-16T00:54:00Z,42.2706,-71.8731,20.6,13.3,110,6,,10+,30.23,1023.4,,,TRUE,,,,,,,CLR,,,,,,,,VFR,,,,,,,,,,,,METAR,306
KOLM 160054Z 19013KT 7SM -RA FEW011 BKN035 OVC048 19/18 A2983 RMK AO2 SLP101 P0002 T01940178,KOLM,2025-08-16T00:54:00Z,46.9737,-122.905,19.4,17.8,190,13,,7,29.83,1010.1,,,TRUE,,,,,,-RA,FEW,1100,BKN,3500,OVC,4800,,,VFR,,,,,,0.02,,,,,,METAR,58
KOFP 160054Z AUTO 00000KT 10SM CLR 26/23 A3011 RMK AO2 SLP193 T02560233,KOFP,2025-08-16T00:54:00Z,37.7093,-77.4349,25.6,23.3,0,0,,10+,30.11,1019.3,,TRUE,TRUE,,,,,,,CLR,,,,,,,,VFR,,,,,,,,,,,,METAR,63
KNXP 160054Z COR 21019G24KT 10SM FEW110 36/M01 A2991 RMK SLP089 T03611006,KNXP,2025-08-16T00:54:00Z,34.294,-116.147,36.1,-0.6,210,19,24,10+,29.91,1008.9,TRUE,,,,,,,,,FEW,11000,,,,,,,VFR,,,,,,,,,,,,METAR,610
KNAK 160054Z AUTO 10008KT 10SM CLR 28/23 A3010 RMK AO2 SLP196 T02830228,KNAK,2025-08-16T00:54:00Z,38.9913,-76.4891,28.3,22.8,100,8,,10+,30.10,1019.6,,TRUE,TRUE,,,,,,,CLR,,,,,,,,VFR,,,,,,,,,,,,METAR,2
KN60 160054Z AUTO 06009G16KT 22/12 A2999 RMK AO1 SLP154 T02170122,KN60,2025-08-16T00:54:00Z,47.654,-101.436,21.7,12.2,60,9,16,,29.99,1015.4,,TRUE,TRUE,,,,,,,,,,,,,,,,,,,,,,,,,,,METAR,582
KMTP 160054Z AUTO 00000KT 23/20 A3019 RMK AO1 SLP224 T02330200,KMTP,2025-08-16T00:54:00Z,41.073,-71.9235,23.3,20,0,0,,,30.19,1022.4,,TRUE,TRUE,,,,,,,,,,,,,,,,,,,,,,,,,,,METAR,2
KMTN 160054Z 14007KT 10SM CLR 29/18 A3014,KMTN,2025-08-16T00:54:00Z,39.3214,-76.4065,29,18,140,7,,10+,30.14,,,,,,,,,,,CLR,,,,,,,,VFR,,,,,,,,,,,,METAR,2
KMRY 160054Z 24008KT 10SM BKN009 OVC015 18/15 A3001 RMK AO2 SLP172 T01780150,KMRY,2025-08-16T00:54:00Z,36.5904,-121.849,17.8,15,240,8,,10+,30.01,1017.2,,,TRUE,,,,,,,BKN,900,OVC,1500,,,,,IFR,,,,,,,,,,,,METAR,51
KMOT 160054Z 05005KT 10SM OVC100 20/13 A3001 RMK AO2 SLP160 T02000133,KMOT,2025-08-16T00:54:00Z,48.252,-101.269,20,13.3,50,5,,10+,30.01,1016,,,TRUE,,,,,,,OVC,10000,,,,,,,VFR,,,,,,,,,,,,METAR,507
KMKC 160054Z 18007KT 10SM CLR 32/23 A2998 RMK AO2 SLP142 T03220228,KMKC,2025-08-16T00:54:00Z,39.1279,-94.5892,32.2,22.8,180,7,,10+,29.98,1014.2,,,TRUE,,,,,,,CLR,,,,,,,,VFR,,,,,,,,,,,,METAR,228
KMIV 160054Z AUTO 09006KT 10SM CLR 23/22 A3014 RMK AO2 SLP204 T02330217 $,KMIV,2025-08-16T00:54:00Z,39.3662,-75.0778,23.3,21.7,90,6,,10+,30.14,1020.4,,TRUE,TRUE,TRUE,,,,,,CLR,,,,,,,,VFR,,,,,,,,,,,,METAR,18
KMGJ 160054Z AUTO 36003KT 10SM OVC065 24/20 A3015 RMK AO2 SLP206 T02440200,KMGJ,2025-08-16T00:54:00Z,41.509,-74.2645,24.4,20,360,3,,10+,30.15,1020.6,,TRUE,TRUE,,,,,,,OVC,6500,,,,,,,VFR,,,,,,,,,,,,METAR,106
KMFI 160054Z AUTO 21005KT 10SM BKN060 BKN080 26/22 A3005 RMK AO2 SLP170 T02610222,KMFI,2025-08-16T00:54:00Z,44.6379,-90.1875,26.1,22.2,210,5,,10+,30.05,1017,,TRUE,TRUE,,,,,,,BKN,6000,BKN,8000,,,,,VFR,,,,,,,,,,,,METAR,383
KMEM 160054Z 14003KT 10SM FEW060 SCT250 32/21 A3007 RMK AO2 SLP177 T03220211 $,KMEM,2025-08-16T00:54:00Z,35.0564,-89.9864,32.2,21.1,140,3,,10+,30.07,1017.7,,,TRUE,TRUE,,,,,,FEW,6000,SCT,25000,,,,,VFR,,,,,,,,,,,,METAR,78
KLYH 160054Z 00000KT 10SM CLR 24/21 A3013 RMK AO2 SLP194 T02440211,KLYH,2025-08-16T00:54:00Z,37.3213,-79.2065,24.4,21.1,0,0,,10+,30.13,1019.4,,,TRUE,,,,,,,CLR,,,,,,,,VFR,,,,,,,,,,,,METAR,282
KLWT 160054Z AUTO 10007KT 10SM CLR 27/13 A2992 RMK AO2 SLP096 T02670133,KLWT,2025-08-16T00:54:00Z,47.0544,-109.457,26.7,13.3,100,7,,10+,29.92,1009.6,,TRUE,TRUE,,,,,,,CLR,,,,,,,,VFR,,,,,,,,,,,,METAR,1254
KLWM 160054Z 00000KT 10SM CLR 19/12 A3022 RMK AO2 SLP231 T01890117,KLWM,2025-08-16T00:54:00Z,42.7125,-71.1256,18.9,11.7,0,0,,10+,30.22,1023.1,,,TRUE,,,,,,,CLR,,,,,,,,VFR,,,,,,,,,,,,METAR,42
KLNK 160054Z 16011KT 10SM CLR 32/24 A2993 RMK AO2 SLP120 T03170239,KLNK,2025-08-16T00:54:00Z,40.8478,-96.7647,31.7,23.9,160,11,,10+,29.93,1012,,,TRUE,,,,,,,CLR,,,,,,,,VFR,,,,,,,,,,,,METAR,357
KLEX 160054Z 00000KT 10SM CLR 26/22 A3012 RMK AO2 SLP190 T02610222,KLEX,2025-08-16T00:54:00Z,38.0339,-84.6114,26.1,22.2,0,0,,10+,30.12,1019,,,TRUE,,,,,,,CLR,,,,,,,,VFR,,,,,,,,,,,,METAR,294
KLAF 160054Z AUTO 14003KT 10SM CLR 28/22 A3007 RMK AO2 SLP177 T02830217,KLAF,2025-08-16T00:54:00Z,40.4124,-86.9474,28.3,21.7,140,3,,10+,30.07,1017.7,,TRUE,TRUE,,,,,,,CLR,,,,,,,,VFR,,,,,,,,,,,,METAR,182
KJST 160054Z AUTO 01003KT 10SM CLR 24/13 A3021 RMK AO2 SLP215 T02440133,KJST,2025-08-16T00:54:00Z,40.3149,-78.8307,24.4,13.3,10,3,,10+,30.21,1021.5,,TRUE,TRUE,,,,,,,CLR,,,,,,,,VFR,,,,,,,,,,,,METAR,695
KJAN 160054Z 13004KT 10SM SCT047 27/26 A3010 RMK AO2 RAE14 SLP186 P0000 T02720256,KJAN,2025-08-16T00:54:00Z,32.3198,-90.0778,27.2,25.6,130,4,,10+,30.10,1018.6,,,TRUE,,,,,,,SCT,4700,,,,,,,VFR,,,,,,0.005,,,,,,METAR,92
KIZG 160054Z AUTO 17003KT 10SM CLR 21/12 A3019 RMK AO2 SLP221 T02110122,KIZG,2025-08-16T00:54:00Z,43.9899,-70.9501,21.1,12.2,170,3,,10+,30.19,1022.1,,TRUE,TRUE,,,,,,,CLR,,,,,,,,VFR,,,,,,,,,,,,METAR,138
KISW 160054Z AUTO 20009KT 10SM CLR 28/22 A3005 RMK AO2 SLP171 T02780217,KISW,2025-08-16T00:54:00Z,44.3591,-89.837,27.8,21.7,200,9,,10+,30.05,1017.1,,TRUE,TRUE,,,,,,,CLR,,,,,,,,VFR,,,,,,,,,,,,METAR,311
KIPT 160054Z 16004KT 10SM CLR 28/19 A3010 RMK AO2 SLP189 T02830194 $,KIPT,2025-08-16T00:54:00Z,41.243,-76.9217,28.3,19.4,160,4,,10+,30.10,1018.9,,,TRUE,TRUE,,,,,,CLR,,,,,,,,VFR,,,,,,,,,,,,METAR,160
KINT 160054Z 02003KT 10SM FEW095 27/23 A3014 RMK AO2 SLP194 T02720228,KINT,2025-08-16T00:54:00Z,36.1335,-80.2244,27.2,22.8,20,3,,10+,30.14,1019.4,,,TRUE,,,,,,,FEW,9500,,,,,,,VFR,,,,,,,,,,,,METAR,292
KINL 160054Z AUTO 32006KT 10SM CLR 20/12 A2998 RMK AO2 SLP152 T02000122,KINL,2025-08-16T00:54:00Z,48.5594,-93.3955,20,12.2,320,6,,10+,29.98,1015.2,,TRUE,TRUE,,,,,,,CLR,,,,,,,,VFR,,,,,,,,,,,,METAR,353
KIND 160054Z 22004KT 10SM FEW050 FEW200 28/21 A3009 RMK AO2 SLP184 T02780206,KIND,2025-08-16T00:54:00Z,39.7252,-86.2816,27.8,20.6,220,4,,10+,30.09,1018.4,,,TRUE,,,,,,,FEW,5000,FEW,20000,,,,,VFR,,,,,,,,,,,,METAR,242
KIMT 160054Z AUTO 16003KT 10SM CLR 26/21 A3003 RMK AO2 SLP164 T02560211,KIMT,2025-08-16T00:54:00Z,45.8134,-88.1129,25.6,21.1,160,3,,10+,30.03,1016.4,,TRUE,TRUE,,,,,,,CLR,,,,,,,,VFR,,,,,,,,,,,,METAR,343
KILN 160054Z AUTO 05004KT 10SM CLR 25/22 A3013 RMK AO2 SLP192 T02500222,KILN,2025-08-16T00:54:00Z,39.4308,-83.777,25,22.2,50,4,,10+,30.13,1019.2,,TRUE,TRUE,,,,,,,CLR,,,,,,,,VFR,,,,,,,,,,,,METAR,325
KHWD 160054Z 28009KT 10SM FEW018 20/15 A2992 RMK AO2 SLP142 T02000150 $,KHWD,2025-08-16T00:54:00Z,37.6589,-122.121,20,15,280,9,,10+,29.92,1014.2,,,TRUE,TRUE,,,,,,FEW,1800,,,,,,,VFR,,,,,,,,,,,,METAR,9
KGYY 160054Z 00000KT 10SM CLR 28/24 A3007,KGYY,2025-08-16T00:54:00Z,41.6121,-87.4091,28,24,0,0,,10+,30.07,,,,,,,,,,,CLR,,,,,,,,VFR,,,,,,,,,,,,METAR,179
KGSO 160054Z 02003KT 10SM FEW045 FEW100 BKN250 28/22 A3012 RMK AO2 SLP186 T02780217,KGSO,2025-08-16T00:54:00Z,36.0969,-79.9432,27.8,21.7,20,3,,10+,30.12,1018.6,,,TRUE,,,,,,,FEW,4500,FEW,10000,BKN,25000,,,VFR,,,,,,,,,,,,METAR,275
KGED 160054Z AUTO 08004KT 10SM OVC011 25/23 A3013 RMK AO2 SLP201 T02500228,KGED,2025-08-16T00:54:00Z,38.6898,-75.3625,25,22.8,80,4,,10+,30.13,1020.1,,TRUE,TRUE,,,,,,,OVC,1100,,,,,,,MVFR,,,,,,,,,,,,METAR,15
KGCN 160054Z 07007KT 10SM -RA FEW060 OVC075 14/11 A3035 RMK AO2 LTG DSNT SE TSE04 SLP211 P0002 T01390106,KGCN,2025-08-16T00:54:00Z,35.9458,-112.155,13.9,10.6,70,7,,10+,30.35,1021.1,,,TRUE,,,,,,-RA,FEW,6000,OVC,7500,,,,,VFR,,,,,,0.02,,,,,,METAR,1993
KGCK 160054Z 15016G25KT 10SM CLR 33/17 A2996 RMK AO2 PK WND 15029/0026 SLP104 T03330167,KGCK,2025-08-16T00:54:00Z,37.9221,-100.723,33.3,16.7,150,16,25,10+,29.96,1010.4,,,TRUE,,,,,,,CLR,,,,,,,,VFR,,,,,,,,,,,,METAR,877
KFZY 160054Z AUTO 00000KT 10SM CLR 18/14 A3015 RMK AO2 SLP208 T01830139,KFZY,2025-08-16T00:54:00Z,43.3504,-76.3831,18.3,13.9,0,0,,10+,30.15,1020.8,,TRUE,TRUE,,,,,,,CLR,,,,,,,,VFR,,,,,,,,,,,,METAR,143
KFWA 160054Z 16003KT 10SM FEW250 27/21 A3011 RMK AO2 SLP190 T02720206 $,KFWA,2025-08-16T00:54:00Z,40.9725,-85.2064,27.2,20.6,160,3,,10+,30.11,1019,,,TRUE,TRUE,,,,,,FEW,25000,,,,,,,VFR,,,,,,,,,,,,METAR,243
KFIG 160054Z AUTO 00000KT 10SM CLR 23/16 A3017 RMK AO2 SLP208 T02280156,KFIG,2025-08-16T00:54:00Z,41.0465,-78.4112,22.8,15.6,0,0,,10+,30.17,1020.8,,TRUE,TRUE,,,,,,,CLR,,,,,,,,VFR,,,,,,,,,,,,METAR,461
KFFZ 160054Z AUTO 14006KT 10SM CLR 36/14 A2985 RMK AO2 SLP083 T03610139,KFFZ,2025-08-16T00:54:00Z,33.4659,-111.721,36.1,13.9,140,6,,10+,29.85,1008.3,,TRUE,TRUE,,,,,,,CLR,,,,,,,,VFR,,,,,,,,,,,,METAR,420
KEWN 160054Z 26003KT 10SM FEW017 SCT065 BKN080 25/24 A3007 RMK AO2 RAE2358 TSB01 SLP180 P0000 T02500244 $,KEWN,2025-08-16T00:54:00Z,35.0684,-77.0478,25,24.4,260,3,,10+,30.07,1018,,,TRUE,TRUE,,,,,,FEW,1700,SCT,6500,BKN,8000,,,VFR,,,,,,0.005,,,,,,METAR,3
KEVV 160054Z 00000KT 10SM CLR 28/22 A3008 RMK AO2 SLP182 T02830217 $,KEVV,2025-08-16T00:54:00Z,38.0502,-87.5147,28.3,21.7,0,0,,10+,30.08,1018.2,,,TRUE,TRUE,,,,,,CLR,,,,,,,,VFR,,,,,,,,,,,,METAR,123
KEUG 160054Z 22008KT 10SM BKN038 OVC075 24/17 A2995 RMK AO2 SLP141 T02440167 $,KEUG,2025-08-16T00:54:00Z,44.1331,-123.216,24.4,16.7,220,8,,10+,29.95,1014.1,,,TRUE,TRUE,,,,,,BKN,3800,OVC,7500,,,,,VFR,,,,,,,,,,,,METAR,109
KEFD 160054Z 12010KT 10SM SCT040 30/24 A3003,KEFD,2025-08-16T00:54:00Z,29.606,-95.16,30,24,120,10,,10+,30.03,,,,,,,,,,,SCT,4000,,,,,,,VFR,,,,,,,,,,,,METAR,9
KDYL 160054Z AUTO 14003KT 10SM CLR 26/19 A3015 RMK AO2 SLP201 T02560194,KDYL,2025-08-16T00:54:00Z,40.3302,-75.1228,25.6,19.4,140,3,,10+,30.15,1020.1,,TRUE,TRUE,,,,,,,CLR,,,,,,,,VFR,,,,,,,,,,,,METAR,121
KDSV 160054Z AUTO 00000KT 10SM CLR 26/15 A3014 RMK AO2 SLP209 T02610150,KDSV,2025-08-16T00:54:00Z,42.5699,-77.7142,26.1,15,0,0,,10+,30.14,1020.9,,TRUE,TRUE,,,,,,,CLR,,,,,,,,VFR,,,,,,,,,,,,METAR,195
KDSM 160054Z 14010KT 10SM FEW040 SCT130 BKN250 31/24 A3001 RMK AO2 LTG DSNT N AND NE SLP153 CB DSNT N-NE MOV E ACC N-NE T03060244,KDSM,2025-08-16T00:54:00Z,41.534,-93.6531,30.6,24.4,140,10,,10+,30.01,1015.3,,,TRUE,,,,,,,FEW,4000,SCT,13000,BKN,25000,,,VFR,,,,,,,,,,,,METAR,286
KDEC 160054Z 00000KT 10SM BKN110 31/24 A3008 RMK AO2 SLP180 T03110239,KDEC,2025-08-16T00:54:00Z,39.8308,-88.8719,31.1,23.9,0,0,,10+,30.08,1018,,,TRUE,,,,,,,BKN,11000,,,,,,,VFR,,,,,,,,,,,,METAR,205
KDDH 160054Z AUTO 16003KT 10SM CLR 17/14 A3019 RMK AO2 SLP220 T01670144,KDDH,2025-08-16T00:54:00Z,42.8935,-73.2488,16.7,14.4,160,3,,10+,30.19,1022,,TRUE,TRUE,,,,,,,CLR,,,,,,,,VFR,,,,,,,,,,,,METAR,241
KCRW 160054Z 00000KT 10SM FEW250 25/21 A3012 RMK AO2 SLP192 T02500211 $,KCRW,2025-08-16T00:54:00Z,38.3795,-81.5911,25,21.1,0,0,,10+,30.12,1019.2,,,TRUE,TRUE,,,,,,FEW,25000,,,,,,,VFR,,,,,,,,,,,,METAR,278
KCOU 160054Z 00000KT 10SM CLR 31/24 A3004 RMK AO2 SLP164 T03110239 $,KCOU,2025-08-16T00:54:00Z,38.8171,-92.2148,31.1,23.9,0,0,,10+,30.04,1016.4,,,TRUE,TRUE,,,,,,CLR,,,,,,,,VFR,,,,,,,,,,,,METAR,272
KCOS 160054Z 16006KT 10SM FEW130 SCT170 BKN250 28/06 A3014 RMK AO2 SLP108 T02830056 $,KCOS,2025-08-16T00:54:00Z,38.8095,-104.689,28.3,5.6,160,6,,10+,30.14,1010.8,,,TRUE,TRUE,,,,,,FEW,13000,SCT,17000,BKN,25000,,,VFR,,,,,,,,,,,,METAR,1886
KCEU 160054Z AUTO 29003KT 9SM -RA SCT120 22/22 A3013 RMK AO2 SLP193 P0004 T02170217,KCEU,2025-08-16T00:54:00Z,34.6722,-82.8814,21.7,21.7,290,3,,9,30.13,1019.3,,TRUE,TRUE,,,,,,-RA,SCT,12000,,,,,,,VFR,,,,,,0.04,,,,,,METAR,270
KCAR 160054Z AUTO 00000KT 10SM CLR 18/05 A3019 RMK AO2 SLP226 T01830050,KCAR,2025-08-16T00:54:00Z,46.8705,-68.0172,18.3,5,0,0,,10+,30.19,1022.6,,TRUE,TRUE,,,,,,,CLR,,,,,,,,VFR,,,,,,,,,,,,METAR,189
KBWI 160054Z 11004KT 10SM SCT100 28/22 A3011 RMK AO2 SLP193 T02830222,KBWI,2025-08-16T00:54:00Z,39.1733,-76.684,28.3,22.2,110,4,,10+,30.11,1019.3,,,TRUE,,,,,,,SCT,10000,,,,,,,VFR,,,,,,,,,,,,METAR,42
KBUY 160054Z AUTO 00000KT 10SM CLR 26/23 A3010 RMK AO2 SLP186 T02610233,KBUY,2025-08-16T00:54:00Z,36.0475,-79.4737,26.1,23.3,0,0,,10+,30.10,1018.6,,TRUE,TRUE,,,,,,,CLR,,,,,,,,VFR,,,,,,,,,,,,METAR,185
KBUF 160054Z 05008KT 10SM FEW075 FEW270 25/14 A3013 RMK AO2 SLP199 T02500139 $,KBUF,2025-08-16T00:54:00Z,42.94,-78.7361,25,13.9,50,8,,10+,30.13,1019.9,,,TRUE,TRUE,,,,,,FEW,7500,FEW,27000,,,,,VFR,,,,,,,,,,,,METAR,217
KBTV 160054Z 00000KT 10SM CLR 22/08 A3017 RMK AO2 SLP216 T02220083,KBTV,2025-08-16T00:54:00Z,44.4683,-73.1499,22.2,8.3,0,0,,10+,30.17,1021.6,,,TRUE,,,,,,,CLR,,,,,,,,VFR,,,,,,,,,,,,METAR,101
KBOS 160054Z 06003KT 10SM CLR 19/16 A3020 RMK AO2 SLP227 T01890156,KBOS,2025-08-16T00:54:00Z,42.3606,-71.0097,18.9,15.6,60,3,,10+,30.20,1022.7,,,TRUE,,,,,,,CLR,,,,,,,,VFR,,,,,,,,,,,,METAR,4
KBFL 160054Z 29010KT 10SM FEW110 36/09 A2982 RMK AO2 SLP089 T03560094,KBFL,2025-08-16T00:54:00Z,35.4342,-119.055,35.6,9.4,290,10,,10+,29.82,1008.9,,,TRUE,,,,,,,FEW,11000,,,,,,,VFR,,,,,,,,,,,,METAR,146
KAVP 160054Z VRB04KT 10SM FEW065 26/19 A3015 RMK AO2 SLP202 T02560189,KAVP,2025-08-16T00:54:00Z,41.3335,-75.7227,25.6,18.9,VRB,4,,10+,30.15,1020.2,,,TRUE,,,,,,,FEW,6500,,,,,,,VFR,,,,,,,,,,,,METAR,290
KAVL 160054Z 00000KT 10SM CLR 23/21 A3020 RMK AO2 SLP200 T02280206,KAVL,2025-08-16T00:54:00Z,35.4318,-82.5379,22.8,20.6,0,0,,10+,30.20,1020,,,TRUE,,,,,,,CLR,,,,,,,,VFR,,,,,,,,,,,,METAR,646
KAUW 160054Z AUTO 16007KT 10SM FEW070 27/22 A3005 RMK AO2 SLP171 T02720217,KAUW,2025-08-16T00:54:00Z,44.9265,-89.6248,27.2,21.7,160,7,,10+,30.05,1017.1,,TRUE,TRUE,,,,,,,FEW,7000,,,,,,,VFR,,,,,,,,,,,,METAR,367
KAPN 160054Z AUTO 16006KT 10SM CLR 23/18 A3008 RMK AO2 SLP185 T02330178,KAPN,2025-08-16T00:54:00Z,45.0716,-83.5645,23.3,17.8,160,6,,10+,30.08,1018.5,,TRUE,TRUE,,,,,,,CLR,,,,,,,,VFR,,,,,,,,,,,,METAR,208
KAPC 160054Z 19016G22KT 10SM CLR 24/16 A2984 RMK AO2 SLP097 T02440156,KAPC,2025-08-16T00:54:00Z,38.2075,-122.28,24.4,15.6,190,16,22,10+,29.84,1009.7,,,TRUE,,,,,,,CLR,,,,,,,,VFR,,,,,,,,,,,,METAR,5
KALO 160054Z AUTO 12008KT 10SM CLR 22/19 A3000 RMK AO2 SLP153 T02170194,KALO,2025-08-16T00:54:00Z,42.5544,-92.4013,21.7,19.4,120,8,,10+,30.00,1015.3,,TRUE,TRUE,,,,,,,CLR,,,,,,,,VFR,,,,,,,,,,,,METAR,264
KAKR 160054Z AUTO VRB03KT 9SM CLR 27/16 A3013 RMK AO2 SLP195 T02720161,KAKR,2025-08-16T00:54:00Z,41.0373,-81.4634,27.2,16.1,VRB,3,,9,30.13,1019.5,,TRUE,TRUE,,,,,,,CLR,,,,,,,,VFR,,,,,,,,,,,,METAR,319
KAKH 160054Z AUTO 23005KT 10SM CLR 24/20 A3012 RMK AO2 LTG DSNT SW SLP192 T02390200,KAKH,2025-08-16T00:54:00Z,35.1968,-81.1555,23.9,20,230,5,,10+,30.12,1019.2,,TRUE,TRUE,,,,,,,CLR,,,,,,,,VFR,,,,,,,,,,,,METAR,242
KACY 160054Z AUTO 08005KT 10SM OVC013 24/21 A3015 RMK AO2 SLP207 T02440211,KACY,2025-08-16T00:54:00Z,39.452,-74.567,24.4,21.1,80,5,,10+,30.15,1020.7,,TRUE,TRUE,,,,,,,OVC,1300,,,,,,,MVFR,,,,,,,,,,,,METAR,18
KAAO 160054Z AUTO 15010KT 10SM CLR 32/22 A2997 RMK AO2 SLP134 T03220217,KAAO,2025-08-16T00:54:00Z,37.7496,-97.2191,32.2,21.7,150,10,,10+,29.97,1013.4,,TRUE,TRUE,,,,,,,CLR,,,,,,,,VFR,,,,,,,,,,,,METAR,429
K1V4 160054Z AUTO 19/12 A3017 RMK AO1 SLP211 T01940122,K1V4,2025-08-16T00:54:00Z,44.42,-72.019,19.4,12.2,,,,,30.17,1021.1,,TRUE,TRUE,,,,,,,,,,,,,,,,,,,,,,,,,,,METAR,213
K12N 160054Z AUTO VRB03KT 26/18 A3016 RMK AO1 SLP203 T02610183 PNO $,K12N,2025-08-16T00:54:00Z,41.0093,-74.7363,26.1,18.3,VRB,3,,,30.16,1020.3,,TRUE,TRUE,TRUE,,,,,,,,,,,,,,,,,,,,,,,,,,METAR,178
TJNR 160053Z AUTO A2997 RMK AO2 SLP150 PWINO $,TJNR,2025-08-16T00:53:00Z,18.253,-65.638,,,,,,,29.97,1015,,TRUE,TRUE,TRUE,,,,TRUE,,,,,,,,,,,,,,,,,,,,,,METAR,7
TISX 160053Z VRB06KT 10SM FEW031 FEW041 28/24 A2993 RMK AO2 SLP135 T02780244 PNO $,TISX,2025-08-16T00:53:00Z,17.6997,-64.8126,27.8,24.4,VRB,6,,10+,29.93,1013.5,,,TRUE,TRUE,,,,,,FEW,3100,FEW,4100,,,,,VFR,,,,,,,,,,,,METAR,16
PHTO 160053Z 10013G23KT 10SM CLR 29/19 A3004 RMK AO2 SLP171 T02940194,PHTO,2025-08-16T00:53:00Z,19.7191,-155.049,29.4,19.4,100,13,23,10+,30.04,1017.1,,,TRUE,,,,,,,CLR,,,,,,,,VFR,,,,,,,,,,,,METAR,9
PHNL 160053Z 07013G20KT 10SM FEW025 FEW036 FEW060 31/19 A3003 RMK AO2 SLP169 T03110189,PHNL,2025-08-16T00:53:00Z,21.3151,-157.924,31.1,18.9,70,13,20,10+,30.03,1016.9,,,TRUE,,,,,,,FEW,2500,FEW,3600,FEW,6000,,,VFR,,,,,,,,,,,,METAR,2
PHLI 160053Z 08011KT 10SM FEW023 29/21 A3006 RMK AO2 SLP177 T02940211,PHLI,2025-08-16T00:53:00Z,21.9805,-159.339,29.4,21.1,80,11,,10+,30.06,1017.7,,,TRUE,,,,,,,FEW,2300,,,,,,,VFR,,,,,,,,,,,,METAR,32
PHKO 160053Z COR 27008KT 10SM FEW030 BKN055 30/22 A3001 RMK AO2 SLP162 T03000217,PHKO,2025-08-16T00:53:00Z,19.7378,-156.048,30,21.7,270,8,,10+,30.01,1016.2,TRUE,,TRUE,,,,,,,FEW,3000,BKN,5500,,,,,VFR,,,,,,,,,,,,METAR,11
PHJR 160053Z 08008KT 10SM SCT043 BKN055 32/19 A3003 RMK AO2 SLP175 T03170194,PHJR,2025-08-16T00:53:00Z,21.312,-158.07,31.7,19.4,80,8,,10+,30.03,1017.5,,,TRUE,,,,,,,SCT,4300,BKN,5500,,,,,VFR,,,,,,,,,,,,METAR,9
PAYA 160053Z AUTO 23006KT 10SM CLR 19/12 A2948 RMK AO2 SLP982 T01890122 TSNO $,PAYA,2025-08-16T00:53:00Z,59.512,-139.671,18.9,12.2,230,6,,10+,29.48,998.2,,TRUE,TRUE,TRUE,,TRUE,,,,CLR,,,,,,,,VFR,,,,,,,,,,,,METAR,9
PAWD 160053Z AUTO 32021G35KT 10SM CLR 17/05 A2966 RMK AO2 PK WND 36038/2356 SLP043 T01720050 TSNO,PAWD,2025-08-16T00:53:00Z,60.129,-149.418,17.2,5,320,21,35,10+,29.66,1004.3,,TRUE,TRUE,,,TRUE,,,,CLR,,,,,,,,VFR,,,,,,,,,,,,METAR,3
PATO 160053Z AUTO 27007G18KT 10SM SCT046 BKN055 BKN100 16/07 A2968 RMK AO2 SLP052 T01560072 TSNO $,PATO,2025-08-16T00:53:00Z,60.783,-148.843,15.6,7.2,270,7,18,10+,29.68,1005.2,,TRUE,TRUE,TRUE,,TRUE,,,,SCT,4600,BKN,5500,BKN,10000,,,VFR,,,,,,,,,,,,METAR,47
PATK 160053Z 02008G14KT 10SM BKN065 17/03 A2974 RMK AO2 SLP072 T01720033 $,PATK,2025-08-16T00:53:00Z,62.319,-150.097,17.2,3.3,20,8,14,10+,29.74,1007.2,,,TRUE,TRUE,,,,,,BKN,6500,,,,,,,VFR,,,,,,,,,,,,METAR,107
PASO 160053Z AUTO 03006KT 10SM CLR 15/09 A2978 RMK AO2 SLP086 T01500089 TSNO $,PASO,2025-08-16T00:53:00Z,59.443,-151.702,15,8.9,30,6,,10+,29.78,1008.6,,TRUE,TRUE,TRUE,,TRUE,,,,CLR,,,,,,,,VFR,,,,,,,,,,,,METAR,20
PASC 160053Z 29009KT 5SM -RA BR SCT007 OVC010 03/02 A3002 RMK AO2 SLP168 CIG 007V012 CIG LWR NW-NE PCPN VRY LGT P0000 T00280022,PASC,2025-08-16T00:53:00Z,70.191,-148.48,2.8,2.2,290,9,,5,30.02,1016.8,,,TRUE,,,,,,-RA BR,SCT,700,OVC,1000,,,,,MVFR,,,,,,0.005,,,,,,METAR,17
PAQT 160053Z AUTO 36005KT 9SM OVC012 06/02 A3006 RMK AO2 RAE06B27E39 SLP180 P0000 T00560017 TSNO $,PAQT,2025-08-16T00:53:00Z,70.213,-150.994,5.6,1.7,360,5,,9,30.06,1018,,TRUE,TRUE,TRUE,,TRUE,,,,OVC,1200,,,,,,,MVFR,,,,,,0.005,,,,,,METAR,11
PAOT 160053Z 18005KT 10SM CLR 11/06 A2998 RMK AO2 SLP153 T01110061,PAOT,2025-08-16T00:53:00Z,66.886,-162.607,11.1,6.1,180,5,,10+,29.98,1015.3,,,TRUE,,,,,,,CLR,,,,,,,,VFR,,,,,,,,,,,,METAR,3
PANN 160053Z AUTO 29005KT 10SM OVC037 11/04 A2992 RMK AO2 SLP139 T01060044 TSNO,PANN,2025-08-16T00:53:00Z,64.547,-149.087,10.6,4.4,290,5,,10+,29.92,1013.9,,TRUE,TRUE,,,TRUE,,,,OVC,3700,,,,,,,VFR,,,,,,,,,,,,METAR,110
PANC 160053Z 34012G19KT 10SM FEW040 BKN055 BKN075 17/04 A2974 RMK AO2 SLP072 SH DSNT NE T01670039,PANC,2025-08-16T00:53:00Z,61.1691,-150.028,16.7,3.9,340,12,19,10+,29.74,1007.2,,,TRUE,,,,,,,FEW,4000,BKN,5500,BKN,7500,,,VFR,,,,,,,,,,,,METAR,39
PAMR 160053Z AUTO 35008KT 10SM OVC050 17/03 A2974 RMK AO2 SLP070 T01670033 TSNO,PAMR,2025-08-16T00:53:00Z,61.215,-149.85,16.7,3.3,350,8,,10+,29.74,1007,,TRUE,TRUE,,,TRUE,,,,OVC,5000,,,,,,,VFR,,,,,,,,,,,,METAR,43
PAMC 160053Z 36006KT 10SM FEW060 OVC075 14/03 A2999 RMK AO2 SLP159 T01440033,PAMC,2025-08-16T00:53:00Z,62.957,-155.61,14.4,3.3,360,6,,10+,29.99,1015.9,,,TRUE,,,,,,,FEW,6000,OVC,7500,,,,,VFR,,,,,,,,,,,,METAR,101
PALH 160053Z AUTO 34012G17KT 10SM OVC055 17/04 A2974 RMK AO2 SLP072 T01670039 TSNO,PALH,2025-08-16T00:53:00Z,61.179,-149.962,16.7,3.9,340,12,17,10+,29.74,1007.2,,TRUE,TRUE,,,TRUE,,,,OVC,5500,,,,,,,VFR,,,,,,,,,,,,METAR,26
PAKW 160053Z AUTO VRB04KT 9SM -RA OVC090 18/15 A2938 RMK AO2 SLP949 P0002 T01830150 TSNO,PAKW,2025-08-16T00:53:00Z,55.582,-133.075,18.3,15,VRB,4,,9,29.38,994.9,,TRUE,TRUE,,,TRUE,,,-RA,OVC,9000,,,,,,,VFR,,,,,,0.02,,,,,,METAR,7
PAKV 160053Z AUTO VRB04KT 10SM OVC070 17/06 A3002 RMK AO2 SLP169 T01720056 TSNO $,PAKV,2025-08-16T00:53:00Z,64.321,-158.732,17.2,5.6,VRB,4,,10+,30.02,1016.9,,TRUE,TRUE,TRUE,,TRUE,,,,OVC,7000,,,,,,,VFR,,,,,,,,,,,,METAR,53
PAKT 160053Z 36005KT 6SM -RA BR FEW033 OVC070 17/16 A2940 RMK AO2 SLP958 HARBOR WIND 26002KT P0000 T01670161,PAKT,2025-08-16T00:53:00Z,55.3592,-131.722,16.7,16.1,360,5,,6,29.40,995.8,,,TRUE,,,,,,-RA BR,FEW,3300,OVC,7000,,,,,VFR,,,,,,0.005,,,,,,METAR,27
PAJN 160053Z 23007KT 10SM SCT060 BKN080 BKN130 18/12 A2948 RMK AO2 RAE25 SLP981 P0000 T01830117,PAJN,2025-08-16T00:53:00Z,58.354,-134.556,18.3,11.7,230,7,,10+,29.48,998.1,,,TRUE,,,,,,,SCT,6000,BKN,8000,BKN,13000,,,VFR,,,,,,0.005,,,,,,METAR,6
PAIL 160053Z 32020G32KT 10SM CLR 16/04 A2997 RMK PK WND 33036/0000,PAIL,2025-08-16T00:53:00Z,59.7492,-154.909,16,4,320,20,32,10+,29.97,,,,,,,,,,,CLR,,,,,,,,VFR,,,,,,,,,,,,METAR,44
PAHO 160053Z 33010G21KT 10SM CLR 17/02 A2977 RMK AO2 SLP082 T01670017,PAHO,2025-08-16T00:53:00Z,59.642,-151.491,16.7,1.7,330,10,21,10+,29.77,1008.2,,,TRUE,,,,,,,CLR,,,,,,,,VFR,,,,,,,,,,,,METAR,6
PAGY 160053Z AUTO 23007KT 10SM BKN085 OVC110 15/11 A2947 RMK AO2 SLP981 T01500111 TSNO,PAGY,2025-08-16T00:53:00Z,59.457,-135.322,15,11.1,230,7,,10+,29.47,998.1,,TRUE,TRUE,,,TRUE,,,,BKN,8500,OVC,11000,,,,,VFR,,,,,,,,,,,,METAR,7
PAGK 160053Z AUTO 29005KT 10SM OVC043 13/04 A2970 RMK AO2 SLP059 T01330044 TSNO,PAGK,2025-08-16T00:53:00Z,62.1592,-145.459,13.3,4.4,290,5,,10+,29.70,1005.9,,TRUE,TRUE,,,TRUE,,,,OVC,4300,,,,,,,VFR,,,,,,,,,,,,METAR,481
PAFA 160053Z 25010KT 10SM SCT025 BKN040 OVC048 11/04 A2992 RMK AO2 SLP138 T01060044 $,PAFA,2025-08-16T00:53:00Z,64.8031,-147.876,10.6,4.4,250,10,,10+,29.92,1013.8,,,TRUE,TRUE,,,,,,SCT,2500,BKN,4000,OVC,4800,,,VFR,,,,,,,,,,,,METAR,130
PAEN 160053Z VRB05KT 10SM OVC080 16/07 A2977 RMK AO2 SLP082 T01610072,PAEN,2025-08-16T00:53:00Z,60.579,-151.242,16.1,7.2,VRB,5,,10+,29.77,1008.2,,,TRUE,,,,,,,OVC,8000,,,,,,,VFR,,,,,,,,,,,,METAR,30
PAEG 160053Z AUTO 29009G16KT 10SM OVC019 13/09 A2976 RMK AO2 SLP080 T01280094 PWINO TSNO $,PAEG,2025-08-16T00:53:00Z,64.7761,-141.164,12.8,9.4,290,9,16,10+,29.76,1008,,TRUE,TRUE,TRUE,,TRUE,,TRUE,,OVC,1900,,,,,,,MVFR,,,,,,,,,,,,METAR,273
PADQ 160053Z 30018G36KT 10SM CLR 17/02 A2981 RMK AO2 PK WND 30038/0031 SLP096 T01720017 $,PADQ,2025-08-16T00:53:00Z,57.7507,-152.488,17.2,1.7,300,18,36,10+,29.81,1009.6,,,TRUE,TRUE,,,,,,CLR,,,,,,,,VFR,,,,,,,,,,,,METAR,5
PACV 160053Z VRB06KT 10SM FEW026 SCT055 BKN090 23/09 A2953 RMK AO2 SLP999 T02280094,PACV,2025-08-16T00:53:00Z,60.486,-145.445,22.8,9.4,VRB,6,,10+,29.53,999.9,,,TRUE,,,,,,,FEW,2600,SCT,5500,BKN,9000,,,VFR,,,,,,,,,,,,METAR,15
PABT 160053Z VRB03KT 6SM -RA BR FEW018 BKN028 OVC037 09/07 A2989 RMK SLP131 PCPN VRY LGT P0000 T00890072,PABT,2025-08-16T00:53:00Z,66.9176,-151.519,8.9,7.2,VRB,3,,6,29.89,1013.1,,,,,,,,,-RA BR,FEW,1800,BKN,2800,OVC,3700,,,MVFR,,,,,,0.005,,,,,,METAR,195
PABR 160053Z 17008KT 10SM CLR 08/02 A3002 RMK AO2 SLP166 T00830017 $,PABR,2025-08-16T00:53:00Z,71.2837,-156.784,8.3,1.7,170,8,,10+,30.02,1016.6,,,TRUE,TRUE,,,,,,CLR,,,,,,,,VFR,,,,,,,,,,,,METAR,6
PABI 160053Z 31009KT 10SM -RA SCT017 OVC036 08/04 A2994 RMK AO2 SLP150 P0001 T00780044 $,PABI,2025-08-16T00:53:00Z,63.9931,-145.721,7.8,4.4,310,9,,10+,29.94,1015,,,TRUE,TRUE,,,,,-RA,SCT,1700,OVC,3600,,,,,VFR,,,,,,0.01,,,,,,METAR,388
PABE 160053Z 28011KT 10SM FEW035 BKN043 BKN095 14/08 A3016 RMK AO2 SLP215 T01390078,PABE,2025-08-16T00:53:00Z,60.785,-161.829,13.9,7.8,280,11,,10+,30.16,1021.5,,,TRUE,,,,,,,FEW,3500,BKN,4300,BKN,9500,,,VFR,,,,,,,,,,,,METAR,28
PAAQ 160053Z 00000KT 10SM BKN070 BKN090 13/09 A2972 RMK AO2 RAE02 SLP067 P0001 T01330094 $,PAAQ,2025-08-16T00:53:00Z,61.5951,-149.092,13.3,9.4,0,0,,10+,29.72,1006.7,,,TRUE,TRUE,,,,,,BKN,7000,BKN,9000,,,,,VFR,,,,,,0.01,,,,,,METAR,68
KZZV 160053Z AUTO 00000KT 10SM CLR 24/21 A3013 RMK AO2 SLP196 T02440206,KZZV,2025-08-16T00:53:00Z,39.9461,-81.8932,24.4,20.6,0,0,,10+,30.13,1019.6,,TRUE,TRUE,,,,,,,CLR,,,,,,,,VFR,,,,,,,,,,,,METAR,268
KYKM 160053Z 20012G19KT 10SM SCT085 BKN100 27/14 A2982 RMK AO2 SLP089 T02670139,KYKM,2025-08-16T00:53:00Z,46.564,-120.535,26.7,13.9,200,12,19,10+,29.82,1008.9,,,TRUE,,,,,,,SCT,8500,BKN,10000,,,,,VFR,,,,,,,,,,,,METAR,319
KYIP 160053Z 14005KT 10SM CLR 24/19 A3012 RMK AO2 SLP193 T02440189,KYIP,2025-08-16T00:53:00Z,42.242,-83.5214,24.4,18.9,140,5,,10+,30.12,1019.3,,,TRUE,,,,,,,CLR,,,,,,,,VFR,,,,,,,,,,,,METAR,215
KXNA 160053Z 22006KT 10SM CLR 29/22 A3007 RMK AO2 SLP165 T02940217,KXNA,2025-08-16T00:53:00Z,36.2897,-94.3115,29.4,21.7,220,6,,10+,30.07,1016.5,,,TRUE,,,,,,,CLR,,,,,,,,VFR,,,,,,,,,,,,METAR,390
KWST 160053Z AUTO 10006KT 10SM FEW070 22/18 A3019 RMK AO2 SLP221 T02170183,KWST,2025-08-16T00:53:00Z,41.3509,-71.8055,21.7,18.3,100,6,,10+,30.19,1022.1,,TRUE,TRUE,,,,,,,FEW,7000,,,,,,,VFR,,,,,,,,,,,,METAR,20
KWRL 160053Z AUTO 17009KT 10SM CLR 31/04 A2992 RMK AO2 WSHFT 2343 RAE2357 SLP089 P0000 T03110044,KWRL,2025-08-16T00:53:00Z,43.9654,-107.95,31.1,4.4,170,9,,10+,29.92,1008.9,,TRUE,TRUE,,,,,,,CLR,,,,,,,,VFR,,,,,,0.005,,,,,,METAR,1281
KVUO 160053Z AUTO 18008G15KT 10SM OVC038 23/17 A2991 RMK AO2 RAB38E48 SLP128 P0000 T02330167,KVUO,2025-08-16T00:53:00Z,45.621,-122.654,23.3,16.7,180,8,15,10+,29.91,1012.8,,TRUE,TRUE,,,,,,,OVC,3800,,,,,,,VFR,,,,,,0.005,,,,,,METAR,7
KVRB 160053Z 12006KT 10SM CLR 29/23 A3006 RMK AO2 SLP180 T02940233,KVRB,2025-08-16T00:53:00Z,27.6553,-80.4142,29.4,23.3,120,6,,10+,30.06,1018,,,TRUE,,,,,,,CLR,,,,,,,,VFR,,,,,,,,,,,,METAR,7
KVLD 160053Z 27007KT 10SM -RA BKN110 25/24 A3005 RMK AO2 RAB12 SLP183 P0001 T02500244,KVLD,2025-08-16T00:53:00Z,30.7763,-83.2739,25,24.4,270,7,,10+,30.05,1018.3,,,TRUE,,,,,,-RA,BKN,11000,,,,,,,VFR,,,,,,0.01,,,,,,METAR,59
KVIH 160053Z AUTO 13005KT 10SM CLR 30/21 A3007 RMK AO2 SLP168 T03000206,KVIH,2025-08-16T00:53:00Z,38.1318,-91.7647,30,20.6,130,5,,10+,30.07,1016.8,,TRUE,TRUE,,,,,,,CLR,,,,,,,,VFR,,,,,,,,,,,,METAR,342
KVGT 160053Z 20011KT 10SM CLR 37/07 A2981 RMK AO2 WSHFT 0019 SLP082 T03720067,KVGT,2025-08-16T00:53:00Z,36.2121,-115.194,37.2,6.7,200,11,,10+,29.81,1008.2,,,TRUE,,,,,,,CLR,,,,,,,,VFR,,,,,,,,,,,,METAR,664
KVEL 160053Z AUTO 22006KT 10SM OVC110 28/07 A3008 RMK AO2 SLP113 T02830067,KVEL,2025-08-16T00:53:00Z,40.4429,-109.513,28.3,6.7,220,6,,10+,30.08,1011.3,,TRUE,TRUE,,,,,,,OVC,11000,,,,,,,VFR,,,,,,,,,,,,METAR,1604
KVCB 160053Z AUTO 19009KT 10SM CLR 32/13 A2980 RMK AO2 SLP090 T03220133,KVCB,2025-08-16T00:53:00Z,38.3775,-121.959,32.2,13.3,190,9,,10+,29.80,1009,,TRUE,TRUE,,,,,,,CLR,,,,,,,,VFR,,,,,,,,,,,,METAR,30
KUUU 160053Z AUTO 00000KT 10SM CLR 21/16 A3019 RMK AO2 SLP222 T02110161,KUUU,2025-08-16T00:53:00Z,41.5299,-71.2833,21.1,16.1,0,0,,10+,30.19,1022.2,,TRUE,TRUE,,,,,,,CLR,,,,,,,,VFR,,,,,,,,,,,,METAR,45
KUTS 160053Z AUTO 16009G18KT 10SM FEW041 32/24 A3005 RMK AO2 SLP169 T03220239,KUTS,2025-08-16T00:53:00Z,30.7443,-95.5866,32.2,23.9,160,9,18,10+,30.05,1016.9,,TRUE,TRUE,,,,,,,FEW,4100,,,,,,,VFR,,,,,,,,,,,,METAR,103
KUNV 160053Z 26003KT 10SM CLR 25/17 A3015,KUNV,2025-08-16T00:53:00Z,40.8534,-77.8401,25,17,260,3,,10+,30.15,,,,,,,,,,,CLR,,,,,,,,VFR,,,,,,,,,,,,METAR,365
KUNO 160053Z AUTO 16005KT 10SM FEW070 31/21 A3010 RMK AO2 SLP176 T03110211,KUNO,2025-08-16T00:53:00Z,36.8791,-91.9052,31.1,21.1,160,5,,10+,30.10,1017.6,,TRUE,TRUE,,,,,,,FEW,7000,,,,,,,VFR,,,,,,,,,,,,METAR,376
KUAO 160053Z 19006KT 10SM BKN035 BKN044 OVC055 22/18 A2992 RMK AO2 RAB03E16 SLP129 P0000 T02170178,KUAO,2025-08-16T00:53:00Z,45.2466,-122.771,21.7,17.8,190,6,,10+,29.92,1012.9,,,TRUE,,,,,,,BKN,3500,BKN,4400,OVC,5500,,,VFR,,,,,,0.005,,,,,,METAR,60
KTYS 160053Z 13005KT 10SM FEW040 FEW130 OVC250 28/22 A3011 RMK AO2 SLP183 T02780222,KTYS,2025-08-16T00:53:00Z,35.818,-83.9857,27.8,22.2,130,5,,10+,30.11,1018.3,,,TRUE,,,,,,,FEW,4000,FEW,13000,OVC,25000,,,VFR,,,,,,,,,,,,METAR,300
KTYR 160053Z 14006KT 10SM CLR 32/24 A3005 RMK AO2 SLP165 T03170239,KTYR,2025-08-16T00:53:00Z,32.3587,-95.404,31.7,23.9,140,6,,10+,30.05,1016.5,,,TRUE,,,,,,,CLR,,,,,,,,VFR,,,,,,,,,,,,METAR,161
KTXK 160053Z 15004KT 10SM CLR 34/24 A3004 RMK AO2 SLP166 T03390239,KTXK,2025-08-16T00:53:00Z,33.4561,-93.9878,33.9,23.9,150,4,,10+,30.04,1016.6,,,TRUE,,,,,,,CLR,,,,,,,,VFR,,,,,,,,,,,,METAR,118
KTWF 160053Z 10011KT 10SM CLR 28/07 A2996 RMK AO2 SLP088 T02830072,KTWF,2025-08-16T00:53:00Z,42.4785,-114.477,28.3,7.2,100,11,,10+,29.96,1008.8,,,TRUE,,,,,,,CLR,,,,,,,,VFR,,,,,,,,,,,,METAR,1269
KTVR 160053Z AUTO VRB03KT 10SM CLR 28/23 A3007 RMK AO2 LTG DSNT NW SLP189 T02830233,KTVR,2025-08-16T00:53:00Z,32.3481,-91.0299,28.3,23.3,VRB,3,,10+,30.07,1018.9,,TRUE,TRUE,,,,,,,CLR,,,,,,,,VFR,,,,,,,,,,,,METAR,25
KTVL 160053Z AUTO 20010G19KT 10SM CLR 24/04 A3014 RMK AO2 SLP156 T02390039,KTVL,2025-08-16T00:53:00Z,38.8984,-119.996,23.9,3.9,200,10,19,10+,30.14,1015.6,,TRUE,TRUE,,,,,,,CLR,,,,,,,,VFR,,,,,,,,,,,,METAR,1907
KTVC 160053Z 00000KT 10SM FEW170 26/17 A3005 RMK AO2 SLP172 T02560167,KTVC,2025-08-16T00:53:00Z,44.739,-85.5694,25.6,16.7,0,0,,10+,30.05,1017.2,,,TRUE,,,,,,,FEW,17000,,,,,,,VFR,,,,,,,,,,,,METAR,188
KTUS 160053Z 18013G18KT 10SM CLR 33/13 A3000 RMK AO2 LTG DSNT S-W SLP107 T03280128,KTUS,2025-08-16T00:53:00Z,32.1315,-110.956,32.8,12.8,180,13,18,10+,30.00,1010.7,,,TRUE,,,,,,,CLR,,,,,,,,VFR,,,,,,,,,,,,METAR,776
KTUP 160053Z 00000KT 10SM CLR 29/23 A3009 RMK AO2 SLP183 T02940233 $,KTUP,2025-08-16T00:53:00Z,34.2622,-88.7713,29.4,23.3,0,0,,10+,30.09,1018.3,,,TRUE,TRUE,,,,,,CLR,,,,,,,,VFR,,,,,,,,,,,,METAR,107
KTUL 160053Z 16010KT 10SM SCT250 34/22 A2999 RMK AO2 SLP144 T03440217,KTUL,2025-08-16T00:53:00Z,36.1985,-95.8783,34.4,21.7,160,10,,10+,29.99,1014.4,,,TRUE,,,,,,,SCT,25000,,,,,,,VFR,,,,,,,,,,,,METAR,196
KTTD 160053Z 20010G17KT 10SM OVC039 23/17 A2991 RMK AO2 RAB25E34 SLP127 P0000 T02280172,KTTD,2025-08-16T00:53:00Z,45.551,-122.41,22.8,17.2,200,10,17,10+,29.91,1012.7,,,TRUE,,,,,,,OVC,3900,,,,,,,VFR,,,,,,0.005,,,,,,METAR,8
KTRL 160053Z AUTO 14006KT 10SM CLR 32/23 A3002 RMK AO2 SLP158 T03170228,KTRL,2025-08-16T00:53:00Z,32.7131,-96.2688,31.7,22.8,140,6,,10+,30.02,1015.8,,TRUE,TRUE,,,,,,,CLR,,,,,,,,VFR,,,,,,,,,,,,METAR,144
KTRI 160053Z 00000KT 10SM SCT060 SCT110 BKN250 26/21 A3015 RMK AO2 SLP183 T02560206,KTRI,2025-08-16T00:53:00Z,36.4797,-82.3989,25.6,20.6,0,0,,10+,30.15,1018.3,,,TRUE,,,,,,,SCT,6000,SCT,11000,BKN,25000,,,VFR,,,,,,,,,,,,METAR,456
KTPA 160053Z 33003KT 10SM FEW045 SCT070 SCT095 OVC200 32/24 A3007 RMK AO2 TSE34 SLP180 OCNL LTGICCCCG DSNT NE-SE CB DSNT NE-SE T03170244,KTPA,2025-08-16T00:53:00Z,27.9633,-82.54,31.7,24.4,330,3,,10+,30.07,1018,,,TRUE,,,,,,,FEW,4500,SCT,7000,SCT,9500,OVC,20000,VFR,,,,,,,,,,,,METAR,2
KTOR 160053Z AUTO 01011KT 10SM CLR 29/09 A2998 RMK AO2 SLP103 T02940089,KTOR,2025-08-16T00:53:00Z,42.0613,-104.158,29.4,8.9,10,11,,10+,29.98,1010.3,,TRUE,TRUE,,,,,,,CLR,,,,,,,,VFR,,,,,,,,,,,,METAR,1285
KTOP 160053Z AUTO 17005KT 10SM CLR 32/23 A2997 RMK AO2 SLP137 T03220228,KTOP,2025-08-16T00:53:00Z,39.0724,-95.626,32.2,22.8,170,5,,10+,29.97,1013.7,,TRUE,TRUE,,,,,,,CLR,,,,,,,,VFR,,,,,,,,,,,,METAR,268
KTOI 160053Z AUTO 00000KT 8SM CLR 23/23 A3012 RMK AO2 SLP195 T02330228,KTOI,2025-08-16T00:53:00Z,31.8574,-86.0103,23.3,22.8,0,0,,8,30.12,1019.5,,TRUE,TRUE,,,,,,,CLR,,,,,,,,VFR,,,,,,,,,,,,METAR,120
KTMB 160053Z AUTO A3007 RMK AO2 SLP184 PWINO $,KTMB,2025-08-16T00:53:00Z,25.6423,-80.4347,,,,,,,30.07,1018.4,,TRUE,TRUE,TRUE,,,,TRUE,,,,,,,,,,,,,,,,,,,,,,METAR,2
KTLH 160053Z 25003KT 10SM FEW010 FEW035 BKN090 24/24 A3005 RMK AO2 RAE51 TSE23 SLP176 P0006 T02440239 $,KTLH,2025-08-16T00:53:00Z,30.3935,-84.3513,24.4,23.9,250,3,,10+,30.05,1017.6,,,TRUE,TRUE,,,,,,FEW,1000,FEW,3500,BKN,9000,,,VFR,,,,,,0.06,,,,,,METAR,17
KTKI 160053Z 14007KT 10SM CLR 33/22 A3000 RMK AO2 SLP151 T03280217,KTKI,2025-08-16T00:53:00Z,33.1828,-96.5899,32.8,21.7,140,7,,10+,30.00,1015.1,,,TRUE,,,,,,,CLR,,,,,,,,VFR,,,,,,,,,,,,METAR,173
KTIW 160053Z 20012KT 9SM -RA FEW025 BKN038 OVC048 19/17 A2982 RMK AO2 RAE14B32 SLP097 P0001 T01940172,KTIW,2025-08-16T00:53:00Z,47.2674,-122.576,19.4,17.2,200,12,,9,29.82,1009.7,,,TRUE,,,,,,-RA,FEW,2500,BKN,3800,OVC,4800,,,VFR,,,,,,0.01,,,,,,METAR,89
KTHV 160053Z AUTO 00000KT 10SM CLR 24/22 A3013 RMK AO2 SLP200 T02390222,KTHV,2025-08-16T00:53:00Z,39.9194,-76.8768,23.9,22.2,0,0,,10+,30.13,1020,,TRUE,TRUE,,,,,,,CLR,,,,,,,,VFR,,,,,,,,,,,,METAR,141
KTCS 160053Z AUTO 11003KT 10SM FEW110 25/15 A3014 RMK AO2 SLP126 T02500150,KTCS,2025-08-16T00:53:00Z,33.2369,-107.268,25,15,110,3,,10+,30.14,1012.6,,TRUE,TRUE,,,,,,,FEW,11000,,,,,,,VFR,,,,,,,,,,,,METAR,1471
KTCC 160053Z AUTO 16009KT 10SM -RA CLR 30/10 A3004 RMK AO2 SLP108 P0000 T03000100,KTCC,2025-08-16T00:53:00Z,35.1805,-103.601,30,10,160,9,,10+,30.04,1010.8,,TRUE,TRUE,,,,,,-RA,CLR,,,,,,,,VFR,,,,,,0.005,,,,,,METAR,1233
KSWO 160053Z 16009KT 10SM CLR 34/21 A2998 RMK AO2 SLP136 T03390211,KSWO,2025-08-16T00:53:00Z,36.1624,-97.0832,33.9,21.1,160,9,,10+,29.98,1013.6,,,TRUE,,,,,,,CLR,,,,,,,,VFR,,,,,,,,,,,,METAR,293
KSTS 160053Z 32014G22KT 10SM CLR 34/10 A2982 RMK AO2 WSHFT 0033 SLP092 T03390100,KSTS,2025-08-16T00:53:00Z,38.5037,-122.811,33.9,10,320,14,22,10+,29.82,1009.2,,,TRUE,,,,,,,CLR,,,,,,,,VFR,,,,,,,,,,,,METAR,35
KSTP 160053Z 14011KT 10SM VCTS -RA OVC050 22/20 A3001 RMK AO2 LTG DSNT NW-E RAB02E22B32 SLP156 P0001 T02170200,KSTP,2025-08-16T00:53:00Z,44.9324,-93.0559,21.7,20,140,11,,10+,30.01,1015.6,,,TRUE,,,,,,VCTS -RA,OVC,5000,,,,,,,VFR,,,,,,0.01,,,,,,METAR,213
KSTJ 160053Z AUTO 16006KT 10SM CLR 30/24 A2998 RMK AO2 SLP141 T03000244,KSTJ,2025-08-16T00:53:00Z,39.7683,-94.9095,30,24.4,160,6,,10+,29.98,1014.1,,TRUE,TRUE,,,,,,,CLR,,,,,,,,VFR,,,,,,,,,,,,METAR,247
KSTC 160053Z 11005KT 10SM CLR 26/23 A2997 RMK AO2 SLP150 T02560228 $,KSTC,2025-08-16T00:53:00Z,45.5442,-94.0517,25.6,22.8,110,5,,10+,29.97,1015,,,TRUE,TRUE,,,,,,CLR,,,,,,,,VFR,,,,,,,,,,,,METAR,302
KSSF 160053Z 11012G23KT 10SM CLR 33/20 A2996 RMK AO2 SLP131 T03280200,KSSF,2025-08-16T00:53:00Z,29.339,-98.472,32.8,20,110,12,23,10+,29.96,1013.1,,,TRUE,,,,,,,CLR,,,,,,,,VFR,,,,,,,,,,,,METAR,175
KSRQ 160053Z 28003KT 10SM FEW060 27/25 A3007 RMK AO2 RAE28 SLP182 P0000 T02670250 $,KSRQ,2025-08-16T00:53:00Z,27.4015,-82.5596,26.7,25,280,3,,10+,30.07,1018.2,,,TRUE,TRUE,,,,,,FEW,6000,,,,,,,VFR,,,,,,0.005,,,,,,METAR,5
KSPW 160053Z AUTO 17007KT 10SM CLR 27/25 A2995 RMK AO2 SLP134 T02670250,KSPW,2025-08-16T00:53:00Z,43.1682,-95.2101,26.7,25,170,7,,10+,29.95,1013.4,,TRUE,TRUE,,,,,,,CLR,,,,,,,,VFR,,,,,,,,,,,,METAR,407
KSPG 160053Z 27006KT 10SM SCT040 30/26 A3005 RMK AO2 SLP175 T03000261 $,KSPG,2025-08-16T00:53:00Z,27.7685,-82.6257,30,26.1,270,6,,10+,30.05,1017.5,,,TRUE,TRUE,,,,,,SCT,4000,,,,,,,VFR,,,,,,,,,,,,METAR,1
KSPB 160053Z AUTO 15006KT 10SM OVC037 22/18 A2988 RMK AO2 RAE07 SLP117 P0000 T02170178,KSPB,2025-08-16T00:53:00Z,45.7691,-122.864,21.7,17.8,150,6,,10+,29.88,1011.7,,TRUE,TRUE,,,,,,,OVC,3700,,,,,,,VFR,,,,,,0.005,,,,,,METAR,15
KSNY 160053Z AUTO 10006KT 10SM CLR 29/17 A2995 RMK AO2 LTG DSNT SW AND W SLP088 T02940167,KSNY,2025-08-16T00:53:00Z,41.0993,-102.986,29.4,16.7,100,6,,10+,29.95,1008.8,,TRUE,TRUE,,,,,,,CLR,,,,,,,,VFR,,,,,,,,,,,,METAR,1307
KSNA 160053Z 22011KT 10SM FEW023 21/15 A2994 RMK AO2 SLP137 T02110150,KSNA,2025-08-16T00:53:00Z,33.6798,-117.867,21.1,15,220,11,,10+,29.94,1013.7,,,TRUE,,,,,,,FEW,2300,,,,,,,VFR,,,,,,,,,,,,METAR,14
KSMQ 160053Z AUTO 00000KT 8SM CLR 24/21 A3013 RMK AO2 SLP201 T02440206,KSMQ,2025-08-16T00:53:00Z,40.6241,-74.669,24.4,20.6,0,0,,8,30.13,1020.1,,TRUE,TRUE,,,,,,,CLR,,,,,,,,VFR,,,,,,,,,,,,METAR,30
KSMF 160053Z 20015KT 10SM CLR 34/11 A2977 RMK AO2 SLP082 T03440106,KSMF,2025-08-16T00:53:00Z,38.7007,-121.595,34.4,10.6,200,15,,10+,29.77,1008.2,,,TRUE,,,,,,,CLR,,,,,,,,VFR,,,,,,,,,,,,METAR,7
KSLN 160053Z 15010KT 10SM SKC 33/22 A2994,KSLN,2025-08-16T00:53:00Z,38.78,-97.6446,33,22,150,10,,10+,29.94,,,,,,,,,,,SKC,,,,,,,,VFR,,,,,,,,,,,,METAR,377
KSJC 160053Z 33014KT 10SM CLR 24/15 A2993 RMK AO2 SLP133 T02440150,KSJC,2025-08-16T00:53:00Z,37.3594,-121.924,24.4,15,330,14,,10+,29.93,1013.3,,,TRUE,,,,,,,CLR,,,,,,,,VFR,,,,,,,,,,,,METAR,13
KSHR 160053Z AUTO 00000KT 10SM CLR 26/15 A2994 RMK AO2 SLP105 T02610150 $,KSHR,2025-08-16T00:53:00Z,44.7603,-106.974,26.1,15,0,0,,10+,29.94,1010.5,,TRUE,TRUE,TRUE,,,,,,CLR,,,,,,,,VFR,,,,,,,,,,,,METAR,1212
KSGR 160053Z 14011KT 10SM CLR 31/24 A3003 RMK AO2 SLP169 T03060244,KSGR,2025-08-16T00:53:00Z,29.6197,-95.6575,30.6,24.4,140,11,,10+,30.03,1016.9,,,TRUE,,,,,,,CLR,,,,,,,,VFR,,,,,,,,,,,,METAR,22
KSFF 160053Z 23008KT 10SM OVC075 27/12 A2988 RMK AO2 SLP101 T02720117,KSFF,2025-08-16T00:53:00Z,47.6857,-117.321,27.2,11.7,230,8,,10+,29.88,1010.1,,,TRUE,,,,,,,OVC,7500,,,,,,,VFR,,,,,,,,,,,,METAR,593
KSFB 160053Z 15003KT 10SM CLR 29/26 A3005 RMK AO1 SLP176 T02890261,KSFB,2025-08-16T00:53:00Z,28.7795,-81.2436,28.9,26.1,150,3,,10+,30.05,1017.6,,,TRUE,,,,,,,CLR,,,,,,,,VFR,,,,,,,,,,,,METAR,16
KSEG 160053Z AUTO 00000KT 10SM SCT065 SCT080 24/22 A3013 RMK AO2 SLP198 T02440222,KSEG,2025-08-16T00:53:00Z,40.8193,-76.8658,24.4,22.2,0,0,,10+,30.13,1019.8,,TRUE,TRUE,,,,,,,SCT,6500,SCT,8000,,,,,VFR,,,,,,,,,,,,METAR,136
KSEA 160053Z 19008KT 6SM -RA BR FEW014 BKN028 OVC034 19/18 A2984 RMK AO2 SLP108 P0001 T01940178 $,KSEA,2025-08-16T00:53:00Z,47.4447,-122.314,19.4,17.8,190,8,,6,29.84,1010.8,,,TRUE,TRUE,,,,,-RA BR,FEW,1400,BKN,2800,OVC,3400,,,MVFR,,,,,,0.01,,,,,,METAR,115
KSDM 160053Z 28006KT 10SM CLR 22/14 A2995 RMK AO2 SLP137 T02170144,KSDM,2025-08-16T00:53:00Z,32.5758,-116.994,21.7,14.4,280,6,,10+,29.95,1013.7,,,TRUE,,,,,,,CLR,,,,,,,,VFR,,,,,,,,,,,,METAR,161
KSDL 160053Z 00000KT 10SM CLR 36/14 A2987 RMK AO2 SLP088 T03610144,KSDL,2025-08-16T00:53:00Z,33.6124,-111.923,36.1,14.4,0,0,,10+,29.87,1008.8,,,TRUE,,,,,,,CLR,,,,,,,,VFR,,,,,,,,,,,,METAR,438
KSBM 160053Z AUTO 21005KT 10SM CLR 23/20 A3007 RMK AO2 SLP179 T02280200,KSBM,2025-08-16T00:53:00Z,43.7748,-87.849,22.8,20,210,5,,10+,30.07,1017.9,,TRUE,TRUE,,,,,,,CLR,,,,,,,,VFR,,,,,,,,,,,,METAR,225
KSBA 160053Z 24009KT 10SM FU FEW022 21/15 A2994 RMK AO2 SLP138 T02060150 $,KSBA,2025-08-16T00:53:00Z,34.4241,-119.842,20.6,15,240,9,,10+,29.94,1013.8,,,TRUE,TRUE,,,,,FU,FEW,2200,,,,,,,VFR,,,,,,,,,,,,METAR,2
KSAV 160053Z 00000KT 10SM FEW100 BKN150 25/23 A3007 RMK AO2 RAB2356E27 TSE33 SLP181 P0000 T02500228 $,KSAV,2025-08-16T00:53:00Z,32.1313,-81.2023,25,22.8,0,0,,10+,30.07,1018.1,,,TRUE,TRUE,,,,,,FEW,10000,BKN,15000,,,,,VFR,,,,,,0.005,,,,,,METAR,10
KSAF 160053Z 10005KT 10SM SCT120 23/10 A3028 RMK AO2 SLP157 T02280100,KSAF,2025-08-16T00:53:00Z,35.611,-106.096,22.8,10,100,5,,10+,30.28,1015.7,,,TRUE,,,,,,,SCT,12000,,,,,,,VFR,,,,,,,,,,,,METAR,1918
KSAC 160053Z 21011G18KT 10SM CLR 32/19 A2979 RMK AO2 SLP088 T03220189,KSAC,2025-08-16T00:53:00Z,38.5066,-121.496,32.2,18.9,210,11,18,10+,29.79,1008.8,,,TRUE,,,,,,,CLR,,,,,,,,VFR,,,,,,,,,,,,METAR,5
KRXE 160053Z AUTO 20013G30KT 10SM CLR 29/04 A3000 RMK AO2 PK WND 18030/0045 SLP113 T02890039,KRXE,2025-08-16T00:53:00Z,43.8321,-111.808,28.9,3.9,200,13,30,10+,30.00,1011.3,,TRUE,TRUE,,,,,,,CLR,,,,,,,,VFR,,,,,,,,,,,,METAR,1483
KRWL 160053Z AUTO 04005KT 10SM FEW100 BKN120 26/03 A3019 RMK AO2 SLP126 T02560033,KRWL,2025-08-16T00:53:00Z,41.8065,-107.195,25.6,3.3,40,5,,10+,30.19,1012.6,,TRUE,TRUE,,,,,,,FEW,10000,BKN,12000,,,,,VFR,,,,,,,,,,,,METAR,2066
KRWI 160053Z AUTO 00000KT 10SM CLR 25/23 A3008 RMK AO2 SLP185 T02500228,KRWI,2025-08-16T00:53:00Z,35.8502,-77.8951,25,22.8,0,0,,10+,30.08,1018.5,,TRUE,TRUE,,,,,,,CLR,,,,,,,,VFR,,,,,,,,,,,,METAR,46
KRWF 160053Z AUTO 07004KT 10SM FEW034 OVC044 28/24 A2995 RMK AO2 SLP135 T02780244,KRWF,2025-08-16T00:53:00Z,44.5483,-95.0804,27.8,24.4,70,4,,10+,29.95,1013.5,,TRUE,TRUE,,,,,,,FEW,3400,OVC,4400,,,,,VFR,,,,,,,,,,,,METAR,312
KRVS 160053Z 17005KT 10SM CLR 34/24 A2999 RMK AO2 SLP155 T03390239,KRVS,2025-08-16T00:53:00Z,36.0424,-95.9902,33.9,23.9,170,5,,10+,29.99,1015.5,,,TRUE,,,,,,,CLR,,,,,,,,VFR,,,,,,,,,,,,METAR,191
KRUE 160053Z AUTO 00000KT 10SM CLR 31/21 A3004 RMK AO2 SLP165 T03110211,KRUE,2025-08-16T00:53:00Z,35.2573,-93.095,31.1,21.1,0,0,,10+,30.04,1016.5,,TRUE,TRUE,,,,,,,CLR,,,,,,,,VFR,,,,,,,,,,,,METAR,119
KRTN 160053Z AUTO 22013KT 10SM CLR A3021 RMK AO2 PK WND 22030/0013 SLPNO,KRTN,2025-08-16T00:53:00Z,36.7418,-104.508,,,220,13,,10+,30.21,,,TRUE,TRUE,,,,,,,CLR,,,,,,,,VFR,,,,,,,,,,,,METAR,1939
KRSW 160053Z 29003KT 10SM CLR 30/26 A3005 RMK AO1 SLP173 T03000256 $,KRSW,2025-08-16T00:53:00Z,26.538,-81.7567,30,25.6,290,3,,10+,30.05,1017.3,,,TRUE,TRUE,,,,,,CLR,,,,,,,,VFR,,,,,,,,,,,,METAR,8
KRSL 160053Z AUTO 15011KT 10SM CLR 33/21 A2992 RMK AO2 SLP113 T03280211,KRSL,2025-08-16T00:53:00Z,38.8725,-98.8093,32.8,21.1,150,11,,10+,29.92,1011.3,,TRUE,TRUE,,,,,,,CLR,,,,,,,,VFR,,,,,,,,,,,,METAR,569
KRQE 160053Z AUTO 00000KT 10SM -RA OVC090 20/09 A3029 RMK AO2 RAB39 SLP142 P0000 T02000094,KRQE,2025-08-16T00:53:00Z,35.6571,-109.06,20,9.4,0,0,,10+,30.29,1014.2,,TRUE,TRUE,,,,,,-RA,OVC,9000,,,,,,,VFR,,,,,,0.005,,,,,,METAR,2056
KRNT 160053Z 16006KT 10SM OVC033 21/18 A2982 RMK AO2 RAE40 SLP103 P0000 T02060183,KRNT,2025-08-16T00:53:00Z,47.4951,-122.214,20.6,18.3,160,6,,10+,29.82,1010.3,,,TRUE,,,,,,,OVC,3300,,,,,,,VFR,,,,,,0.005,,,,,,METAR,7
KRNM 160053Z AUTO 27008KT 10SM CLR 24/14 A2996 RMK AO2 SLP132 T02390144 $,KRNM,2025-08-16T00:53:00Z,33.038,-116.916,23.9,14.4,270,8,,10+,29.96,1013.2,,TRUE,TRUE,TRUE,,,,,,CLR,,,,,,,,VFR,,,,,,,,,,,,METAR,423
KRMG 160053Z AUTO 22003KT 10SM CLR 26/24 A3011 RMK AO2 SLP185 T02560239,KRMG,2025-08-16T00:53:00Z,34.3483,-85.1616,25.6,23.9,220,3,,10+,30.11,1018.5,,TRUE,TRUE,,,,,,,CLR,,,,,,,,VFR,,,,,,,,,,,,METAR,196
KRME 160053Z 00000KT 10SM CLR 22/13 A3016 RMK AO2 SLP211 T02220133,KRME,2025-08-16T00:53:00Z,43.2242,-75.3956,22.2,13.3,0,0,,10+,30.16,1021.1,,,TRUE,,,,,,,CLR,,,,,,,,VFR,,,,,,,,,,,,METAR,146
KRKP 160053Z AUTO 15013KT 7SM CLR 28/23 A2998 RMK AO2 SLP155 T02830233,KRKP,2025-08-16T00:53:00Z,28.0837,-97.0467,28.3,23.3,150,13,,7,29.98,1015.5,,TRUE,TRUE,,,,,,,CLR,,,,,,,,VFR,,,,,,,,,,,,METAR,8
KRIW 160053Z AUTO 13004KT 10SM CLR 27/06 A3005 RMK AO2 SLP108 T02670056,KRIW,2025-08-16T00:53:00Z,43.0622,-108.447,26.7,5.6,130,4,,10+,30.05,1010.8,,TRUE,TRUE,,,,,,,CLR,,,,,,,,VFR,,,,,,,,,,,,METAR,1662
KRIL 160053Z AUTO 25015KT 10SM BKN110 29/05 A3008 RMK AO2 SLP111 T02940050,KRIL,2025-08-16T00:53:00Z,39.5279,-107.72,29.4,5,250,15,,10+,30.08,1011.1,,TRUE,TRUE,,,,,,,BKN,11000,,,,,,,VFR,,,,,,,,,,,,METAR,1683
KRHI 160053Z AUTO 17003KT 10SM CLR 25/21 A3005 RMK AO2 SLP169 T02500211,KRHI,2025-08-16T00:53:00Z,45.6315,-89.4822,25,21.1,170,3,,10+,30.05,1016.9,,TRUE,TRUE,,,,,,,CLR,,,,,,,,VFR,,,,,,,,,,,,METAR,493
KRDD 160053Z VRB06KT 10SM CLR 38/06 A2972 RMK AO2 SLP058 T03830056,KRDD,2025-08-16T00:53:00Z,40.5146,-122.298,38.3,5.6,VRB,6,,10+,29.72,1005.8,,,TRUE,,,,,,,CLR,,,,,,,,VFR,,,,,,,,,,,,METAR,152
KRBG 160053Z AUTO 28007KT 10SM BKN060 OVC100 26/16 A2996 RMK AO2 SLP143 T02610156,KRBG,2025-08-16T00:53:00Z,43.2337,-123.358,26.1,15.6,280,7,,10+,29.96,1014.3,,TRUE,TRUE,,,,,,,BKN,6000,OVC,10000,,,,,VFR,,,,,,,,,,,,METAR,152
KRBD 160053Z 15009KT 10SM CLR 33/21 A3000 RMK AO2 SLP148 T03280206,KRBD,2025-08-16T00:53:00Z,32.6782,-96.8677,32.8,20.6,150,9,,10+,30.00,1014.8,,,TRUE,,,,,,,CLR,,,,,,,,VFR,,,,,,,,,,,,METAR,200
KRAL 160053Z 27014KT 10SM CLR 26/16 A2991 RMK AO2 SLP113 T02610156 $,KRAL,2025-08-16T00:53:00Z,33.9528,-117.435,26.1,15.6,270,14,,10+,29.91,1011.3,,,TRUE,TRUE,,,,,,CLR,,,,,,,,VFR,,,,,,,,,,,,METAR,254
KRAC 160053Z AUTO 19004KT 10SM CLR 26/21 A3008 RMK AO2 SLP182 T02560211,KRAC,2025-08-16T00:53:00Z,42.7586,-87.8178,25.6,21.1,190,4,,10+,30.08,1018.2,,TRUE,TRUE,,,,,,,CLR,,,,,,,,VFR,,,,,,,,,,,,METAR,203
KPWA 160053Z 17014KT 10SM CLR 33/19 A2999 RMK AO2 SLP138 T03280194,KPWA,2025-08-16T00:53:00Z,35.5411,-97.6472,32.8,19.4,170,14,,10+,29.99,1013.8,,,TRUE,,,,,,,CLR,,,,,,,,VFR,,,,,,,,,,,,METAR,390
KPUW 160053Z AUTO 27008KT 10SM FEW120 25/09 A2993 RMK AO2 SLP123 T02500094,KPUW,2025-08-16T00:53:00Z,46.7438,-117.116,25,9.4,270,8,,10+,29.93,1012.3,,TRUE,TRUE,,,,,,,FEW,12000,,,,,,,VFR,,,,,,,,,,,,METAR,774
KPUC 160053Z AUTO 13007KT 10SM FEW065 22/08 A3019 RMK AO2 SLP149 T02220083,KPUC,2025-08-16T00:53:00Z,39.6089,-110.755,22.2,8.3,130,7,,10+,30.19,1014.9,,TRUE,TRUE,,,,,,,FEW,6500,,,,,,,VFR,,,,,,,,,,,,METAR,1777
KPUB 160053Z 22013G25KT 10SM CLR 32/06 A2999 RMK AO2 PK WND 23027/0033 SLP087 T03220061,KPUB,2025-08-16T00:53:00Z,38.2887,-104.506,32.2,6.1,220,13,25,10+,29.99,1008.7,,,TRUE,,,,,,,CLR,,,,,,,,VFR,,,,,,,,,,,,METAR,1441
KPTK 160053Z 16004KT 10SM FEW250 26/16 A3012 RMK AO2 SLP192 T02610161 $,KPTK,2025-08-16T00:53:00Z,42.6632,-83.4102,26.1,16.1,160,4,,10+,30.12,1019.2,,,TRUE,TRUE,,,,,,FEW,25000,,,,,,,VFR,,,,,,,,,,,,METAR,295
KPSX 160053Z AUTO 13011KT 10SM CLR 30/25 A3001 RMK AO2 SLP160 T03000250,KPSX,2025-08-16T00:53:00Z,28.7248,-96.2535,30,25,130,11,,10+,30.01,1016,,TRUE,TRUE,,,,,,,CLR,,,,,,,,VFR,,,,,,,,,,,,METAR,4
KPSP 160053Z 32013KT 10SM CLR 39/07 A2978 RMK AO2 RAB20E51 SLP078 P0000 T03940067,KPSP,2025-08-16T00:53:00Z,33.8222,-116.504,39.4,6.7,320,13,,10+,29.78,1007.8,,,TRUE,,,,,,,CLR,,,,,,,,VFR,,,,,,0.005,,,,,,METAR,123
KPSC 160053Z 28012G21KT 10SM CLR 30/13 A2980 RMK AO2 SLP088 T03000133,KPSC,2025-08-16T00:53:00Z,46.2695,-119.118,30,13.3,280,12,21,10+,29.80,1008.8,,,TRUE,,,,,,,CLR,,,,,,,,VFR,,,,,,,,,,,,METAR,121
KPRC 160053Z 19010G16KT 10SM CLR 27/12 A3014 RMK AO2 SLP125 T02720117,KPRC,2025-08-16T00:53:00Z,34.6491,-112.422,27.2,11.7,190,10,16,10+,30.14,1012.5,,,TRUE,,,,,,,CLR,,,,,,,,VFR,,,,,,,,,,,,METAR,1528
KPRB 160053Z AUTO 21017G24KT 10SM CLR 24/12 A2993 RMK AO2 PK WND 20026/0036 SLP128 T02390122,KPRB,2025-08-16T00:53:00Z,35.6693,-120.629,23.9,12.2,210,17,24,10+,29.93,1012.8,,TRUE,TRUE,,,,,,,CLR,,,,,,,,VFR,,,,,,,,,,,,METAR,249
KPQL 160053Z AUTO 00000KT 10SM CLR 28/27 A3010 RMK AO2 SLP193 T02830267,KPQL,2025-08-16T00:53:00Z,30.4631,-88.5316,28.3,26.7,0,0,,10+,30.10,1019.3,,TRUE,TRUE,,,,,,,CLR,,,,,,,,VFR,,,,,,,,,,,,METAR,4
KPOU 160053Z 00000KT 10SM OVC070 25/21 A3013 RMK AO2 SLP200 T02500206,KPOU,2025-08-16T00:53:00Z,41.6257,-73.8816,25,20.6,0,0,,10+,30.13,1020,,,TRUE,,,,,,,OVC,7000,,,,,,,VFR,,,,,,,,,,,,METAR,45
KPOF 160053Z AUTO 00000KT 10SM CLR 29/24 A3005 RMK AO2 SLP170 T02890244,KPOF,2025-08-16T00:53:00Z,36.7697,-90.3224,28.9,24.4,0,0,,10+,30.05,1017,,TRUE,TRUE,,,,,,,CLR,,,,,,,,VFR,,,,,,,,,,,,METAR,99
KPNS 160053Z 07005KT 4SM BR FEW031 SCT065 SCT110 24/23 A3012 RMK AO2 WSHFT 2346 LTG DSNT ALQDS RAB19E46 TSB08E23 SLP200 P0029 T02440233,KPNS,2025-08-16T00:53:00Z,30.478,-87.1869,24.4,23.3,70,5,,4,30.12,1020,,,TRUE,,,,,,BR,FEW,3100,SCT,6500,SCT,11000,,,MVFR,,,,,,0.29,,,,,,METAR,34
KPNC 160053Z AUTO 16011KT 10SM CLR 33/22 A2996 RMK AO2 SLP132 T03330217,KPNC,2025-08-16T00:53:00Z,36.7369,-97.1024,33.3,21.7,160,11,,10+,29.96,1013.2,,TRUE,TRUE,,,,,,,CLR,,,,,,,,VFR,,,,,,,,,,,,METAR,304
KPMP 160053Z AUTO 10006KT 10SM CLR 30/24 A3006 RMK AO2 SLP180 T03000239,KPMP,2025-08-16T00:53:00Z,26.2464,-80.111,30,23.9,100,6,,10+,30.06,1018,,TRUE,TRUE,,,,,,,CLR,,,,,,,,VFR,,,,,,,,,,,,METAR,4
KPMD 160053Z 25012KT 10SM CLR 31/06 A2993 RMK AO2 PK WND 23026/0009 SLP105 T03110056 $,KPMD,2025-08-16T00:53:00Z,34.6295,-118.083,31.1,5.6,250,12,,10+,29.93,1010.5,,,TRUE,TRUE,,,,,,CLR,,,,,,,,VFR,,,,,,,,,,,,METAR,764
KPKD 160053Z AUTO 02008KT 10SM CLR 25/16 A2999 RMK AO2 SLP150 T02500161,KPKD,2025-08-16T00:53:00Z,46.8971,-95.0695,25,16.1,20,8,,10+,29.99,1015,,TRUE,TRUE,,,,,,,CLR,,,,,,,,VFR,,,,,,,,,,,,METAR,439
KPKB 160053Z 00000KT 10SM CLR 25/21 A3013 RMK AO2 SLP194 T02500211,KPKB,2025-08-16T00:53:00Z,39.3395,-81.4438,25,21.1,0,0,,10+,30.13,1019.4,,,TRUE,,,,,,,CLR,,,,,,,,VFR,,,,,,,,,,,,METAR,245
KPIR 160053Z AUTO 08012G22KT 10SM CLR 29/23 A2987 RMK AO2 SLP099 T02890228,KPIR,2025-08-16T00:53:00Z,44.3819,-100.286,28.9,22.8,80,12,22,10+,29.87,1009.9,,TRUE,TRUE,,,,,,,CLR,,,,,,,,VFR,,,,,,,,,,,,METAR,524
KPIL 160053Z AUTO 11009KT 10SM FEW033 28/24 A2999 RMK AO2 SLP154 T02780244,KPIL,2025-08-16T00:53:00Z,26.1597,-97.3378,27.8,24.4,110,9,,10+,29.99,1015.4,,TRUE,TRUE,,,,,,,FEW,3300,,,,,,,VFR,,,,,,,,,,,,METAR,5
KPIH 160053Z 24009KT 10SM SCT080 28/02 A2999 RMK AO2 SLP110 T02830022,KPIH,2025-08-16T00:53:00Z,42.9197,-112.572,28.3,2.2,240,9,,10+,29.99,1011,,,TRUE,,,,,,,SCT,8000,,,,,,,VFR,,,,,,,,,,,,METAR,1357
KPIE 160053Z 29007KT 10SM CLR 31/25 A3006 RMK AO2 SLP179 T03060250 $,KPIE,2025-08-16T00:53:00Z,27.9126,-82.6855,30.6,25,290,7,,10+,30.06,1017.9,,,TRUE,TRUE,,,,,,CLR,,,,,,,,VFR,,,,,,,,,,,,METAR,1
KPHD 160053Z AUTO 00000KT 10SM CLR 24/19 A3014 RMK AO2 SLP199 T02390194,KPHD,2025-08-16T00:53:00Z,40.4703,-81.4218,23.9,19.4,0,0,,10+,30.14,1019.9,,TRUE,TRUE,,,,,,,CLR,,,,,,,,VFR,,,,,,,,,,,,METAR,272
KPGD 160053Z AUTO 36004KT 10SM CLR 27/24 A3008 RMK AO2 SLP183 T02670239,KPGD,2025-08-16T00:53:00Z,26.9185,-81.9939,26.7,23.9,360,4,,10+,30.08,1018.3,,TRUE,TRUE,,,,,,,CLR,,,,,,,,VFR,,,,,,,,,,,,METAR,7
KPGA 160053Z AUTO 07004KT 10SM FEW100 23/14 A3015 RMK AO2 SLP147 T02280144,KPGA,2025-08-16T00:53:00Z,36.9211,-111.449,22.8,14.4,70,4,,10+,30.15,1014.7,,TRUE,TRUE,,,,,,,FEW,10000,,,,,,,VFR,,,,,,,,,,,,METAR,1310
KPEO 160053Z AUTO 00000KT 10SM CLR 23/14 A3016 RMK AO2 SLP207 T02330139,KPEO,2025-08-16T00:53:00Z,42.6441,-77.0528,23.3,13.9,0,0,,10+,30.16,1020.7,,TRUE,TRUE,,,,,,,CLR,,,,,,,,VFR,,,,,,,,,,,,METAR,268
KPDX 160053Z 19008KT 10SM BKN033 OVC044 24/17 A2990 RMK AO2 SLP123 T02390167,KPDX,2025-08-16T00:53:00Z,45.5958,-122.609,23.9,16.7,190,8,,10+,29.90,1012.3,,,TRUE,,,,,,,BKN,3300,OVC,4400,,,,,VFR,,,,,,,,,,,,METAR,7
KPDT 160053Z 29012KT 10SM BKN120 29/12 A2987 RMK AO2 SLP098 T02890122,KPDT,2025-08-16T00:53:00Z,45.6975,-118.834,28.9,12.2,290,12,,10+,29.87,1009.8,,,TRUE,,,,,,,BKN,12000,,,,,,,VFR,,,,,,,,,,,,METAR,453
KPBI 160053Z 10009KT 10SM FEW250 30/23 A3007 RMK AO2 SLP181 T03000233 $,KPBI,2025-08-16T00:53:00Z,26.6851,-80.0992,30,23.3,100,9,,10+,30.07,1018.1,,,TRUE,TRUE,,,,,,FEW,25000,,,,,,,VFR,,,,,,,,,,,,METAR,4
KPBG 160053Z AUTO 00000KT 10SM CLR 18/13 A3016 RMK AO2 SLP213 T01830128,KPBG,2025-08-16T00:53:00Z,44.6392,-73.4631,18.3,12.8,0,0,,10+,30.16,1021.3,,TRUE,TRUE,,,,,,,CLR,,,,,,,,VFR,,,,,,,,,,,,METAR,61
KPBF 160053Z AUTO 18003KT 10SM CLR 28/21 A3006 RMK AO2 SLP178 T02780206,KPBF,2025-08-16T00:53:00Z,34.1798,-91.9344,27.8,20.6,180,3,,10+,30.06,1017.8,,TRUE,TRUE,,,,,,,CLR,,,,,,,,VFR,,,,,,,,,,,,METAR,63
KPAH 160053Z 00000KT 10SM CLR 27/23 A3006 RMK AO2 SLP173 T02720233,KPAH,2025-08-16T00:53:00Z,37.0652,-88.7793,27.2,23.3,0,0,,10+,30.06,1017.3,,,TRUE,,,,,,,CLR,,,,,,,,VFR,,,,,,,,,,,,METAR,125
KPAE 160053Z 17018G30KT 10SM -RA BKN006 BKN018 OVC024 18/17 A2982 RMK AO2 PK WND 18030/0049 SLP094 P0000 T01830172,KPAE,2025-08-16T00:53:00Z,47.9232,-122.283,18.3,17.2,170,18,30,10+,29.82,1009.4,,,TRUE,,,,,,-RA,BKN,600,BKN,1800,OVC,2400,,,IFR,,,,,,0.005,,,,,,METAR,166
KOWD 160053Z 00000KT 10SM CLR 17/15 A3021 RMK AO2 SLP229 T01720150,KOWD,2025-08-16T00:53:00Z,42.1912,-71.1732,17.2,15,0,0,,10+,30.21,1022.9,,,TRUE,,,,,,,CLR,,,,,,,,VFR,,,,,,,,,,,,METAR,14
KOVS 160053Z AUTO 00000KT 8SM -RA FEW043 SCT090 BKN110 25/24 A3005 RMK AO2 SLP174 P0002 T02500244,KOVS,2025-08-16T00:53:00Z,43.1561,-90.6775,25,24.4,0,0,,8,30.05,1017.4,,TRUE,TRUE,,,,,,-RA,FEW,4300,SCT,9000,BKN,11000,,,VFR,,,,,,0.02,,,,,,METAR,205
KOTM 160053Z AUTO 05016KT 10SM BKN047 24/21 A3008 RMK AO2 SLP180 T02390206,KOTM,2025-08-16T00:53:00Z,41.1008,-92.4445,23.9,20.6,50,16,,10+,30.08,1018,,TRUE,TRUE,,,,,,,BKN,4700,,,,,,,VFR,,,,,,,,,,,,METAR,254
KOSU 160053Z 15003KT 10SM SCT070 27/19 A3013 RMK AO2 SLP194 T02720194 $,KOSU,2025-08-16T00:53:00Z,40.0784,-83.0782,27.2,19.4,150,3,,10+,30.13,1019.4,,,TRUE,TRUE,,,,,,SCT,7000,,,,,,,VFR,,,,,,,,,,,,METAR,276
KOSH 160053Z 19005KT 10SM CLR 25/21 A3005 RMK AO2 SLP163 T02500206,KOSH,2025-08-16T00:53:00Z,43.9669,-88.5582,25,20.6,190,5,,10+,30.05,1016.3,,,TRUE,,,,,,,CLR,,,,,,,,VFR,,,,,,,,,,,,METAR,239
KORL 160053Z 00000KT 10SM CLR 28/25 A3007 RMK AO2 SLP183 T02780250,KORL,2025-08-16T00:53:00Z,28.5465,-81.3354,27.8,25,0,0,,10+,30.07,1018.3,,,TRUE,,,,,,,CLR,,,,,,,,VFR,,,,,,,,,,,,METAR,32
KOQT 160053Z AUTO 00000KT 10SM CLR 27/24 A3013 RMK AO2 SLP186 T02720244,KOQT,2025-08-16T00:53:00Z,36.023,-84.2336,27.2,24.4,0,0,,10+,30.13,1018.6,,TRUE,TRUE,,,,,,,CLR,,,,,,,,VFR,,,,,,,,,,,,METAR,276
KOPF 160053Z 10006KT 10SM CLR 29/23 A3007 RMK AO2 SLP184 T02890233,KOPF,2025-08-16T00:53:00Z,25.9102,-80.2828,28.9,23.3,100,6,,10+,30.07,1018.4,,,TRUE,,,,,,,CLR,,,,,,,,VFR,,,,,,,,,,,,METAR,1
KONT 160053Z 24012G19KT 10SM CLR 26/15 A2992 RMK AO2 SLP116 T02610150 $,KONT,2025-08-16T00:53:00Z,34.0531,-117.577,26.1,15,240,12,19,10+,29.92,1011.6,,,TRUE,TRUE,,,,,,CLR,,,,,,,,VFR,,,,,,,,,,,,METAR,279
KONO 160053Z AUTO 13003KT 10SM CLR 33/09 A2983 RMK AO2 SLP082 T03330089,KONO,2025-08-16T00:53:00Z,44.0143,-117.008,33.3,8.9,130,3,,10+,29.83,1008.2,,TRUE,TRUE,,,,,,,CLR,,,,,,,,VFR,,,,,,,,,,,,METAR,668
KOMK 160053Z AUTO 21004KT 10SM OVC060 23/15 A2981 RMK AO2 RAE2359 SLP089 P0000 T02330150,KOMK,2025-08-16T00:53:00Z,48.4611,-119.521,23.3,15,210,4,,10+,29.81,1008.9,,TRUE,TRUE,,,,,,,OVC,6000,,,,,,,VFR,,,,,,0.005,,,,,,METAR,395
KOLF 160053Z AUTO 08008KT 10SM CLR 26/13 A2990 RMK AO2 SLP121 T02560133,KOLF,2025-08-16T00:53:00Z,48.0942,-105.578,25.6,13.3,80,8,,10+,29.90,1012.1,,TRUE,TRUE,,,,,,,CLR,,,,,,,,VFR,,,,,,,,,,,,METAR,605
KOJC 160053Z 16005KT 10SM CLR 29/24 A3000 RMK AO2 SLP147 T02940239,KOJC,2025-08-16T00:53:00Z,38.85,-94.7395,29.4,23.9,160,5,,10+,30.00,1014.7,,,TRUE,,,,,,,CLR,,,,,,,,VFR,,,,,,,,,,,,METAR,328
KOGD 160053Z 14008KT 10SM CLR 31/03 A2995 RMK AO2 SLP074 T03110033,KOGD,2025-08-16T00:53:00Z,41.1941,-112.017,31.1,3.3,140,8,,10+,29.95,1007.4,,,TRUE,,,,,,,CLR,,,,,,,,VFR,,,,,,,,,,,,METAR,1356
KOGB 160053Z AUTO 00000KT 10SM CLR 28/25 A3006 RMK AO2 SLP177 T02780250,KOGB,2025-08-16T00:53:00Z,33.4637,-80.8534,27.8,25,0,0,,10+,30.06,1017.7,,TRUE,TRUE,,,,,,,CLR,,,,,,,,VFR,,,,,,,,,,,,METAR,59
KODX 160053Z AUTO 08005KT 10SM CLR 29/26 A2990 RMK AO2 RAB48E52 SLP113 P0000 T02890256,KODX,2025-08-16T00:53:00Z,41.6234,-98.9489,28.9,25.6,80,5,,10+,29.90,1011.3,,TRUE,TRUE,,,,,,,CLR,,,,,,,,VFR,,,,,,0.005,,,,,,METAR,628
KODO 160053Z AUTO 17014KT 10SM CLR 33/13 A3004 RMK AO2 SLP120 T03330128,KODO,2025-08-16T00:53:00Z,31.925,-102.387,33.3,12.8,170,14,,10+,30.04,1012,,TRUE,TRUE,,,,,,,CLR,,,,,,,,VFR,,,,,,,,,,,,METAR,912
KOAK 160053Z 28014KT 10SM FEW006 FEW012 21/14 A2992 RMK AO2 SLP132 T02060144,KOAK,2025-08-16T00:53:00Z,37.7178,-122.233,20.6,14.4,280,14,,10+,29.92,1013.2,,,TRUE,,,,,,,FEW,600,FEW,1200,,,,,VFR,,,,,,,,,,,,METAR,3
KNUW 160053Z 15016G33KT 10SM -RA OVC015 18/17 A2977 RMK AO2 PK WND 15033/0051 SLP085 P0000 T01830167,KNUW,2025-08-16T00:53:00Z,48.355,-122.664,18.3,16.7,150,16,33,10+,29.77,1008.5,,,TRUE,,,,,,-RA,OVC,1500,,,,,,,MVFR,,,,,,0.005,,,,,,METAR,14
KNUI 160053Z AUTO 00000KT 10SM FEW029 25/24 A3009 RMK AO2 SLP189 T02500239 $,KNUI,2025-08-16T00:53:00Z,38.152,-76.432,25,23.9,0,0,,10+,30.09,1018.9,,TRUE,TRUE,TRUE,,,,,,FEW,2900,,,,,,,VFR,,,,,,,,,,,,METAR,4
KNSI 160053Z AUTO 32013KT 10SM OVC008 16/13 A2997 RMK AO2 SLP142 T01610133 $,KNSI,2025-08-16T00:53:00Z,33.2337,-119.456,16.1,13.3,320,13,,10+,29.97,1014.2,,TRUE,TRUE,TRUE,,,,,,OVC,800,,,,,,,IFR,,,,,,,,,,,,METAR,161
KNRS 160053Z 21010KT 10SM BKN015 20/15 A2996 RMK AO2 SLP146 T02000150 $,KNRS,2025-08-16T00:53:00Z,32.563,-117.111,20,15,210,10,,10+,29.96,1014.6,,,TRUE,TRUE,,,,,,BKN,1500,,,,,,,MVFR,,,,,,,,,,,,METAR,15
KNQX 160053Z 09007KT 10SM FEW027 FEW250 29/25 A3006 RMK AO2 SLP178 T02940250 $,KNQX,2025-08-16T00:53:00Z,24.5801,-81.6829,29.4,25,90,7,,10+,30.06,1017.8,,,TRUE,TRUE,,,,,,FEW,2700,FEW,25000,,,,,VFR,,,,,,,,,,,,METAR,2
KNIP 160053Z 00000KT 10SM FEW050 FEW150 BKN250 28/25 A3006 RMK AO2 SLP176 FRQ LTGIC DSNT SW CB DSNT SW T02780250,KNIP,2025-08-16T00:53:00Z,30.2346,-81.6746,27.8,25,0,0,,10+,30.06,1017.6,,,TRUE,,,,,,,FEW,5000,FEW,15000,BKN,25000,,,VFR,,,,,,,,,,,,METAR,3
KNEW 160053Z 00000KT 10SM CLR 28/23 A3009 RMK AO1 SLP182 T02780233,KNEW,2025-08-16T00:53:00Z,30.0494,-90.029,27.8,23.3,0,0,,10+,30.09,1018.2,,,TRUE,,,,,,,CLR,,,,,,,,VFR,,,,,,,,,,,,METAR,1
KNEN 160053Z AUTO 00000KT 10SM CLR 26/24 A3008 RMK AO2 SLP247 T02560239 TSNO $,KNEN,2025-08-16T00:53:00Z,30.3501,-81.8693,25.6,23.9,0,0,,10+,30.08,1024.7,,TRUE,TRUE,TRUE,,TRUE,,,,CLR,,,,,,,,VFR,,,,,,,,,,,,METAR,30
KMYV 160053Z AUTO 18009KT 10SM CLR 36/12 A2977 RMK AO2 SLP082 T03610117,KMYV,2025-08-16T00:53:00Z,39.102,-121.569,36.1,11.7,180,9,,10+,29.77,1008.2,,TRUE,TRUE,,,,,,,CLR,,,,,,,,VFR,,,,,,,,,,,,METAR,18
KMYR 160053Z 20003KT 10SM FEW041 28/26 A3007 RMK AO2 SLP183 T02830261 $,KMYR,2025-08-16T00:53:00Z,33.6769,-78.9325,28.3,26.1,200,3,,10+,30.07,1018.3,,,TRUE,TRUE,,,,,,FEW,4100,,,,,,,VFR,,,,,,,,,,,,METAR,7
KMYF 160053Z 20008KT 10SM FEW018 20/15 A2996 RMK AO2 SLP141 T02000150,KMYF,2025-08-16T00:53:00Z,32.8145,-117.137,20,15,200,8,,10+,29.96,1014.1,,,TRUE,,,,,,,FEW,1800,,,,,,,VFR,,,,,,,,,,,,METAR,128
KMWT 160053Z AUTO 00000KT 10SM CLR 29/26 A3005 RMK AO2 SLP163 T02940261,KMWT,2025-08-16T00:53:00Z,34.5466,-93.5779,29.4,26.1,0,0,,10+,30.05,1016.3,,TRUE,TRUE,,,,,,,CLR,,,,,,,,VFR,,,,,,,,,,,,METAR,220
KMWL 160053Z AUTO 14007KT 10SM CLR 33/21 A2999 RMK AO2 SLP138 T03330206,KMWL,2025-08-16T00:53:00Z,32.7816,-98.0602,33.3,20.6,140,7,,10+,29.99,1013.8,,TRUE,TRUE,,,,,,,CLR,,,,,,,,VFR,,,,,,,,,,,,METAR,288
KMVY 160053Z 05004KT 10SM CLR 19/18 A3018 RMK AO2 SLP220 T01890178,KMVY,2025-08-16T00:53:00Z,41.393,-70.6159,18.9,17.8,50,4,,10+,30.18,1022,,,TRUE,,,,,,,CLR,,,,,,,,VFR,,,,,,,,,,,,METAR,18
KMTO 160053Z AUTO 15004KT 10SM CLR 28/24 A3008 RMK AO2 SLP178 T02830239,KMTO,2025-08-16T00:53:00Z,39.4744,-88.2724,28.3,23.9,150,4,,10+,30.08,1017.8,,TRUE,TRUE,,,,,,,CLR,,,,,,,,VFR,,,,,,,,,,,,METAR,216
KMTJ 160053Z AUTO 21004KT 10SM -RA FEW055 SCT085 BKN110 26/08 A3016 RMK AO2 RAB47 SLP134 P0000 T02560083,KMTJ,2025-08-16T00:53:00Z,38.5054,-107.898,25.6,8.3,210,4,,10+,30.16,1013.4,,TRUE,TRUE,,,,,,-RA,FEW,5500,SCT,8500,BKN,11000,,,VFR,,,,,,0.005,,,,,,METAR,1755
KMTH 160053Z AUTO 09006KT 10SM CLR 30/24 A3006 RMK AO2 SLP178 T03000239,KMTH,2025-08-16T00:53:00Z,24.7262,-81.0477,30,23.9,90,6,,10+,30.06,1017.8,,TRUE,TRUE,,,,,,,CLR,,,,,,,,VFR,,,,,,,,,,,,METAR,1
KMSY 160053Z 00000KT 10SM BKN230 26/24 A3007 RMK AO2 SLP186 T02560244,KMSY,2025-08-16T00:53:00Z,29.9974,-90.2777,25.6,24.4,0,0,,10+,30.07,1018.6,,,TRUE,,,,,,,BKN,23000,,,,,,,VFR,,,,,,,,,,,,METAR,
KMSS 160053Z AUTO 00000KT 10SM CLR 17/13 A3016 RMK AO2 SLP214 T01720128,KMSS,2025-08-16T00:53:00Z,44.9334,-74.8484,17.2,12.8,0,0,,10+,30.16,1021.4,,TRUE,TRUE,,,,,,,CLR,,,,,,,,VFR,,,,,,,,,,,,METAR,60
KMSO 160053Z 34012G21KT 10SM CLR 29/06 A2988 RMK AO2 SLP098 T02890061 $,KMSO,2025-08-16T00:53:00Z,46.9208,-114.094,28.9,6.1,340,12,21,10+,29.88,1009.8,,,TRUE,TRUE,,,,,,CLR,,,,,,,,VFR,,,,,,,,,,,,METAR,974
KMSN 160053Z 19005KT 10SM BKN250 28/21 A3004 RMK AO2 SLP166 T02780206,KMSN,2025-08-16T00:53:00Z,43.1407,-89.3452,27.8,20.6,190,5,,10+,30.04,1016.6,,,TRUE,,,,,,,BKN,25000,,,,,,,VFR,,,,,,,,,,,,METAR,262
KMSL 160053Z AUTO 15005KT 10SM CLR 26/23 A3011 RMK AO2 LTG DSNT S SLP189 T02610228,KMSL,2025-08-16T00:53:00Z,34.7439,-87.5997,26.1,22.8,150,5,,10+,30.11,1018.9,,TRUE,TRUE,,,,,,,CLR,,,,,,,,VFR,,,,,,,,,,,,METAR,170
KMRB 160053Z 00000KT 10SM SCT060 26/21 A3011 RMK AO2 SLP190 T02610211,KMRB,2025-08-16T00:53:00Z,39.4037,-77.975,26.1,21.1,0,0,,10+,30.11,1019,,,TRUE,,,,,,,SCT,6000,,,,,,,VFR,,,,,,,,,,,,METAR,165
KMPO 160053Z AUTO 12003KT 10SM FEW042 BKN060 OVC100 23/19 A3021 RMK AO2 RAB2359E16 SLP219 P0000 T02280194,KMPO,2025-08-16T00:53:00Z,41.1368,-75.3771,22.8,19.4,120,3,,10+,30.21,1021.9,,TRUE,TRUE,,,,,,,FEW,4200,BKN,6000,OVC,10000,,,VFR,,,,,,0.005,,,,,,METAR,576
KMOD 160053Z AUTO 31012KT 10SM BKN110 34/12 A2980 RMK AO2 SLP090 T03440117,KMOD,2025-08-16T00:53:00Z,37.6254,-120.955,34.4,11.7,310,12,,10+,29.80,1009,,TRUE,TRUE,,,,,,,BKN,11000,,,,,,,VFR,,,,,,,,,,,,METAR,25
KMNN 160053Z AUTO 00000KT 8SM CLR 25/21 A3013 RMK AO2 SLP199 T02500211,KMNN,2025-08-16T00:53:00Z,40.6158,-83.0673,25,21.1,0,0,,8,30.13,1019.9,,TRUE,TRUE,,,,,,,CLR,,,,,,,,VFR,,,,,,,,,,,,METAR,301
KMMV 160053Z AUTO 20010KT 10SM OVC042 23/17 A2990 RMK AO2 SLP124 T02280167,KMMV,2025-08-16T00:53:00Z,45.1957,-123.134,22.8,16.7,200,10,,10+,29.90,1012.4,,TRUE,TRUE,,,,,,,OVC,4200,,,,,,,VFR,,,,,,,,,,,,METAR,48
KMMK 160053Z AUTO 15004KT 10SM CLR 24/20 A3017 RMK AO2 SLP215 T02440200,KMMK,2025-08-16T00:53:00Z,41.5097,-72.8278,24.4,20,150,4,,10+,30.17,1021.5,,TRUE,TRUE,,,,,,,CLR,,,,,,,,VFR,,,,,,,,,,,,METAR,30
KMLT 160053Z AUTO 00000KT 10SM CLR 18/08 A3019 RMK AO2 SLP229 T01780083,KMLT,2025-08-16T00:53:00Z,45.6478,-68.6925,17.8,8.3,0,0,,10+,30.19,1022.9,,TRUE,TRUE,,,,,,,CLR,,,,,,,,VFR,,,,,,,,,,,,METAR,121
KMLS 160053Z AUTO 24003KT 10SM CLR 32/09 A2985 RMK AO2 SLP085 T03220094,KMLS,2025-08-16T00:53:00Z,46.4265,-105.883,32.2,9.4,240,3,,10+,29.85,1008.5,,TRUE,TRUE,,,,,,,CLR,,,,,,,,VFR,,,,,,,,,,,,METAR,800
KMLP 160053Z AUTO 10SM FEW043 15/09 A3009 RMK AO2 SLP109 T01500089,KMLP,2025-08-16T00:53:00Z,47.4548,-115.671,15,8.9,,,,10+,30.09,1010.9,,TRUE,TRUE,,,,,,,FEW,4300,,,,,,,VFR,,,,,,,,,,,,METAR,1837
KMLC 160053Z AUTO 16003KT 10SM CLR 31/23 A3002 RMK AO2 SLP155 T03110228,KMLC,2025-08-16T00:53:00Z,34.8824,-95.7815,31.1,22.8,160,3,,10+,30.02,1015.5,,TRUE,TRUE,,,,,,,CLR,,,,,,,,VFR,,,,,,,,,,,,METAR,231
KMLB 160053Z 14008KT 10SM CLR 30/24 A3005 RMK AO2 SLP175 T03000244 $,KMLB,2025-08-16T00:53:00Z,28.0997,-80.6356,30,24.4,140,8,,10+,30.05,1017.5,,,TRUE,TRUE,,,,,,CLR,,,,,,,,VFR,,,,,,,,,,,,METAR,7
KMKO 160053Z AUTO 16005KT 10SM CLR 31/22 A3003 RMK AO2 SLP159 T03060222,KMKO,2025-08-16T00:53:00Z,35.6576,-95.3658,30.6,22.2,160,5,,10+,30.03,1015.9,,TRUE,TRUE,,,,,,,CLR,,,,,,,,VFR,,,,,,,,,,,,METAR,184
KMIW 160053Z AUTO 13006KT 10SM CLR 22/20 A3000 RMK AO2 LTG DSNT SE-W RAE21 SLP154 P0000 T02220200,KMIW,2025-08-16T00:53:00Z,42.1106,-92.9163,22.2,20,130,6,,10+,30.00,1015.4,,TRUE,TRUE,,,,,,,CLR,,,,,,,,VFR,,,,,,0.005,,,,,,METAR,296
KMIE 160053Z 00000KT 10SM CLR 24/22 A3011 RMK AO2 SLP186 T02440222,KMIE,2025-08-16T00:53:00Z,40.2345,-85.3936,24.4,22.2,0,0,,10+,30.11,1018.6,,,TRUE,,,,,,,CLR,,,,,,,,VFR,,,,,,,,,,,,METAR,286
KMIA 160053Z 08008KT 10SM FEW030 BKN250 29/24 A3007 RMK AO2 SLP181 T02940239,KMIA,2025-08-16T00:53:00Z,25.7881,-80.3169,29.4,23.9,80,8,,10+,30.07,1018.1,,,TRUE,,,,,,,FEW,3000,BKN,25000,,,,,VFR,,,,,,,,,,,,METAR,1
KMHT 160053Z 00000KT 10SM CLR 20/12 A3019 RMK AO2 SLPNO T02000117,KMHT,2025-08-16T00:53:00Z,42.9245,-71.4377,20,11.7,0,0,,10+,30.19,,,,TRUE,,,,,,,CLR,,,,,,,,VFR,,,,,,,,,,,,METAR,68
KMHE 160053Z AUTO 11007KT 10SM CLR 28/24 A2989 RMK AO2 SLP113 T02830244,KMHE,2025-08-16T00:53:00Z,43.7743,-98.0384,28.3,24.4,110,7,,10+,29.89,1011.3,,TRUE,TRUE,,,,,,,CLR,,,,,,,,VFR,,,,,,,,,,,,METAR,397
KMGY 160053Z AUTO 00000KT 10SM FEW050 27/21 A3011 RMK AO2 SLP189 T02720206,KMGY,2025-08-16T00:53:00Z,39.5918,-84.2263,27.2,20.6,0,0,,10+,30.11,1018.9,,TRUE,TRUE,,,,,,,FEW,5000,,,,,,,VFR,,,,,,,,,,,,METAR,290
KMGW 160053Z 00000KT 10SM CLR 24/18 A3015,KMGW,2025-08-16T00:53:00Z,39.6498,-79.9206,24,18,0,0,,10+,30.15,,,,,,,,,,,CLR,,,,,,,,VFR,,,,,,,,,,,,METAR,375
KMGM 160053Z 36006KT 10SM VCTS FEW100 24/23 A3011 RMK AO2 RAE02 SLP194 P0000 T02390228,KMGM,2025-08-16T00:53:00Z,32.2997,-86.4074,23.9,22.8,360,6,,10+,30.11,1019.4,,,TRUE,,,,,,VCTS,FEW,10000,,,,,,,VFR,,,,,,0.005,,,,,,METAR,64
KMFR 160053Z 29013G19KT 10SM CLR 29/12 A2993 RMK AO2 SLP125 T02940122,KMFR,2025-08-16T00:53:00Z,42.375,-122.877,29.4,12.2,290,13,19,10+,29.93,1012.5,,,TRUE,,,,,,,CLR,,,,,,,,VFR,,,,,,,,,,,,METAR,397
KMFE 160053Z 13012G18KT 10SM CLR 27/25 A2995 RMK AO2 SLP141 T02720250 $,KMFE,2025-08-16T00:53:00Z,26.1791,-98.2445,27.2,25,130,12,18,10+,29.95,1014.1,,,TRUE,TRUE,,,,,,CLR,,,,,,,,VFR,,,,,,,,,,,,METAR,29
KMDW 160053Z 22006KT 10SM FEW055 SCT100 BKN250 31/19 A3006 RMK AO2 SLP168 T03060194 $,KMDW,2025-08-16T00:53:00Z,41.7841,-87.7551,30.6,19.4,220,6,,10+,30.06,1016.8,,,TRUE,TRUE,,,,,,FEW,5500,SCT,10000,BKN,25000,,,VFR,,,,,,,,,,,,METAR,186
KMCW 160053Z AUTO 07004KT 10SM CLR 22/20 A3001 RMK AO2 SLP151 T02170200,KMCW,2025-08-16T00:53:00Z,43.1543,-93.3262,21.7,20,70,4,,10+,30.01,1015.1,,TRUE,TRUE,,,,,,,CLR,,,,,,,,VFR,,,,,,,,,,,,METAR,363
KMCO 160053Z 14006KT 10SM FEW070 FEW300 29/25 A3006 RMK AO2 SLP178 T02890250 $,KMCO,2025-08-16T00:53:00Z,28.4182,-81.3241,28.9,25,140,6,,10+,30.06,1017.8,,,TRUE,TRUE,,,,,,FEW,7000,FEW,30000,,,,,VFR,,,,,,,,,,,,METAR,27
KMCN 160053Z AUTO 29005KT 10SM CLR 28/24 A3006 RMK AO2 SLP175 T02830244,KMCN,2025-08-16T00:53:00Z,32.6889,-83.6529,28.3,24.4,290,5,,10+,30.06,1017.5,,TRUE,TRUE,,,,,,,CLR,,,,,,,,VFR,,,,,,,,,,,,METAR,104
KMCK 160053Z AUTO 17010KT 10SM CLR 33/16 A2989 RMK AO2 SLP090 T03330156,KMCK,2025-08-16T00:53:00Z,40.204,-100.59,33.3,15.6,170,10,,10+,29.89,1009,,TRUE,TRUE,,,,,,,CLR,,,,,,,,VFR,,,,,,,,,,,,METAR,780
KMCI 160053Z 17005KT 10SM BKN250 30/24 A3000 RMK AO2 SLP145 T03000244 $,KMCI,2025-08-16T00:53:00Z,39.2975,-94.7309,30,24.4,170,5,,10+,30.00,1014.5,,,TRUE,TRUE,,,,,,BKN,25000,,,,,,,VFR,,,,,,,,,,,,METAR,308
KMCE 160053Z AUTO 10SM CLR 35/11 A2981 RMK AO2 SLP093 T03500106,KMCE,2025-08-16T00:53:00Z,37.286,-120.518,35,10.6,,,,10+,29.81,1009.3,,TRUE,TRUE,,,,,,,CLR,,,,,,,,VFR,,,,,,,,,,,,METAR,49
KMCB 160053Z AUTO 35006KT 10SM CLR 26/23 A3009 RMK AO2 SLP184 T02560233,KMCB,2025-08-16T00:53:00Z,31.1823,-90.4721,25.6,23.3,350,6,,10+,30.09,1018.4,,TRUE,TRUE,,,,,,,CLR,,,,,,,,VFR,,,,,,,,,,,,METAR,124
KMBS 160053Z 16004KT 10SM CLR 26/19 A3010 RMK AO2 SLP187 T02560189,KMBS,2025-08-16T00:53:00Z,43.5281,-84.0813,25.6,18.9,160,4,,10+,30.10,1018.7,,,TRUE,,,,,,,CLR,,,,,,,,VFR,,,,,,,,,,,,METAR,201
KMAI 160053Z AUTO 31004KT 10SM CLR 26/24 A3009 RMK AO2 SLP188 T02560239,KMAI,2025-08-16T00:53:00Z,30.837,-85.1835,25.6,23.9,310,4,,10+,30.09,1018.8,,TRUE,TRUE,,,,,,,CLR,,,,,,,,VFR,,,,,,,,,,,,METAR,33
KMAF 160053Z 17013KT 10SM CLR 34/14 A3003 RMK AO2 SLP114 T03440144 $,KMAF,2025-08-16T00:53:00Z,31.9475,-102.209,34.4,14.4,170,13,,10+,30.03,1011.4,,,TRUE,TRUE,,,,,,CLR,,,,,,,,VFR,,,,,,,,,,,,METAR,874
KMAE 160053Z AUTO 29007KT 10SM OVC110 35/11 A2983 RMK AO2 SLP098 T03500111,KMAE,2025-08-16T00:53:00Z,36.9851,-120.111,35,11.1,290,7,,10+,29.83,1009.8,,TRUE,TRUE,,,,,,,OVC,11000,,,,,,,VFR,,,,,,,,,,,,METAR,77
KLXV 160053Z AUTO 00000KT 10SM -RA FEW048 SCT060 OVC080 13/07 A3050 RMK AO2 RAB17 SLP182 P0001 T01330072,KLXV,2025-08-16T00:53:00Z,39.228,-106.316,13.3,7.2,0,0,,10+,30.50,1018.2,,TRUE,TRUE,,,,,,-RA,FEW,4800,SCT,6000,OVC,8000,,,VFR,,,,,,0.01,,,,,,METAR,3027
KLXT 160053Z AUTO 10SM CLR 32/23 A3001 RMK AO2 SLP150 T03170228 $,KLXT,2025-08-16T00:53:00Z,38.9577,-94.3712,31.7,22.8,,,,10+,30.01,1015,,TRUE,TRUE,TRUE,,,,,,CLR,,,,,,,,VFR,,,,,,,,,,,,METAR,306
KLWV 160053Z AUTO 13005KT 10SM CLR 27/24 A3007 RMK AO2 SLP179 T02720239,KLWV,2025-08-16T00:53:00Z,38.7604,-87.599,27.2,23.9,130,5,,10+,30.07,1017.9,,TRUE,TRUE,,,,,,,CLR,,,,,,,,VFR,,,,,,,,,,,,METAR,128
KLWD 160053Z AUTO 11003KT 10SM CLR 29/24 A3002 RMK AO2 SLP158 T02890244,KLWD,2025-08-16T00:53:00Z,40.6306,-93.9005,28.9,24.4,110,3,,10+,30.02,1015.8,,TRUE,TRUE,,,,,,,CLR,,,,,,,,VFR,,,,,,,,,,,,METAR,345
KLVS 160053Z AUTO 33008KT 10SM CLR 20/08 A3029 RMK AO2 SLP160 T02000078,KLVS,2025-08-16T00:53:00Z,35.6558,-105.139,20,7.8,330,8,,10+,30.29,1016,,TRUE,TRUE,,,,,,,CLR,,,,,,,,VFR,,,,,,,,,,,,METAR,2095
KLVM 160053Z AUTO 03008KT 10SM CLR 32/01 A2991 RMK AO2 SLP082 T03170006,KLVM,2025-08-16T00:53:00Z,45.6984,-110.442,31.7,0.6,30,8,,10+,29.91,1008.2,,TRUE,TRUE,,,,,,,CLR,,,,,,,,VFR,,,,,,,,,,,,METAR,1418
KLVK 160053Z 22008KT 10SM CLR 26/14 A2989 RMK AO2 SLP117 T02560139,KLVK,2025-08-16T00:53:00Z,37.6931,-121.815,25.6,13.9,220,8,,10+,29.89,1011.7,,,TRUE,,,,,,,CLR,,,,,,,,VFR,,,,,,,,,,,,METAR,120
KLUK 160053Z 00000KT 10SM CLR 27/23 A3010 RMK AO2 SLP187 T02670233,KLUK,2025-08-16T00:53:00Z,39.106,-84.4161,26.7,23.3,0,0,,10+,30.10,1018.7,,,TRUE,,,,,,,CLR,,,,,,,,VFR,,,,,,,,,,,,METAR,144
KLSE 160053Z 36014G21KT 10SM TS FEW027 BKN045 BKN060 21/19 A3007 RMK AO2 PK WND 33042/0028 WSHFT 0019 LTG DSNT NW-NE RAB18E51 TSB15 SLP175 P0008 T02060189,KLSE,2025-08-16T00:53:00Z,43.8792,-91.253,20.6,18.9,360,14,21,10+,30.07,1017.5,,,TRUE,,,,,,TS,FEW,2700,BKN,4500,BKN,6000,,,VFR,,,,,,0.08,,,,,,METAR,198
KLPR 160053Z AUTO 08004KT 10SM CLR 25/17 A3013 RMK AO2 SLP199 T02500167,KLPR,2025-08-16T00:53:00Z,41.3463,-82.1788,25,16.7,80,4,,10+,30.13,1019.9,,TRUE,TRUE,,,,,,,CLR,,,,,,,,VFR,,,,,,,,,,,,METAR,241
KLOZ 160053Z AUTO 00000KT 10SM CLR 27/21 A3013 RMK AO2 SLP189 T02720206,KLOZ,2025-08-16T00:53:00Z,37.0896,-84.0688,27.2,20.6,0,0,,10+,30.13,1018.9,,TRUE,TRUE,,,,,,,CLR,,,,,,,,VFR,,,,,,,,,,,,METAR,361
KLOU 160053Z 10003KT 10SM CLR 29/23 A3009 RMK AO2 SLP184 T02940228,KLOU,2025-08-16T00:53:00Z,38.2302,-85.6629,29.4,22.8,100,3,,10+,30.09,1018.4,,,TRUE,,,,,,,CLR,,,,,,,,VFR,,,,,,,,,,,,METAR,165
KLOL 160053Z AUTO 29008KT 10SM CLR 34/M01 A2988 RMK AO2 SLP070 T03441011,KLOL,2025-08-16T00:53:00Z,40.0685,-118.57,34.4,-1.1,290,8,,10+,29.88,1007,,TRUE,TRUE,,,,,,,CLR,,,,,,,,VFR,,,,,,,,,,,,METAR,1191
KLNS 160053Z 08003KT 10SM FEW049 25/21 A3013 RMK AO2 SLP201 T02500211,KLNS,2025-08-16T00:53:00Z,40.1206,-76.2944,25,21.1,80,3,,10+,30.13,1020.1,,,TRUE,,,,,,,FEW,4900,,,,,,,VFR,,,,,,,,,,,,METAR,122
KLND 160053Z AUTO 14005KT 10SM -RA CLR 25/08 A3004 RMK AO2 RAB46 SLP100 P0000 T02500083,KLND,2025-08-16T00:53:00Z,42.8154,-108.726,25,8.3,140,5,,10+,30.04,1010,,TRUE,TRUE,,,,,,-RA,CLR,,,,,,,,VFR,,,,,,0.005,,,,,,METAR,1700
KLMT 160053Z 34015G24KT 10SM CLR 25/08 A3002 RMK AO2 SLP133 T02500083,KLMT,2025-08-16T00:53:00Z,42.147,-121.726,25,8.3,340,15,24,10+,30.02,1013.3,,,TRUE,,,,,,,CLR,,,,,,,,VFR,,,,,,,,,,,,METAR,1246
KLLQ 160053Z AUTO 00000KT 10SM CLR 28/23 A3007 RMK AO2 SLP180 T02780228,KLLQ,2025-08-16T00:53:00Z,33.636,-91.7555,27.8,22.8,0,0,,10+,30.07,1018,,TRUE,TRUE,,,,,,,CLR,,,,,,,,VFR,,,,,,,,,,,,METAR,86
KLKV 160053Z AUTO 17007KT 10SM CLR 28/05 A3002 RMK AO2 SLP136 T02780050,KLKV,2025-08-16T00:53:00Z,42.1538,-120.403,27.8,5,170,7,,10+,30.02,1013.6,,TRUE,TRUE,,,,,,,CLR,,,,,,,,VFR,,,,,,,,,,,,METAR,1440
KLIT 160053Z 20008KT 10SM BKN120 30/22 A3005 RMK AO2 PK WND 20026/0004 SLP176 T03000217,KLIT,2025-08-16T00:53:00Z,34.7273,-92.2358,30,21.7,200,8,,10+,30.05,1017.6,,,TRUE,,,,,,,BKN,12000,,,,,,,VFR,,,,,,,,,,,,METAR,77
KLHQ 160053Z AUTO 00000KT 10SM CLR 24/22 A3012 RMK AO2 SLP194 T02440217,KLHQ,2025-08-16T00:53:00Z,39.7573,-82.6633,24.4,21.7,0,0,,10+,30.12,1019.4,,TRUE,TRUE,,,,,,,CLR,,,,,,,,VFR,,,,,,,,,,,,METAR,259
KLGB 160053Z 18008KT 10SM CLR 21/16 A2994 RMK AO2 SLP137 T02110161,KLGB,2025-08-16T00:53:00Z,33.8118,-118.147,21.1,16.1,180,8,,10+,29.94,1013.7,,,TRUE,,,,,,,CLR,,,,,,,,VFR,,,,,,,,,,,,METAR,10
KLFT 160053Z 00000KT 10SM CLR 25/24 A3003 RMK AO2 SLP168 T02500244,KLFT,2025-08-16T00:53:00Z,30.1986,-91.9896,25,24.4,0,0,,10+,30.03,1016.8,,,TRUE,,,,,,,CLR,,,,,,,,VFR,,,,,,,,,,,,METAR,9
KLFK 160053Z AUTO 11005KT 10SM VCTS SCT060 SCT075 SCT100 31/24 A3004 RMK AO2 RAB32E41 SLP167 P0000 T03110244,KLFK,2025-08-16T00:53:00Z,31.2359,-94.7546,31.1,24.4,110,5,,10+,30.04,1016.7,,TRUE,TRUE,,,,,,VCTS,SCT,6000,SCT,7500,SCT,10000,,,VFR,,,,,,0.005,,,,,,METAR,87
KLEB 160053Z 00000KT 10SM CLR 18/14 A3017 RMK AO2 SLP211 T01780144,KLEB,2025-08-16T00:53:00Z,43.6271,-72.3054,17.8,14.4,0,0,,10+,30.17,1021.1,,,TRUE,,,,,,,CLR,,,,,,,,VFR,,,,,,,,,,,,METAR,169
KLCH 160053Z 09004KT 10SM CLR 28/23 A3006 RMK AO2 SLP187 T02780228,KLCH,2025-08-16T00:53:00Z,30.1255,-93.2277,27.8,22.8,90,4,,10+,30.06,1018.7,,,TRUE,,,,,,,CLR,,,,,,,,VFR,,,,,,,,,,,,METAR,2
KLBX 160053Z AUTO 13004KT 10SM FEW031 29/24 A3003 RMK AO2 SLP170 T02890244,KLBX,2025-08-16T00:53:00Z,29.1154,-95.4632,28.9,24.4,130,4,,10+,30.03,1017,,TRUE,TRUE,,,,,,,FEW,3100,,,,,,,VFR,,,,,,,,,,,,METAR,4
KLBF 160053Z AUTO 11007KT 10SM CLR 29/24 A2989 RMK AO2 SLP092 T02890239,KLBF,2025-08-16T00:53:00Z,41.122,-100.669,28.9,23.9,110,7,,10+,29.89,1009.2,,TRUE,TRUE,,,,,,,CLR,,,,,,,,VFR,,,,,,,,,,,,METAR,843
KLBB 160053Z 15014KT 10SM FEW085 SCT120 SCT250 33/15 A3006 RMK AO2 SLP119 T03330150,KLBB,2025-08-16T00:53:00Z,33.6658,-101.823,33.3,15,150,14,,10+,30.06,1011.9,,,TRUE,,,,,,,FEW,8500,SCT,12000,SCT,25000,,,VFR,,,,,,,,,,,,METAR,996
KLAX 160053Z 23010KT 10SM SCT018 22/16 A2994 RMK AO2 SLP137 T02170161 $,KLAX,2025-08-16T00:53:00Z,33.9382,-118.387,21.7,16.1,230,10,,10+,29.94,1013.7,,,TRUE,TRUE,,,,,,SCT,1800,,,,,,,VFR,,,,,,,,,,,,METAR,30
KLAW 160053Z AUTO 16007KT 10SM CLR 33/21 A2999 RMK AO2 SLP142 T03280206,KLAW,2025-08-16T00:53:00Z,34.5577,-98.4172,32.8,20.6,160,7,,10+,29.99,1014.2,,TRUE,TRUE,,,,,,,CLR,,,,,,,,VFR,,,,,,,,,,,,METAR,328
KLAR 160053Z AUTO 21013KT 10SM -RA SCT080 BKN100 22/07 A3026 RMK AO2 RAB45 SLP148 P0000 T02170067,KLAR,2025-08-16T00:53:00Z,41.3165,-105.673,21.7,6.7,210,13,,10+,30.26,1014.8,,TRUE,TRUE,,,,,,-RA,SCT,8000,BKN,10000,,,,,VFR,,,,,,0.005,,,,,,METAR,2217
KLAN 160053Z 19005KT 10SM CLR 25/16 A3011 RMK AO2 SLP190 T02500161 $,KLAN,2025-08-16T00:53:00Z,42.7761,-84.5997,25,16.1,190,5,,10+,30.11,1019,,,TRUE,TRUE,,,,,,CLR,,,,,,,,VFR,,,,,,,,,,,,METAR,261
KLAA 160053Z AUTO 19017KT 10SM CLR 37/07 A2993 RMK AO2 PK WND 19029/0033 SLP081 T03670072,KLAA,2025-08-16T00:53:00Z,38.0718,-102.687,36.7,7.2,190,17,,10+,29.93,1008.1,,TRUE,TRUE,,,,,,,CLR,,,,,,,,VFR,,,,,,,,,,,,METAR,1129
KJLN 160053Z 22006KT 10SM CLR 33/21 A3003 RMK AO2 SLP154 T03280211,KJLN,2025-08-16T00:53:00Z,37.1522,-94.4952,32.8,21.1,220,6,,10+,30.03,1015.4,,,TRUE,,,,,,,CLR,,,,,,,,VFR,,,,,,,,,,,,METAR,297
KJKL 160053Z AUTO 00000KT 10SM CLR 27/20 A3014 RMK AO2 SLP191 T02670200,KJKL,2025-08-16T00:53:00Z,37.5913,-83.3137,26.7,20,0,0,,10+,30.14,1019.1,,TRUE,TRUE,,,,,,,CLR,,,,,,,,VFR,,,,,,,,,,,,METAR,414
KJER 160053Z AUTO 14014G20KT 10SM CLR 30/08 A2996 RMK AO2 SLP102 T03000083,KJER,2025-08-16T00:53:00Z,42.7274,-114.455,30,8.3,140,14,20,10+,29.96,1010.2,,TRUE,TRUE,,,,,,,CLR,,,,,,,,VFR,,,,,,,,,,,,METAR,1226
KJEF 160053Z 00000KT 10SM CLR 32/23 A3001,KJEF,2025-08-16T00:53:00Z,38.5945,-92.1567,32,23,0,0,,10+,30.01,,,,,,,,,,,CLR,,,,,,,,VFR,,,,,,,,,,,,METAR,167
KJBR 160053Z AUTO 18003KT 10SM CLR 32/23 A3005 RMK AO2 SLP173 T03170228 $,KJBR,2025-08-16T00:53:00Z,35.8357,-90.6442,31.7,22.8,180,3,,10+,30.05,1017.3,,TRUE,TRUE,TRUE,,,,,,CLR,,,,,,,,VFR,,,,,,,,,,,,METAR,79
KIXD 160053Z 15005KT 10SM CLR 31/23 A3000 RMK AO2 SLP147 T03060233,KIXD,2025-08-16T00:53:00Z,38.8221,-94.8902,30.6,23.3,150,5,,10+,30.00,1014.7,,,TRUE,,,,,,,CLR,,,,,,,,VFR,,,,,,,,,,,,METAR,322
KIWI 160053Z AUTO 00000KT 10SM CLR 18/13 A3021 RMK AO2 SLP228 T01780128,KIWI,2025-08-16T00:53:00Z,43.9639,-69.7114,17.8,12.8,0,0,,10+,30.21,1022.8,,TRUE,TRUE,,,,,,,CLR,,,,,,,,VFR,,,,,,,,,,,,METAR,16
KITR 160053Z AUTO 15013KT 10SM CLR 32/09 A2998 RMK AO2 SLP094 T03170094,KITR,2025-08-16T00:53:00Z,39.2415,-102.282,31.7,9.4,150,13,,10+,29.98,1009.4,,TRUE,TRUE,,,,,,,CLR,,,,,,,,VFR,,,,,,,,,,,,METAR,1285
KIPL 160053Z AUTO 14012KT 10SM FEW090 OVC100 40/16 A2971 RMK AO2 SLP060 T04000156,KIPL,2025-08-16T00:53:00Z,32.8346,-115.577,40,15.6,140,12,,10+,29.71,1006,,TRUE,TRUE,,,,,,,FEW,9000,OVC,10000,,,,,VFR,,,,,,,,,,,,METAR,-16
KIML 160053Z AUTO 16010KT 10SM CLR 32/14 A2991 RMK AO2 SLP088 T03220139,KIML,2025-08-16T00:53:00Z,40.5106,-101.624,32.2,13.9,160,10,,10+,29.91,1008.8,,TRUE,TRUE,,,,,,,CLR,,,,,,,,VFR,,,,,,,,,,,,METAR,997
KILM 160053Z 00000KT 10SM CLR 26/24 A3005 RMK AO2 SLP176 T02610244 $,KILM,2025-08-16T00:53:00Z,34.2668,-77.8999,26.1,24.4,0,0,,10+,30.05,1017.6,,,TRUE,TRUE,,,,,,CLR,,,,,,,,VFR,,,,,,,,,,,,METAR,9
KIDA 160053Z 20011G18KT 9SM CLR 29/01 A2999 RMK AO2 PK WND 21036/0001 WSHFT 2356 SLP113 T02940011,KIDA,2025-08-16T00:53:00Z,43.5204,-112.068,29.4,1.1,200,11,18,9,29.99,1011.3,,,TRUE,,,,,,,CLR,,,,,,,,VFR,,,,,,,,,,,,METAR,1444
KICT 160053Z 15008KT 10SM FEW250 32/22 A2996 RMK AO2 SLP128 T03220217,KICT,2025-08-16T00:53:00Z,37.6475,-97.43,32.2,21.7,150,8,,10+,29.96,1012.8,,,TRUE,,,,,,,FEW,25000,,,,,,,VFR,,,,,,,,,,,,METAR,428
KICR 160053Z AUTO 15013G18KT 10SM CLR 31/22 A2990 RMK AO2 SLP105 T03060222 $,KICR,2025-08-16T00:53:00Z,43.391,-99.8462,30.6,22.2,150,13,18,10+,29.90,1010.5,,TRUE,TRUE,TRUE,,,,,,CLR,,,,,,,,VFR,,,,,,,,,,,,METAR,618
KIAH 160053Z 13009KT 10SM FEW040 FEW180 BKN250 31/23 A3004 RMK AO2 SLP169 T03060233 $,KIAH,2025-08-16T00:53:00Z,29.9844,-95.3607,30.6,23.3,130,9,,10+,30.04,1016.9,,,TRUE,TRUE,,,,,,FEW,4000,FEW,18000,BKN,25000,,,VFR,,,,,,,,,,,,METAR,27
KIAG 160053Z 07006KT 10SM CLR 23/15 A3013 RMK AO2 SLP197 T02280150,KIAG,2025-08-16T00:53:00Z,43.1083,-78.9382,22.8,15,70,6,,10+,30.13,1019.7,,,TRUE,,,,,,,CLR,,,,,,,,VFR,,,,,,,,,,,,METAR,179
KHZY 160053Z AUTO 00000KT 10SM CLR 21/17 A3014 RMK AO2 SLP203 T02060172,KHZY,2025-08-16T00:53:00Z,41.7794,-80.6968,20.6,17.2,0,0,,10+,30.14,1020.3,,TRUE,TRUE,,,,,,,CLR,,,,,,,,VFR,,,,,,,,,,,,METAR,279
KHYR 160053Z AUTO 00000KT 10SM CLR 24/23 A3000 RMK AO2 SLP153 T02390228,KHYR,2025-08-16T00:53:00Z,46.0303,-91.4426,23.9,22.8,0,0,,10+,30.00,1015.3,,TRUE,TRUE,,,,,,,CLR,,,,,,,,VFR,,,,,,,,,,,,METAR,369
KHWO 160053Z AUTO 08006KT 10SM CLR 31/22 A3006 RMK AO2 SLP180 T03060222,KHWO,2025-08-16T00:53:00Z,25.9996,-80.2412,30.6,22.2,80,6,,10+,30.06,1018,,TRUE,TRUE,,,,,,,CLR,,,,,,,,VFR,,,,,,,,,,,,METAR,2
KHVR 160053Z AUTO 00000KT 10SM CLR 28/08 A2984 RMK AO2 SLP090 T02780083,KHVR,2025-08-16T00:53:00Z,48.5425,-109.764,27.8,8.3,0,0,,10+,29.84,1009,,TRUE,TRUE,,,,,,,CLR,,,,,,,,VFR,,,,,,,,,,,,METAR,789
KHVN 160053Z 15007KT 9SM BKN070 26/22 A3017 RMK AO2 SLP217 T02560222,KHVN,2025-08-16T00:53:00Z,41.259,-72.8891,25.6,22.2,150,7,,9,30.17,1021.7,,,TRUE,,,,,,,BKN,7000,,,,,,,VFR,,,,,,,,,,,,METAR,4
KHUL 160053Z AUTO 00000KT 10SM CLR 13/11 A3018 RMK AO2 SLP220 T01330111,KHUL,2025-08-16T00:53:00Z,46.1185,-67.7929,13.3,11.1,0,0,,10+,30.18,1022,,TRUE,TRUE,,,,,,,CLR,,,,,,,,VFR,,,,,,,,,,,,METAR,148
KHUF 160053Z 00000KT 10SM CLR 27/24 A3009 RMK AO2 SLP183 T02670244,KHUF,2025-08-16T00:53:00Z,39.4429,-87.3221,26.7,24.4,0,0,,10+,30.09,1018.3,,,TRUE,,,,,,,CLR,,,,,,,,VFR,,,,,,,,,,,,METAR,174
KHTL 160053Z AUTO 17006KT 10SM CLR 25/18 A3011 RMK AO2 SLP190 T02500178,KHTL,2025-08-16T00:53:00Z,44.359,-84.6739,25,17.8,170,6,,10+,30.11,1019,,TRUE,TRUE,,,,,,,CLR,,,,,,,,VFR,,,,,,,,,,,,METAR,350
KHSV 160053Z 22005KT 10SM FEW040 SCT060 BKN190 OVC220 27/23 A3012 RMK AO2 SLP190 CB DSNT SW T02670228 $,KHSV,2025-08-16T00:53:00Z,34.6441,-86.7861,26.7,22.8,220,5,,10+,30.12,1019,,,TRUE,TRUE,,,,,,FEW,4000,SCT,6000,BKN,19000,OVC,22000,VFR,,,,,,,,,,,,METAR,190
KHSI 160053Z AUTO 17007KT 10SM CLR 31/22 A2993 RMK AO2 SLP113 T03110217,KHSI,2025-08-16T00:53:00Z,40.6002,-98.4264,31.1,21.7,170,7,,10+,29.93,1011.3,,TRUE,TRUE,,,,,,,CLR,,,,,,,,VFR,,,,,,,,,,,,METAR,592
KHRO 160053Z AUTO 18006KT 10SM CLR 31/22 A3009 RMK AO2 SLP170 T03060217,KHRO,2025-08-16T00:53:00Z,36.2673,-93.1566,30.6,21.7,180,6,,10+,30.09,1017,,TRUE,TRUE,,,,,,,CLR,,,,,,,,VFR,,,,,,,,,,,,METAR,417
KHRI 160053Z AUTO 27010KT 10SM OVC110 29/14 A2983 RMK AO2 SLP095 T02890139,KHRI,2025-08-16T00:53:00Z,45.8259,-119.261,28.9,13.9,270,10,,10+,29.83,1009.5,,TRUE,TRUE,,,,,,,OVC,11000,,,,,,,VFR,,,,,,,,,,,,METAR,194
KHOU 160053Z 14010KT 10SM FEW040 FEW150 BKN250 31/23 A3003 RMK AO2 SLP173 T03110233,KHOU,2025-08-16T00:53:00Z,29.6458,-95.2821,31.1,23.3,140,10,,10+,30.03,1017.3,,,TRUE,,,,,,,FEW,4000,FEW,15000,BKN,25000,,,VFR,,,,,,,,,,,,METAR,13
KHOT 160053Z AUTO 00000KT 10SM FEW095 29/19 A3006 RMK AO2 PK WND 19026/0011 LTG DSNT W PRESFR SLP172 T02890189,KHOT,2025-08-16T00:53:00Z,34.4755,-93.1041,28.9,18.9,0,0,,10+,30.06,1017.2,,TRUE,TRUE,,,,,,,FEW,9500,,,,,,,VFR,,,,,,,,,,,,METAR,153
KHLN 160053Z 30010KT 10SM CLR 32/02 A2986 RMK AO2 SLP092 T03170017 $,KHLN,2025-08-16T00:53:00Z,46.6045,-111.989,31.7,1.7,300,10,,10+,29.86,1009.2,,,TRUE,TRUE,,,,,,CLR,,,,,,,,VFR,,,,,,,,,,,,METAR,1178
KHLG 160053Z 00000KT 10SM CLR 26/18 A3014 RMK AO2 SLP198 T02610183,KHLG,2025-08-16T00:53:00Z,40.1699,-80.6441,26.1,18.3,0,0,,10+,30.14,1019.8,,,TRUE,,,,,,,CLR,,,,,,,,VFR,,,,,,,,,,,,METAR,365
KHLC 160053Z AUTO 16011G20KT 10SM CLR 34/17 A2992 RMK AO2 PK WND 17027/2359 SLP103 T03440167,KHLC,2025-08-16T00:53:00Z,39.3741,-99.8299,34.4,16.7,160,11,20,10+,29.92,1010.3,,TRUE,TRUE,,,,,,,CLR,,,,,,,,VFR,,,,,,,,,,,,METAR,667
KHKY 160053Z 04003KT 10SM CLR 27/23 A3014 RMK AO2 SLP183 T02670228,KHKY,2025-08-16T00:53:00Z,35.742,-81.3822,26.7,22.8,40,3,,10+,30.14,1018.3,,,TRUE,,,,,,,CLR,,,,,,,,VFR,,,,,,,,,,,,METAR,357
KHKA 160053Z AUTO 20004KT 10SM CLR 32/23 A3005 RMK AO2 SLP173 T03170228 $,KHKA,2025-08-16T00:53:00Z,35.9378,-89.8332,31.7,22.8,200,4,,10+,30.05,1017.3,,TRUE,TRUE,TRUE,,,,,,CLR,,,,,,,,VFR,,,,,,,,,,,,METAR,78
KHJO 160053Z AUTO 34005KT 10SM CLR 35/10 A2982 RMK AO2 SLP098 T03500100,KHJO,2025-08-16T00:53:00Z,36.3114,-119.623,35,10,340,5,,10+,29.82,1009.8,,TRUE,TRUE,,,,,,,CLR,,,,,,,,VFR,,,,,,,,,,,,METAR,73
KHIO 160053Z 19011KT 10SM BKN034 BKN040 OVC090 23/17 A2989 RMK AO2 SLP120 T02280167,KHIO,2025-08-16T00:53:00Z,45.5476,-122.956,22.8,16.7,190,11,,10+,29.89,1012,,,TRUE,,,,,,,BKN,3400,BKN,4000,OVC,9000,,,VFR,,,,,,,,,,,,METAR,62
KHIB 160053Z AUTO 00000KT 10SM CLR 22/18 A3000 RMK AO2 SLP156 T02220183,KHIB,2025-08-16T00:53:00Z,47.3804,-92.8325,22.2,18.3,0,0,,10+,30.00,1015.6,,TRUE,TRUE,,,,,,,CLR,,,,,,,,VFR,,,,,,,,,,,,METAR,409
KHHR 160053Z 28008KT 10SM FEW022 22/16 A2994 RMK AO2 SLP138 T02220161,KHHR,2025-08-16T00:53:00Z,33.9235,-118.333,22.2,16.1,280,8,,10+,29.94,1013.8,,,TRUE,,,,,,,FEW,2200,,,,,,,VFR,,,,,,,,,,,,METAR,21
KHGR 160053Z 10004KT 10SM BKN110 28/21 A3013 RMK AO2 SLP204 T02830206 $,KHGR,2025-08-16T00:53:00Z,39.7062,-77.7304,28.3,20.6,100,4,,10+,30.13,1020.4,,,TRUE,TRUE,,,,,,BKN,11000,,,,,,,VFR,,,,,,,,,,,,METAR,206
KHFD 160053Z 16010KT 10SM FEW065 25/19 A3015 RMK AO2 SLP210 T02500194,KHFD,2025-08-16T00:53:00Z,41.7352,-72.6512,25,19.4,160,10,,10+,30.15,1021,,,TRUE,,,,,,,FEW,6500,,,,,,,VFR,,,,,,,,,,,,METAR,3
KHEI 160053Z AUTO 10009KT 10SM CLR 28/14 A2996 RMK AO2 SLP126 T02780139,KHEI,2025-08-16T00:53:00Z,46.0108,-102.652,27.8,13.9,100,9,,10+,29.96,1012.6,,TRUE,TRUE,,,,,,,CLR,,,,,,,,VFR,,,,,,,,,,,,METAR,824
KHBR 160053Z AUTO 15015KT 10SM CLR 33/19 A3000 RMK AO2 SLP137 T03330189,KHBR,2025-08-16T00:53:00Z,34.9891,-99.0528,33.3,18.9,150,15,,10+,30.00,1013.7,,TRUE,TRUE,,,,,,,CLR,,,,,,,,VFR,,,,,,,,,,,,METAR,475
KHBG 160053Z AUTO 27003KT 10SM CLR 28/23 A3010 RMK AO2 SLP190 T02830233,KHBG,2025-08-16T00:53:00Z,31.2648,-89.2561,28.3,23.3,270,3,,10+,30.10,1019,,TRUE,TRUE,,,,,,,CLR,,,,,,,,VFR,,,,,,,,,,,,METAR,45
KHAO 160053Z AUTO 00000KT 10SM OVC055 26/21 A3011 RMK AO2 SLP192 T02560211,KHAO,2025-08-16T00:53:00Z,39.3612,-84.5206,25.6,21.1,0,0,,10+,30.11,1019.2,,TRUE,TRUE,,,,,,,OVC,5500,,,,,,,VFR,,,,,,,,,,,,METAR,185
KGZH 160053Z AUTO 00000KT 10SM CLR 26/23 A3011 RMK AO2 LTG DSNT SE SLP193 T02560233,KGZH,2025-08-16T00:53:00Z,31.4191,-87.0484,25.6,23.3,0,0,,10+,30.11,1019.3,,TRUE,TRUE,,,,,,,CLR,,,,,,,,VFR,,,,,,,,,,,,METAR,77
KGWO 160053Z AUTO 00000KT 10SM CLR 29/24 A3007 RMK AO2 LTG DSNT SW AND W SLP179 T02890239,KGWO,2025-08-16T00:53:00Z,33.4961,-90.0894,28.9,23.9,0,0,,10+,30.07,1017.9,,TRUE,TRUE,,,,,,,CLR,,,,,,,,VFR,,,,,,,,,,,,METAR,42
KGVL 160053Z AUTO 08007KT 10SM -RA FEW029 BKN110 22/21 A3019 RMK AO2 LTG DSNT SE AND SW RAE12B24 TSE08 SLP207 P0009 T02220206,KGVL,2025-08-16T00:53:00Z,34.2721,-83.8305,22.2,20.6,80,7,,10+,30.19,1020.7,,TRUE,TRUE,,,,,,-RA,FEW,2900,BKN,11000,,,,,VFR,,,,,,0.09,,,,,,METAR,387
KGUY 160053Z AUTO 18014G24KT 10SM CLR 34/13 A2998 RMK AO2 SLP096 T03390128,KGUY,2025-08-16T00:53:00Z,36.6819,-101.505,33.9,12.8,180,14,24,10+,29.98,1009.6,,TRUE,TRUE,,,,,,,CLR,,,,,,,,VFR,,,,,,,,,,,,METAR,950
KGUP 160053Z AUTO VRB03KT 10SM FEW070 SCT095 BKN110 21/11 A3029 RMK AO2 SLP102 T02110111,KGUP,2025-08-16T00:53:00Z,35.5086,-108.793,21.1,11.1,VRB,3,,10+,30.29,1010.2,,TRUE,TRUE,,,,,,,FEW,7000,SCT,9500,BKN,11000,,,VFR,,,,,,,,,,,,METAR,1972
KGTF 160053Z 32010KT 10SM CLR 30/04 A2987 RMK AO2 SLP088 T03000044 $,KGTF,2025-08-16T00:53:00Z,47.4733,-111.383,30,4.4,320,10,,10+,29.87,1008.8,,,TRUE,TRUE,,,,,,CLR,,,,,,,,VFR,,,,,,,,,,,,METAR,1117
KGSP 160053Z 29004KT 10SM CLR 25/21 A3013 RMK AO2 SLP191 T02500211,KGSP,2025-08-16T00:53:00Z,34.8842,-82.2209,25,21.1,290,4,,10+,30.13,1019.1,,,TRUE,,,,,,,CLR,,,,,,,,VFR,,,,,,,,,,,,METAR,285
KGSH 160053Z AUTO 00000KT 10SM CLR 25/21 A3009 RMK AO2 SLP187 T02500211 $,KGSH,2025-08-16T00:53:00Z,41.5265,-85.7872,25,21.1,0,0,,10+,30.09,1018.7,,TRUE,TRUE,TRUE,,,,,,CLR,,,,,,,,VFR,,,,,,,,,,,,METAR,252
KGRR 160053Z 00000KT 10SM FEW120 FEW250 27/18 A3008 RMK AO2 SLP183 T02670183 $,KGRR,2025-08-16T00:53:00Z,42.8821,-85.523,26.7,18.3,0,0,,10+,30.08,1018.3,,,TRUE,TRUE,,,,,,FEW,12000,FEW,25000,,,,,VFR,,,,,,,,,,,,METAR,239
KGRI 160053Z 14006KT 10SM CLR 31/24 A2992 RMK AO2 SLP118 T03060244,KGRI,2025-08-16T00:53:00Z,40.9615,-98.313,30.6,24.4,140,6,,10+,29.92,1011.8,,,TRUE,,,,,,,CLR,,,,,,,,VFR,,,,,,,,,,,,METAR,562
KGRB 160053Z 19005KT 10SM CLR 26/20 A3004 RMK AO2 SLP168 T02610200,KGRB,2025-08-16T00:53:00Z,44.4796,-88.137,26.1,20,190,5,,10+,30.04,1016.8,,,TRUE,,,,,,,CLR,,,,,,,,VFR,,,,,,,,,,,,METAR,209
KGPT 160053Z 27004KT 10SM CLR 27/24 A3009 RMK AO2 SLP189 T02720244,KGPT,2025-08-16T00:53:00Z,30.4121,-89.0809,27.2,24.4,270,4,,10+,30.09,1018.9,,,TRUE,,,,,,,CLR,,,,,,,,VFR,,,,,,,,,,,,METAR,5
KGOK 160053Z AUTO 16007KT 10SM 32/21 A2998 RMK AO2 SLP139 T03170211 $,KGOK,2025-08-16T00:53:00Z,35.8517,-97.4142,31.7,21.1,160,7,,10+,29.98,1013.9,,TRUE,TRUE,TRUE,,,,,,,,,,,,,,VFR,,,,,,,,,,,,METAR,326
KGLR 160053Z AUTO VRB03KT 10SM CLR 26/15 A3010 RMK AO2 SLP186 T02610150,KGLR,2025-08-16T00:53:00Z,45.0166,-84.6894,26.1,15,VRB,3,,10+,30.10,1018.6,,TRUE,TRUE,,,,,,,CLR,,,,,,,,VFR,,,,,,,,,,,,METAR,403
KGLD 160053Z AUTO 17016KT 10SM CLR 33/12 A2995 RMK AO2 PK WND 19034/0022 SLP094 T03330122,KGLD,2025-08-16T00:53:00Z,39.3673,-101.693,33.3,12.2,170,16,,10+,29.95,1009.4,,TRUE,TRUE,,,,,,,CLR,,,,,,,,VFR,,,,,,,,,,,,METAR,1111
KGKY 160053Z 13007KT 10SM CLR 34/22 A3000 RMK AO2 SLP149 T03390217,KGKY,2025-08-16T00:53:00Z,32.6583,-97.0951,33.9,21.7,130,7,,10+,30.00,1014.9,,,TRUE,,,,,,,CLR,,,,,,,,VFR,,,,,,,,,,,,METAR,189
KGKJ 160053Z AUTO 00000KT 10SM CLR 23/16 A3017 RMK AO2 SLP208 T02280161,KGKJ,2025-08-16T00:53:00Z,41.6258,-80.2123,22.8,16.1,0,0,,10+,30.17,1020.8,,TRUE,TRUE,,,,,,,CLR,,,,,,,,VFR,,,,,,,,,,,,METAR,428
KGJT 160053Z 26013KT 10SM CLR 28/08 A3007 RMK AO2 PK WND 28028/0007 SLP110 T02780078 $,KGJT,2025-08-16T00:53:00Z,39.1344,-108.541,27.8,7.8,260,13,,10+,30.07,1011,,,TRUE,TRUE,,,,,,CLR,,,,,,,,VFR,,,,,,,,,,,,METAR,1475
KGGW 160053Z AUTO 12014KT 10SM CLR 27/13 A2988 RMK AO2 SLP109 T02670128 TSNO ,KGGW,2025-08-16T00:53:00Z,48.2142,-106.621,26.7,12.8,120,14,,10+,29.88,1010.9,,TRUE,TRUE,,,TRUE,,,,CLR,,,,,,,,VFR,,,,,,,,,,,,METAR,698
KGGG 160053Z 13009KT 10SM CLR 32/22 A3003 RMK AO2 SLP161 T03220217,KGGG,2025-08-16T00:53:00Z,32.3909,-94.714,32.2,21.7,130,9,,10+,30.03,1016.1,,,TRUE,,,,,,,CLR,,,,,,,,VFR,,,,,,,,,,,,METAR,107
KGFL 160053Z AUTO 00000KT 10SM CLR 17/15 A3015 RMK AO2 SLP210 T01720150,KGFL,2025-08-16T00:53:00Z,43.3385,-73.6102,17.2,15,0,0,,10+,30.15,1021,,TRUE,TRUE,,,,,,,CLR,,,,,,,,VFR,,,,,,,,,,,,METAR,99
KGFK 160053Z 35006KT 10SM FEW120 22/13 A2999 RMK AO2 SLP155 T02220133,KGFK,2025-08-16T00:53:00Z,47.9428,-97.1829,22.2,13.3,350,6,,10+,29.99,1015.5,,,TRUE,,,,,,,FEW,12000,,,,,,,VFR,,,,,,,,,,,,METAR,256
KGEZ 160053Z AUTO 12004KT 10SM CLR 26/22 A3010 RMK AO2 SLP185 T02610222,KGEZ,2025-08-16T00:53:00Z,39.5854,-85.7998,26.1,22.2,120,4,,10+,30.10,1018.5,,TRUE,TRUE,,,,,,,CLR,,,,,,,,VFR,,,,,,,,,,,,METAR,245
KGEY 160053Z AUTO 18018G25KT 10SM CLR 33/04 A2988 RMK AO2 SLP077 T03280044,KGEY,2025-08-16T00:53:00Z,44.5173,-108.075,32.8,4.4,180,18,25,10+,29.88,1007.7,,TRUE,TRUE,,,,,,,CLR,,,,,,,,VFR,,,,,,,,,,,,METAR,1191
KGEG 160053Z 22010KT 10SM BKN065 BKN085 BKN150 25/11 A2989 RMK AO2 SLP107 T02500106 $,KGEG,2025-08-16T00:53:00Z,47.6217,-117.528,25,10.6,220,10,,10+,29.89,1010.7,,,TRUE,TRUE,,,,,,BKN,6500,BKN,8500,BKN,15000,,,VFR,,,,,,,,,,,,METAR,718
KGCC 160053Z AUTO 12004KT 10SM CLR 30/08 A2997 RMK AO2 LTG DSNT E SLP096 T03000078 $,KGCC,2025-08-16T00:53:00Z,44.3398,-105.542,30,7.8,120,4,,10+,29.97,1009.6,,TRUE,TRUE,TRUE,,,,,,CLR,,,,,,,,VFR,,,,,,,,,,,,METAR,1328
KGAG 160053Z AUTO 17017G26KT 10SM CLR 33/18 A2999 RMK AO2 PK WND 17032/0014 SLP123 T03330178,KGAG,2025-08-16T00:53:00Z,36.2966,-99.7686,33.3,17.8,170,17,26,10+,29.99,1012.3,,TRUE,TRUE,,,,,,,CLR,,,,,,,,VFR,,,,,,,,,,,,METAR,670
KFYV 160053Z 21004KT 10SM CLR 31/22 A3008 RMK AO2 SLP167 T03060217,KFYV,2025-08-16T00:53:00Z,36.0103,-94.1624,30.6,21.7,210,4,,10+,30.08,1016.7,,,TRUE,,,,,,,CLR,,,,,,,,VFR,,,,,,,,,,,,METAR,377
KFXE 160053Z 10008KT 10SM CLR 31/23 A3006 RMK AO2 SLP181 T03060228,KFXE,2025-08-16T00:53:00Z,26.199,-80.1776,30.6,22.8,100,8,,10+,30.06,1018.1,,,TRUE,,,,,,,CLR,,,,,,,,VFR,,,,,,,,,,,,METAR,3
KFWN 160053Z AUTO VRB03KT 10SM BKN065 BKN080 27/19 A3014 RMK AO2 SLP203 T02720194,KFWN,2025-08-16T00:53:00Z,41.1993,-74.6259,27.2,19.4,VRB,3,,10+,30.14,1020.3,,TRUE,TRUE,,,,,,,BKN,6500,BKN,8000,,,,,VFR,,,,,,,,,,,,METAR,129
KFVE 160053Z AUTO 01003KT 10SM CLR 19/06 A3020 RMK AO2 SLP225 T01940056 $,KFVE,2025-08-16T00:53:00Z,47.2852,-68.3072,19.4,5.6,10,3,,10+,30.20,1022.5,,TRUE,TRUE,TRUE,,,,,,CLR,,,,,,,,VFR,,,,,,,,,,,,METAR,299
KFUL 160053Z 21007KT 10SM CLR 22/16 A2993 RMK AO2 SLP133 T02220156,KFUL,2025-08-16T00:53:00Z,33.8715,-117.986,22.2,15.6,210,7,,10+,29.93,1013.3,,,TRUE,,,,,,,CLR,,,,,,,,VFR,,,,,,,,,,,,METAR,23
KFTY 160053Z 00000KT 10SM CLR 23/22 A3012 RMK AO2 LTG DSNT NE RAE28 TSE2355 SLP191 P0000 T02330217,KFTY,2025-08-16T00:53:00Z,33.7776,-84.5247,23.3,21.7,0,0,,10+,30.12,1019.1,,,TRUE,,,,,,,CLR,,,,,,,,VFR,,,,,,0.005,,,,,,METAR,245
KFTW 160053Z 16013KT 10SM CLR 34/18 A2999 RMK AO2 SLP143 T03390178 $,KFTW,2025-08-16T00:53:00Z,32.8248,-97.364,33.9,17.8,160,13,,10+,29.99,1014.3,,,TRUE,TRUE,,,,,,CLR,,,,,,,,VFR,,,,,,,,,,,,METAR,213
KFST 160053Z AUTO 21008KT 10SM CLR 29/16 A3003 RMK AO2 SLP119 T02890161,KFST,2025-08-16T00:53:00Z,30.9119,-102.917,28.9,16.1,210,8,,10+,30.03,1011.9,,TRUE,TRUE,,,,,,,CLR,,,,,,,,VFR,,,,,,,,,,,,METAR,917
KFSM 160053Z 13004KT 10SM CLR 32/24 A3002 RMK AO2 SLP161 T03220239,KFSM,2025-08-16T00:53:00Z,35.3335,-94.3653,32.2,23.9,130,4,,10+,30.02,1016.1,,,TRUE,,,,,,,CLR,,,,,,,,VFR,,,,,,,,,,,,METAR,136
KFRG 160053Z 13007KT 10SM FEW011 23/21 A3016 RMK AO2 SLP213 T02330211,KFRG,2025-08-16T00:53:00Z,40.7344,-73.4164,23.3,21.1,130,7,,10+,30.16,1021.3,,,TRUE,,,,,,,FEW,1100,,,,,,,VFR,,,,,,,,,,,,METAR,23
KFPR 160053Z 12007KT 10SM CLR 29/23 A3006 RMK AO2 SLP180 T02890233,KFPR,2025-08-16T00:53:00Z,27.4981,-80.3763,28.9,23.3,120,7,,10+,30.06,1018,,,TRUE,,,,,,,CLR,,,,,,,,VFR,,,,,,,,,,,,METAR,7
KFOE 160053Z 15004KT 10SM CLR 31/23 A2998 RMK AO2 SLP140 T03060233,KFOE,2025-08-16T00:53:00Z,38.9414,-95.6513,30.6,23.3,150,4,,10+,29.98,1014,,,TRUE,,,,,,,CLR,,,,,,,,VFR,,,,,,,,,,,,METAR,315
KFNT 160053Z AUTO 19003KT 10SM CLR 25/18 A3011 RMK AO2 SLP191 T02500178 $,KFNT,2025-08-16T00:53:00Z,42.9669,-83.75,25,17.8,190,3,,10+,30.11,1019.1,,TRUE,TRUE,TRUE,,,,,,CLR,,,,,,,,VFR,,,,,,,,,,,,METAR,235
KFNB 160053Z AUTO 15005KT 10SM CLR 29/24 A2996 RMK AO2 SLP134 T02890244,KFNB,2025-08-16T00:53:00Z,40.0791,-95.5893,28.9,24.4,150,5,,10+,29.96,1013.4,,TRUE,TRUE,,,,,,,CLR,,,,,,,,VFR,,,,,,,,,,,,METAR,301
KFMY 160053Z 29005KT 10SM FEW039 29/23 A3004 RMK VA23 ATIS F,KFMY,2025-08-16T00:53:00Z,26.584,-81.8615,29,23,290,5,,10+,30.04,,,,,,,,,,,FEW,3900,,,,,,,VFR,,,,,,,,,,,,METAR,4
KFMN 160053Z 29013KT 10SM CLR 24/08 A3018 RMK AO2 PK WND 28028/0002 SLP161 T02440083,KFMN,2025-08-16T00:53:00Z,36.7435,-108.229,24.4,8.3,290,13,,10+,30.18,1016.1,,,TRUE,,,,,,,CLR,,,,,,,,VFR,,,,,,,,,,,,METAR,1677
KFLO 160053Z 06004KT 10SM FEW055 29/26 A3006 RMK AO2 LTG DSNT W SLP176 T02890256,KFLO,2025-08-16T00:53:00Z,34.1877,-79.7308,28.9,25.6,60,4,,10+,30.06,1017.6,,,TRUE,,,,,,,FEW,5500,,,,,,,VFR,,,,,,,,,,,,METAR,43
KFLL 160053Z 10008KT 10SM FEW026 29/23 A3006 RMK AO2 SLP178 T02940228,KFLL,2025-08-16T00:53:00Z,26.0787,-80.1622,29.4,22.8,100,8,,10+,30.06,1017.8,,,TRUE,,,,,,,FEW,2600,,,,,,,VFR,,,,,,,,,,,,METAR,1
KFLD 160053Z AUTO 20005KT 10SM CLR 26/21 A3005 RMK AO2 SLP173 T02560211,KFLD,2025-08-16T00:53:00Z,43.7695,-88.4907,25.6,21.1,200,5,,10+,30.05,1017.3,,TRUE,TRUE,,,,,,,CLR,,,,,,,,VFR,,,,,,,,,,,,METAR,242
KFFC 160053Z AUTO 00000KT 10SM CLR 23/22 A3013 RMK AO2 SLP195 T02330222,KFFC,2025-08-16T00:53:00Z,33.3543,-84.5689,23.3,22.2,0,0,,10+,30.13,1019.5,,TRUE,TRUE,,,,,,,CLR,,,,,,,,VFR,,,,,,,,,,,,METAR,242
KFDY 160053Z AUTO 00000KT 10SM CLR 27/19 A3011 RMK AO2 SLP186 T02670189,KFDY,2025-08-16T00:53:00Z,41.0137,-83.6681,26.7,18.9,0,0,,10+,30.11,1018.6,,TRUE,TRUE,,,,,,,CLR,,,,,,,,VFR,,,,,,,,,,,,METAR,247
KFDR 160053Z AUTO 14012KT 10SM CLR 33/20 A2996 RMK AO2 SLP126 T03330200,KFDR,2025-08-16T00:53:00Z,34.3531,-98.9876,33.3,20,140,12,,10+,29.96,1012.6,,TRUE,TRUE,,,,,,,CLR,,,,,,,,VFR,,,,,,,,,,,,METAR,378
KFAY 160053Z 04003KT 10SM FEW039 FEW055 28/24 A3006 RMK AO2 SLP173 T02830239,KFAY,2025-08-16T00:53:00Z,34.9895,-78.8801,28.3,23.9,40,3,,10+,30.06,1017.3,,,TRUE,,,,,,,FEW,3900,FEW,5500,,,,,VFR,,,,,,,,,,,,METAR,57
KFAT 160053Z 32008KT 10SM FEW080 FEW130 FEW200 34/11 A2982 RMK AO2 SLP095 T03440106 $,KFAT,2025-08-16T00:53:00Z,36.78,-119.72,34.4,10.6,320,8,,10+,29.82,1009.5,,,TRUE,TRUE,,,,,,FEW,8000,FEW,13000,FEW,20000,,,VFR,,,,,,,,,,,,METAR,102
KFAR 160053Z 02008KT 10SM CLR 22/14 A2999 RMK AO2 SLP152 T02220139 $,KFAR,2025-08-16T00:53:00Z,46.9242,-96.8119,22.2,13.9,20,8,,10+,29.99,1015.2,,,TRUE,TRUE,,,,,,CLR,,,,,,,,VFR,,,,,,,,,,,,METAR,276
KEYW 160053Z 07005KT 10SM CLR 30/26 A3006 RMK AO2 SLP186 T03000256,KEYW,2025-08-16T00:53:00Z,24.5571,-81.7554,30,25.6,70,5,,10+,30.06,1018.6,,,TRUE,,,,,,,CLR,,,,,,,,VFR,,,,,,,,,,,,METAR,1
KEYE 160053Z AUTO 00000KT 10SM CLR 29/20 A3010 RMK AO2 SLP183 T02890200,KEYE,2025-08-16T00:53:00Z,39.8248,-86.2958,28.9,20,0,0,,10+,30.10,1018.3,,TRUE,TRUE,,,,,,,CLR,,,,,,,,VFR,,,,,,,,,,,,METAR,248
KEWB 160053Z 00000KT 10SM CLR 18/16 A3019 RMK AO2 SLP222 T01830161,KEWB,2025-08-16T00:53:00Z,41.6791,-70.9591,18.3,16.1,0,0,,10+,30.19,1022.2,,,TRUE,,,,,,,CLR,,,,,,,,VFR,,,,,,,,,,,,METAR,22
KEVW 160053Z AUTO 12011G18KT 10SM FEW075 OVC095 19/08 A3023 RMK AO2 RAE48 SLP149 P0001 T01890083,KEVW,2025-08-16T00:53:00Z,41.2727,-111.031,18.9,8.3,120,11,18,10+,30.23,1014.9,,TRUE,TRUE,,,,,,,FEW,7500,OVC,9500,,,,,VFR,,,,,,0.01,,,,,,METAR,2178
KEQY 160053Z AUTO 00000KT 10SM CLR 27/23 A3010 RMK AO2 SLP188 T02720228,KEQY,2025-08-16T00:53:00Z,35.0147,-80.6242,27.2,22.8,0,0,,10+,30.10,1018.8,,TRUE,TRUE,,,,,,,CLR,,,,,,,,VFR,,,,,,,,,,,,METAR,205
KEPH 160053Z AUTO 20011KT 10SM BKN110 27/13 A2981 RMK AO2 SLP088 T02670133,KEPH,2025-08-16T00:53:00Z,47.3078,-119.516,26.7,13.3,200,11,,10+,29.81,1008.8,,TRUE,TRUE,,,,,,,BKN,11000,,,,,,,VFR,,,,,,,,,,,,METAR,382
KENW 160053Z 18005KT 10SM CLR 26/22 A3008,KENW,2025-08-16T00:53:00Z,42.5953,-87.9383,26,22,180,5,,10+,30.08,,,,,,,,,,,CLR,,,,,,,,VFR,,,,,,,,,,,,METAR,222
KEMP 160053Z AUTO 17007KT 10SM CLR 31/23 A2999 RMK AO2 SLP143 T03060233,KEMP,2025-08-16T00:53:00Z,38.3291,-96.1945,30.6,23.3,170,7,,10+,29.99,1014.3,,TRUE,TRUE,,,,,,,CLR,,,,,,,,VFR,,,,,,,,,,,,METAR,366
KELY 160053Z AUTO 20010G19KT 10SM CLR 29/M06 A3008 RMK AO2 SLP086 T02941056,KELY,2025-08-16T00:53:00Z,39.2954,-114.847,29.4,-5.6,200,10,19,10+,30.08,1008.6,,TRUE,TRUE,,,,,,,CLR,,,,,,,,VFR,,,,,,,,,,,,METAR,1906
KELN 160053Z AUTO 29007KT 10SM FEW065 SCT120 23/14 A2984 RMK AO2 SLP097 T02330139,KELN,2025-08-16T00:53:00Z,47.0338,-120.531,23.3,13.9,290,7,,10+,29.84,1009.7,,TRUE,TRUE,,,,,,,FEW,6500,SCT,12000,,,,,VFR,,,,,,,,,,,,METAR,532
KELM 160053Z 04005KT 10SM FEW070 25/14 A3014 RMK AO2 SLP200 T02500144,KELM,2025-08-16T00:53:00Z,42.1601,-76.89,25,14.4,40,5,,10+,30.14,1020,,,TRUE,,,,,,,FEW,7000,,,,,,,VFR,,,,,,,,,,,,METAR,287
KELD 160053Z AUTO 11004KT 10SM CLR 28/27 A3007 RMK AO2 SLP178 T02830267,KELD,2025-08-16T00:53:00Z,33.2207,-92.814,28.3,26.7,110,4,,10+,30.07,1017.8,,TRUE,TRUE,,,,,,,CLR,,,,,,,,VFR,,,,,,,,,,,,METAR,76
KEET 160053Z AUTO 00000KT 10SM CLR 24/23 A3014 RMK AO2 SLP201 T02390228,KEET,2025-08-16T00:53:00Z,33.1783,-86.7818,23.9,22.8,0,0,,10+,30.14,1020.1,,TRUE,TRUE,,,,,,,CLR,,,,,,,,VFR,,,,,,,,,,,,METAR,172
KECP 160053Z 00000KT 10SM CLR 27/25 A3010 RMK AO2 LTG DSNT SW AND W SLP201 T02670250,KECP,2025-08-16T00:53:00Z,30.3487,-85.7884,26.7,25,0,0,,10+,30.10,1020.1,,,TRUE,,,,,,,CLR,,,,,,,,VFR,,,,,,,,,,,,METAR,17
KDXR 160053Z 16007KT 10SM SCT070 25/19 A3018 RMK AO2 SLP215 T02500189,KDXR,2025-08-16T00:53:00Z,41.3722,-73.4834,25,18.9,160,7,,10+,30.18,1021.5,,,TRUE,,,,,,,SCT,7000,,,,,,,VFR,,,,,,,,,,,,METAR,138
KDWH 160053Z 13007KT 10SM CLR 29/24 A3004 RMK AO2 RAE17 SLP168 P0000 T02940244,KDWH,2025-08-16T00:53:00Z,30.068,-95.5563,29.4,24.4,130,7,,10+,30.04,1016.8,,,TRUE,,,,,,,CLR,,,,,,,,VFR,,,,,,0.005,,,,,,METAR,46
KDVT 160053Z 12005KT 10SM CLR 36/16 A2986 RMK AO2 SLP084 T03610161,KDVT,2025-08-16T00:53:00Z,33.6902,-112.066,36.1,16.1,120,5,,10+,29.86,1008.4,,,TRUE,,,,,,,CLR,,,,,,,,VFR,,,,,,,,,,,,METAR,454
KDUJ 160053Z AUTO 26003KT 10SM CLR 23/14 A3018 RMK AO2 SLP208 T02280139,KDUJ,2025-08-16T00:53:00Z,41.1795,-78.8933,22.8,13.9,260,3,,10+,30.18,1020.8,,TRUE,TRUE,,,,,,,CLR,,,,,,,,VFR,,,,,,,,,,,,METAR,552
KDTW 160053Z 16004KT 10SM FEW250 25/19 A3012 RMK AO2 SLP196 T02500189,KDTW,2025-08-16T00:53:00Z,42.2311,-83.3312,25,18.9,160,4,,10+,30.12,1019.6,,,TRUE,,,,,,,FEW,25000,,,,,,,VFR,,,,,,,,,,,,METAR,192
KDTS 160053Z 11003KT 10SM BKN110 25/22 A3011 RMK AO2 PK WND 02027/2354 LTG DSNT SE AND W AND NW RAE46 TSE25 SLP196 P0029 T02500217,KDTS,2025-08-16T00:53:00Z,30.3933,-86.4674,25,21.7,110,3,,10+,30.11,1019.6,,,TRUE,,,,,,,BKN,11000,,,,,,,VFR,,,,,,0.29,,,,,,METAR,5
KDTO 160053Z 15010KT 10SM CLR 34/21 A3000 RMK AO2 SLP147 T03390211,KDTO,2025-08-16T00:53:00Z,33.2088,-97.1992,33.9,21.1,150,10,,10+,30.00,1014.7,,,TRUE,,,,,,,CLR,,,,,,,,VFR,,,,,,,,,,,,METAR,199
KDTN 160053Z 15008KT 10SM CLR 34/23 A3005 RMK AO2 LTG DSNT S SLP172 T03390228 $,KDTN,2025-08-16T00:53:00Z,32.5429,-93.745,33.9,22.8,150,8,,10+,30.05,1017.2,,,TRUE,TRUE,,,,,,CLR,,,,,,,,VFR,,,,,,,,,,,,METAR,53
KDRT 160053Z AUTO 13009G17KT 10SM SCT080 36/17 A2991 RMK AO2 SLP117 T03610172,KDRT,2025-08-16T00:53:00Z,29.3784,-100.927,36.1,17.2,130,9,17,10+,29.91,1011.7,,TRUE,TRUE,,,,,,,SCT,8000,,,,,,,VFR,,,,,,,,,,,,METAR,303
KDRO 160053Z AUTO 26015KT 10SM CLR 24/07 A3024 RMK AO2 PK WND 25029/0002 SLP158 T02390072,KDRO,2025-08-16T00:53:00Z,37.1431,-107.76,23.9,7.2,260,15,,10+,30.24,1015.8,,TRUE,TRUE,,,,,,,CLR,,,,,,,,VFR,,,,,,,,,,,,METAR,2021
KDRA 160053Z AUTO 22017G30KT 10SM CLR 34/06 A2990 RMK AO2 PK WND 23035/0019 SLP073 T03440061,KDRA,2025-08-16T00:53:00Z,36.621,-116.029,34.4,6.1,220,17,30,10+,29.90,1007.3,,TRUE,TRUE,,,,,,,CLR,,,,,,,,VFR,,,,,,,,,,,,METAR,988
KDNL 160053Z AUTO 00000KT 10SM CLR 29/22 A3008 RMK AO2 LTG DSNT W AND NW SLP178 T02940217,KDNL,2025-08-16T00:53:00Z,33.4668,-82.0385,29.4,21.7,0,0,,10+,30.08,1017.8,,TRUE,TRUE,,,,,,,CLR,,,,,,,,VFR,,,,,,,,,,,,METAR,126
KDMO 160053Z AUTO 12003KT 10SM CLR 31/24 A3003 RMK AO2 SLP160 T03060244,KDMO,2025-08-16T00:53:00Z,38.712,-93.1747,30.6,24.4,120,3,,10+,30.03,1016,,TRUE,TRUE,,,,,,,CLR,,,,,,,,VFR,,,,,,,,,,,,METAR,271
KDMN 160053Z AUTO 27003KT 10SM CLR 28/14 A3012 RMK AO2 SLP118 T02830144,KDMN,2025-08-16T00:53:00Z,32.2592,-107.721,28.3,14.4,270,3,,10+,30.12,1011.8,,TRUE,TRUE,,,,,,,CLR,,,,,,,,VFR,,,,,,,,,,,,METAR,1310
KDMH 160053Z AUTO 31/22 A3010 RMK AO1 SLP192 T03110217,KDMH,2025-08-16T00:53:00Z,39.281,-76.611,31.1,21.7,,,,,30.10,1019.2,,TRUE,TRUE,,,,,,,,,,,,,,,,,,,,,,,,,,,METAR,4
KDLS 160053Z AUTO 31011G22KT 10SM OVC070 25/16 A2984 RMK AO2 PK WND 32027/0037 SLP104 T02500161,KDLS,2025-08-16T00:53:00Z,45.619,-121.166,25,16.1,310,11,22,10+,29.84,1010.4,,TRUE,TRUE,,,,,,,OVC,7000,,,,,,,VFR,,,,,,,,,,,,METAR,71
KDLN 160053Z AUTO 18006KT 10SM CLR 31/M02 A2993 RMK AO2 SLP077 T03061022,KDLN,2025-08-16T00:53:00Z,45.2584,-112.555,30.6,-2.2,180,6,,10+,29.93,1007.7,,TRUE,TRUE,,,,,,,CLR,,,,,,,,VFR,,,,,,,,,,,,METAR,1586
KDKK 160053Z AUTO 00000KT 10SM CLR 22/18 A3013 RMK AO2 SLP200 T02170178,KDKK,2025-08-16T00:53:00Z,42.4932,-79.2762,21.7,17.8,0,0,,10+,30.13,1020,,TRUE,TRUE,,,,,,,CLR,,,,,,,,VFR,,,,,,,,,,,,METAR,205
KDHT 160053Z AUTO 18012KT 10SM FEW110 32/09 A3006 RMK AO2 SLP119 T03220089,KDHT,2025-08-16T00:53:00Z,36.0252,-102.549,32.2,8.9,180,12,,10+,30.06,1011.9,,TRUE,TRUE,,,,,,,FEW,11000,,,,,,,VFR,,,,,,,,,,,,METAR,1217
KDHN 160053Z 35005KT 10SM CLR 26/23 A3014 RMK AO1 SLP200 T02610233 $,KDHN,2025-08-16T00:53:00Z,31.3177,-85.4432,26.1,23.3,350,5,,10+,30.14,1020,,,TRUE,TRUE,,,,,,CLR,,,,,,,,VFR,,,,,,,,,,,,METAR,113
KDGW 160053Z AUTO 15014KT 10SM CLR 29/08 A3003 RMK AO2 SLP108 T02890078,KDGW,2025-08-16T00:53:00Z,42.796,-105.38,28.9,7.8,150,14,,10+,30.03,1010.8,,TRUE,TRUE,,,,,,,CLR,,,,,,,,VFR,,,,,,,,,,,,METAR,1503
KDFW 160053Z 16007KT 10SM FEW060 SCT250 34/20 A2998 RMK AO2 SLP142 T03390200,KDFW,2025-08-16T00:53:00Z,32.8974,-97.0219,33.9,20,160,7,,10+,29.98,1014.2,,,TRUE,,,,,,,FEW,6000,SCT,25000,,,,,VFR,,,,,,,,,,,,METAR,168
KDFI 160053Z AUTO 00000KT 10SM CLR 26/21 A3010 RMK AO2 SLP189 T02610211,KDFI,2025-08-16T00:53:00Z,41.3357,-84.4285,26.1,21.1,0,0,,10+,30.10,1018.9,,TRUE,TRUE,,,,,,,CLR,,,,,,,,VFR,,,,,,,,,,,,METAR,215
KDEW 160053Z AUTO 00000KT 10SM OVC065 23/12 A2989 RMK AO2 SLP113 T02330117,KDEW,2025-08-16T00:53:00Z,47.9742,-117.429,23.3,11.7,0,0,,10+,29.89,1011.3,,TRUE,TRUE,,,,,,,OVC,6500,,,,,,,VFR,,,,,,,,,,,,METAR,672
KDET 160053Z 15005KT 10SM CLR 26/17 A3012 RMK AO2 SLP195 T02560172,KDET,2025-08-16T00:53:00Z,42.4072,-83.009,25.6,17.2,150,5,,10+,30.12,1019.5,,,TRUE,,,,,,,CLR,,,,,,,,VFR,,,,,,,,,,,,METAR,190
KDEQ 160053Z AUTO 11003KT 10SM CLR 32/24 A3003 RMK AO2 LTG DSNT NE AND E PRESRR SLP162 T03220239,KDEQ,2025-08-16T00:53:00Z,34.048,-94.4016,32.2,23.9,110,3,,10+,30.03,1016.2,,TRUE,TRUE,,,,,,,CLR,,,,,,,,VFR,,,,,,,,,,,,METAR,107
KDCU 160053Z AUTO 25006KT 10SM SCT100 27/22 A3013 RMK AO2 SLP193 T02670217 $,KDCU,2025-08-16T00:53:00Z,34.658,-86.9434,26.7,21.7,250,6,,10+,30.13,1019.3,,TRUE,TRUE,TRUE,,,,,,SCT,10000,,,,,,,VFR,,,,,,,,,,,,METAR,180
KDAN 160053Z AUTO 00000KT 10SM CLR 25/23 A3011 RMK AO2 SLP183 T02500228,KDAN,2025-08-16T00:53:00Z,36.5729,-79.335,25,22.8,0,0,,10+,30.11,1018.3,,TRUE,TRUE,,,,,,,CLR,,,,,,,,VFR,,,,,,,,,,,,METAR,170
KDAL 160053Z 14009KT 10SM FEW060 SCT250 34/21 A2999 RMK AO2 SLP148 T03390211,KDAL,2025-08-16T00:53:00Z,32.8384,-96.8358,33.9,21.1,140,9,,10+,29.99,1014.8,,,TRUE,,,,,,,FEW,6000,SCT,25000,,,,,VFR,,,,,,,,,,,,METAR,148
KDAB 160053Z 00000KT 10SM FEW035 FEW050 SCT200 29/26 A3007 RMK AO2 SLP180 CONS LTGIC DSNT W-NW CB DSNT W-NW T02890256 $,KDAB,2025-08-16T00:53:00Z,29.1735,-81.0719,28.9,25.6,0,0,,10+,30.07,1018,,,TRUE,TRUE,,,,,,FEW,3500,FEW,5000,SCT,20000,,,VFR,,,,,,,,,,,,METAR,8
KCYS 160053Z 36006KT 10SM CLR 26/07 A3013 RMK AO2 SLP111 T02610067 $,KCYS,2025-08-16T00:53:00Z,41.1579,-104.808,26.1,6.7,360,6,,10+,30.13,1011.1,,,TRUE,TRUE,,,,,,CLR,,,,,,,,VFR,,,,,,,,,,,,METAR,1868
KCXO 160053Z 13009G16KT 10SM FEW031 FEW041 31/24 A3005 RMK AO2 SLP173 T03060239,KCXO,2025-08-16T00:53:00Z,30.3611,-95.4176,30.6,23.9,130,9,16,10+,30.05,1017.3,,,TRUE,,,,,,,FEW,3100,FEW,4100,,,,,VFR,,,,,,,,,,,,METAR,69
KCSV 160053Z AUTO 17003KT 10SM CLR 24/23 A3018 RMK AO2 SLP199 T02440233,KCSV,2025-08-16T00:53:00Z,35.951,-85.0814,24.4,23.3,170,3,,10+,30.18,1019.9,,TRUE,TRUE,,,,,,,CLR,,,,,,,,VFR,,,,,,,,,,,,METAR,569
KCSM 160053Z 16017KT 10SM CLR 33/19 A3001 RMK AO2 SLP134 T03330194,KCSM,2025-08-16T00:53:00Z,35.3568,-99.2041,33.3,19.4,160,17,,10+,30.01,1013.4,,,TRUE,,,,,,,CLR,,,,,,,,VFR,,,,,,,,,,,,METAR,586
KCRS 160053Z AUTO 15006KT 10SM CLR 33/22 A3003 RMK AO2 SLP162 T03280222,KCRS,2025-08-16T00:53:00Z,32.0316,-96.3994,32.8,22.2,150,6,,10+,30.03,1016.2,,TRUE,TRUE,,,,,,,CLR,,,,,,,,VFR,,,,,,,,,,,,METAR,136
KCRG 160053Z AUTO 00000KT 10SM CLR 28/26 A3006 RMK AO2 TSB28E43 SLP180 T02780256,KCRG,2025-08-16T00:53:00Z,30.3371,-81.5128,27.8,25.6,0,0,,10+,30.06,1018,,TRUE,TRUE,,,,,,,CLR,,,,,,,,VFR,,,,,,,,,,,,METAR,12
KCRE 160053Z AUTO 23006KT 10SM CLR 28/26 A3006 RMK AO1 SLP179 T02830256,KCRE,2025-08-16T00:53:00Z,33.8162,-78.7204,28.3,25.6,230,6,,10+,30.06,1017.9,,TRUE,TRUE,,,,,,,CLR,,,,,,,,VFR,,,,,,,,,,,,METAR,9
KCPS 160053Z 16004KT 10SM CLR 30/24 A3003 RMK AO2 SLP165 T03000239 $,KCPS,2025-08-16T00:53:00Z,38.57,-90.156,30,23.9,160,4,,10+,30.03,1016.5,,,TRUE,TRUE,,,,,,CLR,,,,,,,,VFR,,,,,,,,,,,,METAR,125
KCPR 160053Z 18005KT 10SM FEW120 27/06 A3006 RMK AO2 SLP117 T02670061,KCPR,2025-08-16T00:53:00Z,42.8978,-106.474,26.7,6.1,180,5,,10+,30.06,1011.7,,,TRUE,,,,,,,FEW,12000,,,,,,,VFR,,,,,,,,,,,,METAR,1623
KCOT 160053Z AUTO 12016G22KT 10SM CLR 33/21 A2994 RMK AO2 PK WND 11026/0004 SLP130 T03330206,KCOT,2025-08-16T00:53:00Z,28.4585,-99.2228,33.3,20.6,120,16,22,10+,29.94,1013,,TRUE,TRUE,,,,,,,CLR,,,,,,,,VFR,,,,,,,,,,,,METAR,144
KCNY 160053Z AUTO 27015KT 10SM FEW050 OVC100 22/11 A3011 RMK AO2 PK WND 26030/0000 RAB21E32 SLP141 P0000 T02220106,KCNY,2025-08-16T00:53:00Z,38.7501,-109.763,22.2,10.6,270,15,,10+,30.11,1014.1,,TRUE,TRUE,,,,,,,FEW,5000,OVC,10000,,,,,VFR,,,,,,0.005,,,,,,METAR,1392
KCNO 160053Z 25012KT 10SM CLR 26/16 A2992 RMK AO2 SLP127 T02560156,KCNO,2025-08-16T00:53:00Z,33.9756,-117.625,25.6,15.6,250,12,,10+,29.92,1012.7,,,TRUE,,,,,,,CLR,,,,,,,,VFR,,,,,,,,,,,,METAR,191
KCNM 160053Z AUTO 14009KT 10SM FEW110 27/17 A3006 RMK AO2 WSHFT 0011 LTG DSNT NE AND SE SLP123 T02720172,KCNM,2025-08-16T00:53:00Z,32.3335,-104.258,27.2,17.2,140,9,,10+,30.06,1012.3,,TRUE,TRUE,,,,,,,FEW,11000,,,,,,,VFR,,,,,,,,,,,,METAR,993
KCMX 160053Z AUTO 21004KT 10SM CLR 22/19 A2998 RMK AO2 SLP148 T02220194,KCMX,2025-08-16T00:53:00Z,47.1705,-88.4854,22.2,19.4,210,4,,10+,29.98,1014.8,,TRUE,TRUE,,,,,,,CLR,,,,,,,,VFR,,,,,,,,,,,,METAR,326
KCMI 160053Z 18005KT 10SM SCT080 27/24 A3009 RMK AO2 SLP183 T02670239,KCMI,2025-08-16T00:53:00Z,40.0324,-88.2755,26.7,23.9,180,5,,10+,30.09,1018.3,,,TRUE,,,,,,,SCT,8000,,,,,,,VFR,,,,,,,,,,,,METAR,227
KCLM 160053Z AUTO 29003KT 3SM -RA BR BKN065 OVC080 16/16 A2976 RMK AO2 SLP078 P0007 T01610156,KCLM,2025-08-16T00:53:00Z,48.1219,-123.507,16.1,15.6,290,3,,3,29.76,1007.8,,TRUE,TRUE,,,,,,-RA BR,BKN,6500,OVC,8000,,,,,MVFR,,,,,,0.07,,,,,,METAR,81
KCLL 160053Z 12008KT 10SM CLR 31/24 A3003 RMK AO2 SLP163 T03060239 $,KCLL,2025-08-16T00:53:00Z,30.5912,-96.3631,30.6,23.9,120,8,,10+,30.03,1016.3,,,TRUE,TRUE,,,,,,CLR,,,,,,,,VFR,,,,,,,,,,,,METAR,96
KCKB 160053Z 00000KT 10SM CLR 24/18 A3015 RMK AO2 SLP196 T02440183,KCKB,2025-08-16T00:53:00Z,39.3022,-80.2239,24.4,18.3,0,0,,10+,30.15,1019.6,,,TRUE,,,,,,,CLR,,,,,,,,VFR,,,,,,,,,,,,METAR,368
KCHO 160053Z 05004KT 10SM CLR 27/23 A3012 RMK AO2 SLP190 T02670228,KCHO,2025-08-16T00:53:00Z,38.1374,-78.4551,26.7,22.8,50,4,,10+,30.12,1019,,,TRUE,,,,,,,CLR,,,,,,,,VFR,,,,,,,,,,,,METAR,193
KCHA 160053Z 00000KT 10SM FEW045 SCT180 BKN240 24/22 A3011 RMK AO2 SLP189 T02440217,KCHA,2025-08-16T00:53:00Z,35.0336,-85.2004,24.4,21.7,0,0,,10+,30.11,1018.9,,,TRUE,,,,,,,FEW,4500,SCT,18000,BKN,24000,,,VFR,,,,,,,,,,,,METAR,203
KCGI 160053Z AUTO 15003KT 10SM CLR 28/24 A3005 RMK AO2 SLP171 T02830239,KCGI,2025-08-16T00:53:00Z,37.2254,-89.5785,28.3,23.9,150,3,,10+,30.05,1017.1,,TRUE,TRUE,,,,,,,CLR,,,,,,,,VFR,,,,,,,,,,,,METAR,103
KCEZ 160053Z AUTO 30010G17KT 10SM BKN110 23/08 A3021 RMK AO2 SLP159 T02280078,KCEZ,2025-08-16T00:53:00Z,37.3071,-108.626,22.8,7.8,300,10,17,10+,30.21,1015.9,,TRUE,TRUE,,,,,,,BKN,11000,,,,,,,VFR,,,,,,,,,,,,METAR,1801
KCEW 160053Z AUTO 00000KT 10SM CLR 24/23 A3015 RMK AO2 LTG DSNT SW-NW SLP208 P0008 T02390233,KCEW,2025-08-16T00:53:00Z,30.7771,-86.5194,23.9,23.3,0,0,,10+,30.15,1020.8,,TRUE,TRUE,,,,,,,CLR,,,,,,,,VFR,,,,,,0.08,,,,,,METAR,47
KCDW 160053Z 10SM CLR 26/19 A3015 RMK AO2 SLP214 T02610194,KCDW,2025-08-16T00:53:00Z,40.8764,-74.2829,26.1,19.4,,,,10+,30.15,1021.4,,,TRUE,,,,,,,CLR,,,,,,,,VFR,,,,,,,,,,,,METAR,52
KCDS 160053Z AUTO 15010KT 10SM CLR 33/18 A3000 RMK AO2 SLP127 T03330178,KCDS,2025-08-16T00:53:00Z,34.4275,-100.284,33.3,17.8,150,10,,10+,30.00,1012.7,,TRUE,TRUE,,,,,,,CLR,,,,,,,,VFR,,,,,,,,,,,,METAR,595
KCCR 160053Z 22012KT 10SM CLR 29/12 A2985 RMK AO2 SLP094 T02940122,KCCR,2025-08-16T00:53:00Z,37.9916,-122.053,29.4,12.2,220,12,,10+,29.85,1009.4,,,TRUE,,,,,,,CLR,,,,,,,,VFR,,,,,,,,,,,,METAR,6
KCAG 160053Z AUTO 27009KT 10SM CLR 28/06 A3014 RMK AO2 SLP133 T02780056,KCAG,2025-08-16T00:53:00Z,40.493,-107.524,27.8,5.6,270,9,,10+,30.14,1013.3,,TRUE,TRUE,,,,,,,CLR,,,,,,,,VFR,,,,,,,,,,,,METAR,1888
KBYI 160053Z AUTO 10SM FEW120 28/04 A3000 RMK AO2 PK WND 17029/0038 RAB16E25 SLP116 P0000 T02830039,KBYI,2025-08-16T00:53:00Z,42.5452,-113.769,28.3,3.9,,,,10+,30.00,1011.6,,TRUE,TRUE,,,,,,,FEW,12000,,,,,,,VFR,,,,,,0.005,,,,,,METAR,1263
KBYG 160053Z AUTO 00000KT 10SM CLR 27/07 A3003 RMK AO2 LTG DSNT SW AND W SLP105 T02720072,KBYG,2025-08-16T00:53:00Z,44.3812,-106.719,27.2,7.2,0,0,,10+,30.03,1010.5,,TRUE,TRUE,,,,,,,CLR,,,,,,,,VFR,,,,,,,,,,,,METAR,1503
KBWG 160053Z AUTO 00000KT 10SM CLR 31/21 A3008 RMK AO2 SLP180 T03110211,KBWG,2025-08-16T00:53:00Z,36.9647,-86.4238,31.1,21.1,0,0,,10+,30.08,1018,,TRUE,TRUE,,,,,,,CLR,,,,,,,,VFR,,,,,,,,,,,,METAR,159
KBVY 160053Z 12004KT 10SM CLR 18/14 A3020 RMK AO2 SLP219 T01780139,KBVY,2025-08-16T00:53:00Z,42.5841,-70.9153,17.8,13.9,120,4,,10+,30.20,1021.9,,,TRUE,,,,,,,CLR,,,,,,,,VFR,,,,,,,,,,,,METAR,28
KBVO 160053Z AUTO 19004KT 10SM CLR 32/22 A2999 RMK AO2 SLP144 T03220222,KBVO,2025-08-16T00:53:00Z,36.7664,-96.0129,32.2,22.2,190,4,,10+,29.99,1014.4,,TRUE,TRUE,,,,,,,CLR,,,,,,,,VFR,,,,,,,,,,,,METAR,210
KBUR 160053Z 19010KT 10SM CLR 24/16 A2994 RMK AO2 SLP125 T02390156,KBUR,2025-08-16T00:53:00Z,34.1996,-118.365,23.9,15.6,190,10,,10+,29.94,1012.5,,,TRUE,,,,,,,CLR,,,,,,,,VFR,,,,,,,,,,,,METAR,221
KBTR 160053Z 00000KT 10SM CLR 24/24 A3006 RMK AO2 SLP178 T02440239,KBTR,2025-08-16T00:53:00Z,30.5378,-91.1468,24.4,23.9,0,0,,10+,30.06,1017.8,,,TRUE,,,,,,,CLR,,,,,,,,VFR,,,,,,,,,,,,METAR,20
KBTM 160053Z AUTO 32010KT 10SM CLR 29/01 A2999 RMK AO2 SLP100 T02940011 $,KBTM,2025-08-16T00:53:00Z,45.9644,-112.501,29.4,1.1,320,10,,10+,29.99,1010,,TRUE,TRUE,TRUE,,,,,,CLR,,,,,,,,VFR,,,,,,,,,,,,METAR,1680
KBTL 160053Z 14003KT 10SM CLR 27/19 A3010 RMK AO2 SLP188 T02720189,KBTL,2025-08-16T00:53:00Z,42.3119,-85.2415,27.2,18.9,140,3,,10+,30.10,1018.8,,,TRUE,,,,,,,CLR,,,,,,,,VFR,,,,,,,,,,,,METAR,282
KBRO 160053Z 11009KT 10SM FEW022 29/25 A2997 RMK AO2 SLP147 T02890250,KBRO,2025-08-16T00:53:00Z,25.9146,-97.4231,28.9,25,110,9,,10+,29.97,1014.7,,,TRUE,,,,,,,FEW,2200,,,,,,,VFR,,,,,,,,,,,,METAR,6
KBRL 160053Z AUTO 04013G30KT 10SM SCT045 BKN110 26/21 A3009 RMK AO2 PK WND 02030/0045 LTG DSNT NE SLP186 T02610211,KBRL,2025-08-16T00:53:00Z,40.7729,-91.1255,26.1,21.1,40,13,30,10+,30.09,1018.6,,TRUE,TRUE,,,,,,,SCT,4500,BKN,11000,,,,,VFR,,,,,,,,,,,,METAR,208
KBRD 160053Z AUTO 15005KT 9SM FEW026 SCT033 26/22 A2999 RMK AO2 SLP151 T02560217,KBRD,2025-08-16T00:53:00Z,46.4021,-94.1273,25.6,21.7,150,5,,9,29.99,1015.1,,TRUE,TRUE,,,,,,,FEW,2600,SCT,3300,,,,,VFR,,,,,,,,,,,,METAR,372
KBPT 160053Z 14008KT 10SM FEW028 BKN035 BKN050 30/26 A3005 RMK AO2 LTG DSNT W SLP176 T03000256,KBPT,2025-08-16T00:53:00Z,29.9521,-94.0262,30,25.6,140,8,,10+,30.05,1017.6,,,TRUE,,,,,,,FEW,2800,BKN,3500,BKN,5000,,,VFR,,,,,,,,,,,,METAR,6
KBPK 160053Z AUTO 17005KT 10SM CLR 30/21 A3006 RMK AO2 SLP166 T03000211 PWINO $,KBPK,2025-08-16T00:53:00Z,36.3705,-92.4719,30,21.1,170,5,,10+,30.06,1016.6,,TRUE,TRUE,TRUE,,,,TRUE,,CLR,,,,,,,,VFR,,,,,,,,,,,,METAR,279
KBPI 160053Z AUTO 23006KT 10SM FEW110 22/07 A3022 RMK AO2 SLP140 T02220067,KBPI,2025-08-16T00:53:00Z,42.578,-110.11,22.2,6.7,230,6,,10+,30.22,1014,,TRUE,TRUE,,,,,,,FEW,11000,,,,,,,VFR,,,,,,,,,,,,METAR,2120
KBOI 160053Z 33010KT 10SM CLR 32/03 A2987 RMK AO2 SLP084 T03220033,KBOI,2025-08-16T00:53:00Z,43.567,-116.241,32.2,3.3,330,10,,10+,29.87,1008.4,,,TRUE,,,,,,,CLR,,,,,,,,VFR,,,,,,,,,,,,METAR,860
KBNO 160053Z AUTO 28010KT 10SM CLR 29/04 A2996 RMK AO2 SLP113 T02940044,KBNO,2025-08-16T00:53:00Z,43.5949,-118.958,29.4,4.4,280,10,,10+,29.96,1011.3,,TRUE,TRUE,,,,,,,CLR,,,,,,,,VFR,,,,,,,,,,,,METAR,1263
KBNA 160053Z 21005KT 10SM FEW050 SCT250 30/22 A3009 RMK AO2 SLP182 T03000217 $,KBNA,2025-08-16T00:53:00Z,36.1105,-86.6881,30,21.7,210,5,,10+,30.09,1018.2,,,TRUE,TRUE,,,,,,FEW,5000,SCT,25000,,,,,VFR,,,,,,,,,,,,METAR,168
KBMQ 160053Z AUTO 14010G22KT 10SM CLR 29/21 A3006 RMK AO2 SLP159 T02940206,KBMQ,2025-08-16T00:53:00Z,30.7407,-98.2354,29.4,20.6,140,10,22,10+,30.06,1015.9,,TRUE,TRUE,,,,,,,CLR,,,,,,,,VFR,,,,,,,,,,,,METAR,387
KBMG 160053Z 00000KT 8SM CLR 26/23 A3011 RMK AO2 SLP186 T02610233,KBMG,2025-08-16T00:53:00Z,39.1432,-86.6168,26.1,23.3,0,0,,8,30.11,1018.6,,,TRUE,,,,,,,CLR,,,,,,,,VFR,,,,,,,,,,,,METAR,254
KBLI 160053Z 18009G18KT 4SM -RA BR BKN020 BKN025 OVC031 19/17 A2976 RMK AO2 PK WND 16030/0011 SLP083 P0007 T01890172,KBLI,2025-08-16T00:53:00Z,48.7991,-122.541,18.9,17.2,180,9,18,4,29.76,1008.3,,,TRUE,,,,,,-RA BR,BKN,2000,BKN,2500,OVC,3100,,,MVFR,,,,,,0.07,,,,,,METAR,46
KBKV 160053Z 30007KT 10SM CLR 30/26 A3008 RMK AO2 SLP183 T03000256,KBKV,2025-08-16T00:53:00Z,28.4739,-82.4537,30,25.6,300,7,,10+,30.08,1018.3,,,TRUE,,,,,,,CLR,,,,,,,,VFR,,,,,,,,,,,,METAR,21
KBKL 160053Z 06004KT 10SM CLR 26/21 A3011 RMK AO2 SLP192 T02560206,KBKL,2025-08-16T00:53:00Z,41.5173,-81.6832,25.6,20.6,60,4,,10+,30.11,1019.2,,,TRUE,,,,,,,CLR,,,,,,,,VFR,,,,,,,,,,,,METAR,177
KBKE 160053Z AUTO 32008KT 10SM CLR 29/10 A2990 RMK AO2 SLP106 T02890100,KBKE,2025-08-16T00:53:00Z,44.843,-117.81,28.9,10,320,8,,10+,29.90,1010.6,,TRUE,TRUE,,,,,,,CLR,,,,,,,,VFR,,,,,,,,,,,,METAR,1025
KBIL 160053Z 07008KT 10SM FEW180 31/09 A2990 RMK AO2 SLP089 T03060089 $,KBIL,2025-08-16T00:53:00Z,45.8072,-108.546,30.6,8.9,70,8,,10+,29.90,1008.9,,,TRUE,TRUE,,,,,,FEW,18000,,,,,,,VFR,,,,,,,,,,,,METAR,1089
KBHM 160053Z 00000KT 10SM BKN180 OVC250 24/23 A3016 RMK AO2 SLP204 T02440228,KBHM,2025-08-16T00:53:00Z,33.5655,-86.7449,24.4,22.8,0,0,,10+,30.16,1020.4,,,TRUE,,,,,,,BKN,18000,OVC,25000,,,,,VFR,,,,,,,,,,,,METAR,191
KBGR 160053Z 00000KT 10SM FEW250 18/07 A3017 RMK AO2 SLP215 T01830067 $,KBGR,2025-08-16T00:53:00Z,44.7979,-68.8195,18.3,6.7,0,0,,10+,30.17,1021.5,,,TRUE,TRUE,,,,,,FEW,25000,,,,,,,VFR,,,,,,,,,,,,METAR,45
KBGM 160053Z AUTO 06005KT 10SM SCT060 23/14 A3019 RMK AO2 SLP215 T02280139,KBGM,2025-08-16T00:53:00Z,42.2068,-75.9799,22.8,13.9,60,5,,10+,30.19,1021.5,,TRUE,TRUE,,,,,,,SCT,6000,,,,,,,VFR,,,,,,,,,,,,METAR,485
KBFM 160053Z 00000KT 10SM FEW040 27/27 A3012 RMK AO2 LTG DSNT E SLP198 T02720272,KBFM,2025-08-16T00:53:00Z,30.6147,-88.063,27.2,27.2,0,0,,10+,30.12,1019.8,,,TRUE,,,,,,,FEW,4000,,,,,,,VFR,,,,,,,,,,,,METAR,7
KBFI 160053Z 16010G20KT 6SM BR BKN014 BKN038 OVC048 21/18 A2982 RMK AO2 RAE28 SLP097 P0000 T02060178,KBFI,2025-08-16T00:53:00Z,47.5455,-122.315,20.6,17.8,160,10,20,6,29.82,1009.7,,,TRUE,,,,,,BR,BKN,1400,BKN,3800,OVC,4800,,,MVFR,,,,,,0.005,,,,,,METAR,7
KBFF 160053Z AUTO 09005KT 10SM CLR 30/17 A2995 RMK AO2 SLP094 T03000172,KBFF,2025-08-16T00:53:00Z,41.8747,-103.601,30,17.2,90,5,,10+,29.95,1009.4,,TRUE,TRUE,,,,,,,CLR,,,,,,,,VFR,,,,,,,,,,,,METAR,1204
KBFD 160053Z AUTO 00000KT 10SM CLR 21/13 A3020 RMK AO2 SLP212 T02110128,KBFD,2025-08-16T00:53:00Z,41.7984,-78.6354,21.1,12.8,0,0,,10+,30.20,1021.2,,TRUE,TRUE,,,,,,,CLR,,,,,,,,VFR,,,,,,,,,,,,METAR,642
KBEH 160053Z AUTO 00000KT 10SM CLR 26/21 A3006 RMK AO2 SLPNO T02560206,KBEH,2025-08-16T00:53:00Z,42.129,-86.4152,25.6,20.6,0,0,,10+,30.06,,,TRUE,TRUE,,,,,,,CLR,,,,,,,,VFR,,,,,,,,,,,,METAR,196
KBDE 160053Z AUTO 27005KT 10SM CLR 21/12 A3001 RMK AO2 SLP161 T02110117,KBDE,2025-08-16T00:53:00Z,48.7261,-94.6122,21.1,11.7,270,5,,10+,30.01,1016.1,,TRUE,TRUE,,,,,,,CLR,,,,,,,,VFR,,,,,,,,,,,,METAR,330
KBCT 160053Z 11010KT 10SM CLR 29/23 A3006,KBCT,2025-08-16T00:53:00Z,26.379,-80.106,29,23,110,10,,10+,30.06,,,,,,,,,,,CLR,,,,,,,,VFR,,,,,,,,,,,,METAR,3
KBCE 160053Z AUTO 16016G23KT 10SM CLR 18/07 A3032 RMK AO2 SLP155 T01830072,KBCE,2025-08-16T00:53:00Z,37.7013,-112.149,18.3,7.2,160,16,23,10+,30.32,1015.5,,TRUE,TRUE,,,,,,,CLR,,,,,,,,VFR,,,,,,,,,,,,METAR,2311
KBBW 160053Z AUTO 12008KT 10SM CLR 29/23 A2991 RMK AO2 SLP105 T02940233,KBBW,2025-08-16T00:53:00Z,41.4365,-99.6385,29.4,23.3,120,8,,10+,29.91,1010.5,,TRUE,TRUE,,,,,,,CLR,,,,,,,,VFR,,,,,,,,,,,,METAR,771
KBAF 160053Z 00000KT 10SM CLR 22/19 A3016 RMK AO2 SLP212 T02170189,KBAF,2025-08-16T00:53:00Z,42.16,-72.7124,21.7,18.9,0,0,,10+,30.16,1021.2,,,TRUE,,,,,,,CLR,,,,,,,,VFR,,,,,,,,,,,,METAR,80
KAZO 160053Z 00000KT 10SM CLR 27/19 A3009 RMK AO2 SLP185 T02670194,KAZO,2025-08-16T00:53:00Z,42.2283,-85.546,26.7,19.4,0,0,,10+,30.09,1018.5,,,TRUE,,,,,,,CLR,,,,,,,,VFR,,,,,,,,,,,,METAR,264
KAWM 160053Z AUTO 00000KT 10SM CLR 31/22 A3005 RMK AO2 SLP169 T03060217 $,KAWM,2025-08-16T00:53:00Z,35.1401,-90.2359,30.6,21.7,0,0,,10+,30.05,1016.9,,TRUE,TRUE,TRUE,,,,,,CLR,,,,,,,,VFR,,,,,,,,,,,,METAR,64
KAUS 160053Z 12005KT 10SM FEW120 SCT300 31/23 A3000 RMK AO2 SLP147 T03060228,KAUS,2025-08-16T00:53:00Z,30.2099,-97.6806,30.6,22.8,120,5,,10+,30.00,1014.7,,,TRUE,,,,,,,FEW,12000,SCT,30000,,,,,VFR,,,,,,,,,,,,METAR,148
KAUG 160053Z AUTO VRB03KT 10SM CLR 22/13 A3019 RMK AO2 SLP221 T02170133 PWINO,KAUG,2025-08-16T00:53:00Z,44.3161,-69.797,21.7,13.3,VRB,3,,10+,30.19,1022.1,,TRUE,TRUE,,,,,TRUE,,CLR,,,,,,,,VFR,,,,,,,,,,,,METAR,107
KATY 160053Z AUTO 07008KT 10SM CLR 25/23 A2995 RMK AO2 SLP132 T02500228,KATY,2025-08-16T00:53:00Z,44.9045,-97.1496,25,22.8,70,8,,10+,29.95,1013.2,,TRUE,TRUE,,,,,,,CLR,,,,,,,,VFR,,,,,,,,,,,,METAR,531
KASX 160053Z AUTO 20005KT 10SM CLR 26/23 A2997 RMK AO2 SLP145 T02610228,KASX,2025-08-16T00:53:00Z,46.5468,-90.9184,26.1,22.8,200,5,,10+,29.97,1014.5,,TRUE,TRUE,,,,,,,CLR,,,,,,,,VFR,,,,,,,,,,,,METAR,249
KASE 160053Z 31006G16KT 10SM -RA FEW070 BKN090 OVC110 21/06 A3031 RMK AO2 RAB35 SLP145 P0000 T02060061,KASE,2025-08-16T00:53:00Z,39.2299,-106.871,20.6,6.1,310,6,16,10+,30.31,1014.5,,,TRUE,,,,,,-RA,FEW,7000,BKN,9000,OVC,11000,,,VFR,,,,,,0.005,,,,,,METAR,2384
KASD 160053Z AUTO 03003KT 10SM CLR 26/24 A3009 RMK AO2 SLP187 T02560239,KASD,2025-08-16T00:53:00Z,30.3436,-89.8224,25.6,23.9,30,3,,10+,30.09,1018.7,,TRUE,TRUE,,,,,,,CLR,,,,,,,,VFR,,,,,,,,,,,,METAR,8
KARB 160053Z AUTO 14003KT 7SM CLR 24/19 A3011 RMK AO2 SLP191 T02390189 $,KARB,2025-08-16T00:53:00Z,42.2239,-83.7398,23.9,18.9,140,3,,7,30.11,1019.1,,TRUE,TRUE,TRUE,,,,,,CLR,,,,,,,,VFR,,,,,,,,,,,,METAR,251
KARA 160053Z 00000KT 10SM CLR 25/24 A3004,KARA,2025-08-16T00:53:00Z,30.0292,-91.8845,25,24,0,0,,10+,30.04,,,,,,,,,,,CLR,,,,,,,,VFR,,,,,,,,,,,,METAR,5
KAPF 160053Z 29006KT 10SM CLR 31/25 A3004 RMK AO2 SLP172 T03110250,KAPF,2025-08-16T00:53:00Z,26.155,-81.7751,31.1,25,290,6,,10+,30.04,1017.2,,,TRUE,,,,,,,CLR,,,,,,,,VFR,,,,,,,,,,,,METAR,2
KAPA 160053Z 23004KT 10SM SCT100 BKN140 BKN220 27/09 A3010 RMK AO2 SLP121 T02720089,KAPA,2025-08-16T00:53:00Z,39.5599,-104.848,27.2,8.9,230,4,,10+,30.10,1012.1,,,TRUE,,,,,,,SCT,10000,BKN,14000,BKN,22000,,,VFR,,,,,,,,,,,,METAR,1791
KAOO 160053Z AUTO 00000KT 10SM BKN070 BKN090 22/19 A3017 RMK AO2 SLP208 T02220194,KAOO,2025-08-16T00:53:00Z,40.2999,-78.3168,22.2,19.4,0,0,,10+,30.17,1020.8,,TRUE,TRUE,,,,,,,BKN,7000,BKN,9000,,,,,VFR,,,,,,,,,,,,METAR,450
KAOH 160053Z AUTO 00000KT 9SM CLR 24/22 A3012 RMK AO2 SLP194 T02440217,KAOH,2025-08-16T00:53:00Z,40.7081,-84.0214,24.4,21.7,0,0,,9,30.12,1019.4,,TRUE,TRUE,,,,,,,CLR,,,,,,,,VFR,,,,,,,,,,,,METAR,294
KANB 160053Z AUTO 22004KT 10SM CLR 23/22 A3013 RMK AO2 SLP195 T02280217,KANB,2025-08-16T00:53:00Z,33.5904,-85.8479,22.8,21.7,220,4,,10+,30.13,1019.5,,TRUE,TRUE,,,,,,,CLR,,,,,,,,VFR,,,,,,,,,,,,METAR,187
KAMG 160053Z AUTO 00000KT 9SM CLR 28/25 A3006 RMK AO2 SLP175 T02830250,KAMG,2025-08-16T00:53:00Z,31.5401,-82.5074,28.3,25,0,0,,9,30.06,1017.5,,TRUE,TRUE,,,,,,,CLR,,,,,,,,VFR,,,,,,,,,,,,METAR,61
KAMA 160053Z 17012KT 10SM CLR 32/12 A3008 RMK AO2 SLP127 T03220117,KAMA,2025-08-16T00:53:00Z,35.2203,-101.717,32.2,11.7,170,12,,10+,30.08,1012.7,,,TRUE,,,,,,,CLR,,,,,,,,VFR,,,,,,,,,,,,METAR,1102
KALW 160053Z 29009KT 10SM FEW110 29/13 A2984 RMK AO2 SLP098 T02940128,KALW,2025-08-16T00:53:00Z,46.0946,-118.286,29.4,12.8,290,9,,10+,29.84,1009.8,,,TRUE,,,,,,,FEW,11000,,,,,,,VFR,,,,,,,,,,,,METAR,355
KAKO 160053Z AUTO 31011KT 10SM CLR 28/08 A3001 RMK AO2 WSHFT 0019 LTG DSNT SW AND W SLP095 T02830078 $,KAKO,2025-08-16T00:53:00Z,40.1743,-103.215,28.3,7.8,310,11,,10+,30.01,1009.5,,TRUE,TRUE,TRUE,,,,,,CLR,,,,,,,,VFR,,,,,,,,,,,,METAR,1431
KAIA 160053Z AUTO 17011KT 10SM CLR 31/16 A2996 RMK AO2 SLP100 T03110161,KAIA,2025-08-16T00:53:00Z,42.0573,-102.802,31.1,16.1,170,11,,10+,29.96,1010,,TRUE,TRUE,,,,,,,CLR,,,,,,,,VFR,,,,,,,,,,,,METAR,1198
KAGS 160053Z 00000KT 10SM CLR 27/24 A3005 RMK AO2 LTG DSNT NW RAB43E51 SLP175 T02720239 PNO $,KAGS,2025-08-16T00:53:00Z,33.3652,-81.9635,27.2,23.9,0,0,,10+,30.05,1017.5,,,TRUE,TRUE,,,,,,CLR,,,,,,,,VFR,,,,,,,,,,,,METAR,40
KAGC 160053Z 06004KT 10SM SCT070 26/16 A3014 RMK AO2 SLP201 T02610161,KAGC,2025-08-16T00:53:00Z,40.3551,-79.9215,26.1,16.1,60,4,,10+,30.14,1020.1,,,TRUE,,,,,,,SCT,7000,,,,,,,VFR,,,,,,,,,,,,METAR,380
KAFW 160053Z 16014KT 10SM FEW065 BKN250 34/19 A2999 RMK AO2 SLP138 T03440189,KAFW,2025-08-16T00:53:00Z,32.99,-97.32,34.4,18.9,160,14,,10+,29.99,1013.8,,,TRUE,,,,,,,FEW,6500,BKN,25000,,,,,VFR,,,,,,,,,,,,METAR,208
KAEX 160053Z 22003KT 10SM CLR 24/23 A3005 RMK AO2 RAE2358 SLP179 P0000 T02440233,KAEX,2025-08-16T00:53:00Z,31.3346,-92.5585,24.4,23.3,220,3,,10+,30.05,1017.9,,,TRUE,,,,,,,CLR,,,,,,,,VFR,,,,,,0.005,,,,,,METAR,25
KADG 160053Z AUTO 11003KT 10SM CLR 25/19 A3011 RMK AO2 SLP193 T02500194,KADG,2025-08-16T00:53:00Z,41.8678,-84.0794,25,19.4,110,3,,10+,30.11,1019.3,,TRUE,TRUE,,,,,,,CLR,,,,,,,,VFR,,,,,,,,,,,,METAR,244
KACV 160053Z AUTO 31015KT 10SM SCT002 19/16 A3003 RMK AO2 SLP173 T01890161,KACV,2025-08-16T00:53:00Z,40.9784,-124.105,18.9,16.1,310,15,,10+,30.03,1017.3,,TRUE,TRUE,,,,,,,SCT,200,,,,,,,VFR,,,,,,,,,,,,METAR,63
KACK 160053Z 05004KT 10SM SCT006 18/17 A3019 RMK AO2 SLP224 T01830172,KACK,2025-08-16T00:53:00Z,41.2541,-70.0589,18.3,17.2,50,4,,10+,30.19,1022.4,,,TRUE,,,,,,,SCT,600,,,,,,,VFR,,,,,,,,,,,,METAR,12
KABY 160053Z AUTO 29005KT 10SM CLR 26/24 A3009 RMK AO2 SLP187 T02560239,KABY,2025-08-16T00:53:00Z,31.5364,-84.1958,25.6,23.9,290,5,,10+,30.09,1018.7,,TRUE,TRUE,,,,,,,CLR,,,,,,,,VFR,,,,,,,,,,,,METAR,60
KABR 160053Z AUTO 05011KT 10SM OVC028 25/20 A2993 RMK AO2 SLP129 T02500200,KABR,2025-08-16T00:53:00Z,45.4436,-98.4138,25,20,50,11,,10+,29.93,1012.9,,TRUE,TRUE,,,,,,,OVC,2800,,,,,,,MVFR,,,,,,,,,,,,METAR,397
KAAF 160053Z AUTO 00000KT 10SM CLR 26/23 A3007 RMK AO2 SLP181 T02610228 $,KAAF,2025-08-16T00:53:00Z,29.7268,-85.0248,26.1,22.8,0,0,,10+,30.07,1018.1,,TRUE,TRUE,TRUE,,,,,,CLR,,,,,,,,VFR,,,,,,,,,,,,METAR,5
PATA 160052Z 22006KT 10SM BKN031 OVC038 11/06 A2993 RMK AO2 SLP138 WIND : 250/05 T01110056 $,PATA,2025-08-16T00:52:00Z,65.173,-152.107,11.1,5.6,220,6,,10+,29.93,1013.8,,,TRUE,TRUE,,,,,,BKN,3100,OVC,3800,,,,,VFR,,,,,,,,,,,,METAR,62
PAEL 160052Z 00000KT 20SM -RA OVC050 14/12 A2948 RMK NOSPECI,PAEL,2025-08-16T00:52:00Z,58.196,-136.347,14,12,0,0,,20,29.48,,,,,,,,,,-RA,OVC,5000,,,,,,,VFR,,,,,,,,,,,,METAR,8
MMZH 160052Z 00000KT 7SM FEW100 SCT250 32/23 A2994 RMK 8/032 HZY,MMZH,2025-08-16T00:52:00Z,17.605,-101.464,32,23,0,0,,7,29.94,,,,,,,,,,,FEW,10000,SCT,25000,,,,,VFR,,,,,,,,,,,,METAR,9
KVTN 160052Z AUTO 13011KT 10SM CLR 31/21 A2992 RMK AO2 SLP104 T03110211,KVTN,2025-08-16T00:52:00Z,42.8585,-100.551,31.1,21.1,130,11,,10+,29.92,1010.4,,TRUE,TRUE,,,,,,,CLR,,,,,,,,VFR,,,,,,,,,,,,METAR,790
KTRM 160052Z AUTO 00000KT 10SM CLR 40/12 A2970 RMK AO2 SLPNO T04000122 TSNO,KTRM,2025-08-16T00:52:00Z,33.6317,-116.164,40,12.2,0,0,,10+,29.70,,,TRUE,TRUE,,,TRUE,,,,CLR,,,,,,,,VFR,,,,,,,,,,,,METAR,-39
KTOL 160052Z AUTO 09004KT 10SM CLR 25/19 A3011 RMK AO2 SLP190 T02500189 $,KTOL,2025-08-16T00:52:00Z,41.5871,-83.8054,25,18.9,90,4,,10+,30.11,1019,,TRUE,TRUE,TRUE,,,,,,CLR,,,,,,,,VFR,,,,,,,,,,,,METAR,206
KTAN 160052Z AUTO 00000KT 10SM CLR 17/16 A3020 RMK AO2 SLP224 T01670156,KTAN,2025-08-16T00:52:00Z,41.8756,-71.0208,16.7,15.6,0,0,,10+,30.20,1022.4,,TRUE,TRUE,,,,,,,CLR,,,,,,,,VFR,,,,,,,,,,,,METAR,8
KSUX 160052Z 14006KT 10SM CLR 29/26 A2993 RMK AO2 SLP124 T02890261 $,KSUX,2025-08-16T00:52:00Z,42.3917,-96.3795,28.9,26.1,140,6,,10+,29.93,1012.4,,,TRUE,TRUE,,,,,,CLR,,,,,,,,VFR,,,,,,,,,,,,METAR,332
KSPS 160052Z 16010KT 10SM CLR 31/21 A2998 RMK AO2 SLP137 T03110211,KSPS,2025-08-16T00:52:00Z,33.9785,-98.493,31.1,21.1,160,10,,10+,29.98,1013.7,,,TRUE,,,,,,,CLR,,,,,,,,VFR,,,,,,,,,,,,METAR,310
KSPI 160052Z 21003KT 10SM CLR 30/25 A3005 RMK AO2 SLP172 T03000250,KSPI,2025-08-16T00:52:00Z,39.8453,-89.684,30,25,210,3,,10+,30.05,1017.2,,,TRUE,,,,,,,CLR,,,,,,,,VFR,,,,,,,,,,,,METAR,179
KSGF 160052Z 17005KT 10SM CLR 33/19 A3004 RMK AO2 SLP157 T03280194,KSGF,2025-08-16T00:52:00Z,37.2398,-93.39,32.8,19.4,170,5,,10+,30.04,1015.7,,,TRUE,,,,,,,CLR,,,,,,,,VFR,,,,,,,,,,,,METAR,387
KSBD 160052Z 26013KT 7SM CLR 30/12 A2991,KSBD,2025-08-16T00:52:00Z,34.09,-117.247,30,12,260,13,,7,29.91,,,,,,,,,,,CLR,,,,,,,,VFR,,,,,,,,,,,,METAR,353
KREO 160052Z AUTO 30008KT 33/01 A2991 RMK AO1 SLP088 T03280006,KREO,2025-08-16T00:52:00Z,42.5902,-117.865,32.8,0.6,300,8,,,29.91,1008.8,,TRUE,TRUE,,,,,,,,,,,,,,,,,,,,,,,,,,,METAR,1237
KPYM 160052Z AUTO 07004KT 10SM CLR 18/16 A3019 RMK AO2 SLP226 T01830156,KPYM,2025-08-16T00:52:00Z,41.9085,-70.7278,18.3,15.6,70,4,,10+,30.19,1022.6,,TRUE,TRUE,,,,,,,CLR,,,,,,,,VFR,,,,,,,,,,,,METAR,42
KPWK 160052Z 22005KT 10SM CLR 31/19 A3006 RMK AO2 SLP175 T03060189,KPWK,2025-08-16T00:52:00Z,42.1208,-87.9048,30.6,18.9,220,5,,10+,30.06,1017.5,,,TRUE,,,,,,,CLR,,,,,,,,VFR,,,,,,,,,,,,METAR,194
KPPF 160052Z AUTO 16004KT 10SM CLR 31/22 A3000 RMK AO2 SLP148 T03110222 PWINO,KPPF,2025-08-16T00:52:00Z,37.3281,-95.5044,31.1,22.2,160,4,,10+,30.00,1014.8,,TRUE,TRUE,,,,,TRUE,,CLR,,,,,,,,VFR,,,,,,,,,,,,METAR,265
KP69 160052Z AUTO 00000KT 27/12 A2980 RMK AO1 SLP073 T02670122,KP69,2025-08-16T00:52:00Z,46.144,-115.597,26.7,12.2,0,0,,,29.80,1007.3,,TRUE,TRUE,,,,,,,,,,,,,,,,,,,,,,,,,,,METAR,447
KORE 160052Z AUTO 14004KT 10SM CLR 23/14 A3020 RMK AO2 SLP226 T02330144,KORE,2025-08-16T00:52:00Z,42.57,-72.287,23.3,14.4,140,4,,10+,30.20,1022.6,,TRUE,TRUE,,,,,,,CLR,,,,,,,,VFR,,,,,,,,,,,,METAR,165
KOMA 160052Z 16015KT 10SM SCT140 SCT180 32/24 A2993 RMK AO2 SLP124 T03170244,KOMA,2025-08-16T00:52:00Z,41.3119,-95.9018,31.7,24.4,160,15,,10+,29.93,1012.4,,,TRUE,,,,,,,SCT,14000,SCT,18000,,,,,VFR,,,,,,,,,,,,METAR,299
KOKC 160052Z 17008KT 10SM SCT250 32/20 A3001 RMK AO2 SLP144 T03170200,KOKC,2025-08-16T00:52:00Z,35.3843,-97.6003,31.7,20,170,8,,10+,30.01,1014.4,,,TRUE,,,,,,,SCT,25000,,,,,,,VFR,,,,,,,,,,,,METAR,391
KOKB 160052Z AUTO 20007KT 6SM HZ OVC017 20/15 A2994 RMK AO2 SLP139 T02000150 $,KOKB,2025-08-16T00:52:00Z,33.2195,-117.35,20,15,200,7,,6,29.94,1013.9,,TRUE,TRUE,TRUE,,,,,HZ,OVC,1700,,,,,,,MVFR,,,,,,,,,,,,METAR,7
KNZY 160052Z 21007KT 10SM BKN014 19/15 A2995 RMK AO2 SLP141 T01890150,KNZY,2025-08-16T00:52:00Z,32.6922,-117.21,18.9,15,210,7,,10+,29.95,1014.1,,,TRUE,,,,,,,BKN,1400,,,,,,,MVFR,,,,,,,,,,,,METAR,4
KNRB 160052Z AUTO 00000KT 10SM CLR 29/25 A3006 RMK AO2 SLP180 T02940250,KNRB,2025-08-16T00:52:00Z,30.396,-81.423,29.4,25,0,0,,10+,30.06,1018,,TRUE,TRUE,,,,,,,CLR,,,,,,,,VFR,,,,,,,,,,,,METAR,4
KNHK 160052Z 16003KT 10SM FEW036 27/24 A3009 RMK AO2 SLP191 T02670239 $,KNHK,2025-08-16T00:52:00Z,38.284,-76.408,26.7,23.9,160,3,,10+,30.09,1019.1,,,TRUE,TRUE,,,,,,FEW,3600,,,,,,,VFR,,,,,,,,,,,,METAR,5
KNFW 160052Z 15010KT 10SM BKN250 34/20 A3000 RMK AO2 SLP141 T03440200 $,KNFW,2025-08-16T00:52:00Z,32.781,-97.436,34.4,20,150,10,,10+,30.00,1014.1,,,TRUE,TRUE,,,,,,BKN,25000,,,,,,,VFR,,,,,,,,,,,,METAR,188
KNFG 160052Z AUTO 22006KT 10SM OVC019 20/16 A2995 RMK AO2 SLP141 T02000156 $,KNFG,2025-08-16T00:52:00Z,33.304,-117.355,20,15.6,220,6,,10+,29.95,1014.1,,TRUE,TRUE,TRUE,,,,,,OVC,1900,,,,,,,MVFR,,,,,,,,,,,,METAR,21
KMWN 160052Z 28007KT 80SM FEW120 FEW250 11/05 RMK,KMWN,2025-08-16T00:52:00Z,44.271,-71.304,11,5,280,7,,80,0.00,,,,,,,,,,,FEW,12000,FEW,25000,,,,,VFR,,,,,,,,,,,,METAR,1911
KMWH 160052Z 19008KT 10SM BKN110 27/13 A2982 RMK AO2 SLP092 T02720133,KMWH,2025-08-16T00:52:00Z,47.193,-119.315,27.2,13.3,190,8,,10+,29.82,1009.2,,,TRUE,,,,,,,BKN,11000,,,,,,,VFR,,,,,,,,,,,,METAR,355
KMLF 160052Z AUTO 21015G23KT 10SM CLR 32/00 A3001 RMK AO2 PK WND 21028/0001 SLP091 T03170000,KMLF,2025-08-16T00:52:00Z,38.4225,-113.011,31.7,0,210,15,23,10+,30.01,1009.1,,TRUE,TRUE,,,,,,,CLR,,,,,,,,VFR,,,,,,,,,,,,METAR,1537
KMKE 160052Z 15006KT 10SM FEW170 BKN250 26/21 A3006 RMK AO2 SLP172 T02560206,KMKE,2025-08-16T00:52:00Z,42.9549,-87.9045,25.6,20.6,150,6,,10+,30.06,1017.2,,,TRUE,,,,,,,FEW,17000,BKN,25000,,,,,VFR,,,,,,,,,,,,METAR,203
KMHK 160052Z 18004KT 10SM CLR 32/23 A2995 RMK AO2 SLP130 T03170233 $,KMHK,2025-08-16T00:52:00Z,39.1346,-96.6789,31.7,23.3,180,4,,10+,29.95,1013,,,TRUE,TRUE,,,,,,CLR,,,,,,,,VFR,,,,,,,,,,,,METAR,320
KMFD 160052Z 00000KT 10SM CLR 24/19 A3015 RMK AO2 SLP201 T02440189,KMFD,2025-08-16T00:52:00Z,40.8204,-82.5177,24.4,18.9,0,0,,10+,30.15,1020.1,,,TRUE,,,,,,,CLR,,,,,,,,VFR,,,,,,,,,,,,METAR,394
KMEB 160052Z AUTO 02003KT 10SM CLR 28/24 A3008 RMK AO2 SLP182 T02780239,KMEB,2025-08-16T00:52:00Z,34.7913,-79.3683,27.8,23.9,20,3,,10+,30.08,1018.2,,TRUE,TRUE,,,,,,,CLR,,,,,,,,VFR,,,,,,,,,,,,METAR,65
KMDH 160052Z 15004KT 10SM CLR 27/25 A3006 RMK AO2 SLP174 T02720250 $,KMDH,2025-08-16T00:52:00Z,37.7833,-89.2453,27.2,25,150,4,,10+,30.06,1017.4,,,TRUE,TRUE,,,,,,CLR,,,,,,,,VFR,,,,,,,,,,,,METAR,122
KMBG 160052Z AUTO 10009KT 10SM CLR 26/20 A2992 RMK AO2 SLP120 T02610200,KMBG,2025-08-16T00:52:00Z,45.543,-100.404,26.1,20,100,9,,10+,29.92,1012,,TRUE,TRUE,,,,,,,CLR,,,,,,,,VFR,,,,,,,,,,,,METAR,515
KLWC 160052Z AUTO 15004KT 10SM CLR 30/24 A2997 RMK AO1 SLP140 T03000244,KLWC,2025-08-16T00:52:00Z,39.0078,-95.2115,30,24.4,150,4,,10+,29.97,1014,,TRUE,TRUE,,,,,,,CLR,,,,,,,,VFR,,,,,,,,,,,,METAR,252
KIJD 160052Z AUTO 16003KT 10SM BKN034 OVC042 24/19 A3019 RMK AO2 SLP221 T02440194,KIJD,2025-08-16T00:52:00Z,41.7425,-72.1825,24.4,19.4,160,3,,10+,30.19,1022.1,,TRUE,TRUE,,,,,,,BKN,3400,OVC,4200,,,,,VFR,,,,,,,,,,,,METAR,73
KIEN 160052Z AUTO 13005KT 10SM CLR 32/14 A2992 RMK AO2 LTG DSNT W SLP095 T03170144,KIEN,2025-08-16T00:52:00Z,43.0261,-102.52,31.7,14.4,130,5,,10+,29.92,1009.5,,TRUE,TRUE,,,,,,,CLR,,,,,,,,VFR,,,,,,,,,,,,METAR,1002
KIAD 160052Z 09003KT 10SM FEW048 BKN080 BKN200 26/23 A3011 RMK AO2 SLP191 T02610233,KIAD,2025-08-16T00:52:00Z,38.9348,-77.4473,26.1,23.3,90,3,,10+,30.11,1019.1,,,TRUE,,,,,,,FEW,4800,BKN,8000,BKN,20000,,,VFR,,,,,,,,,,,,METAR,90
KHUT 160052Z 15012KT 10SM CLR 33/21 A2995 RMK AO2 SLP117 T03280211,KHUT,2025-08-16T00:52:00Z,38.0682,-97.8607,32.8,21.1,150,12,,10+,29.95,1011.7,,,TRUE,,,,,,,CLR,,,,,,,,VFR,,,,,,,,,,,,METAR,464
KHRL 160052Z 12009KT 10SM CLR 27/24 A2997 RMK AO2 SLP146 T02670244,KHRL,2025-08-16T00:52:00Z,26.2303,-97.6556,26.7,24.4,120,9,,10+,29.97,1014.6,,,TRUE,,,,,,,CLR,,,,,,,,VFR,,,,,,,,,,,,METAR,9
KHIE 160052Z AUTO 00000KT 10SM CLR 16/12 A3020 RMK AO2 SLP229 T01610117,KHIE,2025-08-16T00:52:00Z,44.3659,-71.5522,16.1,11.7,0,0,,10+,30.20,1022.9,,TRUE,TRUE,,,,,,,CLR,,,,,,,,VFR,,,,,,,,,,,,METAR,321
KFIT 160052Z AUTO 13005KT 10SM CLR 22/13 A3021 RMK AO2 SLP229 T02220133,KFIT,2025-08-16T00:52:00Z,42.5549,-71.757,22.2,13.3,130,5,,10+,30.21,1022.9,,TRUE,TRUE,,,,,,,CLR,,,,,,,,VFR,,,,,,,,,,,,METAR,102
KEST 160052Z AUTO 17005KT 10SM CLR 26/24 A2996 RMK AO2 SLP139 T02610239,KEST,2025-08-16T00:52:00Z,43.4008,-94.7476,26.1,23.9,170,5,,10+,29.96,1013.9,,TRUE,TRUE,,,,,,,CLR,,,,,,,,VFR,,,,,,,,,,,,METAR,401
KDPA 160052Z 00000KT 10SM CLR 28/20 A3006 RMK AO2 SLP175 T02830200,KDPA,2025-08-16T00:52:00Z,41.8964,-88.2512,28.3,20,0,0,,10+,30.06,1017.5,,,TRUE,,,,,,,CLR,,,,,,,,VFR,,,,,,,,,,,,METAR,228
KDDC 160052Z AUTO 15014KT 6SM HZ CLR 33/18 A2998 RMK AO2 SLP115 T03280183 $,KDDC,2025-08-16T00:52:00Z,37.7711,-99.9692,32.8,18.3,150,14,,6,29.98,1011.5,,TRUE,TRUE,TRUE,,,,,HZ,CLR,,,,,,,,VFR,,,,,,,,,,,,METAR,786
KDCA 160052Z 09003KT 10SM FEW050 SCT095 SCT250 29/23 A3010 RMK AO2 SLP191 T02890228,KDCA,2025-08-16T00:52:00Z,38.8472,-77.0345,28.9,22.8,90,3,,10+,30.10,1019.1,,,TRUE,,,,,,,FEW,5000,SCT,9500,SCT,25000,,,VFR,,,,,,,,,,,,METAR,4
KCVG 160052Z 26003KT 10SM FEW070 27/22 A3012 RMK AO2 SLP187 T02720217,KCVG,2025-08-16T00:52:00Z,39.0444,-84.6724,27.2,21.7,260,3,,10+,30.12,1018.7,,,TRUE,,,,,,,FEW,7000,,,,,,,VFR,,,,,,,,,,,,METAR,264
KCQX 160052Z AUTO 05004KT 10SM CLR 20/17 A3020 RMK AO2 SLP228 T02000172 PWINO,KCQX,2025-08-16T00:52:00Z,41.6878,-69.9932,20,17.2,50,4,,10+,30.20,1022.8,,TRUE,TRUE,,,,,TRUE,,CLR,,,,,,,,VFR,,,,,,,,,,,,METAR,17
KCNU 160052Z AUTO 16005KT 10SM CLR 30/23 A3000 RMK AO2 SLP148 T03000233,KCNU,2025-08-16T00:52:00Z,37.6705,-95.4846,30,23.3,160,5,,10+,30.00,1014.8,,TRUE,TRUE,,,,,,,CLR,,,,,,,,VFR,,,,,,,,,,,,METAR,301
KCLT 160052Z 00000KT 10SM FEW030 FEW065 SCT100 BKN250 24/22 A3011 RMK AO2 TSE08 SLP203 OCNL LTGIC DSNT SW TS S-SW MOV SW CB DSNT SW T02440217,KCLT,2025-08-16T00:52:00Z,35.2225,-80.9543,24.4,21.7,0,0,,10+,30.11,1020.3,,,TRUE,,,,,,,FEW,3000,FEW,6500,SCT,10000,BKN,25000,VFR,,,,,,,,,,,,METAR,223
KCKV 160052Z AUTO 02005KT 10SM CLR 31/19 A3007 RMK AO2 SLP177 T03060194,KCKV,2025-08-16T00:52:00Z,36.6169,-87.4118,30.6,19.4,20,5,,10+,30.07,1017.7,,TRUE,TRUE,,,,,,,CLR,,,,,,,,VFR,,,,,,,,,,,,METAR,166
KCFV 160052Z AUTO 17006KT 10SM CLR 33/22 A2998 RMK AO2 SLP144 T03280217,KCFV,2025-08-16T00:52:00Z,37.0912,-95.5726,32.8,21.7,170,6,,10+,29.98,1014.4,,TRUE,TRUE,,,,,,,CLR,,,,,,,,VFR,,,,,,,,,,,,METAR,228
KBML 160052Z AUTO 00000KT 10SM CLR 15/13 A3021 RMK AO2 SLP232 T01500133,KBML,2025-08-16T00:52:00Z,44.576,-71.1782,15,13.3,0,0,,10+,30.21,1023.2,,TRUE,TRUE,,,,,,,CLR,,,,,,,,VFR,,,,,,,,,,,,METAR,344
KBLU 160052Z AUTO 23007KT 10SM CLR 23/07 A3013 RMK AO2 SLP107 T02330072,KBLU,2025-08-16T00:52:00Z,39.2762,-120.709,23.3,7.2,230,7,,10+,30.13,1010.7,,TRUE,TRUE,,,,,,,CLR,,,,,,,,VFR,,,,,,,,,,,,METAR,1605
KBLH 160052Z AUTO 18014KT 10SM SCT110 39/17 A2974 RMK AO2 SLP064 T03940172,KBLH,2025-08-16T00:52:00Z,33.6188,-114.715,39.4,17.2,180,14,,10+,29.74,1006.4,,TRUE,TRUE,,,,,,,SCT,11000,,,,,,,VFR,,,,,,,,,,,,METAR,119
KBLF 160052Z AUTO 00000KT 10SM CLR 23/16 A3025 RMK AO2 SLP206 T02330156,KBLF,2025-08-16T00:52:00Z,37.2978,-81.2036,23.3,15.6,0,0,,10+,30.25,1020.6,,TRUE,TRUE,,,,,,,CLR,,,,,,,,VFR,,,,,,,,,,,,METAR,871
KBIS 160052Z AUTO 08010KT 10SM CLR 23/15 A2998 RMK AO2 SLP146 T02330150,KBIS,2025-08-16T00:52:00Z,46.7823,-100.757,23.3,15,80,10,,10+,29.98,1014.6,,TRUE,TRUE,,,,,,,CLR,,,,,,,,VFR,,,,,,,,,,,,METAR,506
KBDR 160052Z 15005KT 10SM CLR 24/21 A3017 RMK AO2 SLP215 T02440211,KBDR,2025-08-16T00:52:00Z,41.1642,-73.1266,24.4,21.1,150,5,,10+,30.17,1021.5,,,TRUE,,,,,,,CLR,,,,,,,,VFR,,,,,,,,,,,,METAR,5
KBAN 160052Z AUTO 10SM CLR 25/04 A3014 RMK AO2 SLP118 T02500044 PNO $,KBAN,2025-08-16T00:52:00Z,38.355,-119.522,25,4.4,,,,10+,30.14,1011.8,,TRUE,TRUE,TRUE,,,,,,CLR,,,,,,,,VFR,,,,,,,,,,,,METAR,2067
KATL 160052Z 27006KT 10SM FEW100 BKN140 OVC200 26/23 A3012 RMK AO2 RAE2355 SLP190 CB DSNT NE P0000 T02560233 $,KATL,2025-08-16T00:52:00Z,33.6297,-84.4422,25.6,23.3,270,6,,10+,30.12,1019,,,TRUE,TRUE,,,,,,FEW,10000,BKN,14000,OVC,20000,,,VFR,,,,,,0.005,,,,,,METAR,309
KARR 160052Z 00000KT 8SM CLR 27/22 A3006 RMK AO2 SLP173 T02720217,KARR,2025-08-16T00:52:00Z,41.7713,-88.4815,27.2,21.7,0,0,,8,30.06,1017.3,,,TRUE,,,,,,,CLR,,,,,,,,VFR,,,,,,,,,,,,METAR,213
KALS 160052Z AUTO 17021G31KT 10SM SCT090 BKN110 21/08 A3029 RMK AO2 PK WND 19031/0050 RAE2353 SLP175 P0000 T02060078,KALS,2025-08-16T00:52:00Z,37.4393,-105.862,20.6,7.8,170,21,31,10+,30.29,1017.5,,TRUE,TRUE,,,,,,,SCT,9000,BKN,11000,,,,,VFR,,,,,,0.005,,,,,,METAR,2299
KAFN 160052Z AUTO 00000KT 10SM CLR 20/14 A3022 RMK AO2 SLP235 T02000139,KAFN,2025-08-16T00:52:00Z,42.8067,-72.0013,20,13.9,0,0,,10+,30.22,1023.5,,TRUE,TRUE,,,,,,,CLR,,,,,,,,VFR,,,,,,,,,,,,METAR,308
KABQ 160052Z 11010KT 10SM FEW080 BKN100 OVC200 25/10 A3020 RMK AO2 SLP146 T02500100 $,KABQ,2025-08-16T00:52:00Z,35.0419,-106.615,25,10,110,10,,10+,30.20,1014.6,,,TRUE,TRUE,,,,,,FEW,8000,BKN,10000,OVC,20000,,,VFR,,,,,,,,,,,,METAR,1620
KABI 160052Z 15014G19KT 10SM CLR 34/16 A3001 RMK AO2 SLP133 T03390156 $,KABI,2025-08-16T00:52:00Z,32.4106,-99.6821,33.9,15.6,150,14,19,10+,30.01,1013.3,,,TRUE,TRUE,,,,,,CLR,,,,,,,,VFR,,,,,,,,,,,,METAR,543
PTYA 160051Z VRB06KT 12SM SCT016 SCT300 30/26 A2985 RMK SLP110 T02990257,PTYA,2025-08-16T00:51:00Z,9.487,138.077,29.9,25.7,VRB,6,,12,29.85,1011,,,,,,,,,,SCT,1600,SCT,30000,,,,,VFR,,,,,,,,,,,,METAR,4
PHBK 160051Z AUTO 28011KT 10SM FEW070 30/22 A3001 RMK AO2 SLP166 T03000217,PHBK,2025-08-16T00:51:00Z,22.034,-159.783,30,21.7,280,11,,10+,30.01,1016.6,,TRUE,TRUE,,,,,,,FEW,7000,,,,,,,VFR,,,,,,,,,,,,METAR,5
KYNG 160051Z 07003KT 10SM CLR 22/17 A3015 RMK AO2 SLP202 T02220167,KYNG,2025-08-16T00:51:00Z,41.2548,-80.6736,22.2,16.7,70,3,,10+,30.15,1020.2,,,TRUE,,,,,,,CLR,,,,,,,,VFR,,,,,,,,,,,,METAR,356
KXWA 160051Z AUTO 09010KT 10SM SCT080 22/12 A2998 RMK AO2 SLP155 T02170122,KXWA,2025-08-16T00:51:00Z,48.2542,-103.747,21.7,12.2,90,10,,10+,29.98,1015.5,,TRUE,TRUE,,,,,,,SCT,8000,,,,,,,VFR,,,,,,,,,,,,METAR,717
KVNY 160051Z 16010G15KT 10SM CLR 25/15 A2992 RMK AO2 SLP125 T02500150,KVNY,2025-08-16T00:51:00Z,34.2121,-118.491,25,15,160,10,15,10+,29.92,1012.5,,,TRUE,,,,,,,CLR,,,,,,,,VFR,,,,,,,,,,,,METAR,241
KVCT 160051Z AUTO 13013KT 10SM CLR 29/22 A3001 RMK AO2 SLP159 T02890222,KVCT,2025-08-16T00:51:00Z,28.8624,-96.9301,28.9,22.2,130,13,,10+,30.01,1015.9,,TRUE,TRUE,,,,,,,CLR,,,,,,,,VFR,,,,,,,,,,,,METAR,33
KUGN 160051Z 14004KT 10SM CLR 27/21 A3006 RMK AO2 SLP165 LAST T02720211,KUGN,2025-08-16T00:51:00Z,42.4255,-87.8634,27.2,21.1,140,4,,10+,30.06,1016.5,,,TRUE,,,,,,,CLR,,,,,,,,VFR,,,,,,,,,,,,METAR,217
KTPL 160051Z AUTO 15013KT CLR 32/21 A3003 RMK AO2 SLP157 T03170211 PWINO RVRNO $,KTPL,2025-08-16T00:51:00Z,31.157,-97.4094,31.7,21.1,150,13,,,30.03,1015.7,,TRUE,TRUE,TRUE,,,,TRUE,,CLR,,,,,,,,,,,,,,,,,,,,METAR,206
KTEB 160051Z 19004KT 10SM CLR 26/19 A3014 RMK AO2 SLP206 T02560189 $,KTEB,2025-08-16T00:51:00Z,40.859,-74.0562,25.6,18.9,190,4,,10+,30.14,1020.6,,,TRUE,TRUE,,,,,,CLR,,,,,,,,VFR,,,,,,,,,,,,METAR,3
KSTL 160051Z 19007KT 10SM SCT250 33/21 A3005 RMK AO2 SLP159 T03330206 $,KSTL,2025-08-16T00:51:00Z,38.7524,-90.3734,33.3,20.6,190,7,,10+,30.05,1015.9,,,TRUE,TRUE,,,,,,SCT,25000,,,,,,,VFR,,,,,,,,,,,,METAR,163
KSNT 160051Z AUTO 24006G19KT 27/M04 A3010 RMK AO1 SLP103 T02671044,KSNT,2025-08-16T00:51:00Z,44.1708,-114.927,26.7,-4.4,240,6,19,,30.10,1010.3,,TRUE,TRUE,,,,,,,,,,,,,,,,,,,,,,,,,,,METAR,1980
KSMX 160051Z 30010KT 10SM FEW010 18/13 A2998 RMK AO2 SLP153 T01830133 $,KSMX,2025-08-16T00:51:00Z,34.894,-120.452,18.3,13.3,300,10,,10+,29.98,1015.3,,,TRUE,TRUE,,,,,,FEW,1000,,,,,,,VFR,,,,,,,,,,,,METAR,73
KSMO 160051Z 21007KT 10SM FEW010 22/16 A2994 RMK AO2 SLP138 T02170161,KSMO,2025-08-16T00:51:00Z,34.021,-118.447,21.7,16.1,210,7,,10+,29.94,1013.8,,,TRUE,,,,,,,FEW,1000,,,,,,,VFR,,,,,,,,,,,,METAR,56
KSLK 160051Z AUTO 00000KT 10SM CLR 17/11 A3021 RMK AO2 SLP226 T01670111,KSLK,2025-08-16T00:51:00Z,44.3928,-74.2029,16.7,11.1,0,0,,10+,30.21,1022.6,,TRUE,TRUE,,,,,,,CLR,,,,,,,,VFR,,,,,,,,,,,,METAR,502
KSJT 160051Z 11010G18KT 10SM CLR 33/16 A2999 RMK AO2 SLP129 T03330161,KSJT,2025-08-16T00:51:00Z,31.3517,-100.495,33.3,16.1,110,10,18,10+,29.99,1012.9,,,TRUE,,,,,,,CLR,,,,,,,,VFR,,,,,,,,,,,,METAR,582
KSDB 160051Z AUTO 21009G16KT 10SM CLR 23/11 A3009 RMK AO2 SLP130 T02280106 PWINO $,KSDB,2025-08-16T00:51:00Z,34.7433,-118.725,22.8,10.6,210,9,16,10+,30.09,1013,,TRUE,TRUE,TRUE,,,,TRUE,,CLR,,,,,,,,VFR,,,,,,,,,,,,METAR,1377
KSAT 160051Z 12015KT 10SM FEW050 SCT065 SCT250 33/19 A2998 RMK AO2 SLP132 T03280189,KSAT,2025-08-16T00:51:00Z,29.5443,-98.4839,32.8,18.9,120,15,,10+,29.98,1013.2,,,TRUE,,,,,,,FEW,5000,SCT,6500,SCT,25000,,,VFR,,,,,,,,,,,,METAR,246
KSAD 160051Z AUTO VRB05KT CLR 31/10 A3002 RMK AO2 SLP107 T03110100 $,KSAD,2025-08-16T00:51:00Z,32.8565,-109.636,31.1,10,VRB,5,,,30.02,1010.7,,TRUE,TRUE,TRUE,,,,,,CLR,,,,,,,,,,,,,,,,,,,,METAR,937
KROW 160051Z 24012KT 10SM CLR 30/12 A3004 RMK AO2 SLP107 T03000122,KROW,2025-08-16T00:51:00Z,33.3074,-104.508,30,12.2,240,12,,10+,30.04,1010.7,,,TRUE,,,,,,,CLR,,,,,,,,VFR,,,,,,,,,,,,METAR,1105
KRDU 160051Z 00000KT 10SM FEW038 SCT250 26/24 A3009 RMK AO2 SLP185 CB DSNT SW T02560239,KRDU,2025-08-16T00:51:00Z,35.8923,-78.782,25.6,23.9,0,0,,10+,30.09,1018.5,,,TRUE,,,,,,,FEW,3800,SCT,25000,,,,,VFR,,,,,,,,,,,,METAR,121
KPWM 160051Z 20004KT 10SM FEW060 20/12 A3019 RMK AO2 SLP222 T02000122,KPWM,2025-08-16T00:51:00Z,43.6424,-70.3044,20,12.2,200,4,,10+,30.19,1022.2,,,TRUE,,,,,,,FEW,6000,,,,,,,VFR,,,,,,,,,,,,METAR,15
KPVD 160051Z 07006KT 10SM FEW060 22/16 A3020 RMK AO2 SLP226 T02170161,KPVD,2025-08-16T00:51:00Z,41.7225,-71.4325,21.7,16.1,70,6,,10+,30.20,1022.6,,,TRUE,,,,,,,FEW,6000,,,,,,,VFR,,,,,,,,,,,,METAR,15
KPIT 160051Z 05005KT 10SM FEW065 FEW250 27/15 A3014 RMK AO2 SLP204 T02720150 $,KPIT,2025-08-16T00:51:00Z,40.4814,-80.2083,27.2,15,50,5,,10+,30.14,1020.4,,,TRUE,TRUE,,,,,,FEW,6500,FEW,25000,,,,,VFR,,,,,,,,,,,,METAR,339
KPHX 160051Z 16009KT 10SM SCT100 SCT150 BKN200 BKN250 38/14 A2982 RMK AO2 SLP076 CB DSNT S-SW T03780144,KPHX,2025-08-16T00:51:00Z,33.4278,-112.004,37.8,14.4,160,9,,10+,29.82,1007.6,,,TRUE,,,,,,,SCT,10000,SCT,15000,BKN,20000,BKN,25000,VFR,,,,,,,,,,,,METAR,338
KP59 160051Z AUTO 25007KT 230V290 23/19 A2994 RMK AO1 SLP131 T02280194,KP59,2025-08-16T00:51:00Z,47.467,-87.875,22.8,19.4,250,7,,,29.94,1013.1,,TRUE,TRUE,,,,,,,,,,,,,,,,,,,,,,,,,,,METAR,185
KOXR 160051Z 27013KT 10SM SCT012 20/16 A2995 RMK AO2 SLP139 T02000161,KOXR,2025-08-16T00:51:00Z,34.2001,-119.204,20,16.1,270,13,,10+,29.95,1013.9,,,TRUE,,,,,,,SCT,1200,,,,,,,VFR,,,,,,,,,,,,METAR,12
KORD 160051Z 22004KT 10SM FEW050 FEW200 OVC250 30/19 A3005 RMK AO2 SLP170 T03000189 $,KORD,2025-08-16T00:51:00Z,41.9602,-87.9316,30,18.9,220,4,,10+,30.05,1017,,,TRUE,TRUE,,,,,,FEW,5000,FEW,20000,OVC,25000,,,VFR,,,,,,,,,,,,METAR,202
KNYC 160051Z AUTO 10SM CLR 25/19 A3018 RMK AO2 SLP210 T02500189,KNYC,2025-08-16T00:51:00Z,40.779,-73.9692,25,18.9,,,,10+,30.18,1021,,TRUE,TRUE,,,,,,,CLR,,,,,,,,VFR,,,,,,,,,,,,METAR,33
KNBT 160051Z AUTO 05011KT 10SM CLR 27/24 A3004 RMK AO2 SLP176 T02670244,KNBT,2025-08-16T00:51:00Z,35.022,-76.463,26.7,24.4,50,11,,10+,30.04,1017.6,,TRUE,TRUE,,,,,,,CLR,,,,,,,,VFR,,,,,,,,,,,,METAR,5
KMYL 160051Z AUTO 23009KT 10SM CLR 27/02 A3001 RMK AO2 SLP120 T02720017,KMYL,2025-08-16T00:51:00Z,44.8943,-116.1,27.2,1.7,230,9,,10+,30.01,1012,,TRUE,TRUE,,,,,,,CLR,,,,,,,,VFR,,,,,,,,,,,,METAR,1532
KMPV 160051Z AUTO 19003KT 10SM CLR 17/09 A3024 RMK AO2 SLP239 T01720089,KMPV,2025-08-16T00:51:00Z,44.205,-72.5655,17.2,8.9,190,3,,10+,30.24,1023.9,,TRUE,TRUE,,,,,,,CLR,,,,,,,,VFR,,,,,,,,,,,,METAR,336
KLPC 160051Z AUTO 27011KT 10SM CLR 18/13 A2999 RMK AO2 SLP154 T01780133 $,KLPC,2025-08-16T00:51:00Z,34.6646,-120.464,17.8,13.3,270,11,,10+,29.99,1015.4,,TRUE,TRUE,TRUE,,,,,,CLR,,,,,,,,VFR,,,,,,,,,,,,METAR,26
KLGU 160051Z AUTO 00000KT 10SM CLR 32/04 A2996 RMK AO2 SLP088 T03220039,KLGU,2025-08-16T00:51:00Z,41.7865,-111.852,32.2,3.9,0,0,,10+,29.96,1008.8,,TRUE,TRUE,,,,,,,CLR,,,,,,,,VFR,,,,,,,,,,,,METAR,1359
KLGA 160051Z 17005KT 10SM CLR 25/19 A3015 RMK AO2 SLP208 T02500189 $,KLGA,2025-08-16T00:51:00Z,40.7794,-73.8803,25,18.9,170,5,,10+,30.15,1020.8,,,TRUE,TRUE,,,,,,CLR,,,,,,,,VFR,,,,,,,,,,,,METAR,9
KJFK 160051Z 14005KT 10SM FEW010 SCT250 23/21 A3016 RMK AO2 SLP213 T02330211 $,KJFK,2025-08-16T00:51:00Z,40.6392,-73.7639,23.3,21.1,140,5,,10+,30.16,1021.3,,,TRUE,TRUE,,,,,,FEW,1000,SCT,25000,,,,,VFR,,,,,,,,,,,,METAR,3
KJCT 160051Z AUTO 13010KT 10SM CLR 33/20 A3001 RMK AO2 SLP122 T03330200,KJCT,2025-08-16T00:51:00Z,30.5105,-99.7665,33.3,20,130,10,,10+,30.01,1012.2,,TRUE,TRUE,,,,,,,CLR,,,,,,,,VFR,,,,,,,,,,,,METAR,522
KIGM 160051Z AUTO 22017G23KT 10SM FEW085 33/12 A2998 RMK AO2 PK WND 23027/0012 SLP072 T03330117,KIGM,2025-08-16T00:51:00Z,35.2575,-113.934,33.3,11.7,220,17,23,10+,29.98,1007.2,,TRUE,TRUE,,,,,,,FEW,8500,,,,,,,VFR,,,,,,,,,,,,METAR,1045
KHTS 160051Z 11003KT 10SM BKN060 28/21 A3011 RMK AO2 SLP186 T02830206,KHTS,2025-08-16T00:51:00Z,38.3653,-82.5548,28.3,20.6,110,3,,10+,30.11,1018.6,,,TRUE,,,,,,,BKN,6000,,,,,,,VFR,,,,,,,,,,,,METAR,252
KHSE 160051Z AUTO 05007KT 10SM FEW011 26/24 A3003 RMK AO2 SLP169 T02610244 $,KHSE,2025-08-16T00:51:00Z,35.2324,-75.6223,26.1,24.4,50,7,,10+,30.03,1016.9,,TRUE,TRUE,TRUE,,,,,,FEW,1100,,,,,,,VFR,,,,,,,,,,,,METAR,4
KHDO 160051Z AUTO 12013KT 10SM FEW070 33/19 A2997 RMK AO2 PK WND 12026/0020 SLP133 T03280189,KHDO,2025-08-16T00:51:00Z,29.3601,-99.1742,32.8,18.9,120,13,,10+,29.97,1013.3,,TRUE,TRUE,,,,,,,FEW,7000,,,,,,,VFR,,,,,,,,,,,,METAR,280
KEWR 160051Z VRB03KT 10SM FEW250 26/20 A3015 RMK AO2 SLP209 T02560200,KEWR,2025-08-16T00:51:00Z,40.6828,-74.1692,25.6,20,VRB,3,,10+,30.15,1020.9,,,TRUE,,,,,,,FEW,25000,,,,,,,VFR,,,,,,,,,,,,METAR,2
KERI 160051Z 00000KT 8SM CLR 23/18 A3014 RMK AO2 SLP201 T02330183 $,KERI,2025-08-16T00:51:00Z,42.0803,-80.1824,23.3,18.3,0,0,,8,30.14,1020.1,,,TRUE,TRUE,,,,,,CLR,,,,,,,,VFR,,,,,,,,,,,,METAR,222
KELP 160051Z 29006KT 10SM FEW070 SCT140 BKN200 BKN250 32/14 A3007 RMK AO2 SLP102 CB DSNT NE AND E-SE ACSL DSNT W-NW SHRA DSNT NE AND E-SE T03170139,KELP,2025-08-16T00:51:00Z,31.8123,-106.377,31.7,13.9,290,6,,10+,30.07,1010.2,,,TRUE,,,,,,,FEW,7000,SCT,14000,BKN,20000,BKN,25000,VFR,,,,,,,,,,,,METAR,1205
KEKN 160051Z AUTO 00000KT 10SM CLR 21/19 A3021 RMK AO2 SLP223 T02110189,KEKN,2025-08-16T00:51:00Z,38.8899,-79.8554,21.1,18.9,0,0,,10+,30.21,1022.3,,TRUE,TRUE,,,,,,,CLR,,,,,,,,VFR,,,,,,,,,,,,METAR,596
KDAW 160051Z AUTO 17004KT 10SM 19/11 A3019 RMK AO2 SLP220 T01940106 $,KDAW,2025-08-16T00:51:00Z,43.2794,-70.9243,19.4,10.6,170,4,,10+,30.19,1022,,TRUE,TRUE,TRUE,,,,,,,,,,,,,,VFR,,,,,,,,,,,,METAR,100
KCSG 160051Z 30004KT 10SM CLR 27/22 A3009 RMK AO2 SLP183 T02670222,KCSG,2025-08-16T00:51:00Z,32.5163,-84.9422,26.7,22.2,300,4,,10+,30.09,1018.3,,,TRUE,,,,,,,CLR,,,,,,,,VFR,,,,,,,,,,,,METAR,120
KCRP 160051Z 15016KT 10SM FEW024 FEW055 BKN070 BKN200 OVC250 28/23 A2997 RMK AO2 SLP148 TCU DSNT N W NW T02830233,KCRP,2025-08-16T00:51:00Z,27.7733,-97.513,28.3,23.3,150,16,,10+,29.97,1014.8,,,TRUE,,,,,,,FEW,2400,FEW,5500,BKN,7000,BKN,20000,VFR,,,,,,,,,,,,METAR,11
KCON 160051Z AUTO 15003KT 10SM CLR 21/11 A3020 RMK AO2 SLP224 T02110111 $,KCON,2025-08-16T00:51:00Z,43.2049,-71.5026,21.1,11.1,150,3,,10+,30.20,1022.4,,TRUE,TRUE,TRUE,,,,,,CLR,,,,,,,,VFR,,,,,,,,,,,,METAR,102
KCMH 160051Z 00000KT 10SM FEW044 FEW250 27/22 A3012 RMK AO2 SLP191 T02670222,KCMH,2025-08-16T00:51:00Z,39.9907,-82.8771,26.7,22.2,0,0,,10+,30.12,1019.1,,,TRUE,,,,,,,FEW,4400,FEW,25000,,,,,VFR,,,,,,,,,,,,METAR,257
KCLE 160051Z 02003KT 10SM CLR 26/16 A3011 RMK AO2 SLP207 T02560156 $,KCLE,2025-08-16T00:51:00Z,41.4057,-81.8519,25.6,15.6,20,3,,10+,30.11,1020.7,,,TRUE,TRUE,,,,,,CLR,,,,,,,,VFR,,,,,,,,,,,,METAR,237
KCAK 160051Z 07004KT 10SM FEW250 26/16 A3014 RMK AO2 SLP198 T02610161,KCAK,2025-08-16T00:51:00Z,40.9181,-81.4434,26.1,16.1,70,4,,10+,30.14,1019.8,,,TRUE,,,,,,,FEW,25000,,,,,,,VFR,,,,,,,,,,,,METAR,369
KBKW 160051Z AUTO 00000KT 10SM CLR 24/15 A3022 RMK AO2 SLP197 T02440150,KBKW,2025-08-16T00:51:00Z,37.7836,-81.1228,24.4,15,0,0,,10+,30.22,1019.7,,TRUE,TRUE,,,,,,,CLR,,,,,,,,VFR,,,,,,,,,,,,METAR,762
KBHK 160051Z AUTO 13016G25KT 10SM CLR 29/14 A2991 RMK AO2 SLP107 T02890144,KBHK,2025-08-16T00:51:00Z,46.3521,-104.261,28.9,14.4,130,16,25,10+,29.91,1010.7,,TRUE,TRUE,,,,,,,CLR,,,,,,,,VFR,,,,,,,,,,,,METAR,904
KBGD 160051Z AUTO 15012G20KT 10SM CLR 34/13 A3004 RMK AO2 SLP124 T03390133,KBGD,2025-08-16T00:51:00Z,35.695,-101.396,33.9,13.3,150,12,20,10+,30.04,1012.4,,TRUE,TRUE,,,,,,,CLR,,,,,,,,VFR,,,,,,,,,,,,METAR,928
KBED 160051Z 00000KT 10SM CLR 21/08 A3019 RMK AO2 SLP234 T02060083,KBED,2025-08-16T00:51:00Z,42.4681,-71.2946,20.6,8.3,0,0,,10+,30.19,1023.4,,,TRUE,,,,,,,CLR,,,,,,,,VFR,,,,,,,,,,,,METAR,39
KBDL 160051Z 00000KT 10SM FEW070 24/18 A3016 RMK AO2 SLP212 T02440183,KBDL,2025-08-16T00:51:00Z,41.9374,-72.682,24.4,18.3,0,0,,10+,30.16,1021.2,,,TRUE,,,,,,,FEW,7000,,,,,,,VFR,,,,,,,,,,,,METAR,52
KBAZ 160051Z AUTO 12014KT 10SM CLR 31/21 A2998 RMK AO2 RAB23E33 SLP143 P0000 T03110211 TSNO $,KBAZ,2025-08-16T00:51:00Z,29.7089,-98.0459,31.1,21.1,120,14,,10+,29.98,1014.3,,TRUE,TRUE,TRUE,,TRUE,,,,CLR,,,,,,,,VFR,,,,,,0.005,,,,,,METAR,199
KAVX 160051Z AUTO 24004KT M1/4SM FG VV001 16/16 A2998 RMK AO2 SLP142 T01560156 $,KAVX,2025-08-16T00:51:00Z,33.4042,-118.415,15.6,15.6,240,4,,0.25,29.98,1014.2,,TRUE,TRUE,TRUE,,,,,FG,OVX,0,,,,,,,LIFR,,,,,,,,,,,100,METAR,482
KATT 160051Z AUTO 13005KT 10SM CLR 30/22 A3002 RMK AO2 SLP152 T03000222 $,KATT,2025-08-16T00:51:00Z,30.3208,-97.7604,30,22.2,130,5,,10+,30.02,1015.2,,TRUE,TRUE,TRUE,,,,,,CLR,,,,,,,,VFR,,,,,,,,,,,,METAR,203
KALB 160051Z 00000KT 10SM CLR 22/15 A3016 RMK AO2 SLP211 T02170150,KALB,2025-08-16T00:51:00Z,42.7473,-73.7991,21.7,15,0,0,,10+,30.16,1021.1,,,TRUE,,,,,,,CLR,,,,,,,,VFR,,,,,,,,,,,,METAR,82
KACT 160051Z 14013KT 10SM CLR 33/21 A3000 RMK AO2 SLP150 T03280206,KACT,2025-08-16T00:51:00Z,31.618,-97.2283,32.8,20.6,140,13,,10+,30.00,1015,,,TRUE,,,,,,,CLR,,,,,,,,VFR,,,,,,,,,,,,METAR,150
KABE 160051Z 14009KT 10SM CLR 28/19 A3014 RMK AO2 SLP201 T02780194 $,KABE,2025-08-16T00:51:00Z,40.658,-75.4347,27.8,19.4,140,9,,10+,30.14,1020.1,,,TRUE,TRUE,,,,,,CLR,,,,,,,,VFR,,,,,,,,,,,,METAR,117
TJBQ 160050Z 06009KT 10SM FEW023 28/24 A2998,TJBQ,2025-08-16T00:50:00Z,18.494,-67.128,28,24,60,9,,10+,29.98,,,,,,,,,,,FEW,2300,,,,,,,VFR,,,,,,,,,,,,METAR,69
PTSA 160050Z 08006KT 10SM VCSH BKN020TCU BKN130 BKN300 31/25 A2983 RMK VCSH SW TCU SW,PTSA,2025-08-16T00:50:00Z,5.352,162.956,31,25,80,6,,10+,29.83,,,,,,,,,,VCSH,BKN,2000,BKN,13000,BKN,30000,,,MVFR,,,,,,,,,,,,METAR,3
PTRO 160050Z 14005KT 14SM SCT017 BKN130 BKN310 30/24 A2985 ,PTRO,2025-08-16T00:50:00Z,7.367,134.544,30,24,140,5,,14,29.85,,,,,,,,,,,SCT,1700,BKN,13000,BKN,31000,,,VFR,,,,,,,,,,,,METAR,30
PTKK 160050Z 06007KT 15SM FEW014 SCT120 BKN280 31/25 A2983 RMK SLP103 T03120252,PTKK,2025-08-16T00:50:00Z,7.462,151.843,31.2,25.2,60,7,,15,29.83,1010.3,,,,,,,,,,FEW,1400,SCT,12000,BKN,28000,,,VFR,,,,,,,,,,,,METAR,3
PGRO 160050Z 17005KT 7SM VCSH BKN013 BKN100 27/24 A2991 RMK VCSH NW AND SE,PGRO,2025-08-16T00:50:00Z,14.172,145.24,27,24,170,5,,7,29.91,,,,,,,,,,VCSH,BKN,1300,BKN,10000,,,,,MVFR,,,,,,,,,,,,METAR,181
OOSH 160050Z AUTO 10008KT //// ////// 31/27 Q0999,OOSH,2025-08-16T00:50:00Z,24.388,56.624,31,27,100,8,,,29.50,,,TRUE,,,,,,,,,,,,,,,,,,,,,,,,,,,,METAR,35
OOSA 160050Z 14002KT 4500 -DZ BR SCT006 OVC014 24/24 Q1000 NOSIG,OOSA,2025-08-16T00:50:00Z,17.044,54.102,24,24,140,2,,2.8,29.53,,,,,,TRUE,,,,-DZ BR,SCT,600,OVC,1400,,,,,IFR,,,,,,,,,,,,METAR,20
OOMS 160050Z 06005KT 7000 FEW025 30/28 Q0999 NOSIG,OOMS,2025-08-16T00:50:00Z,23.595,58.298,30,28,60,5,,4.35,29.50,,,,,,TRUE,,,,,FEW,2500,,,,,,,MVFR,,,,,,,,,,,,METAR,8
OOKB 160050Z AUTO 13011KT 090V170 CAVOK 33/25 Q0998 NOSIG,OOKB,2025-08-16T00:50:00Z,26.168,56.239,33,25,130,11,,6+,29.47,,,TRUE,,,TRUE,,,,,CAVOK,,,,,,,,VFR,,,,,,,,,,,,METAR,30
OODQ 160050Z AUTO 21020KT //// R22///// NCD 23/22 Q0997 NOSIG,OODQ,2025-08-16T00:50:00Z,19.511,57.657,23,22,210,20,,,29.44,,,TRUE,,,TRUE,,,,,CLR,,,,,,,,,,,,,,,,,,,,METAR,116
MUVR 160050Z 07004KT 9000 FEW020 27/25 Q1017,MUVR,2025-08-16T00:50:00Z,23.033,-81.435,27,25,70,4,,5.59,30.03,,,,,,,,,,,FEW,2000,,,,,,,VFR,,,,,,,,,,,,METAR,65
MUSC 160050Z 12004KT 070V140 9000 SCT025 28/25 Q1018,MUSC,2025-08-16T00:50:00Z,22.494,-79.931,28,25,120,4,,5.59,30.06,,,,,,,,,,,SCT,2500,,,,,,,VFR,,,,,,,,,,,,METAR,97
MUHG 160050Z 06006KT 9000 FEW030 28/24 Q1017,MUHG,2025-08-16T00:50:00Z,20.786,-76.316,28,24,60,6,,5.59,30.03,,,,,,,,,,,FEW,3000,,,,,,,VFR,,,,,,,,,,,,METAR,100
MUHA 160050Z 06006KT 9000 FEW030 BKN200 28/26 Q1018,MUHA,2025-08-16T00:50:00Z,22.991,-82.41,28,26,60,6,,5.59,30.06,,,,,,,,,,,FEW,3000,BKN,20000,,,,,VFR,,,,,,,,,,,,METAR,61
MUCU 160050Z 32003KT 9000 SCT020 29/24 Q1016,MUCU,2025-08-16T00:50:00Z,19.971,-75.837,29,24,320,3,,5.59,30.00,,,,,,,,,,,SCT,2000,,,,,,,VFR,,,,,,,,,,,,METAR,70
MUCM 160050Z 07008KT 9000 FEW020 BKN200 27/24 Q1017,MUCM,2025-08-16T00:50:00Z,21.42,-77.85,27,24,70,8,,5.59,30.03,,,,,,,,,,,FEW,2000,BKN,20000,,,,,VFR,,,,,,,,,,,,METAR,125
MUCL 160050Z AUTO VRB03KT 29/24 Q1016,MUCL,2025-08-16T00:50:00Z,21.621,-81.552,29,24,VRB,3,,,30.00,,,TRUE,,,,,,,,,,,,,,,,,,,,,,,,,,,,METAR,5
MUCF 160050Z AUTO 06005KT 28/24 Q1016,MUCF,2025-08-16T00:50:00Z,22.159,-80.41,28,24,60,5,,,30.00,,,TRUE,,,,,,,,,,,,,,,,,,,,,,,,,,,,METAR,35
MUCC 160050Z 10008KT 070V130 9000 SCT020 30/25 Q1017,MUCC,2025-08-16T00:50:00Z,22.456,-78.339,30,25,100,8,,5.59,30.03,,,,,,,,,,,SCT,2000,,,,,,,VFR,,,,,,,,,,,,METAR,7
MMTJ 160050Z 21007KT 10SM SKC 22/15 A2997 RMK HZY ST W,MMTJ,2025-08-16T00:50:00Z,32.544,-116.982,22,15,210,7,,10+,29.97,,,,,,,,,,,SKC,,,,,,,,VFR,,,,,,,,,,,,METAR,150
MMSL 160050Z 26009KT 10SM FEW250 30/20 A2999 RMK 8/008,MMSL,2025-08-16T00:50:00Z,22.948,-109.936,30,20,260,9,,10+,29.99,,,,,,,,,,,FEW,25000,,,,,,,VFR,,,,,,,,,,,,METAR,205
MMML 160050Z 10005KT 10SM SKC 38/14 A2974 RMK HZY,MMML,2025-08-16T00:50:00Z,32.631,-115.238,38,14,100,5,,10+,29.74,,,,,,,,,,,SKC,,,,,,,,VFR,,,,,,,,,,,,METAR,21
MMCL 160050Z 13003KT 10SM SCT015 BKN100 OVC250 26/25 A2996 RMK 8/537,MMCL,2025-08-16T00:50:00Z,24.766,-107.476,26,25,130,3,,10+,29.96,,,,,,,,,,,SCT,1500,BKN,10000,OVC,25000,,,VFR,,,,,,,,,,,,METAR,35
LXGB 160050Z AUTO 08007KT 9999 NCD 25/22 Q1019,LXGB,2025-08-16T00:50:00Z,36.151,-5.35,25,22,80,7,,6+,30.09,,,TRUE,,,,,,,,CLR,,,,,,,,VFR,,,,,,,,,,,,METAR,5
LTFO 160050Z 15004KT 9999 SCT035 23/19 Q1011,LTFO,2025-08-16T00:50:00Z,41.179,40.845,23,19,150,4,,6+,29.85,,,,,,,,,,,SCT,3500,,,,,,,VFR,,,,,,,,,,,,METAR,5
LTFH 160050Z 19003KT 150V270 9999 SCT036 21/17 Q1012 NOSIG,LTFH,2025-08-16T00:50:00Z,41.255,36.567,21,17,190,3,,6+,29.88,,,,,,TRUE,,,,,SCT,3600,,,,,,,VFR,,,,,,,,,,,,METAR,7
LTFG 160050Z 11004KT 9999 SCT020 26/21 Q1005,LTFG,2025-08-16T00:50:00Z,36.299,32.3,26,21,110,4,,6+,29.68,,,,,,,,,,,SCT,2000,,,,,,,VFR,,,,,,,,,,,,METAR,26
LTFD 160050Z 07020KT CAVOK 24/14 Q1008,LTFD,2025-08-16T00:50:00Z,39.559,27.025,24,14,70,20,,6+,29.76,,,,,,,,,,,CAVOK,,,,,,,,VFR,,,,,,,,,,,,METAR,15
LTDA 160050Z 23009KT CAVOK 28/24 Q1003 NOSIG SKC,LTDA,2025-08-16T00:50:00Z,36.361,36.283,28,24,230,9,,6+,29.62,,,,,,TRUE,,,,,SKC,,,,,,,,VFR,,,,,,,,,,,,METAR,80
LTCW 160050Z VRB02KT CAVOK 16/10 Q1015,LTCW,2025-08-16T00:50:00Z,37.55,44.238,16,10,VRB,2,,6+,29.97,,,,,,,,,,,CAVOK,,,,,,,,VFR,,,,,,,,,,,,METAR,1852
LTCV 160050Z 29010KT CAVOK 28/M04 Q1000,LTCV,2025-08-16T00:50:00Z,37.365,42.06,28,-4,290,10,,6+,29.53,,,,,,,,,,,CAVOK,,,,,,,,VFR,,,,,,,,,,,,METAR,620
LTCT 160050Z 29012KT CAVOK 22/09 Q1011,LTCT,2025-08-16T00:50:00Z,39.977,43.878,22,9,290,12,,6+,29.85,,,,,,,,,,,CAVOK,,,,,,,,VFR,,,,,,,,,,,,METAR,936
LTCR 160050Z 35013G25KT 300V030 CAVOK 32/01 Q1000,LTCR,2025-08-16T00:50:00Z,37.232,40.638,32,1,350,13,25,6+,29.53,,,,,,,,,,,CAVOK,,,,,,,,VFR,,,,,,,,,,,,METAR,529
LTCN 160050Z 29011KT 270V340 CAVOK 27/20 Q1005,LTCN,2025-08-16T00:50:00Z,37.539,36.953,27,20,290,11,,6+,29.68,,,,,,,,,,,CAVOK,,,,,,,,VFR,,,,,,,,,,,,METAR,505
LTCM 160050Z VRB02KT 8000 -SHRA SCT032 BKN090 18/16 Q1014,LTCM,2025-08-16T00:50:00Z,42.019,35.072,18,16,VRB,2,,4.97,29.94,,,,,,,,,,-SHRA,SCT,3200,BKN,9000,,,,,MVFR,,,,,,,,,,,,METAR,7
LTCI 160050Z 10002KT CAVOK 16/07 Q1012 NOSIG,LTCI,2025-08-16T00:50:00Z,38.469,43.337,16,7,100,2,,6+,29.88,,,,,,TRUE,,,,,CAVOK,,,,,,,,VFR,,,,,,,,,,,,METAR,1654
LTCF 160050Z 08004KT CAVOK 08/05 Q1018 NOSIG,LTCF,2025-08-16T00:50:00Z,40.562,43.115,8,5,80,4,,6+,30.06,,,,,,TRUE,,,,,CAVOK,,,,,,,,VFR,,,,,,,,,,,,METAR,1794
LTCD 160050Z VRB04KT CAVOK 13/08 Q1014 NOSIG,LTCD,2025-08-16T00:50:00Z,39.71,39.527,13,8,VRB,4,,6+,29.94,,,,,,TRUE,,,,,CAVOK,,,,,,,,VFR,,,,,,,,,,,,METAR,1146
LTCB 160050Z 18005KT 9999 SCT035 23/18 Q1012 NOSIG,LTCB,2025-08-16T00:50:00Z,40.967,38.081,23,18,180,5,,6+,29.88,,,,,,TRUE,,,,,SCT,3500,,,,,,,VFR,,,,,,,,,,,,METAR,5
LTCA 160050Z 27005KT CAVOK 22/02 Q1008 NOSIG,LTCA,2025-08-16T00:50:00Z,38.607,39.291,22,2,270,5,,6+,29.76,,,,,,TRUE,,,,,CAVOK,,,,,,,,VFR,,,,,,,,,,,,METAR,887
LTBY 160050Z 24008KT CAVOK 16/09 Q1013,LTBY,2025-08-16T00:50:00Z,39.81,30.519,16,9,240,8,,6+,29.91,,,,,,,,,,,CAVOK,,,,,,,,VFR,,,,,,,,,,,,METAR,788
LTBQ 160050Z 08003KT 040V130 9999 FEW022 20/17 Q1013 NOSIG,LTBQ,2025-08-16T00:50:00Z,40.735,30.083,20,17,80,3,,6+,29.91,,,,,,TRUE,,,,,FEW,2200,,,,,,,VFR,,,,,,,,,,,,METAR,51
LTBH 160050Z 03014KT CAVOK 24/18 Q1010,LTBH,2025-08-16T00:50:00Z,40.14,26.425,24,18,30,14,,6+,29.82,,,,,,,,,,,CAVOK,,,,,,,,VFR,,,,,,,,,,,,METAR,8
LTBF 160050Z 02010KT 350V050 CAVOK 22/14 Q1009 NOSIG,LTBF,2025-08-16T00:50:00Z,39.619,27.926,22,14,20,10,,6+,29.79,,,,,,TRUE,,,,,CAVOK,,,,,,,,VFR,,,,,,,,,,,,METAR,95
LTBD 160050Z 25002KT CAVOK 22/19 Q1005,LTBD,2025-08-16T00:50:00Z,37.816,27.886,22,19,250,2,,6+,29.68,,,,,,,,,,,CAVOK,,,,,,,,VFR,,,,,,,,,,,,METAR,29
LTAY 160050Z 24006KT CAVOK 19/11 Q1010 NOSIG,LTAY,2025-08-16T00:50:00Z,37.785,29.701,19,11,240,6,,6+,29.82,,,,,,TRUE,,,,,CAVOK,,,,,,,,VFR,,,,,,,,,,,,METAR,851
LTAR 160050Z VRB01KT CAVOK 09/06 Q1018,LTAR,2025-08-16T00:50:00Z,39.798,36.894,9,6,VRB,1,,6+,30.06,,,,,,,,,,,CAVOK,,,,,,,,VFR,,,,,,,,,,,,METAR,1601
LTAP 160050Z 00000KT 9999 FEW040 17/13 Q1014 NOSIG,LTAP,2025-08-16T00:50:00Z,40.826,35.52,17,13,0,0,,6+,29.94,,,,,,TRUE,,,,,FEW,4000,,,,,,,VFR,,,,,,,,,,,,METAR,536
LTAN 160050Z 35015KT CAVOK 21/07 Q1012 NOSIG,LTAN,2025-08-16T00:50:00Z,37.979,32.562,21,7,350,15,,6+,29.88,,,,,,TRUE,,,,,CAVOK,,,,,,,,VFR,,,,,,,,,,,,METAR,1029
LTAE 160050Z 02009KT CAVOK 18/10 Q1014 NOSIG RMK RWY21 01006KT,LTAE,2025-08-16T00:50:00Z,40.079,32.566,18,10,20,9,,6+,29.94,,,,,,TRUE,,,,,CAVOK,,,,,,,,VFR,,,,,,,,,,,,METAR,836
LIEO 160050Z VRB02KT CAVOK 24/18 Q1015,LIEO,2025-08-16T00:50:00Z,40.899,9.518,24,18,VRB,2,,6+,29.97,,,,,,,,,,,CAVOK,,,,,,,,VFR,,,,,,,,,,,,METAR,8
LGRX 160050Z VRB03KT 9999 FEW030 24/14 Q1011,LGRX,2025-08-16T00:50:00Z,38.151,21.426,24,14,VRB,3,,6+,29.85,,,,,,,,,,,FEW,3000,,,,,,,VFR,,,,,,,,,,,,METAR,16
LGPZ 160050Z 35004KT 9999 FEW030 24/16 Q1012 RMK FEW080 BLU,LGPZ,2025-08-16T00:50:00Z,38.921,20.761,24,16,350,4,,6+,29.88,,,,,,,,,,,FEW,3000,,,,,,,VFR,,,,,,,,,,,,METAR,3
LGLM 160050Z 03020G30KT 9999 FEW030 24/18 Q1011,LGLM,2025-08-16T00:50:00Z,39.917,25.236,24,18,30,20,30,6+,29.85,,,,,,,,,,,FEW,3000,,,,,,,VFR,,,,,,,,,,,,METAR,4
LGBL 160050Z 25007KT 9999 FEW035 23/12 Q1013,LGBL,2025-08-16T00:50:00Z,39.22,22.794,23,12,250,7,,6+,29.91,,,,,,,,,,,FEW,3500,,,,,,,VFR,,,,,,,,,,,,METAR,13
LGAL 160050Z 04011KT 9999 FEW030 24/15 Q1012,LGAL,2025-08-16T00:50:00Z,40.856,25.945,24,15,40,11,,6+,29.88,,,,,,,,,,,FEW,3000,,,,,,,VFR,,,,,,,,,,,,METAR,5
LCRA 160050Z 27008KT CAVOK 26/24 Q1005,LCRA,2025-08-16T00:50:00Z,34.59,32.988,26,24,270,8,,6+,29.68,,,,,,,,,,,CAVOK,,,,,,,,VFR,,,,,,,,,,,,METAR,23
KVQQ 160050Z VRB04KT 10SM CLR 25/25 A3006,KVQQ,2025-08-16T00:50:00Z,30.2035,-81.8725,25,25,VRB,4,,10+,30.06,,,,,,,,,,,CLR,,,,,,,,VFR,,,,,,,,,,,,METAR,21
KRYY 160050Z 31005KT 10SM BKN075 27/22 A3015,KRYY,2025-08-16T00:50:00Z,34.0146,-84.5964,27,22,310,5,,10+,30.15,,,,,,,,,,,BKN,7500,,,,,,,VFR,,,,,,,,,,,,METAR,306
KOQU 160050Z AUTO 07008KT 10SM CLR 24/19 A3017 RMK AO2,KOQU,2025-08-16T00:50:00Z,41.5995,-71.4111,24,19,70,8,,10+,30.17,,,TRUE,TRUE,,,,,,,CLR,,,,,,,,VFR,,,,,,,,,,,,METAR,6
KOLV 160050Z 18004KT 7SM SCT110 28/26 A3007,KOLV,2025-08-16T00:50:00Z,34.9808,-89.7851,28,26,180,4,,7,30.07,,,,,,,,,,,SCT,11000,,,,,,,VFR,,,,,,,,,,,,METAR,124
KNQA 160050Z 00000KT 10SM BKN050 34/23 A3004,KNQA,2025-08-16T00:50:00Z,35.3619,-89.8612,34,23,0,0,,10+,30.04,,,,,,,,,,,BKN,5000,,,,,,,VFR,,,,,,,,,,,,METAR,90
KLAL 160050Z VRB04KT 5SM +TSRA SCT047 BKN060 27/25 A3008 RMK LTG,KLAL,2025-08-16T00:50:00Z,27.9866,-82.0193,27,25,VRB,4,,5,30.08,,,,,,,,,,+TSRA,SCT,4700,BKN,6000,,,,,MVFR,,,,,,,,,,,,METAR,39
KJQF 160050Z 0000KT 10SM FEW050 28/23 A3014,KJQF,2025-08-16T00:50:00Z,35.3896,-80.7074,28,23,,,,10+,30.14,,,,,,,,,,,FEW,5000,,,,,,,VFR,,,,,,,,,,,,METAR,204
KHQZ 160050Z 12004KT 10SM CLR 33/21 A3001,KHQZ,2025-08-16T00:50:00Z,32.7514,-96.5291,33,21,120,4,,10+,30.01,,,,,,,,,,,CLR,,,,,,,,VFR,,,,,,,,,,,,METAR,136
KDAG 160050Z AUTO 27012KT 10SM CLR 37/M02 A2983 RMK AO2 SLP069 T03671017,KDAG,2025-08-16T00:50:00Z,34.8537,-116.787,36.7,-1.7,270,12,,10+,29.83,1006.9,,TRUE,TRUE,,,,,,,CLR,,,,,,,,VFR,,,,,,,,,,,,METAR,584
KCIC 160050Z 14009KT 10SM CLR 35/09 A2977,KCIC,2025-08-16T00:50:00Z,39.7988,-121.858,35,9,140,9,,10+,29.77,,,,,,,,,,,CLR,,,,,,,,VFR,,,,,,,,,,,,METAR,72
KALN 160050Z 11004KT 10SM SCT065 30/25 A3005,KALN,2025-08-16T00:50:00Z,38.8897,-90.0316,30,25,110,4,,10+,30.05,,,,,,,,,,,SCT,6500,,,,,,,VFR,,,,,,,,,,,,METAR,159
KAEG 160050Z 12010KT 10SM OVC100 24/08 A3024,KAEG,2025-08-16T00:50:00Z,35.15,-106.793,24,8,120,10,,10+,30.24,,,,,,,,,,,OVC,10000,,,,,,,VFR,,,,,,,,,,,,METAR,1771
KADM 160050Z 00000KT 10SM CLR 31/22 A2999,KADM,2025-08-16T00:50:00Z,34.3007,-97.0089,31,22,0,0,,10+,29.99,,,,,,,,,,,CLR,,,,,,,,VFR,,,,,,,,,,,,METAR,223
FHAW 160050Z 13009KT 9999 FEW022 BKN050 23/18 Q1017 RMK BLU,FHAW,2025-08-16T00:50:00Z,-7.97,-14.394,23,18,130,9,,6+,30.03,,,,,,,,,,,FEW,2200,BKN,5000,,,,,VFR,,,,,,,,,,,,METAR,79
ENHE 160050Z 29025KT 9999 SCT016 BKN050 12/09 Q1016 W///S5,ENHE,2025-08-16T00:50:00Z,65.325,2.327,12,9,290,25,,6+,30.00,,,,,,,,,,,SCT,1600,BKN,5000,,,,,VFR,,,,,,,,,,,,METAR,10
EGYP 160050Z 36004KT CAVOK 01/M00 Q1022,EGYP,2025-08-16T00:50:00Z,-51.82,-58.448,1,0,360,4,,6+,30.18,,,,,,,,,,,CAVOK,,,,,,,,VFR,,,,,,,,,,,,METAR,70
EGYM 160050Z AUTO 04010KT 9999 OVC012/// 17/14 Q1028,EGYM,2025-08-16T00:50:00Z,52.648,0.567,17,14,40,10,,6+,30.35,,,TRUE,,,,,,,,OVC,1200,,,,,,,MVFR,,,,,,,,,,,,METAR,25
EGYH 160050Z AUTO 05011KT 9999 OVC011/// 17/15 Q1028,EGYH,2025-08-16T00:50:00Z,52.873,0.139,17,15,50,11,,6+,30.35,,,TRUE,,,,,,,,OVC,1100,,,,,,,MVFR,,,,,,,,,,,,METAR,5
EGYE 160050Z AUTO 04008KT //// OVC009/// 16/14 Q1029,EGYE,2025-08-16T00:50:00Z,52.962,-0.562,16,14,40,8,,,30.38,,,TRUE,,,,,,,,OVC,900,,,,,,,,,,,,,,,,,,,METAR,105
EGYD 160050Z AUTO 05007KT 9999 OVC009/// 16/14 Q1029,EGYD,2025-08-16T00:50:00Z,53.031,-0.503,16,14,50,7,,6+,30.38,,,TRUE,,,,,,,,OVC,900,,,,,,,IFR,,,,,,,,,,,,METAR,65
EGXZ 160050Z AUTO 06004KT 9999 OVC019/// 16/14 Q1030,EGXZ,2025-08-16T00:50:00Z,54.205,-1.39,16,14,60,4,,6+,30.41,,,TRUE,,,,,,,,OVC,1900,,,,,,,MVFR,,,,,,,,,,,,METAR,24
EGXW 160050Z AUTO 05008KT 9999 OVC010/// 17/14 Q1029,EGXW,2025-08-16T00:50:00Z,53.175,-0.523,17,14,50,8,,6+,30.38,,,TRUE,,,,,,,,OVC,1000,,,,,,,MVFR,,,,,,,,,,,,METAR,70
EGXV 160050Z AUTO 05005KT 9999 OVC013/// 16/14 Q1029,EGXV,2025-08-16T00:50:00Z,53.876,-0.435,16,14,50,5,,6+,30.38,,,TRUE,,,,,,,,OVC,1300,,,,,,,MVFR,,,,,,,,,,,,METAR,6
EGXT 160050Z AUTO 04009KT 9999 OVC009/// 16/14 Q1028,EGXT,2025-08-16T00:50:00Z,52.611,-0.461,16,14,40,9,,6+,30.35,,,TRUE,,,,,,,,OVC,900,,,,,,,IFR,,,,,,,,,,,,METAR,74
EGXS 160050Z AUTO 02011KT 9999 BR OVC012/// 16/13 Q1029,EGXS,2025-08-16T00:50:00Z,53.475,0.152,16,13,20,11,,6+,30.38,,,TRUE,,,,,,,BR,OVC,1200,,,,,,,MVFR,,,,,,,,,,,,METAR,6
EGXE 160050Z AUTO 03003KT 9999 OVC018/// 16/14 Q1030,EGXE,2025-08-16T00:50:00Z,54.297,-1.533,16,14,30,3,,6+,30.41,,,TRUE,,,,,,,,OVC,1800,,,,,,,MVFR,,,,,,,,,,,,METAR,30
EGXC 160050Z 04007KT 9999 OVC010 16/14 Q1029 RMK GRN,EGXC,2025-08-16T00:50:00Z,53.094,-0.173,16,14,40,7,,6+,30.38,,,,,,,,,,,OVC,1000,,,,,,,MVFR,,,,,,,,,,,,METAR,9
EGWU 160050Z AUTO 04007KT 9999 FEW014/// 19/16 Q1027,EGWU,2025-08-16T00:50:00Z,51.549,-0.417,19,16,40,7,,6+,30.32,,,TRUE,,,,,,,,FEW,1400,,,,,,,VFR,,,,,,,,,,,,METAR,33
EGWC 160050Z AUTO 03004KT //// ///////// ///// Q////,EGWC,2025-08-16T00:50:00Z,52.64,-2.311,,,30,4,,,0.00,,,TRUE,,,,,,,,,,,,,,,,,,,,,,,,,,,,METAR,79
EGVP 160050Z AUTO 06004KT 9999 NCD 19/15 Q1026,EGVP,2025-08-16T00:50:00Z,51.139,-1.569,19,15,60,4,,6+,30.30,,,TRUE,,,,,,,,CLR,,,,,,,,VFR,,,,,,,,,,,,METAR,80
EGVO 160050Z AUTO 06004KT 9999 NCD 18/15 Q1026,EGVO,2025-08-16T00:50:00Z,51.239,-0.945,18,15,60,4,,6+,30.30,,,TRUE,,,,,,,,CLR,,,,,,,,VFR,,,,,,,,,,,,METAR,118
EGUW 160050Z AUTO 02011KT 9999 OVC011/// 16/13 Q1027,EGUW,2025-08-16T00:50:00Z,52.124,0.957,16,13,20,11,,6+,30.32,,,TRUE,,,,,,,,OVC,1100,,,,,,,MVFR,,,,,,,,,,,,METAR,86
EGUB 160050Z AUTO 03009KT 9999 NCD 18/14 Q1027,EGUB,2025-08-16T00:50:00Z,51.62,-1.099,18,14,30,9,,6+,30.32,,,TRUE,,,,,,,,CLR,,,,,,,,VFR,,,,,,,,,,,,METAR,56
EGQS 160050Z 33004KT 9999 FEW020 BKN029 14/10 Q1031 NOSIG RMK BLU BLU,EGQS,2025-08-16T00:50:00Z,57.711,-3.324,14,10,330,4,,6+,30.44,,,,,,TRUE,,,,,FEW,2000,BKN,2900,,,,,MVFR,,,,,,,,,,,,METAR,6
EGQM 160050Z AUTO 33002KT 9999 OVC022/// 15/13 Q1030,EGQM,2025-08-16T00:50:00Z,55.421,-1.601,15,13,330,2,,6+,30.41,,,TRUE,,,,,,,,OVC,2200,,,,,,,MVFR,,,,,,,,,,,,METAR,24
EGQL 160050Z 10005KT 4000 -DZ OVC006 14/13 Q1030 RMK YLO1,EGQL,2025-08-16T00:50:00Z,56.377,-2.862,14,13,100,5,,2.49,30.41,,,,,,,,,,-DZ,OVC,600,,,,,,,IFR,,,,,,,,,,,,METAR,11
EGQK 160050Z AUTO 32006KT 9999 OVC029/// 13/10 Q1031,EGQK,2025-08-16T00:50:00Z,57.646,-3.563,13,10,320,6,,6+,30.44,,,TRUE,,,,,,,,OVC,2900,,,,,,,MVFR,,,,,,,,,,,,METAR,5
EGQA 160050Z AUTO 29004KT 9999 OVC029/// 09/08 Q1031,EGQA,2025-08-16T00:50:00Z,57.825,-3.955,9,8,290,4,,6+,30.44,,,TRUE,,,,,,,,OVC,2900,,,,,,,MVFR,,,,,,,,,,,,METAR,4
EGOV 160050Z AUTO 04005KT 9999 NCD 14/14 Q1027,EGOV,2025-08-16T00:50:00Z,53.252,-4.536,14,14,40,5,,6+,30.32,,,TRUE,,,,,,,,CLR,,,,,,,,VFR,,,,,,,,,,,,METAR,11
EGOS 160050Z AUTO 34003KT 7000 BR FEW025/// 13/12 Q1028,EGOS,2025-08-16T00:50:00Z,52.795,-2.665,13,12,340,3,,4.35,30.35,,,TRUE,,,,,,,BR,FEW,2500,,,,,,,MVFR,,,,,,,,,,,,METAR,76
EGOP 160050Z AUTO 07009KT 9999 NCD 18/13 Q1025,EGOP,2025-08-16T00:50:00Z,51.714,-4.367,18,13,70,9,,6+,30.27,,,TRUE,,,,,,,,CLR,,,,,,,,VFR,,,,,,,,,,,,METAR,8
EGOM 160050Z AUTO 08007KT 1500 BR OVC002/// 13/13 Q1030,EGOM,2025-08-16T00:50:00Z,55.05,-2.554,13,13,80,7,,0.93,30.41,,,TRUE,,,,,,,BR,OVC,200,,,,,,,LIFR,,,,,,,,,,,,METAR,286
EGNS 160050Z 02009KT CAVOK 16/13 Q1028,EGNS,2025-08-16T00:50:00Z,54.085,-4.632,16,13,20,9,,6+,30.35,,,,,,,,,,,CAVOK,,,,,,,,VFR,,,,,,,,,,,,METAR,18
EGJB 160050Z 07011KT CAVOK 19/16 Q1023,EGJB,2025-08-16T00:50:00Z,49.433,-2.598,19,16,70,11,,6+,30.21,,,,,,,,,,,CAVOK,,,,,,,,VFR,,,,,,,,,,,,METAR,102
EGDY 160050Z AUTO 02002KT 9999 NCD 17/14 Q1025,EGDY,2025-08-16T00:50:00Z,51.006,-2.643,17,14,20,2,,6+,30.27,,,TRUE,,,,,,,,CLR,,,,,,,,VFR,,,,,,,,,,,,METAR,21
EGDR 160050Z AUTO 07011KT 9999 NCD 18/14 Q1023,EGDR,2025-08-16T00:50:00Z,50.084,-5.257,18,14,70,11,,6+,30.21,,,TRUE,,,,,,,,CLR,,,,,,,,VFR,,,,,,,,,,,,METAR,74
EGDM 160050Z AUTO 09006KT 9999 NCD 18/14 Q1026,EGDM,2025-08-16T00:50:00Z,51.153,-1.75,18,14,90,6,,6+,30.30,,,TRUE,,,,,,,,CLR,,,,,,,,VFR,,,,,,,,,,,,METAR,122
EEEI 160050Z AUTO 27009KT 9999 -RA FEW005/// BKN007/// OVC025/// 18/17 Q1005,EEEI,2025-08-16T00:50:00Z,59.26,24.209,18,17,270,9,,6+,29.68,,,TRUE,,,,,,,-RA,FEW,500,BKN,700,OVC,2500,,,IFR,,,,,,,,,,,,METAR,19
EDLP 160050Z 28002KT 9999 FEW042 18/16 Q1023,EDLP,2025-08-16T00:50:00Z,51.614,8.616,18,16,280,2,,6+,30.21,,,,,,,,,,,FEW,4200,,,,,,,VFR,,,,,,,,,,,,METAR,211
PAPT 160049Z COR 35012G28KT 25SM BKN050 11/07 A2987 RMK NO SPECI.,PAPT,2025-08-16T00:49:00Z,62.087,-152.722,11,7,350,12,28,25,29.87,,TRUE,,,,,,,,,BKN,5000,,,,,,,VFR,,,,,,,,,,,,METAR,577
MMIA 160049Z 29010KT 6SM -RA BKN020 BKN120 23/21 A3010 RMK 8/420 INTMT -RA,MMIA,2025-08-16T00:49:00Z,19.276,-103.576,23,21,290,10,,6,30.10,,,,,,,,,,-RA,BKN,2000,BKN,12000,,,,,MVFR,,,,,,,,,,,,METAR,744
KTRK 160049Z 25014KT 10SM FEW120 SCT220 25/06 A3013,KTRK,2025-08-16T00:49:00Z,39.3154,-120.137,25,6,250,14,,10+,30.13,,,,,,,,,,,FEW,12000,SCT,22000,,,,,VFR,,,,,,,,,,,,METAR,1800
KTOA 160049Z 27010KT 10SM SCT015 BKN020 22/16 A2994,KTOA,2025-08-16T00:49:00Z,33.803,-118.336,22,16,270,10,,10+,29.94,,,,,,,,,,,SCT,1500,BKN,2000,,,,,MVFR,,,,,,,,,,,,METAR,30
KBKB 160049Z AUTO 00000KT 10SM CLR 24/23 A3002 RMK AO2 SLP193 T02390233,KBKB,2025-08-16T00:49:00Z,31.022,-92.911,23.9,23.3,0,0,,10+,30.02,1019.3,,TRUE,TRUE,,,,,,,CLR,,,,,,,,VFR,,,,,,,,,,,,METAR,74
MMLM 160048Z 20013KT 10SM FEW030 SCT220 32/24 A2992 RMK 8/501 DSNT CB N,MMLM,2025-08-16T00:48:00Z,25.688,-109.085,32,24,200,13,,10+,29.92,,,,,,,,,,,FEW,3000,SCT,22000,,,,,VFR,,,,,,,,,,,,METAR,6
KJDN 160048Z AUTO 08011G19KT 28/15 A2986 RMK AO1 SLP099 T02830150,KJDN,2025-08-16T00:48:00Z,47.3259,-106.949,28.3,15,80,11,19,,29.86,1009.9,,TRUE,TRUE,,,,,,,,,,,,,,,,,,,,,,,,,,,METAR,802
KIWA 160048Z 13010KT 10SM SCT150 36/14 A2987 RMK TCU DSNT ALQDS. LTG DSNT SW AND N.,KIWA,2025-08-16T00:48:00Z,33.3008,-111.644,36,14,130,10,,10+,29.87,,,,,,,,,,,SCT,15000,,,,,,,VFR,,,,,,,,,,,,METAR,420
KASG 160048Z 20008KT 10SM CLR 31/27 A3009,KASG,2025-08-16T00:48:00Z,36.1802,-94.1176,31,27,200,8,,10+,30.09,,,,,,,,,,,CLR,,,,,,,,VFR,,,,,,,,,,,,METAR,410
MMMZ 160047Z 00000KT 13SM FEW015 SCT025CB SCT090 OVC240 30/24 A2996 RMK 8/367 BINOVC,MMMZ,2025-08-16T00:47:00Z,23.161,-106.271,30,24,0,0,,13,29.96,,,,,,,,,,,FEW,1500,SCT,2500,SCT,9000,OVC,24000,VFR,,,,,,,,,,,,METAR,7
MMBT 160047Z 00000KT 6SM SCT220 30/24 A2994 RMK 8/001 HZY,MMBT,2025-08-16T00:47:00Z,15.775,-96.26,30,24,0,0,,6,29.94,,,,,,,,,,,SCT,22000,,,,,,,VFR,,,,,,,,,,,,METAR,137
KTIX 160047Z 16003KT 7SM SCT120 31/24 A3007,KTIX,2025-08-16T00:47:00Z,28.508,-80.798,31,24,160,3,,7,30.07,,,,,,,,,,,SCT,12000,,,,,,,VFR,,,,,,,,,,,,METAR,10
KSUN 160047Z 18010KT 10SM CLR 29/04 A3003,KSUN,2025-08-16T00:47:00Z,43.4969,-114.292,29,4,180,10,,10+,30.03,,,,,,,,,,,CLR,,,,,,,,VFR,,,,,,,,,,,,METAR,1619
KSUA 160047Z 13005KT 7SM CLR 29/26 A3005,KSUA,2025-08-16T00:47:00Z,27.1815,-80.2252,29,26,130,5,,7,30.05,,,,,,,,,,,CLR,,,,,,,,VFR,,,,,,,,,,,,METAR,4
KSQL 160047Z 26013G18KT 10SM SKC 22/14 A2994,KSQL,2025-08-16T00:47:00Z,37.5119,-122.248,22,14,260,13,18,10+,29.94,,,,,,,,,,,SKC,,,,,,,,VFR,,,,,,,,,,,,METAR,1
KSEE 160047Z 22009KT 10SM SKC 22/15 A2995,KSEE,2025-08-16T00:47:00Z,32.8273,-116.974,22,15,220,9,,10+,29.95,,,,,,,,,,,SKC,,,,,,,,VFR,,,,,,,,,,,,METAR,113
KRHV 160047Z 34011G18KT 10SM SKC 26/14 A2993,KRHV,2025-08-16T00:47:00Z,37.3331,-121.82,26,14,340,11,18,10+,29.93,,,,,,,,,,,SKC,,,,,,,,VFR,,,,,,,,,,,,METAR,37
KHSA 160047Z VRB05KT 10SM CLR A3008,KHSA,2025-08-16T00:47:00Z,30.3765,-89.4554,,,VRB,5,,10+,30.08,,,,,,,,,,,CLR,,,,,,,,VFR,,,,,,,,,,,,METAR,6
KGYR 160047Z 13010KT 10SM SCT180 BKN200 37/16 A2983,KGYR,2025-08-16T00:47:00Z,33.428,-112.368,37,16,130,10,,10+,29.83,,,,,,,,,,,SCT,18000,BKN,20000,,,,,VFR,,,,,,,,,,,,METAR,292
KGEU 160047Z 15012KT 10SM CLR 39/14 A2979,KGEU,2025-08-16T00:47:00Z,33.528,-112.293,39,14,150,12,,10+,29.79,,,,,,,,,,,CLR,,,,,,,,VFR,,,,,,,,,,,,METAR,319
KEVB 160047Z 16006KT 10SM FEW030 29/28 A3006,KEVB,2025-08-16T00:47:00Z,29.0568,-80.9491,29,28,160,6,,10+,30.06,,,,,,,,,,,FEW,3000,,,,,,,VFR,,,,,,,,,,,,METAR,2
KCHD 160047Z 19015KT 10SM SCT160 36/15 A2985,KCHD,2025-08-16T00:47:00Z,33.2669,-111.809,36,15,190,15,,10+,29.85,,,,,,,,,,,SCT,16000,,,,,,,VFR,,,,,,,,,,,,METAR,378
KBJC 160047Z 17007KT 10SM BKN120 29/04 A3010,KBJC,2025-08-16T00:47:00Z,39.9008,-105.104,29,4,170,7,,10+,30.10,,,,,,,,,,,BKN,12000,,,,,,,VFR,,,,,,,,,,,,METAR,1694
KAQV 160047Z AUTO 00000KT 10SM CLR 26/23 A3006 RMK AO2 SLP176 T02560228,KAQV,2025-08-16T00:47:00Z,31.396,-93.297,25.6,22.8,0,0,,10+,30.06,1017.6,,TRUE,TRUE,,,,,,,CLR,,,,,,,,VFR,,,,,,,,,,,,METAR,123
KADS 160047Z 15008KT 13SM SKC 35/20 A3001,KADS,2025-08-16T00:47:00Z,32.9634,-96.8354,35,20,150,8,,13,30.01,,,,,,,,,,,SKC,,,,,,,,VFR,,,,,,,,,,,,METAR,198
MMTG 160046Z 29006KT 10SM FEW030 29/21 A2999 RMK 8/400 DSTN CB NE,MMTG,2025-08-16T00:46:00Z,16.571,-93.03,29,21,290,6,,10+,29.99,,,,,,,,,,,FEW,3000,,,,,,,VFR,,,,,,,,,,,,METAR,463
MMPS 160046Z 32003KT 10SM SCT200 29/26 A3000 RMK 8/002 HZY,MMPS,2025-08-16T00:46:00Z,15.876,-97.093,29,26,320,3,,10+,30.00,,,,,,,,,,,SCT,20000,,,,,,,VFR,,,,,,,,,,,,METAR,65
MMMX 160046Z 05016KT 8SM -TSRA BKN020CB OVC080 16/12 A3039 TEMPO 4SM TSRA RMK 60005 8/96/ HZY OCNL LTGICCG W,MMMX,2025-08-16T00:46:00Z,19.436,-99.072,16,12,50,16,,8,30.39,,,,,,,,,,-TSRA,BKN,2000,OVC,8000,,,,,MVFR,,,,,,,,,,,,METAR,2224
MMCB 160046Z 00000KT 10SM SCT020TCU BKN200 25/16 A3019 RMK 8/202 DSNT CB 2ND QUAD,MMCB,2025-08-16T00:46:00Z,18.83,-99.265,25,16,0,0,,10+,30.19,,,,,,,,,,,SCT,2000,BKN,20000,,,,,VFR,,,,,,,,,,,,METAR,1281
MMAA 160046Z 25006KT 7SM SCT300 30/24 A2990 RMK 8/002 HZY,MMAA,2025-08-16T00:46:00Z,16.758,-99.754,30,24,250,6,,7,29.90,,,,,,,,,,,SCT,30000,,,,,,,VFR,,,,,,,,,,,,METAR,5
KSAW 160046Z 15004KT 10SM CLR 20/19 A3002,KSAW,2025-08-16T00:46:00Z,46.341,-87.395,20,19,150,4,,10+,30.02,,,,,,,,,,,CLR,,,,,,,,VFR,,,,,,,,,,,,METAR,359
KNRA 160046Z AUTO 17011G20KT 10SM -RA OVC012 19/17 A2977 RMK AO2 RAB37 SLP026 T01890172 TSNO PNO $,KNRA,2025-08-16T00:46:00Z,48.1892,-122.633,18.9,17.2,170,11,20,10+,29.77,1002.6,,TRUE,TRUE,TRUE,,TRUE,,,-RA,OVC,1200,,,,,,,MVFR,,,,,,,,,,,,METAR,61
KLGD 160046Z 29013KT 10SM FEW095 29/11 A2990,KLGD,2025-08-16T00:46:00Z,45.2906,-118.009,29,11,290,13,,10+,29.90,,,,,,,,,,,FEW,9500,,,,,,,VFR,,,,,,,,,,,,METAR,827
PALP 160045Z 34005KT 10SM BKN010 OVC014 04/02 A3004,PALP,2025-08-16T00:45:00Z,70.348,-150.928,4,2,340,5,,10+,30.04,,,,,,,,,,,BKN,1000,OVC,1400,,,,,MVFR,,,,,,,,,,,,METAR,4
PAKU 160045Z 31006KT 7SM R24/P6000FT BKN009 OVC033 02/01 A3004,PAKU,2025-08-16T00:45:00Z,70.331,-149.613,2,1,310,6,,7,30.04,,,,,,,,,,,BKN,900,OVC,3300,,,,,IFR,,,,,,,,,,,,METAR,23
MMVR 160045Z 07003KT 6SM SCT250 29/25 A2996 RMK 8/001 HZY,MMVR,2025-08-16T00:45:00Z,19.144,-96.189,29,25,70,3,,6,29.96,,,,,,,,,,,SCT,25000,,,,,,,VFR,,,,,,,,,,,,METAR,26
MMMD 160045Z 07005KT 5SM -RA SCT015 BKN070 BKN300 26/24 A3002 RMK 8/463 -RAB41,MMMD,2025-08-16T00:45:00Z,20.936,-89.659,26,24,70,5,,5,30.02,,,,,,,,,,-RA,SCT,1500,BKN,7000,BKN,30000,,,MVFR,,,,,,,,,,,,METAR,10
MMGL 160045Z 32003KT 8SM TS SCT010 BKN020CB OVC080 22/16 A3025 RMK 8/96/ OCNL LTGIC PCPN W/WNW,MMGL,2025-08-16T00:45:00Z,20.523,-103.312,22,16,320,3,,8,30.25,,,,,,,,,,TS,SCT,1000,BKN,2000,OVC,8000,,,MVFR,,,,,,,,,,,,METAR,1531
MMCV 160045Z 16005G15KT 8SM FEW020 BKN200 32/21 A2995 RMK 8/508 HZY,MMCV,2025-08-16T00:45:00Z,23.706,-98.959,32,21,160,5,15,8,29.95,,,,,,,,,,,FEW,2000,BKN,20000,,,,,VFR,,,,,,,,,,,,METAR,230
MMCM 160045Z 00000KT 7SM BKN015CB BKN080 25/23 A3000 RMK 8/330,MMCM,2025-08-16T00:45:00Z,18.504,-88.326,25,23,0,0,,7,30.00,,,,,,,,,,,BKN,1500,BKN,8000,,,,,MVFR,,,,,,,,,,,,METAR,10
LHSM 160045Z AUTO VRB03KT CAVOK 19/15 Q1016,LHSM,2025-08-16T00:45:00Z,46.689,17.161,19,15,VRB,3,,6+,30.00,,,TRUE,,,,,,,,CAVOK,,,,,,,,VFR,,,,,,,,,,,,METAR,119
LHPR 160045Z AUTO 29003KT 260V320 CAVOK 17/15 Q1016,LHPR,2025-08-16T00:45:00Z,47.627,17.808,17,15,290,3,,6+,30.00,,,TRUE,,,,,,,,CAVOK,,,,,,,,VFR,,,,,,,,,,,,METAR,127
LHPP 160045Z AUTO 34008KT CAVOK 22/12 Q1016,LHPP,2025-08-16T00:45:00Z,45.991,18.241,22,12,340,8,,6+,30.00,,,TRUE,,,,,,,,CAVOK,,,,,,,,VFR,,,,,,,,,,,,METAR,193
LHPA 160045Z 16004KT CAVOK 18/15 Q1017 NOSIG RMK BLU,LHPA,2025-08-16T00:45:00Z,47.362,17.494,18,15,160,4,,6+,30.03,,,,,,TRUE,,,,,CAVOK,,,,,,,,VFR,,,,,,,,,,,,METAR,143
LHNY 160045Z AUTO 00000KT CAVOK 16/15 Q1016,LHNY,2025-08-16T00:45:00Z,47.984,21.6916,16,15,0,0,,6+,30.00,,,TRUE,,,,,,,,CAVOK,,,,,,,,VFR,,,,,,,,,,,,METAR,99
LHKE 160045Z 00000KT CAVOK 21/13 Q1016 NOSIG RMK BLU,LHKE,2025-08-16T00:45:00Z,46.917,19.749,21,13,0,0,,6+,30.00,,,,,,TRUE,,,,,CAVOK,,,,,,,,VFR,,,,,,,,,,,,METAR,113
LHDC 160045Z AUTO VRB02KT CAVOK 20/15 Q1016,LHDC,2025-08-16T00:45:00Z,47.489,21.615,20,15,VRB,2,,6+,30.00,,,TRUE,,,,,,,,CAVOK,,,,,,,,VFR,,,,,,,,,,,,METAR,105
KWDG 160045Z 17014G19KT 10SM CLR 34/20 A2997,KWDG,2025-08-16T00:45:00Z,36.3781,-97.7888,34,20,170,14,19,10+,29.97,,,,,,,,,,,CLR,,,,,,,,VFR,,,,,,,,,,,,METAR,352
KUES 160045Z 14005KT 7SM CLR 26/21 A3008,KUES,2025-08-16T00:45:00Z,43.0425,-88.2465,26,21,140,5,,7,30.08,,,,,,,,,,,CLR,,,,,,,,VFR,,,,,,,,,,,,METAR,273
KSWF 160045Z 16004KT 7SM BKN070 27/19 A3015,KSWF,2025-08-16T00:45:00Z,41.5045,-74.0999,27,19,160,4,,7,30.15,,,,,,,,,,,BKN,7000,,,,,,,VFR,,,,,,,,,,,,METAR,139
KRYN 160045Z VRB06G15KT 10SM BKN120 33/12 A2995,KRYN,2025-08-16T00:45:00Z,32.1418,-111.177,33,12,VRB,6,15,10+,29.95,,,,,,,,,,,BKN,12000,,,,,,,VFR,,,,,,,,,,,,METAR,731
KOUN 160045Z 15009KT 10SM CLR 33/20 A2999,KOUN,2025-08-16T00:45:00Z,35.2436,-97.4713,33,20,150,9,,10+,29.99,,,,,,,,,,,CLR,,,,,,,,VFR,,,,,,,,,,,,METAR,359
KMWC 160045Z 00000KT 10SM CLR 26/21 A3008,KMWC,2025-08-16T00:45:00Z,43.1095,-88.0343,26,21,0,0,,10+,30.08,,,,,,,,,,,CLR,,,,,,,,VFR,,,,,,,,,,,,METAR,225
KMMU 160045Z 00000KT 10SM SKC 24/21 A3016,KMMU,2025-08-16T00:45:00Z,40.7989,-74.4164,24,21,0,0,,10+,30.16,,,,,,,,,,,SKC,,,,,,,,VFR,,,,,,,,,,,,METAR,55
KLBE 160045Z 00000KT 10SM CLR 25/19 A3016,KLBE,2025-08-16T00:45:00Z,40.2767,-79.4039,25,19,0,0,,10+,30.16,,,,,,,,,,,CLR,,,,,,,,VFR,,,,,,,,,,,,METAR,345
KFMH 160045Z 06006KT 10SM CLR 18/17 A3021,KFMH,2025-08-16T00:45:00Z,41.6608,-70.5221,18,17,60,6,,10+,30.21,,,,,,,,,,,CLR,,,,,,,,VFR,,,,,,,,,,,,METAR,35
KESN 160045Z 08006KT 10SM CLR 26/23 A3011,KESN,2025-08-16T00:45:00Z,38.804,-76.069,26,23,80,6,,10+,30.11,,,,,,,,,,,CLR,,,,,,,,VFR,,,,,,,,,,,,METAR,14
KEMT 160045Z 19010KT 10SM CLR 26/16 A2993,KEMT,2025-08-16T00:45:00Z,34.0882,-118.034,26,16,190,10,,10+,29.93,,,,,,,,,,,CLR,,,,,,,,VFR,,,,,,,,,,,,METAR,84
KCGF 160045Z 07003KT 10SM CLR 24/16 A3015,KCGF,2025-08-16T00:45:00Z,41.566,-81.4827,24,16,70,3,,10+,30.15,,,,,,,,,,,CLR,,,,,,,,VFR,,,,,,,,,,,,METAR,265
KBAK 160045Z 05005KT 10SM CLR 27/23 A3009,KBAK,2025-08-16T00:45:00Z,39.2664,-85.8926,27,23,50,5,,10+,30.09,,,,,,,,,,,CLR,,,,,,,,VFR,,,,,,,,,,,,METAR,199
KATW 160045Z 21006KT 10SM SCT120 28/21 A3005,KATW,2025-08-16T00:45:00Z,44.2519,-88.526,28,21,210,6,,10+,30.05,,,,,,,,,,,SCT,12000,,,,,,,VFR,,,,,,,,,,,,METAR,266
KANE 160045Z 14006KT 10SM SCT070 22/21 A3000,KANE,2025-08-16T00:45:00Z,45.1426,-93.2127,22,21,140,6,,10+,30.00,,,,,,,,,,,SCT,7000,,,,,,,VFR,,,,,,,,,,,,METAR,276
PAVA 160044Z AUTO 25013KT 10SM FEW009 SCT014 OVC028 10/08 A3017 RMK AO2,PAVA,2025-08-16T00:44:00Z,61.537,-165.604,10,8,250,13,,10+,30.17,,,TRUE,TRUE,,,,,,,FEW,900,SCT,1400,OVC,2800,,,MVFR,,,,,,,,,,,,SPECI,14
MMSM 160044Z 10015KT 5SM -RA BKN020CB BKN080 OVC220 14/12 A3039 RMK 8/963 VIS 3 SM E,MMSM,2025-08-16T00:44:00Z,19.763,-99.002,14,12,100,15,,5,30.39,,,,,,,,,,-RA,BKN,2000,BKN,8000,OVC,22000,,,MVFR,,,,,,,,,,,,METAR,2250
MMPB 160044Z 32008KT 9SM SCT020CB BKN090 BKN230 14/12 A3043 RMK 8/963 HZY RAE30 OCNL DROPS,MMPB,2025-08-16T00:44:00Z,19.17,-98.371,14,12,320,8,,9,30.43,,,,,,,,,,,SCT,2000,BKN,9000,BKN,23000,,,VFR,,,,,,,,,,,,METAR,2250
MMMA 160044Z 10011KT 10SM BKN015 OVC080 28/26 A2996 RMK 8/57/ BINOVC,MMMA,2025-08-16T00:44:00Z,25.77,-97.523,28,26,100,11,,10+,29.96,,,,,,,,,,,BKN,1500,OVC,8000,,,,,MVFR,,,,,,,,,,,,METAR,7
MMLT 160044Z 16011KT 8SM SCT240 33/26 A2987 RMK 8/008 HZY,MMLT,2025-08-16T00:44:00Z,25.993,-111.35,33,26,160,11,,8,29.87,,,,,,,,,,,SCT,24000,,,,,,,VFR,,,,,,,,,,,,METAR,4
MMHO 160044Z 02005KT 10SM SCT030CB SCT090 BKN200 29/21 A2993 RMK 8/963 FQT LTGCC -RAE38 OCNL DROPS ISOL SC,MMHO,2025-08-16T00:44:00Z,29.097,-111.051,29,21,20,5,,10+,29.93,,,,,,,,,,,SCT,3000,SCT,9000,BKN,20000,,,VFR,,,,,,,,,,,,METAR,186
MMZO 160043Z 00000KT 10SM SCT030 BKN200 30/25 A2992 RMK 8/802 DSTN CB NE,MMZO,2025-08-16T00:43:00Z,19.147,-104.565,30,25,0,0,,10+,29.92,,,,,,,,,,,SCT,3000,BKN,20000,,,,,VFR,,,,,,,,,,,,METAR,11
MMLP 160043Z 24011KT 10SM FEW040 SCT120 SCT200 32/20 A2996 RMK 8/438,MMLP,2025-08-16T00:43:00Z,24.077,-110.364,32,20,240,11,,10+,29.96,,,,,,,,,,,FEW,4000,SCT,12000,SCT,20000,,,VFR,,,,,,,,,,,,METAR,16
MMLO 160043Z 29008KT 10SM TS BKN030CB BKN120 OVC250 19/15 A3034 RMK 60105 8/963 ALQDS PCPN,MMLO,2025-08-16T00:43:00Z,20.997,-101.481,19,15,290,8,,10+,30.34,,,,,,,,,,TS,BKN,3000,BKN,12000,OVC,25000,,,MVFR,,,,,,,,,,,,METAR,1805
MMTC 160042Z 00000KT 10SM SCT035CB SCT110 BKN250 35/11 A3000 RMK 8/372,MMTC,2025-08-16T00:42:00Z,25.564,-103.408,35,11,0,0,,10+,30.00,,,,,,,,,,,SCT,3500,SCT,11000,BKN,25000,,,VFR,,,,,,,,,,,,METAR,1128
MMCZ 160042Z 07004KT 7SM FEW015 29/26 A3002 RMK 8/500 CI,MMCZ,2025-08-16T00:42:00Z,20.516,-86.932,29,26,70,4,,7,30.02,,,,,,,,,,,FEW,1500,,,,,,,VFR,,,,,,,,,,,,METAR,7
MMMM 160041Z 17004KT 8SM SCT030 SCT090 BKN230 20/12 A3031 RMK 8/578,MMMM,2025-08-16T00:41:00Z,19.844,-101.037,20,12,170,4,,8,30.31,,,,,,,,,,,SCT,3000,SCT,9000,BKN,23000,,,VFR,,,,,,,,,,,,METAR,1840
MMDO 160041Z 04006KT 8SM SCT035CB BKN070 BKN210 20/13 A3030 RMK 8/963 PCPN N LTGICCG,MMDO,2025-08-16T00:41:00Z,24.124,-104.532,20,13,40,6,,8,30.30,,,,,,,,,,,SCT,3500,BKN,7000,BKN,21000,,,VFR,,,,,,,,,,,,METAR,1863
MMCU 160041Z 31009KT 10SM SCT030CB BKN080 BKN200 29/15 A3015 RMK 8/368,MMCU,2025-08-16T00:41:00Z,28.701,-105.965,29,15,310,9,,10+,30.15,,,,,,,,,,,SCT,3000,BKN,8000,BKN,20000,,,VFR,,,,,,,,,,,,METAR,1349
MMZC 160040Z E17011KT 8SM BKN040TCU 25/12 A3027 RMK 8/200,MMZC,2025-08-16T00:40:00Z,22.904,-102.68,25,12,170,11,,8,30.27,,,,,,,,,,,BKN,4000,,,,,,,VFR,,,,,,,,,,,,METAR,2175
MMVA 160040Z 06011KT 7SM SKC 32/26 A2992 RMK HZY,MMVA,2025-08-16T00:40:00Z,17.998,-92.817,32,26,60,11,,7,29.92,,,,,,,,,,,SKC,,,,,,,,VFR,,,,,,,,,,,,METAR,13
MMUN 160040Z 00000KT 7SM FEW015 SCT250 29/26 A3003 RMK 8/401 ISOL TCU,MMUN,2025-08-16T00:40:00Z,21.038,-86.855,29,26,0,0,,7,30.03,,,,,,,,,,,FEW,1500,SCT,25000,,,,,VFR,,,,,,,,,,,,METAR,13
MMTP 160040Z 22002KT 6SM SCT020 BKN070 BKN200 30/25 A2994 RMK 8/463 TWR DSNT CB E HZY,MMTP,2025-08-16T00:40:00Z,14.795,-92.371,30,25,220,2,,6,29.94,,,,,,,,,,,SCT,2000,BKN,7000,BKN,20000,,,VFR,,,,,,,,,,,,METAR,27
MMTM 160040Z 10006KT 7SM FEW015 BKN200 29/26 A2995 RMK 8/108 HZY,MMTM,2025-08-16T00:40:00Z,22.29,-97.863,29,26,100,6,,7,29.95,,,,,,,,,,,FEW,1500,BKN,20000,,,,,VFR,,,,,,,,,,,,METAR,21
MMSP 160040Z 10011KT 9SM SCT030CB 26/10 A3026 RMK 8/300 CI,MMSP,2025-08-16T00:40:00Z,22.256,-100.93,26,10,100,11,,9,30.26,,,,,,,,,,,SCT,3000,,,,,,,VFR,,,,,,,,,,,,METAR,1841
MMRX 160040Z 08010KT 7SM SCT040 BKN130 OVC250 27/25 A2993 RMK 60025 8/863 RA INTMT,MMRX,2025-08-16T00:40:00Z,26.01,-98.232,27,25,80,10,,7,29.93,,,,,,,,,,,SCT,4000,BKN,13000,OVC,25000,,,VFR,,,,,,,,0.25,,,,METAR,45
MMPR 160040Z 36005KT 12SM SCT030CB BKN070 OVC200 29/23 A2999 RMK 8/963,MMPR,2025-08-16T00:40:00Z,20.68,-105.25,29,23,360,5,,12,29.99,,,,,,,,,,,SCT,3000,BKN,7000,OVC,20000,,,VFR,,,,,,,,,,,,METAR,6
MMPQ 160040Z 00000KT 6SM OVC100 33/24 A2984 RMK 8/01/ HZY,MMPQ,2025-08-16T00:40:00Z,17.534,-92.017,33,24,0,0,,6,29.84,,,,,,,,,,,OVC,10000,,,,,,,VFR,,,,,,,,,,,,METAR,48
MMPN 160040Z 00000KT 8SM OVC100 19/17 A3027 RMK 8/07/ HZY CB,MMPN,2025-08-16T00:40:00Z,19.396,-102.041,19,17,0,0,,8,30.27,,,,,,,,,,,OVC,10000,,,,,,,VFR,,,,,,,,,,,,METAR,1602
MMPA 160040Z 09008KT 6SM BKN300 30/23 A2994 RMK 8/003 DSTN CB SW HZY,MMPA,2025-08-16T00:40:00Z,20.601,-97.459,30,23,90,8,,6,29.94,,,,,,,,,,,BKN,30000,,,,,,,VFR,,,,,,,,,,,,METAR,153
MMOX 160040Z 12007KT 10SM BKN025 BKN200 25/11 A3024 RMK 8/502 HZY,MMOX,2025-08-16T00:40:00Z,17.002,-96.724,25,11,120,7,,10+,30.24,,,,,,,,,,,BKN,2500,BKN,20000,,,,,MVFR,,,,,,,,,,,,METAR,1528
MMNL 160040Z 11020KT 10SM SCT030 BKN220 33/22 A2991 RMK 8/102,MMNL,2025-08-16T00:40:00Z,27.448,-99.574,33,22,110,20,,10+,29.91,,,,,,,,,,,SCT,3000,BKN,22000,,,,,VFR,,,,,,,,,,,,METAR,146
MMMY 160040Z 08005KT 8SM SCT030 BKN100 OVC200 33/19 A2996 RMK 8/577 HZY,MMMY,2025-08-16T00:40:00Z,25.774,-100.104,33,19,80,5,,8,29.96,,,,,,,,,,,SCT,3000,BKN,10000,OVC,20000,,,VFR,,,,,,,,,,,,METAR,382
MMMT 160040Z 02009KT 5SM SKC 29/25 A2994 RMK HZY,MMMT,2025-08-16T00:40:00Z,18.098,-94.583,29,25,20,9,,5,29.94,,,,,,,,,,,SKC,,,,,,,,MVFR,,,,,,,,,,,,METAR,15
MMGM 160040Z 25010KT 10SM FEW030 33/27 A2985 RMK 8/100,MMGM,2025-08-16T00:40:00Z,27.964,-110.928,33,27,250,10,,10+,29.85,,,,,,,,,,,FEW,3000,,,,,,,VFR,,,,,,,,,,,,METAR,13
MMCS 160040Z 24008KT 10SM FEW050 SCT100 SCT200 31/13 A3011 RMK 8/172,MMCS,2025-08-16T00:40:00Z,31.636,-106.427,31,13,240,8,,10+,30.11,,,,,,,,,,,FEW,5000,SCT,10000,SCT,20000,,,VFR,,,,,,,,,,,,METAR,1194
MMCP 160040Z 08005KT 5SM BKN040CB 25/23 A3002 RMK 8/300,MMCP,2025-08-16T00:40:00Z,19.817,-90.502,25,23,80,5,,5,30.02,,,,,,,,,,,BKN,4000,,,,,,,MVFR,,,,,,,,,,,,METAR,9
MMCN 160040Z 04004KT 10SM FEW100 FEW200 32/22 A2992 RMK 8/063 HZY DSNT CB SE,MMCN,2025-08-16T00:40:00Z,27.395,-109.837,32,22,40,4,,10+,29.92,,,,,,,,,,,FEW,10000,FEW,20000,,,,,VFR,,,,,,,,,,,,METAR,57
MMCE 160040Z 04010KT 7SM SCT090 SCT280 30/26 A2998 RMK 8/068,MMCE,2025-08-16T00:40:00Z,18.651,-91.8,30,26,40,10,,7,29.98,,,,,,,,,,,SCT,9000,SCT,28000,,,,,VFR,,,,,,,,,,,,METAR,5
MMAS 160040Z 17006KT 9SM SCT020 SCT100 BKN200 19/16 A3029 RMK 8/138 HZY,MMAS,2025-08-16T00:40:00Z,21.702,-102.318,19,16,170,6,,9,30.29,,,,,,,,,,,SCT,2000,SCT,10000,BKN,20000,,,VFR,,,,,,,,,,,,METAR,1866
MMAN 160040Z 07008KT 8SM SCT100 BKN200 32/19 A2997 RMK 8/078 HZY,MMAN,2025-08-16T00:40:00Z,25.865,-100.239,32,19,70,8,,8,29.97,,,,,,,,,,,SCT,10000,BKN,20000,,,,,VFR,,,,,,,,,,,,METAR,447
CYHA 160039Z 17012G17KT 15SM SCT097 OVC130 06/02 A3002 RMK AC3AC5 LAST OBS/NEXT 161200 UTC SLP170,CYHA,2025-08-16T00:39:00Z,61.048,-69.624,6,2,170,12,17,15,30.02,1017,,,,,,,,,,SCT,9700,OVC,13000,,,,,VFR,,,,,,,,,,,,SPECI,31
RKTP 160031Z 18007KT 9999 SCT010 SCT025 BKN200 29/26 A2997 RMK CIG200,RKTP,2025-08-16T00:31:00Z,36.704,126.486,29,26,180,7,,6+,29.97,,,,,,,,,,,SCT,1000,SCT,2500,BKN,20000,,,VFR,,,,,,,,,,,,SPECI,13
WIHH 160030Z 07007KT 4000 HZ NSC 25/21 Q1009 NOSIG,WIHH,2025-08-16T00:30:00Z,-6.267,106.891,25,21,70,7,,2.49,29.79,,,,,,TRUE,,,,HZ,CLR,,,,,,,,IFR,,,,,,,,,,,,METAR,26
WAMM 160030Z 06004KT 010V110 9999 FEW020 30/23 Q1012 NOSIG,WAMM,2025-08-16T00:30:00Z,1.541,124.926,30,23,60,4,,6+,29.88,,,,,,TRUE,,,,,FEW,2000,,,,,,,VFR,,,,,,,,,,,,METAR,86
VYMD 160030Z 00000KT 5000 -RA BKN017 FEW020CB BKN100 27/26 Q1002,VYMD,2025-08-16T00:30:00Z,21.702,95.978,27,26,0,0,,3.11,29.59,,,,,,,,,,-RA,BKN,1700,FEW,2000,BKN,10000,,,MVFR,,,,,,,,,,,,METAR,87
VOPB 160030Z VRB02KT 5000 VCSH SCT010 FEW022TCU OVC080 25/24 Q1004 TEMPO 4000 -RA/DZ,VOPB,2025-08-16T00:30:00Z,11.641,92.73,25,24,VRB,2,,3.11,29.65,,,,,,,,,,VCSH,SCT,1000,FEW,2200,OVC,8000,,,MVFR,,,,,,,,,,,,METAR,1
VEBU 160030Z 00000KT 3000 BR SCT018 BKN090 26/24 Q1000 NOSIG,VEBU,2025-08-16T00:30:00Z,21.988,82.111,26,24,0,0,,1.86,29.53,,,,,,TRUE,,,,BR,SCT,1800,BKN,9000,,,,,IFR,,,,,,,,,,,,METAR,274
CYMJ 160030Z 08012KT 15SM BKN090 OVC150 19/07 A3000 RMK ACC7AC1 DENSITY ALT 2839FT LAST OBS /NEXT 172000 UTC SLP169,CYMJ,2025-08-16T00:30:00Z,50.33,-105.559,19,7,80,12,,15,30.00,1016.9,,,,,,,,,,BKN,9000,OVC,15000,,,,,VFR,,,,,,,,,,,,SPECI,578
ETNW 160020Z 31008KT 9999 BKN015 19/16 Q1022 WHT FCST CNL,ETNW,2025-08-16T00:20:00Z,52.457,9.427,19,16,310,8,,6+,30.18,,,,,,,,,,,BKN,1500,,,,,,,MVFR,,,,,,,,,,,,METAR,57
