No errors
No warnings
99 ms
data source=metars
5073 results
raw_text,station_id,observation_time,latitude,longitude,temp_c,dewpoint_c,wind_dir_degrees,wind_speed_kt,wind_gust_kt,visibility_statute_mi,altim_in_hg,sea_level_pressure_mb,corrected,auto,auto_station,maintenance_indicator_on,no_signal,lightning_sensor_off,freezing_rain_sensor_off,present_weather_sensor_off,wx_string,sky_cover,cloud_base_ft_agl,sky_cover,cloud_base_ft_agl,sky_cover,cloud_base_ft_agl,sky_cover,cloud_base_ft_agl,flight_category,three_hr_pressure_tendency_mb,maxT_c,minT_c,maxT24hr_c,minT24hr_c,precip_in,pcp3hr_in,pcp6hr_in,pcp24hr_in,snow_in,vert_vis_ft,metar_type,elevation_m
KQFX 141840Z AUTO M0400 FG CLR 22/22 A3000 RMK A02 TSNO,KQFX,2025-08-14T18:40:00Z,-99.99,-99.99,22,22,,,,0.25,30.00,,,TRUE,TRUE,,,TRUE,,,FG,CLR,,,,,,,,LIFR,,,,,,,,,,,,METAR,9999
KQFV 141840Z AUTO 12001KT 0800 BR OVC002 21/21 A3008 RMK A02 TSNO,KQFV,2025-08-14T18:40:00Z,-99.99,-99.99,21,21,120,1,,0.5,30.08,,,TRUE,TRUE,,,TRUE,,,BR,OVC,200,,,,,,,LIFR,,,,,,,,,,,,METAR,9999
KQFU 141840Z AUTO 00000KT M0400 FG CLR 23/23 A3006 RMK A02 TSNO,KQFU,2025-08-14T18:40:00Z,-99.99,-99.99,23,23,0,0,,0.25,30.06,,,TRUE,TRUE,,,TRUE,,,FG,CLR,,,,,,,,LIFR,,,,,,,,,,,,METAR,9999
KQFB 141840Z AUTO 29002KT 9999 BKN002 24/24 A3007 RMK A02 TSNO,KQFB,2025-08-14T18:40:00Z,-99.99,-99.99,24,24,290,2,,6+,30.07,,,TRUE,TRUE,,,TRUE,,,,BKN,200,,,,,,,LIFR,,,,,,,,,,,,METAR,9999
KQEX 141840Z AUTO 03001KT 9999 FEW170 26/25 A2993 RMK A02 TSNO,KQEX,2025-08-14T18:40:00Z,-99.99,-99.99,26,25,30,1,,6+,29.93,,,TRUE,TRUE,,,TRUE,,,,FEW,17000,,,,,,,VFR,,,,,,,,,,,,METAR,9999
KQEW 141840Z AUTO 24001KT 9999 // FEW170 26/23 A3001 RMK A02 TSNO,KQEW,2025-08-14T18:40:00Z,-99.99,-99.99,26,23,240,1,,6+,30.01,,,TRUE,TRUE,,,TRUE,,,,FEW,17000,,,,,,,VFR,,,,,,,,,,,,METAR,9999
KQEQ 141840Z AUTO 15001KT 1200 BR BKN004 BKN027 BKN110 22/22 A3004 RMK A02 TSNO,KQEQ,2025-08-14T18:40:00Z,-99.99,-99.99,22,22,150,1,,0.75,30.04,,,TRUE,TRUE,,,TRUE,,,BR,BKN,400,BKN,2700,BKN,11000,,,LIFR,,,,,,,,,,,,METAR,9999
KQEP 141840Z AUTO 18001KT 1200 BR OVC002 23/23 A3004 RMK A02 TSNO,KQEP,2025-08-14T18:40:00Z,-99.99,-99.99,23,23,180,1,,0.75,30.04,,,TRUE,TRUE,,,TRUE,,,BR,OVC,200,,,,,,,LIFR,,,,,,,,,,,,METAR,9999
KQEI 141840Z AUTO 13001KT 0400 FG BKN004 22/23 A3003 RMK A02 TSNO,KQEI,2025-08-14T18:40:00Z,-99.99,-99.99,22,23,130,1,,0.25,30.03,,,TRUE,TRUE,,,TRUE,,,FG,BKN,400,,,,,,,LIFR,,,,,,,,,,,,METAR,9999
KAFP 141839Z AUTO 14005KT 5SM +RA SCT035 SCT050 SCT065 30/22 A2998 RMK AO2 T03010219,KAFP,2025-08-14T18:39:00Z,35.0194,-80.0784,30.1,21.9,140,5,,5,29.98,,,TRUE,TRUE,,,,,,+RA,SCT,3500,SCT,5000,SCT,6500,,,MVFR,,,,,,,,,,,,METAR,91
CYKJ 141839Z AUTO 04010G18KT 7SM -RA BKN009 BKN014 OVC023 08/08 A2962 RMK SLP048,CYKJ,2025-08-14T18:39:00Z,57.256,-105.618,8,8,40,10,18,7,29.62,1004.8,,TRUE,,,,,,,-RA,BKN,900,BKN,1400,OVC,2300,,,IFR,,,,,,,,,,,,SPECI,519
YAMB 141838Z AUTO 32007KT 9999 // NCD 05/05 Q1019,YAMB,2025-08-14T18:38:00Z,-27.63,152.711,5,5,320,7,,6+,30.09,,,TRUE,,,,,,,,CLR,,,,,,,,VFR,,,,,,,,,,,,SPECI,26
SPST 141838Z 19008KT 8000 VCSH SCT015TCU BKN070 24/22 Q1013,SPST,2025-08-14T18:38:00Z,-6.509,-76.373,24,22,190,8,,4.97,29.91,,,,,,,,,,VCSH,SCT,1500,BKN,7000,,,,,MVFR,,,,,,,,,,,,SPECI,282
KMYR 141838Z 16011KT 10SM VCTS -RA FEW070 BKN090 OVC110 28/26 A2998 RMK AO2 LTG DSNT ALQDS TSB30RAB33 P0000 $,KMYR,2025-08-14T18:38:00Z,33.6769,-78.9325,28,26,160,11,,10+,29.98,,,,TRUE,TRUE,,,,,VCTS -RA,FEW,7000,BKN,9000,OVC,11000,,,VFR,,,,,,0.005,,,,,,SPECI,7
CYVL 141838Z AUTO 19013KT 140V210 9SM CLR 20/09 A2982 RMK SLP107 DENSITY ALT 1900FT,CYVL,2025-08-14T18:38:00Z,67.021,-126.129,20,9,190,13,,9,29.82,1010.7,,TRUE,,,,,,,,CLR,,,,,,,,VFR,,,,,,,,,,,,SPECI,261
CYNA 141838Z AUTO 25009KT 3/8SM FG VV003 18/17 A2978 RMK SLP087 DENSITY ALT 600FT,CYNA,2025-08-14T18:38:00Z,50.19,-61.789,18,17,250,9,,0.38,29.78,1008.7,,TRUE,,,,,,,FG,OVX,0,,,,,,,LIFR,,,,,,,,,,,300,SPECI,9
BIAR 141838Z 35009G19KT 9999 BKN046 12/07 Q1014,BIAR,2025-08-14T18:38:00Z,65.655,-18.069,12,7,350,9,19,6+,29.94,,,,,,,,,,,BKN,4600,,,,,,,VFR,,,,,,,,,,,,SPECI,1
KPTN 141837Z AUTO 14006KT 10SM TS FEW030 BKN036 OVC044 31/26 A3003 RMK AO2 LTG DSNT N TSE04B26 $,KPTN,2025-08-14T18:37:00Z,29.71,-91.3381,31,26,140,6,,10+,30.03,,,TRUE,TRUE,TRUE,,,,,TS,FEW,3000,BKN,3600,OVC,4400,,,VFR,,,,,,,,,,,,SPECI,2
KLLQ 141837Z AUTO 00000KT 10SM VCTS FEW040 FEW046 SCT065 34/22 A2997 RMK AO2 LTG DSNT E T03440217 $,KLLQ,2025-08-14T18:37:00Z,33.636,-91.7555,34.4,21.7,0,0,,10+,29.97,,,TRUE,TRUE,TRUE,,,,,VCTS,FEW,4000,FEW,4600,SCT,6500,,,VFR,,,,,,,,,,,,SPECI,86
KCAE 141837Z 35003KT 6SM -RA FEW025 BKN037 OVC060 28/24 A2997 RMK AO2 RAB09 P0000 T02780244,KCAE,2025-08-14T18:37:00Z,33.9422,-81.118,27.8,24.4,350,3,,6,29.97,,,,TRUE,,,,,,-RA,FEW,2500,BKN,3700,OVC,6000,,,VFR,,,,,,0.005,,,,,,SPECI,69
CYQG 141837Z AUTO 09005KT 070V140 5SM HZ CLR 27/17 A3007 RMK SLP180 DENSITY ALT 2100FT,CYQG,2025-08-14T18:37:00Z,42.269,-82.963,27,17,90,5,,5,30.07,1018,,TRUE,,,,,,,HZ,CLR,,,,,,,,MVFR,,,,,,,,,,,,SPECI,189
SBTT 141836Z 08011KT 4000 TSRA BKN026 FEW030CB 25/21 Q1013 RESHRA,SBTT,2025-08-14T18:36:00Z,-4.254,-69.939,25,21,80,11,,2.49,29.91,,,,,,,,,,TSRA,BKN,2600,FEW,3000,,,,,IFR,,,,,,,,,,,,SPECI,79
PATA 141836Z 14003KT 7SM -RA BKN009 OVC060 13/12 A2976 RMK AO2 P0000 T01280117 $,PATA,2025-08-14T18:36:00Z,65.173,-152.107,12.8,11.7,140,3,,7,29.76,,,,TRUE,TRUE,,,,,-RA,BKN,900,OVC,6000,,,,,IFR,,,,,,0.005,,,,,,SPECI,62
KTVR 141836Z AUTO 30007G14KT 260V330 7SM -TSRA FEW033 BKN040 OVC080 27/23 A2999 RMK AO2 LTG DSNT ALQDS RAB29 TSE29 P0000 T02670228,KTVR,2025-08-14T18:36:00Z,32.3481,-91.0299,26.7,22.8,300,7,14,7,29.99,,,TRUE,TRUE,,,,,,-TSRA,FEW,3300,BKN,4000,OVC,8000,,,VFR,,,,,,0.005,,,,,,SPECI,25
KSBY 141836Z 32003KT 10SM VCTS SCT041 32/22 A2991 RMK AO2 T03170222,KSBY,2025-08-14T18:36:00Z,38.3409,-75.5132,31.7,22.2,320,3,,10+,29.91,,,,TRUE,,,,,,VCTS,SCT,4100,,,,,,,VFR,,,,,,,,,,,,SPECI,14
KPIE 141836Z 25003KT 10SM FEW035 SCT043 BKN055 28/26 A3006 RMK AO2 LTG DSNT NE AND E RAE26 TSE03 P0000 T02780256 $,KPIE,2025-08-14T18:36:00Z,27.9126,-82.6855,27.8,25.6,250,3,,10+,30.06,,,,TRUE,TRUE,,,,,,FEW,3500,SCT,4300,BKN,5500,,,VFR,,,,,,0.005,,,,,,SPECI,1
KNKT 141836Z 20010KT 10SM BKN024 31/26 A2997 RMK AO2 T03060261,KNKT,2025-08-14T18:36:00Z,34.897,-76.881,30.6,26.1,200,10,,10+,29.97,,,,TRUE,,,,,,,BKN,2400,,,,,,,MVFR,,,,,,,,,,,,SPECI,8
KMJQ 141836Z AUTO 17009G15KT 10SM 25/19 A2993 RMK AO2,KMJQ,2025-08-14T18:36:00Z,43.6496,-94.9885,25,19,170,9,15,10+,29.93,,,TRUE,TRUE,,,,,,,,,,,,,,,VFR,,,,,,,,,,,,METAR,439
KI69 141836Z AUTO 05003KT 10SM BKN047 BKN055 BKN100 30/20 A3003 RMK AO1 T03000198,KI69,2025-08-14T18:36:00Z,39.078,-84.21,30,19.8,50,3,,10+,30.03,,,TRUE,TRUE,,,,,,,BKN,4700,BKN,5500,BKN,10000,,,VFR,,,,,,,,,,,,METAR,238
KEVM 141836Z AUTO 00000KT 7SM RA BKN035 BKN055 OVC070 20/17 A2997 RMK AO2 P0001 T02020174,KEVM,2025-08-14T18:36:00Z,47.4274,-92.4972,20.2,17.4,0,0,,7,29.97,,,TRUE,TRUE,,,,,,RA,BKN,3500,BKN,5500,OVC,7000,,,VFR,,,,,,0.01,,,,,,METAR,419
KAVX 141836Z AUTO 06005KT 9SM SCT003 BKN007 18/17 A2998 RMK AO2 T01780167 $,KAVX,2025-08-14T18:36:00Z,33.4042,-118.415,17.8,16.7,60,5,,9,29.98,,,TRUE,TRUE,TRUE,,,,,,SCT,300,BKN,700,,,,,IFR,,,,,,,,,,,,SPECI,482
PAKX 141835Z AUTO 00000KT 10SM BKN007 OVC037 12/10 A2986 RMK AO2,PAKX,2025-08-14T18:35:00Z,60.198,-154.323,12,10,0,0,,10+,29.86,,,TRUE,TRUE,,,,,,,BKN,700,OVC,3700,,,,,IFR,,,,,,,,,,,,METAR,88
PAIM 141835Z AUTO 21005KT 10SM -RA OVC004 10/09 A2976 RMK AO2 SLP078,PAIM,2025-08-14T18:35:00Z,65.994,-153.695,10,9,210,5,,10+,29.76,1007.8,,TRUE,TRUE,,,,,,-RA,OVC,400,,,,,,,LIFR,,,,,,,,,,,,SPECI,309
PAIG 141835Z AUTO 26004KT 3SM -RA BR OVC003 13/13 A2988 RMK AO2 CIG 003V007 PNO $,PAIG,2025-08-14T18:35:00Z,59.325,-155.897,13,13,260,4,,3,29.88,,,TRUE,TRUE,TRUE,,,,,-RA BR,OVC,300,,,,,,,LIFR,,,,,,,,,,,,SPECI,24
PAAD 141835Z AUTO 35004KT 10SM SCT090 10/08 A2974 RMK AO2 T01040075 FZRANO,PAAD,2025-08-14T18:35:00Z,70.136,-146.29,10.4,7.5,350,4,,10+,29.74,,,TRUE,TRUE,,,,TRUE,,,SCT,9000,,,,,,,VFR,,,,,,,,,,,,METAR,8
MNBL 141835Z 09004KT 8000 VCRA BKN018 RA/SW/W,MNBL,2025-08-14T18:35:00Z,11.995,-83.768,,,90,4,,4.97,0.00,,,,,,,,,,VCRA RA,BKN,1800,,,,,,,MVFR,,,,,,,,,,,,SPECI,10
KY70 141835Z AUTO 05006KT 9SM OVC070 26/19 A3007 RMK AO2,KY70,2025-08-14T18:35:00Z,42.9398,-85.0653,26,19,50,6,,9,30.07,,,TRUE,TRUE,,,,,,,OVC,7000,,,,,,,VFR,,,,,,,,,,,,METAR,247
KY63 141835Z AUTO 18012G18KT 10SM SCT080 27/19 A2985 RMK AO2 T02740194,KY63,2025-08-14T18:35:00Z,45.9891,-95.9946,27.4,19.4,180,12,18,10+,29.85,,,TRUE,TRUE,,,,,,,SCT,8000,,,,,,,VFR,,,,,,,,,,,,METAR,367
KY51 141835Z AUTO 15006KT 10SM CLR 27/17 A3005 RMK AO1 T02660170,KY51,2025-08-14T18:35:00Z,43.5814,-90.8997,26.6,17,150,6,,10+,30.05,,,TRUE,TRUE,,,,,,,CLR,,,,,,,,VFR,,,,,,,,,,,,METAR,390
KY49 141835Z AUTO 17008KT 10SM CLR 22/18 A2986 RMK AO2 T02240182,KY49,2025-08-14T18:35:00Z,47.1599,-94.6433,22.4,18.2,170,8,,10+,29.86,,,TRUE,TRUE,,,,,,,CLR,,,,,,,,VFR,,,,,,,,,,,,METAR,413
KY31 141835Z AUTO 07007KT 10SM CLR 27/12 A3009 RMK AO2 T02720124,KY31,2025-08-14T18:35:00Z,44.2434,-84.18,27.2,12.4,70,7,,10+,30.09,,,TRUE,TRUE,,,,,,,CLR,,,,,,,,VFR,,,,,,,,,,,,METAR,264
KY19 141835Z AUTO 33013G19KT 10SM 27/19 A2978 RMK AO2,KY19,2025-08-14T18:35:00Z,46.7648,-100.894,27,19,330,13,19,10+,29.78,,,TRUE,TRUE,,,,,,,,,,,,,,,VFR,,,,,,,,,,,,METAR,591
KXSA 141835Z AUTO 00000KT 10SM SCT032 BKN065 BKN080 31/24 A2995 RMK AO2 LTG DSNT NW T03100240,KXSA,2025-08-14T18:35:00Z,37.8606,-76.9016,31,24,0,0,,10+,29.95,,,TRUE,TRUE,,,,,,,SCT,3200,BKN,6500,BKN,8000,,,VFR,,,,,,,,,,,,METAR,41
KXLL 141835Z AUTO 13003KT 10SM SCT070 SCT080 30/21 A2995 RMK AO2 TSNO,KXLL,2025-08-14T18:35:00Z,40.5704,-75.4894,30,21,130,3,,10+,29.95,,,TRUE,TRUE,,,TRUE,,,,SCT,7000,SCT,8000,,,,,VFR,,,,,,,,,,,,METAR,118
KX60 141835Z AUTO 24008KT 210V270 10SM SCT044 SCT050 34/23 A3005 RMK AO2 T03430234,KX60,2025-08-14T18:35:00Z,29.3524,-82.4743,34.3,23.4,240,8,,10+,30.05,,,TRUE,TRUE,,,,,,,SCT,4400,SCT,5000,,,,,VFR,,,,,,,,,,,,METAR,21
KX59 141835Z AUTO 10009KT 9SM CLR 33/30 A3003 RMK AO2 T03260300 $,KX59,2025-08-14T18:35:00Z,27.9624,-80.561,32.6,30,100,9,,9,30.03,,,TRUE,TRUE,TRUE,,,,,,CLR,,,,,,,,VFR,,,,,,,,,,,,METAR,8
KW99 141835Z AUTO 00000KT 10SM FEW290 30/22 A2998 RMK AO2 T03000223 $,KW99,2025-08-14T18:35:00Z,38.9947,-79.1421,30,22.3,0,0,,10+,29.98,,,TRUE,TRUE,TRUE,,,,,,FEW,29000,,,,,,,VFR,,,,,,,,,,,,METAR,288
KW96 141835Z AUTO 00000KT 10SM SCT037 BKN045 BKN050 31/23 A2993 RMK AO1 T03140228,KW96,2025-08-14T18:35:00Z,37.5027,-77.126,31.4,22.8,0,0,,10+,29.93,,,TRUE,TRUE,,,,,,,SCT,3700,BKN,4500,BKN,5000,,,VFR,,,,,,,,,,,,METAR,35
KW81 141835Z AUTO 23004KT 4SM SCT023 BKN044 OVC065 27/23 A2995 RMK AO1 P0005 T02650228,KW81,2025-08-14T18:35:00Z,37.1813,-78.0977,26.5,22.8,230,4,,4,29.95,,,TRUE,TRUE,,,,,,,SCT,2300,BKN,4400,OVC,6500,,,MVFR,,,,,,0.05,,,,,,METAR,121
KW78 141835Z AUTO 21006KT 10SM SCT030 SCT042 SCT048 30/23 A2996 RMK AO1 T03010228,KW78,2025-08-14T18:35:00Z,36.7087,-78.846,30.1,22.8,210,6,,10+,29.96,,,TRUE,TRUE,,,,,,,SCT,3000,SCT,4200,SCT,4800,,,VFR,,,,,,,,,,,,METAR,120
KW75 141835Z AUTO 02004KT 10SM CLR 32/24 A2993 RMK AO1 T03180238,KW75,2025-08-14T18:35:00Z,37.6024,-76.4477,31.8,23.8,20,4,,10+,29.93,,,TRUE,TRUE,,,,,,,CLR,,,,,,,,VFR,,,,,,,,,,,,METAR,8
KW63 141835Z AUTO 18004KT 10SM SCT024 SCT090 SCT120 30/24 A2996 RMK AO1,KW63,2025-08-14T18:35:00Z,36.6008,-78.5559,30,24,180,4,,10+,29.96,,,TRUE,TRUE,,,,,,,SCT,2400,SCT,9000,SCT,12000,,,VFR,,,,,,,,,,,,METAR,126
KW31 141835Z AUTO 21003KT 10SM SCT030 SCT035 SCT050 31/26 A2996 RMK AO1 T03120258,KW31,2025-08-14T18:35:00Z,36.9599,-78.1838,31.2,25.8,210,3,,10+,29.96,,,TRUE,TRUE,,,,,,,SCT,3000,SCT,3500,SCT,5000,,,VFR,,,,,,,,,,,,METAR,159
KW13 141835Z AUTO 04004KT 10SM SCT033 BKN044 OVC110 28/21 A3003 RMK AO1 T02790206,KW13,2025-08-14T18:35:00Z,38.077,-78.944,27.9,20.6,40,4,,10+,30.03,,,TRUE,TRUE,,,,,,,SCT,3300,BKN,4400,OVC,11000,,,VFR,,,,,,,,,,,,METAR,440
KVWU 141835Z AUTO 17006KT 10SM BKN027 24/19 A2983 RMK AO2,KVWU,2025-08-14T18:35:00Z,48.1502,-94.512,24,19,170,6,,10+,29.83,,,TRUE,TRUE,,,,,,,BKN,2700,,,,,,,MVFR,,,,,,,,,,,,METAR,359
KVVV 141835Z AUTO 15006G14KT 10SM SCT070 26/21 A2983 RMK AO2,KVVV,2025-08-14T18:35:00Z,45.2994,-96.4256,26,21,150,6,14,10+,29.83,,,TRUE,TRUE,,,,,,,SCT,7000,,,,,,,VFR,,,,,,,,,,,,METAR,334
KVTP 141835Z AUTO 30005KT 10SM CLR A3061 RMK AO2,KVTP,2025-08-14T18:35:00Z,37.512,-105.171,,,300,5,,10+,30.61,,,TRUE,TRUE,,,,,,,CLR,,,,,,,,VFR,,,,,,,,,,,,METAR,3086
KVTI 141835Z AUTO 00000KT 10SM CLR 25/18 A3005 RMK AO2 T02480178,KVTI,2025-08-14T18:35:00Z,42.2176,-92.0248,24.8,17.8,0,0,,10+,30.05,,,TRUE,TRUE,,,,,,,CLR,,,,,,,,VFR,,,,,,,,,,,,METAR,256
KVNW 141835Z AUTO 00000KT 10SM CLR 30/16 A3005 RMK AO2,KVNW,2025-08-14T18:35:00Z,40.8633,-84.613,30,16,0,0,,10+,30.05,,,TRUE,TRUE,,,,,,,CLR,,,,,,,,VFR,,,,,,,,,,,,METAR,238
KVLL 141835Z AUTO VRB04KT 9SM SCT045 28/17 A3006 RMK AO2,KVLL,2025-08-14T18:35:00Z,42.543,-83.178,28,17,VRB,4,,9,30.06,,,TRUE,TRUE,,,,,,,SCT,4500,,,,,,,VFR,,,,,,,,,,,,METAR,214
KVJI 141835Z AUTO 34004KT 10SM SCT110 27/20 A3007 RMK AO2,KVJI,2025-08-14T18:35:00Z,36.6871,-82.037,27,20,340,4,,10+,30.07,,,TRUE,TRUE,,,,,,,SCT,11000,,,,,,,VFR,,,,,,,,,,,,METAR,636
KVHN 141835Z AUTO 10004KT 10SM CLR 34/10 A3012 RMK AO2 LTG DSNT NW T03410098,KVHN,2025-08-14T18:35:00Z,31.0602,-104.783,34.1,9.8,100,4,,10+,30.12,,,TRUE,TRUE,,,,,,,CLR,,,,,,,,VFR,,,,,,,,,,,,METAR,1200
KVGC 141835Z AUTO 33010G17KT 10SM CLR 26/17 A3002 RMK AO2,KVGC,2025-08-14T18:35:00Z,42.8444,-75.5637,26,17,330,10,17,10+,30.02,,,TRUE,TRUE,,,,,,,CLR,,,,,,,,VFR,,,,,,,,,,,,METAR,346
KVER 141835Z AUTO 08004KT 10SM CLR 30/18 A3002 RMK AO2 T03010182,KVER,2025-08-14T18:35:00Z,38.9496,-92.6842,30.1,18.2,80,4,,10+,30.02,,,TRUE,TRUE,,,,,,,CLR,,,,,,,,VFR,,,,,,,,,,,,METAR,209
KVDF 141835Z AUTO 30011G16KT 255V325 7SM -RA SCT011 BKN050 OVC060 30/26 A3006 RMK AO2,KVDF,2025-08-14T18:35:00Z,28.0198,-82.3415,30,26,300,11,16,7,30.06,,,TRUE,TRUE,,,,,,-RA,SCT,1100,BKN,5000,OVC,6000,,,VFR,,,,,,,,,,,,METAR,5
KUYF 141835Z AUTO 00000KT 10SM SCT090 28/16 A3006 RMK AO2,KUYF,2025-08-14T18:35:00Z,39.9312,-83.465,28,16,0,0,,10+,30.06,,,TRUE,TRUE,,,,,,,SCT,9000,,,,,,,VFR,,,,,,,,,,,,METAR,326
KUXL 141835Z AUTO 19004KT 7SM CLR 34/24 A3001 RMK AO2 T03370238,KUXL,2025-08-14T18:35:00Z,30.135,-93.3767,33.7,23.8,190,4,,7,30.01,,,TRUE,TRUE,,,,,,,CLR,,,,,,,,VFR,,,,,,,,,,,,METAR,2
KUVA 141835Z AUTO 14003KT 10SM CLR 35/21 A2998 RMK AO2 T03500205,KUVA,2025-08-14T18:35:00Z,29.2135,-99.743,35,20.5,140,3,,10+,29.98,,,TRUE,TRUE,,,,,,,CLR,,,,,,,,VFR,,,,,,,,,,,,METAR,285
KUTA 141835Z AUTO 00000KT 10SM CLR 36/24 A2998 RMK AO2 T03590243 $,KUTA,2025-08-14T18:35:00Z,34.6766,-90.344,35.9,24.3,0,0,,10+,29.98,,,TRUE,TRUE,TRUE,,,,,,CLR,,,,,,,,VFR,,,,,,,,,,,,METAR,58
KUOX 141835Z AUTO 35005KT FEW039 FEW050 32/23 A3001 RMK AO2 PWINO,KUOX,2025-08-14T18:35:00Z,34.3851,-89.5435,32,23,350,5,,,30.01,,,TRUE,TRUE,,,,,TRUE,,FEW,3900,FEW,5000,,,,,,,,,,,,,,,,,METAR,123
KUNI 141835Z AUTO 08006KT 10SM SCT035 SCT042 31/19 A3004 RMK AO2 T03050194 TSNO,KUNI,2025-08-14T18:35:00Z,39.2129,-82.2204,30.5,19.4,80,6,,10+,30.04,,,TRUE,TRUE,,,TRUE,,,,SCT,3500,SCT,4200,,,,,VFR,,,,,,,,,,,,METAR,232
KUMP 141835Z AUTO 05005KT 10SM BKN055 BKN070 30/18 A3004 RMK AO2 T02960181 $,KUMP,2025-08-14T18:35:00Z,39.936,-86.0478,29.6,18.1,50,5,,10+,30.04,,,TRUE,TRUE,TRUE,,,,,,BKN,5500,BKN,7000,,,,,VFR,,,,,,,,,,,,METAR,247
KUKT 141835Z AUTO 00000KT 10SM CLR 30/23 A2996 RMK AO2,KUKT,2025-08-14T18:35:00Z,40.4368,-75.3802,30,23,0,0,,10+,29.96,,,TRUE,TRUE,,,,,,,CLR,,,,,,,,VFR,,,,,,,,,,,,METAR,156
KU96 141835Z AUTO 25011KT 10SM CLR 35/03 A3001 RMK AO2 T03500025 $,KU96,2025-08-14T18:35:00Z,37.4395,-110.564,35,2.5,250,11,,10+,30.01,,,TRUE,TRUE,TRUE,,,,,,CLR,,,,,,,,VFR,,,,,,,,,,,,METAR,1337
KU64 141835Z AUTO 19010KT 10SM SCT180 30/M00 A3026 RMK AO2 T02981002 $,KU64,2025-08-14T18:35:00Z,37.9333,-109.34,29.8,-0.2,190,10,,10+,30.26,,,TRUE,TRUE,TRUE,,,,,,SCT,18000,,,,,,,VFR,,,,,,,,,,,,METAR,2123
KTYL 141835Z AUTO 00000KT 10SM CLR 31/03 A3022 RMK AO2,KTYL,2025-08-14T18:35:00Z,34.4577,-110.112,31,3,0,0,,10+,30.22,,,TRUE,TRUE,,,,,,,CLR,,,,,,,,VFR,,,,,,,,,,,,METAR,1748
KTXW 141835Z AUTO 14011G17KT 10SM CLR 37/19 A2992 RMK AO2 T03720190,KTXW,2025-08-14T18:35:00Z,26.1824,-97.9742,37.2,19,140,11,17,10+,29.92,,,TRUE,TRUE,,,,,,,CLR,,,,,,,,VFR,,,,,,,,,,,,METAR,21
KTWT 141835Z AUTO 00000KT 10SM A3000 RMK AO2,KTWT,2025-08-14T18:35:00Z,37.5432,-87.9568,,,0,0,,10+,30.00,,,TRUE,TRUE,,,,,,,,,,,,,,,VFR,,,,,,,,,,,,METAR,113
KTWM 141835Z AUTO 08010KT 10SM CLR 26/18 A2998 RMK AO2,KTWM,2025-08-14T18:35:00Z,47.0192,-91.7447,26,18,80,10,,10+,29.98,,,TRUE,TRUE,,,,,,,CLR,,,,,,,,VFR,,,,,,,,,,,,METAR,331
KTTF 141835Z AUTO 09007KT 10SM CLR 27/14 A3006 RMK AO2,KTTF,2025-08-14T18:35:00Z,41.9371,-83.4332,27,14,90,7,,10+,30.06,,,TRUE,TRUE,,,,,,,CLR,,,,,,,,VFR,,,,,,,,,,,,METAR,186
KTSP 141835Z AUTO 33017G22KT 10SM CLR 27/03 A3008 RMK AO2,KTSP,2025-08-14T18:35:00Z,35.1387,-118.442,27,3,330,17,22,10+,30.08,,,TRUE,TRUE,,,,,,,CLR,,,,,,,,VFR,,,,,,,,,,,,METAR,1209
KTQH 141835Z AUTO 28003KT 10SM 34/21 RMK AO2,KTQH,2025-08-14T18:35:00Z,35.9304,-95.0025,34,21,280,3,,10+,0.00,,,TRUE,TRUE,,,,,,,,,,,,,,,VFR,,,,,,,,,,,,METAR,265
KTOC 141835Z AUTO 17003KT 10SM CLR 29/25 A3001 RMK AO2 T02870251,KTOC,2025-08-14T18:35:00Z,34.588,-83.2974,28.7,25.1,170,3,,10+,30.01,,,TRUE,TRUE,,,,,,,CLR,,,,,,,,VFR,,,,,,,,,,,,METAR,292
KTOB 141835Z AUTO 16010G15KT 10SM SCT040 SCT085 22/18 A3002 RMK AO2,KTOB,2025-08-14T18:35:00Z,44.0202,-92.8295,22,18,160,10,15,10+,30.02,,,TRUE,TRUE,,,,,,,SCT,4000,SCT,8500,,,,,VFR,,,,,,,,,,,,METAR,394
KTME 141835Z AUTO 00000KT 6SM HZ FEW050 36/22 A2999 RMK AO2,KTME,2025-08-14T18:35:00Z,29.806,-95.903,36,22,0,0,,6,29.99,,,TRUE,TRUE,,,,,,HZ,FEW,5000,,,,,,,VFR,,,,,,,,,,,,METAR,49
KTMA 141835Z AUTO 25007KT 10SM FEW034 33/25 A3003 RMK AO2 T03270251,KTMA,2025-08-14T18:35:00Z,31.4229,-83.4859,32.7,25.1,250,7,,10+,30.03,,,TRUE,TRUE,,,,,,,FEW,3400,,,,,,,VFR,,,,,,,,,,,,METAR,105
KTKX 141835Z AUTO 00000KT 10SM SCT047 35/23 A2997 RMK AO2,KTKX,2025-08-14T18:35:00Z,36.2226,-90.0367,35,23,0,0,,10+,29.97,,,TRUE,TRUE,,,,,,,SCT,4700,,,,,,,VFR,,,,,,,,,,,,METAR,73
KTKC 141835Z AUTO 17015G20KT 10SM FEW100 27/23 A2987 RMK AO2,KTKC,2025-08-14T18:35:00Z,44.25,-95.612,27,23,170,15,20,10+,29.87,,,TRUE,TRUE,,,,,,,FEW,10000,,,,,,,VFR,,,,,,,,,,,,METAR,408
KTIP 141835Z AUTO 00000KT 10SM BKN049 30/17 A3005 RMK AO2 T03000168,KTIP,2025-08-14T18:35:00Z,40.291,-88.146,30,16.8,0,0,,10+,30.05,,,TRUE,TRUE,,,,,,,BKN,4900,,,,,,,VFR,,,,,,,,,,,,METAR,224
KTIF 141835Z AUTO 21004KT 10SM CLR 31/18 A2987 RMK AO2 T03110184,KTIF,2025-08-14T18:35:00Z,41.9646,-100.569,31.1,18.4,210,4,,10+,29.87,,,TRUE,TRUE,,,,,,,CLR,,,,,,,,VFR,,,,,,,,,,,,METAR,888
KTHV 141835Z AUTO 29005KT 3/4SM +TSRA BR BKN046 BKN060 OVC075 23/22 A2998 RMK AO2 LTG DSNT ALQDS TSE24B29 P0071 T02280217,KTHV,2025-08-14T18:35:00Z,39.9194,-76.8768,22.8,21.7,290,5,,0.75,29.98,,,TRUE,TRUE,,,,,,+TSRA BR,BKN,4600,BKN,6000,OVC,7500,,,LIFR,,,,,,,,,,,,SPECI,141
KTEW 141835Z AUTO 07005KT 10SM SCT041 SCT050 SCT075 27/18 A3007 RMK AO2 T02680182,KTEW,2025-08-14T18:35:00Z,42.5636,-84.4222,26.8,18.2,70,5,,10+,30.07,,,TRUE,TRUE,,,,,,,SCT,4100,SCT,5000,SCT,7500,,,VFR,,,,,,,,,,,,METAR,281
KTBX 141835Z AUTO 13009KT 10SM CLR 25/M05 A3027 RMK AO2,KTBX,2025-08-14T18:35:00Z,43.4644,-108.238,25,-5,130,9,,10+,30.27,,,TRUE,TRUE,,,,,,,CLR,,,,,,,,VFR,,,,,,,,,,,,METAR,2230
KT82 141835Z AUTO 00000KT 10SM CLR 34/18 A3001 RMK AO2 T03400181,KT82,2025-08-14T18:35:00Z,30.239,-98.904,34,18.1,0,0,,10+,30.01,,,TRUE,TRUE,,,,,,,CLR,,,,,,,,VFR,,,,,,,,,,,,METAR,509
KT78 141835Z AUTO VRB05KT 10SM CLR 32/22 A2998 RMK AO2 LTG DSNT E AND SE,KT78,2025-08-14T18:35:00Z,30.0754,-94.6996,32,22,VRB,5,,10+,29.98,,,TRUE,TRUE,,,,,,,CLR,,,,,,,,VFR,,,,,,,,,,,,METAR,21
KT74 141835Z AUTO 17005KT 10SM CLR 36/20 A3001 RMK AO2,KT74,2025-08-14T18:35:00Z,30.5704,-97.4447,36,20,170,5,,10+,30.01,,,TRUE,TRUE,,,,,,,CLR,,,,,,,,VFR,,,,,,,,,,,,METAR,169
KT69 141835Z AUTO 04008G14KT 9SM CLR 35/24 A2995 RMK A01,KT69,2025-08-14T18:35:00Z,28.0418,-97.541,35,24,40,8,14,9,29.95,,,TRUE,TRUE,,,,,,,CLR,,,,,,,,VFR,,,,,,,,,,,,METAR,15
KT20 141835Z AUTO 14007KT 10SM CLR 38/20 A2996 RMK AO2 T03750202,KT20,2025-08-14T18:35:00Z,29.5301,-97.463,37.5,20.2,140,7,,10+,29.96,,,TRUE,TRUE,,,,,,,CLR,,,,,,,,VFR,,,,,,,,,,,,METAR,107
KSYN 141835Z AUTO 18009G14KT 10SM CLR 24/18 A2998 RMK AO2 T02360177,KSYN,2025-08-14T18:35:00Z,44.474,-93.014,23.6,17.7,180,9,14,10+,29.98,,,TRUE,TRUE,,,,,,,CLR,,,,,,,,VFR,,,,,,,,,,,,METAR,280
KSYM 141835Z AUTO VRB03KT 9SM CLR 30/21 A3003 RMK AO2,KSYM,2025-08-14T18:35:00Z,38.2199,-83.5835,30,21,VRB,3,,9,30.03,,,TRUE,TRUE,,,,,,,CLR,,,,,,,,VFR,,,,,,,,,,,,METAR,307
KSXK 141835Z AUTO 17018KT 10SM FEW110 28/22 A2985 RMK AO2,KSXK,2025-08-14T18:35:00Z,42.9895,-96.1645,28,22,170,18,,10+,29.85,,,TRUE,TRUE,,,,,,,FEW,11000,,,,,,,VFR,,,,,,,,,,,,METAR,430
KSVE 141835Z AUTO 10004KT 10SM CLR 31/07 A3005 RMK A01 P000,KSVE,2025-08-14T18:35:00Z,40.376,-120.574,31,7,100,4,,10+,30.05,,,TRUE,TRUE,,,,,,,CLR,,,,,,,,VFR,,,,,,,,,,,,METAR,1263
KSVC 141835Z AUTO 21007KT 10SM CLR 31/07 A3019 RMK AO2 LTG DSNT NE T03070070,KSVC,2025-08-14T18:35:00Z,32.631,-108.147,30.7,7,210,7,,10+,30.19,,,TRUE,TRUE,,,,,,,CLR,,,,,,,,VFR,,,,,,,,,,,,METAR,1638
KSUZ 141835Z AUTO 30009KT 7SM FEW050 FEW055 FEW085 34/23 A2997 RMK A01,KSUZ,2025-08-14T18:35:00Z,34.5862,-92.4802,34,23,300,9,,7,29.97,,,TRUE,TRUE,,,,,,,FEW,5000,FEW,5500,FEW,8500,,,VFR,,,,,,,,,,,,METAR,114
KSUW 141835Z AUTO 04009KT 10SM SCT029 SCT048 BKN075 21/18 A2996 RMK AO2 T02140178,KSUW,2025-08-14T18:35:00Z,46.6833,-92.0926,21.4,17.8,40,9,,10+,29.96,,,TRUE,TRUE,,,,,,,SCT,2900,SCT,4800,BKN,7500,,,VFR,,,,,,,,,,,,METAR,205
KSTF 141835Z AUTO VRB03KT 10SM BKN028 BKN036 31/26 A2999 RMK AO2 LTG DSNT S AND NW,KSTF,2025-08-14T18:35:00Z,33.4326,-88.8506,31,26,VRB,3,,10+,29.99,,,TRUE,TRUE,,,,,,,BKN,2800,BKN,3600,,,,,MVFR,,,,,,,,,,,,METAR,99
KSPF 141835Z AUTO 02010KT 10SM CLR 31/17 A2992 RMK AO2,KSPF,2025-08-14T18:35:00Z,44.4811,-103.788,31,17,20,10,,10+,29.92,,,TRUE,TRUE,,,,,,,CLR,,,,,,,,VFR,,,,,,,,,,,,METAR,1191
KSOW 141835Z AUTO 24008KT 10SM CLR 28/07 A3027 RMK AO2,KSOW,2025-08-14T18:35:00Z,34.2686,-110.002,28,7,240,8,,10+,30.27,,,TRUE,TRUE,,,,,,,CLR,,,,,,,,VFR,,,,,,,,,,,,METAR,1954
KSNK 141835Z AUTO 18009KT 10SM CLR 35/16 A3000 RMK AO2 T03460162,KSNK,2025-08-14T18:35:00Z,32.6917,-100.951,34.6,16.2,180,9,,10+,30.00,,,TRUE,TRUE,,,,,,,CLR,,,,,,,,VFR,,,,,,,,,,,,METAR,738
KSNC 141835Z AUTO 00000KT 10SM FEW042 FEW055 SCT095 32/18 A2992 RMK AO2,KSNC,2025-08-14T18:35:00Z,41.383,-72.506,32,18,0,0,,10+,29.92,,,TRUE,TRUE,,,,,,,FEW,4200,FEW,5500,SCT,9500,,,VFR,,,,,,,,,,,,METAR,114
KSLR 141835Z AUTO 00000KT 10SM BKN047 35/21 A2998 RMK AO2 T03520211 PWINO,KSLR,2025-08-14T18:35:00Z,33.1615,-95.6189,35.2,21.1,0,0,,10+,29.98,,,TRUE,TRUE,,,,,TRUE,,BKN,4700,,,,,,,VFR,,,,,,,,,,,,METAR,144
KSLO 141835Z AUTO 06003KT 10SM SCT055 31/20 A3001 RMK AO2 T03080202,KSLO,2025-08-14T18:35:00Z,38.6446,-88.9612,30.8,20.2,60,3,,10+,30.01,,,TRUE,TRUE,,,,,,,SCT,5500,,,,,,,VFR,,,,,,,,,,,,METAR,173
KSJX 141835Z AUTO VRB05KT 10SM CLR 25/15 A3010 RMK AO2,KSJX,2025-08-14T18:35:00Z,45.6928,-85.5662,25,15,VRB,5,,10+,30.10,,,TRUE,TRUE,,,,,,,CLR,,,,,,,,VFR,,,,,,,,,,,,METAR,202
KSJS 141835Z AUTO 00000KT 10SM CLR 29/22 A3004 RMK AO2 T02890220,KSJS,2025-08-14T18:35:00Z,37.7489,-82.6413,28.9,22,0,0,,10+,30.04,,,TRUE,TRUE,,,,,,,CLR,,,,,,,,VFR,,,,,,,,,,,,METAR,359
KSIK 141835Z AUTO 28006KT FEW041 SCT070 34/23 A2998 RMK AO2 T03380227 PWINO $,KSIK,2025-08-14T18:35:00Z,36.9027,-89.5577,33.8,22.7,280,6,,,29.98,,,TRUE,TRUE,TRUE,,,,TRUE,,FEW,4100,SCT,7000,,,,,,,,,,,,,,,,,METAR,95
KSHD 141835Z AUTO 02004KT 10SM CLR 28/21 A3003 RMK AO2 LTG DSNT W T02820205,KSHD,2025-08-14T18:35:00Z,38.2601,-78.9013,28.2,20.5,20,4,,10+,30.03,,,TRUE,TRUE,,,,,,,CLR,,,,,,,,VFR,,,,,,,,,,,,METAR,360
KSGS 141835Z AUTO 17007KT 10SM BKN043 BKN050 OVC095 24/17 A2997 RMK AO2 T02360172,KSGS,2025-08-14T18:35:00Z,44.8601,-93.0321,23.6,17.2,170,7,,10+,29.97,,,TRUE,TRUE,,,,,,,BKN,4300,BKN,5000,OVC,9500,,,VFR,,,,,,,,,,,,METAR,250
KSFQ 141835Z AUTO 24006KT 31/25 A2995 RMK AO2 T03050248 PWINO TSNO,KSFQ,2025-08-14T18:35:00Z,36.6825,-76.6013,30.5,24.8,240,6,,,29.95,,,TRUE,TRUE,,,TRUE,,TRUE,,,,,,,,,,,,,,,,,,,,,,METAR,19
KSEP 141835Z AUTO 16005KT 10SM CLR 34/22 A3001 RMK AO2 T03350219,KSEP,2025-08-14T18:35:00Z,32.215,-98.1793,33.5,21.9,160,5,,10+,30.01,,,TRUE,TRUE,,,,,,,CLR,,,,,,,,VFR,,,,,,,,,,,,METAR,399
KSEF 141835Z AUTO 05003KT 10SM SCT042 SCT050 34/25 A3006 RMK AO2 T03410250,KSEF,2025-08-14T18:35:00Z,27.4553,-81.3415,34.1,25,50,3,,10+,30.06,,,TRUE,TRUE,,,,,,,SCT,4200,SCT,5000,,,,,VFR,,,,,,,,,,,,METAR,17
KSDC 141835Z AUTO 01007KT 340V060 10SM CLR 27/15 A3005 RMK AO2,KSDC,2025-08-14T18:35:00Z,43.2355,-77.1201,27,15,10,7,,10+,30.05,,,TRUE,TRUE,,,,,,,CLR,,,,,,,,VFR,,,,,,,,,,,,METAR,127
KSCD 141835Z AUTO 00000KT SCT034 BKN090 OVC110 31/23 A3004 RMK AO2 T03080234 PWINO,KSCD,2025-08-14T18:35:00Z,33.1732,-86.2933,30.8,23.4,0,0,,,30.04,,,TRUE,TRUE,,,,,TRUE,,SCT,3400,BKN,9000,OVC,11000,,,,,,,,,,,,,,,METAR,164
KSBS 141835Z AUTO 18004KT 10SM CLR 30/M01 A3017 RMK AO1 T03001011,KSBS,2025-08-14T18:35:00Z,40.5153,-106.868,30,-1.1,180,4,,10+,30.17,,,TRUE,TRUE,,,,,,,CLR,,,,,,,,VFR,,,,,,,,,,,,METAR,2097
KSBO 141835Z AUTO 29006KT 10SM SCT029 SCT034 SCT040 30/23 A3001 RMK AO2,KSBO,2025-08-14T18:35:00Z,32.6111,-82.3702,30,23,290,6,,10+,30.01,,,TRUE,TRUE,,,,,,,SCT,2900,SCT,3400,SCT,4000,,,VFR,,,,,,,,,,,,METAR,98
KSAZ 141835Z AUTO 19013G17KT 10SM CLR 27/19 A2988 RMK AO2,KSAZ,2025-08-14T18:35:00Z,46.3785,-94.8017,27,19,190,13,17,10+,29.88,,,TRUE,TRUE,,,,,,,CLR,,,,,,,,VFR,,,,,,,,,,,,METAR,391
KSAA 141835Z AUTO 25007KT 10SM CLR 30/M02 A3020 RMK AO2,KSAA,2025-08-14T18:35:00Z,41.447,-106.815,30,-2,250,7,,10+,30.20,,,TRUE,TRUE,,,,,,,CLR,,,,,,,,VFR,,,,,,,,,,,,METAR,2093
KS33 141835Z AUTO 34006KT 10SM CLR 24/08 A3003 RMK AO2,KS33,2025-08-14T18:35:00Z,44.6653,-121.157,24,8,340,6,,10+,30.03,,,TRUE,TRUE,,,,,,,CLR,,,,,,,,VFR,,,,,,,,,,,,METAR,739
KS25 141835Z AUTO 33008KT 10SM CLR 22/17 A2986 RMK AO2,KS25,2025-08-14T18:35:00Z,47.7954,-103.257,22,17,330,8,,10+,29.86,,,TRUE,TRUE,,,,,,,CLR,,,,,,,,VFR,,,,,,,,,,,,METAR,632
KS24 141835Z AUTO 04009KT 10SM CLR 28/22 A3004 RMK AO2,KS24,2025-08-14T18:35:00Z,41.296,-83.037,28,22,40,9,,10+,30.04,,,TRUE,TRUE,,,,,,,CLR,,,,,,,,VFR,,,,,,,,,,,,METAR,203
KRZL 141835Z AUTO 36003KT 10SM SCT044 27/17 A3006 RMK AO2,KRZL,2025-08-14T18:35:00Z,40.9488,-87.1851,27,17,360,3,,10+,30.06,,,TRUE,TRUE,,,,,,,SCT,4400,,,,,,,VFR,,,,,,,,,,,,METAR,210
KRVL 141835Z AUTO 00000KT 9SM FEW045 FEW050 30/21 A2998 RMK AO2,KRVL,2025-08-14T18:35:00Z,40.6768,-77.6251,30,21,0,0,,9,29.98,,,TRUE,TRUE,,,,,,,FEW,4500,FEW,5000,,,,,VFR,,,,,,,,,,,,METAR,250
KRVJ 141835Z AUTO 23013KT 10SM SCT032 SCT065 33/24 A3000 RMK AO2 T03270242,KRVJ,2025-08-14T18:35:00Z,32.059,-82.153,32.7,24.2,230,13,,10+,30.00,,,TRUE,TRUE,,,,,,,SCT,3200,SCT,6500,,,,,VFR,,,,,,,,,,,,METAR,60
KRUG 141835Z AUTO 28012KT 9SM BKN029 BKN036 27/20 A2973 RMK AO2,KRUG,2025-08-14T18:35:00Z,48.389,-100.025,27,20,280,12,,9,29.73,,,TRUE,TRUE,,,,,,,BKN,2900,BKN,3600,,,,,MVFR,,,,,,,,,,,,METAR,469
KRSN 141835Z AUTO 10007KT 9SM TS FEW041 SCT049 SCT070 27/26 A2999 RMK AO2 TSB1824 P0007 T02720264,KRSN,2025-08-14T18:35:00Z,32.5159,-92.5899,27.2,26.4,100,7,,9,29.99,,,TRUE,TRUE,,,,,,TS,FEW,4100,SCT,4900,SCT,7000,,,VFR,,,,,,0.07,,,,,,METAR,86
KRRT 141835Z AUTO 16013G18KT 10SM SCT033 26/19 A2976 RMK AO2,KRRT,2025-08-14T18:35:00Z,48.9318,-95.3405,26,19,160,13,18,10+,29.76,,,TRUE,TRUE,,,,,,,SCT,3300,,,,,,,VFR,,,,,,,,,,,,METAR,327
KRRL 141835Z AUTO 21004KT 10SM SCT040 24/16 A3005 RMK AO2 T02440162 TSNO,KRRL,2025-08-14T18:35:00Z,45.1985,-89.71,24.4,16.2,210,4,,10+,30.05,,,TRUE,TRUE,,,TRUE,,,,SCT,4000,,,,,,,VFR,,,,,,,,,,,,METAR,397
KRQB 141835Z AUTO 10003KT 10SM CLR 27/15 A3008 RMK AO2 T02740147,KRQB,2025-08-14T18:35:00Z,43.722,-85.498,27.4,14.7,100,3,,10+,30.08,,,TRUE,TRUE,,,,,,,CLR,,,,,,,,VFR,,,,,,,,,,,,METAR,282
KRPH 141835Z AUTO VRB06KT 10SM CLR 35/21 A2993 RMK AO2 T03460211,KRPH,2025-08-14T18:35:00Z,33.1096,-98.5537,34.6,21.1,VRB,6,,10+,29.93,,,TRUE,TRUE,,,,,,,CLR,,,,,,,,VFR,,,,,,,,,,,,METAR,341
KRPD 141835Z AUTO 17011KT 10SM SCT090 25/16 A3002 RMK AO2 T02540158,KRPD,2025-08-14T18:35:00Z,45.4186,-91.7764,25.4,15.8,170,11,,10+,30.02,,,TRUE,TRUE,,,,,,,SCT,9000,,,,,,,VFR,,,,,,,,,,,,METAR,334
KROX 141835Z AUTO 19010KT 10SM SCT029 26/19 A2976 RMK AO2,KROX,2025-08-14T18:35:00Z,48.856,-95.6949,26,19,190,10,,10+,29.76,,,TRUE,TRUE,,,,,,,SCT,2900,,,,,,,VFR,,,,,,,,,,,,METAR,320
KROS 141835Z AUTO 17011G15KT 10SM BKN041 25/17 A2996 RMK AO2,KROS,2025-08-14T18:35:00Z,45.6962,-92.9543,25,17,170,11,15,10+,29.96,,,TRUE,TRUE,,,,,,,BKN,4100,,,,,,,VFR,,,,,,,,,,,,METAR,282
KRNP 141835Z AUTO 07006KT 7SM SCT085 27/17 A3008 RMK AO2 T02650170,KRNP,2025-08-14T18:35:00Z,42.9937,-84.1347,26.5,17,70,6,,7,30.08,,,TRUE,TRUE,,,,,,,SCT,8500,,,,,,,VFR,,,,,,,,,,,,METAR,224
KRMY 141835Z AUTO 07004KT 10SM BKN038 BKN050 OVC080 27/19 A3006 RMK AO2 T02710185,KRMY,2025-08-14T18:35:00Z,42.2524,-84.9526,27.1,18.5,70,4,,10+,30.06,,,TRUE,TRUE,,,,,,,BKN,3800,BKN,5000,OVC,8000,,,VFR,,,,,,,,,,,,METAR,285
KRMN 141835Z AUTO 31005KT 10SM SCT042 BKN048 BKN060 33/19 A2994 RMK AO2 T03300192 PWINO TSNO,KRMN,2025-08-14T18:35:00Z,38.3941,-77.4523,33,19.2,310,5,,10+,29.94,,,TRUE,TRUE,,,TRUE,,TRUE,,SCT,4200,BKN,4800,BKN,6000,,,VFR,,,,,,,,,,,,METAR,50
KRID 141835Z AUTO 35003KT 10SM SCT046 SCT065 SCT075 27/18 A3007 RMK AO2,KRID,2025-08-14T18:35:00Z,39.7579,-84.8359,27,18,350,3,,10+,30.07,,,TRUE,TRUE,,,,,,,SCT,4600,SCT,6500,SCT,7500,,,VFR,,,,,,,,,,,,METAR,346
KRGK 141835Z AUTO 16007KT 10SM SCT110 25/16 A2998 RMK AO2,KRGK,2025-08-14T18:35:00Z,44.5927,-92.4844,25,16,160,7,,10+,29.98,,,TRUE,TRUE,,,,,,,SCT,11000,,,,,,,VFR,,,,,,,,,,,,METAR,238
KREG 141835Z AUTO 00000KT 10SM SCT045 BKN060 BKN070 35/23 A3001 RMK AO2 LTG DSNT SE THRU W T03530231,KREG,2025-08-14T18:35:00Z,30.1756,-90.9397,35.3,23.1,0,0,,10+,30.01,,,TRUE,TRUE,,,,,,,SCT,4500,BKN,6000,BKN,7000,,,VFR,,,,,,,,,,,,METAR,3
KRCX 141835Z AUTO 14005KT 7SM SCT037 SCT120 25/16 A3005 RMK AO2 T02520164,KRCX,2025-08-14T18:35:00Z,45.4935,-90.9985,25.2,16.4,140,5,,7,30.05,,,TRUE,TRUE,,,,,,,SCT,3700,SCT,12000,,,,,VFR,,,,,,,,,,,,METAR,373
KRCR 141835Z AUTO 34007KT 10SM FEW050 28/24 A3006 RMK AO2,KRCR,2025-08-14T18:35:00Z,41.0651,-86.1864,28,24,340,7,,10+,30.06,,,TRUE,TRUE,,,,,,,FEW,5000,,,,,,,VFR,,,,,,,,,,,,METAR,240
KRCM 141835Z AUTO 12006KT 10SM CLR 31/18 A3001 RMK AO2,KRCM,2025-08-14T18:35:00Z,38.7855,-93.8058,31,18,120,6,,10+,30.01,,,TRUE,TRUE,,,,,,,CLR,,,,,,,,VFR,,,,,,,,,,,,METAR,242
KRCE 141835Z AUTO 18012KT 10SM FEW047 33/20 A2996 RMK AO2,KRCE,2025-08-14T18:35:00Z,35.4971,-97.8255,33,20,180,12,,10+,29.96,,,TRUE,TRUE,,,,,,,FEW,4700,,,,,,,VFR,,,,,,,,,,,,METAR,412
KRBO 141835Z AUTO 20011G16KT 10SM CLR 36/23 A2994 RMK AO2 T03600229,KRBO,2025-08-14T18:35:00Z,27.7781,-97.6878,36,22.9,200,11,16,10+,29.94,,,TRUE,TRUE,,,,,,,CLR,,,,,,,,VFR,,,,,,,,,,,,METAR,24
KRAW 141835Z AUTO 00000KT 10SM CLR 32/20 A3001 RMK AO2 T03150197,KRAW,2025-08-14T18:35:00Z,38.3484,-93.3436,31.5,19.7,0,0,,10+,30.01,,,TRUE,TRUE,,,,,,,CLR,,,,,,,,VFR,,,,,,,,,,,,METAR,285
KRAS 141835Z AUTO 13009KT 10SM SCT018 A3000 RMK AO2,KRAS,2025-08-14T18:35:00Z,27.8083,-97.0853,,,130,9,,10+,30.00,,,TRUE,TRUE,,,,,,,SCT,1800,,,,,,,VFR,,,,,,,,,,,,METAR,3
KPZQ 141835Z AUTO 07005KT 10SM SCT070 23/18 A3012 RMK AO2 T02320183,KPZQ,2025-08-14T18:35:00Z,45.4085,-83.812,23.2,18.3,70,5,,10+,30.12,,,TRUE,TRUE,,,,,,,SCT,7000,,,,,,,VFR,,,,,,,,,,,,METAR,199
KPYX 141835Z AUTO 18015KT 37/17 A2995 RMK AO2 T03650166,KPYX,2025-08-14T18:35:00Z,36.4103,-100.751,36.5,16.6,180,15,,,29.95,,,TRUE,TRUE,,,,,,,,,,,,,,,,,,,,,,,,,,,METAR,890
KPWC 141835Z AUTO 17010KT 10SM CLR 26/19 A2991 RMK AO2,KPWC,2025-08-14T18:35:00Z,46.7266,-94.3849,26,19,170,10,,10+,29.91,,,TRUE,TRUE,,,,,,,CLR,,,,,,,,VFR,,,,,,,,,,,,METAR,394
KPVF 141835Z AUTO 00000KT 10SM CLR 28/08 A3002 RMK AO1,KPVF,2025-08-14T18:35:00Z,38.7222,-120.757,28,8,0,0,,10+,30.02,,,TRUE,TRUE,,,,,,,CLR,,,,,,,,VFR,,,,,,,,,,,,METAR,788
KPTT 141835Z AUTO 16014G23KT 10SM CLR 33/19 A2995 RMK AO2 T03270188,KPTT,2025-08-14T18:35:00Z,37.7069,-98.7453,32.7,18.8,160,14,23,10+,29.95,,,TRUE,TRUE,,,,,,,CLR,,,,,,,,VFR,,,,,,,,,,,,METAR,594
KPTD 141835Z AUTO 31007G14KT 10SM FEW055 SCT085 26/15 A3003 RMK AO2 PNO,KPTD,2025-08-14T18:35:00Z,44.6757,-74.9469,26,15,310,7,14,10+,30.03,,,TRUE,TRUE,,,,,,,FEW,5500,SCT,8500,,,,,VFR,,,,,,,,,,,,METAR,144
KPTB 141835Z AUTO 00000KT 10SM SCT034 31/22 A2996 RMK AO2 T03050218,KPTB,2025-08-14T18:35:00Z,37.1803,-77.5081,30.5,21.8,0,0,,10+,29.96,,,TRUE,TRUE,,,,,,,SCT,3400,,,,,,,VFR,,,,,,,,,,,,METAR,56
KPSK 141835Z AUTO 33003KT 10SM SCT100 26/21 A3006 RMK AO2 T02590210,KPSK,2025-08-14T18:35:00Z,37.1337,-80.6789,25.9,21,330,3,,10+,30.06,,,TRUE,TRUE,,,,,,,SCT,10000,,,,,,,VFR,,,,,,,,,,,,METAR,629
KPRS 141835Z AUTO 11004KT 10SM CLR 35/14 A3004 RMK AO2 LTG DSNT E T03520136,KPRS,2025-08-14T18:35:00Z,29.6346,-104.358,35.2,13.6,110,4,,10+,30.04,,,TRUE,TRUE,,,,,,,CLR,,,,,,,,VFR,,,,,,,,,,,,METAR,890
KPOV 141835Z AUTO 03005KT 7SM SCT049 28/16 A3007 RMK AO2 T02790160 PWINO,KPOV,2025-08-14T18:35:00Z,41.209,-81.2479,27.9,16,30,5,,7,30.07,,,TRUE,TRUE,,,,,TRUE,,SCT,4900,,,,,,,VFR,,,,,,,,,,,,METAR,363
KPNM 141835Z AUTO 18015G22KT 10SM CLR 26/17 A2994 RMK AO2,KPNM,2025-08-14T18:35:00Z,45.556,-93.608,26,17,180,15,22,10+,29.94,,,TRUE,TRUE,,,,,,,CLR,,,,,,,,VFR,,,,,,,,,,,,METAR,298
KPMV 141835Z AUTO 19014KT 10SM CLR 28/22 A2993 RMK AO2 T02830217,KPMV,2025-08-14T18:35:00Z,40.9446,-95.9124,28.3,21.7,190,14,,10+,29.93,,,TRUE,TRUE,,,,,,,CLR,,,,,,,,VFR,,,,,,,,,,,,METAR,365
KPLR 141835Z AUTO 00000KT 10SM CLR 31/23 A3004 RMK A01,KPLR,2025-08-14T18:35:00Z,33.5608,-86.2463,31,23,0,0,,10+,30.04,,,TRUE,TRUE,,,,,,,CLR,,,,,,,,VFR,,,,,,,,,,,,METAR,145
KPLD 141835Z AUTO 00000KT 10SM CLR 29/06 A3005 RMK AO2 T02880059,KPLD,2025-08-14T18:35:00Z,40.4532,-84.9848,28.8,5.9,0,0,,10+,30.05,,,TRUE,TRUE,,,,,,,CLR,,,,,,,,VFR,,,,,,,,,,,,METAR,282
KPKV 141835Z AUTO 20008KT 10SM CLR 37/25 A2997 RMK AO2 T03740247,KPKV,2025-08-14T18:35:00Z,28.6499,-96.6799,37.4,24.7,200,8,,10+,29.97,,,TRUE,TRUE,,,,,,,CLR,,,,,,,,VFR,,,,,,,,,,,,METAR,8
KPJC 141835Z AUTO 00000KT 10SM SCT080 SCT090 29/16 A3003 RMK AO2,KPJC,2025-08-14T18:35:00Z,40.8009,-80.1624,29,16,0,0,,10+,30.03,,,TRUE,TRUE,,,,,,,SCT,8000,SCT,9000,,,,,VFR,,,,,,,,,,,,METAR,273
KPHN 141835Z AUTO 07005KT 10SM CLR 27/18 A3008 RMK AO2,KPHN,2025-08-14T18:35:00Z,42.9103,-82.5332,27,18,70,5,,10+,30.08,,,TRUE,TRUE,,,,,,,CLR,,,,,,,,VFR,,,,,,,,,,,,METAR,195
KPEZ 141835Z AUTO 15013G21KT 10SM CLR 37/19 A2996 RMK AO2 T03650185,KPEZ,2025-08-14T18:35:00Z,28.9561,-98.5184,36.5,18.5,150,13,21,10+,29.96,,,TRUE,TRUE,,,,,,,CLR,,,,,,,,VFR,,,,,,,,,,,,METAR,126
KPEX 141835Z AUTO 18012G16KT 10SM SCT110 23/19 A2992 RMK AO2,KPEX,2025-08-14T18:35:00Z,45.3725,-94.7388,23,19,180,12,16,10+,29.92,,,TRUE,TRUE,,,,,,,SCT,11000,,,,,,,VFR,,,,,,,,,,,,METAR,359
KPEA 141835Z AUTO 14008KT 10SM CLR 26/19 A3003 RMK AO2 T02580189,KPEA,2025-08-14T18:35:00Z,41.3989,-92.9431,25.8,18.9,140,8,,10+,30.03,,,TRUE,TRUE,,,,,,,CLR,,,,,,,,VFR,,,,,,,,,,,,METAR,264
KPDC 141835Z AUTO 16007KT 10SM CLR 28/17 A3002 RMK AO2 T02760168,KPDC,2025-08-14T18:35:00Z,43.0194,-91.1212,27.6,16.8,160,7,,10+,30.02,,,TRUE,TRUE,,,,,,,CLR,,,,,,,,VFR,,,,,,,,,,,,METAR,201
KPCZ 141835Z AUTO 17006KT 10SM SCT046 28/15 A3007 RMK AO2 T02820149,KPCZ,2025-08-14T18:35:00Z,44.3342,-89.0203,28.2,14.9,170,6,,10+,30.07,,,TRUE,TRUE,,,,,,,SCT,4600,,,,,,,VFR,,,,,,,,,,,,METAR,248
KPCM 141835Z AUTO 10SM SCT043 SCT048 BKN065 36/25 A3007 RMK AO2,KPCM,2025-08-14T18:35:00Z,28.0013,-82.1593,36,25,,,,10+,30.07,,,TRUE,TRUE,,,,,,,SCT,4300,SCT,4800,BKN,6500,,,VFR,,,,,,,,,,,,METAR,43
KPCD 141835Z AUTO 00000KT 10SM CLR 32/21 A2999 RMK AO2 T03240213 TSNO,KPCD,2025-08-14T18:35:00Z,37.8749,-89.8582,32.4,21.3,0,0,,10+,29.99,,,TRUE,TRUE,,,TRUE,,,,CLR,,,,,,,,VFR,,,,,,,,,,,,METAR,112
KPBX 141835Z AUTO 01005KT 10SM SCT032 SCT038 BKN045 29/21 A3006 RMK AO2 T02910209,KPBX,2025-08-14T18:35:00Z,37.5587,-82.5674,29.1,20.9,10,5,,10+,30.06,,,TRUE,TRUE,,,,,,,SCT,3200,SCT,3800,BKN,4500,,,VFR,,,,,,,,,,,,METAR,447
KPBH 141835Z AUTO 15007KT 10SM BKN110 24/15 A3005 RMK AO2 T02430148,KPBH,2025-08-14T18:35:00Z,45.7064,-90.4052,24.3,14.8,150,7,,10+,30.05,,,TRUE,TRUE,,,,,,,BKN,11000,,,,,,,VFR,,,,,,,,,,,,METAR,445
KOZW 141835Z AUTO 06004KT 10SM SCT060 27/18 A3007 RMK AO2,KOZW,2025-08-14T18:35:00Z,42.6327,-83.9854,27,18,60,4,,10+,30.07,,,TRUE,TRUE,,,,,,,SCT,6000,,,,,,,VFR,,,,,,,,,,,,METAR,288
KOZS 141835Z AUTO 04003KT 10SM BKN060 32/15 A3001 RMK AO2,KOZS,2025-08-14T18:35:00Z,37.9745,-92.6897,32,15,40,3,,10+,30.01,,,TRUE,TRUE,,,,,,,BKN,6000,,,,,,,VFR,,,,,,,,,,,,METAR,321
KOYM 141835Z AUTO 34004KT 10SM BKN044 BKN055 OVC080 27/17 A3009 RMK AO2 PWINO,KOYM,2025-08-14T18:35:00Z,41.4118,-78.5131,27,17,340,4,,10+,30.09,,,TRUE,TRUE,,,,,TRUE,,BKN,4400,BKN,5500,OVC,8000,,,VFR,,,,,,,,,,,,METAR,582
KOXV 141835Z AUTO 14007G15KT 10SM CLR 26/19 A3002 RMK AO2,KOXV,2025-08-14T18:35:00Z,41.2984,-93.1114,26,19,140,7,15,10+,30.02,,,TRUE,TRUE,,,,,,,CLR,,,,,,,,VFR,,,,,,,,,,,,METAR,280
KOXI 141835Z AUTO 01004KT 10SM CLR 27/08 A3005 RMK AO1 PNO,KOXI,2025-08-14T18:35:00Z,41.3275,-86.665,27,8,10,4,,10+,30.05,,,TRUE,TRUE,,,,,,,CLR,,,,,,,,VFR,,,,,,,,,,,,METAR,208
KOXD 141835Z AUTO 34005KT 10SM CLR 29/20 A3005 RMK AO2 T02910203,KOXD,2025-08-14T18:35:00Z,39.5047,-84.7838,29.1,20.3,340,5,,10+,30.05,,,TRUE,TRUE,,,,,,,CLR,,,,,,,,VFR,,,,,,,,,,,,METAR,317
KOWX 141835Z AUTO 03004KT 10SM BKN085 27/23 A3005 RMK AO2,KOWX,2025-08-14T18:35:00Z,41.0341,-83.9862,27,23,30,4,,10+,30.05,,,TRUE,TRUE,,,,,,,BKN,8500,,,,,,,VFR,,,,,,,,,,,,METAR,232
KOWP 141835Z AUTO 15007KT 10SM CLR 35/18 A2999 RMK AO2 T03460183,KOWP,2025-08-14T18:35:00Z,36.1721,-96.1536,34.6,18.3,150,7,,10+,29.99,,,TRUE,TRUE,,,,,,,CLR,,,,,,,,VFR,,,,,,,,,,,,METAR,267
KOWA 141835Z AUTO 16015G19KT 10SM SCT090 OVC120 23/18 A2997 RMK AO2 T02310184 $,KOWA,2025-08-14T18:35:00Z,44.1191,-93.2569,23.1,18.4,160,15,19,10+,29.97,,,TRUE,TRUE,TRUE,,,,,,SCT,9000,OVC,12000,,,,,VFR,,,,,,,,,,,,METAR,345
KOVL 141835Z AUTO 16009KT 10SM RA SCT031 BKN060 OVC110 21/19 A2990 RMK AO2,KOVL,2025-08-14T18:35:00Z,44.7792,-95.0304,21,19,160,9,,10+,29.90,,,TRUE,TRUE,,,,,,RA,SCT,3100,BKN,6000,OVC,11000,,,VFR,,,,,,,,,,,,METAR,329
KOSC 141835Z AUTO 06012KT 10SM CLR 26/16 A3009 RMK AO2,KOSC,2025-08-14T18:35:00Z,44.453,-83.396,26,16,60,12,,10+,30.09,,,TRUE,TRUE,,,,,,,CLR,,,,,,,,VFR,,,,,,,,,,,,METAR,191
KOSA 141835Z AUTO 00000KT 10SM SCT046 SCT055 34/23 A2997 RMK AO2 T03370227,KOSA,2025-08-14T18:35:00Z,33.0936,-94.9601,33.7,22.7,0,0,,10+,29.97,,,TRUE,TRUE,,,,,,,SCT,4600,SCT,5500,,,,,VFR,,,,,,,,,,,,METAR,108
KORS 141835Z AUTO 16010G15KT 9SM BKN026 18/13 A3001 RMK AO2,KORS,2025-08-14T18:35:00Z,48.7081,-122.909,18,13,160,10,15,9,30.01,,,TRUE,TRUE,,,,,,,BKN,2600,,,,,,,MVFR,,,,,,,,,,,,METAR,7
KORK 141835Z AUTO 22008KT 10SM SCT050 SCT065 34/19 A2997 RMK AO2,KORK,2025-08-14T18:35:00Z,34.833,-92.2557,34,19,220,8,,10+,29.97,,,TRUE,TRUE,,,,,,,SCT,5000,SCT,6500,,,,,VFR,,,,,,,,,,,,METAR,166
KORG 141835Z AUTO 00000KT 10SM TS SCT043 SCT049 32/24 A3002 RMK AO2 LTG DSNT S AND SW T03240235,KORG,2025-08-14T18:35:00Z,30.068,-93.8043,32.4,23.5,0,0,,10+,30.02,,,TRUE,TRUE,,,,,,TS,SCT,4300,SCT,4900,,,,,VFR,,,,,,,,,,,,METAR,2
KOPL 141835Z AUTO 00000KT 10SM SCT042 33/23 A3000 RMK AO2 LTG DSNT N AND NW T03260230,KOPL,2025-08-14T18:35:00Z,30.5643,-92.1021,32.6,23,0,0,,10+,30.00,,,TRUE,TRUE,,,,,,,SCT,4200,,,,,,,VFR,,,,,,,,,,,,METAR,22
KOOA 141835Z AUTO 17006KT 10SM CLR 27/19 A3004 RMK AO2 T02700185,KOOA,2025-08-14T18:35:00Z,41.2273,-92.4919,27,18.5,170,6,,10+,30.04,,,TRUE,TRUE,,,,,,,CLR,,,,,,,,VFR,,,,,,,,,,,,METAR,256
KONZ 141835Z AUTO 18007KT 10SM CLR 27/19 A3006 RMK AO2,KONZ,2025-08-14T18:35:00Z,42.0991,-83.161,27,19,180,7,,10+,30.06,,,TRUE,TRUE,,,,,,,CLR,,,,,,,,VFR,,,,,,,,,,,,METAR,179
KONP 141835Z AUTO 27005KT 10SM SCT026 19/12 A3011 RMK AO2,KONP,2025-08-14T18:35:00Z,44.5825,-124.057,19,12,270,5,,10+,30.11,,,TRUE,TRUE,,,,,,,SCT,2600,,,,,,,VFR,,,,,,,,,,,,METAR,43
KONM 141835Z AUTO 17009G15KT 10SM CLR 34/07 A3012 RMK AO2 T03360072,KONM,2025-08-14T18:35:00Z,34.0263,-106.904,33.6,7.2,170,9,15,10+,30.12,,,TRUE,TRUE,,,,,,,CLR,,,,,,,,VFR,,,,,,,,,,,,METAR,1467
KONA 141835Z AUTO 00000KT 10SM SCT042 SCT120 26/17 A3001 RMK AO2 TSNO,KONA,2025-08-14T18:35:00Z,44.076,-91.707,26,17,0,0,,10+,30.01,,,TRUE,TRUE,,,TRUE,,,,SCT,4200,SCT,12000,,,,,VFR,,,,,,,,,,,,METAR,200
KOMH 141835Z AUTO 00000KT 10SM -RA SCT041 SCT050 BKN065 28/22 A2996 RMK AO2,KOMH,2025-08-14T18:35:00Z,38.2487,-78.0454,28,22,0,0,,10+,29.96,,,TRUE,TRUE,,,,,,-RA,SCT,4100,SCT,5000,BKN,6500,,,VFR,,,,,,,,,,,,METAR,136
KOLE 141835Z AUTO 36006KT 10SM CLR 26/10 A3008 RMK AO2,KOLE,2025-08-14T18:35:00Z,42.2429,-78.3721,26,10,360,6,,10+,30.08,,,TRUE,TRUE,,,,,,,CLR,,,,,,,,VFR,,,,,,,,,,,,METAR,651
KOKV 141835Z AUTO 34005KT 10SM SCT049 31/20 A2996 RMK AO2,KOKV,2025-08-14T18:35:00Z,39.1406,-78.1391,31,20,340,5,,10+,29.96,,,TRUE,TRUE,,,,,,,SCT,4900,,,,,,,VFR,,,,,,,,,,,,METAR,213
KOIC 141835Z AUTO 34010G16KT 310V020 10SM CLR 30/17 A2999 RMK AO2,KOIC,2025-08-14T18:35:00Z,42.5642,-75.5269,30,17,340,10,16,10+,29.99,,,TRUE,TRUE,,,,,,,CLR,,,,,,,,VFR,,,,,,,,,,,,METAR,311
KOEB 141835Z AUTO 05007KT 10SM SCT047 SCT055 BKN065 27/21 A3005 RMK AO2,KOEB,2025-08-14T18:35:00Z,41.9308,-85.0544,27,21,50,7,,10+,30.05,,,TRUE,TRUE,,,,,,,SCT,4700,SCT,5500,BKN,6500,,,VFR,,,,,,,,,,,,METAR,291
KOAR 141835Z AUTO 30008KT 10SM BKN012 OVC017 18/13 A2999 RMK AO2,KOAR,2025-08-14T18:35:00Z,36.6815,-121.757,18,13,300,8,,10+,29.99,,,TRUE,TRUE,,,,,,,BKN,1200,OVC,1700,,,,,MVFR,,,,,,,,,,,,METAR,41
KO32 141835Z AUTO 30003KT 10SM CLR 29/13 A2988 RMK AO2 T02850134 $,KO32,2025-08-14T18:35:00Z,36.6691,-119.453,28.5,13.4,300,3,,10+,29.88,,,TRUE,TRUE,TRUE,,,,,,CLR,,,,,,,,VFR,,,,,,,,,,,,METAR,117
KO26 141835Z AUTO 15005KT 10SM CLR 34/03 A2999 RMK A01,KO26,2025-08-14T18:35:00Z,36.59,-118.05,34,3,150,5,,10+,29.99,,,TRUE,TRUE,,,,,,,CLR,,,,,,,,VFR,,,,,,,,,,,,METAR,1122
KNY0 141835Z AUTO 09005KT 2SM SCT029 BKN055 OVC065 21/18 A2998 RMK AO2 VIS 1/2V5 P0023 T02060179,KNY0,2025-08-14T18:35:00Z,42.999,-74.3292,20.6,17.9,90,5,,2,29.98,,,TRUE,TRUE,,,,,,,SCT,2900,BKN,5500,OVC,6500,,,IFR,,,,,,0.23,,,,,,METAR,266
KN79 141835Z AUTO 11004KT 10SM CLR 29/21 A2996 RMK AO2 T02930215,KN79,2025-08-14T18:35:00Z,40.8371,-76.546,29.3,21.5,110,4,,10+,29.96,,,TRUE,TRUE,,,,,,,CLR,,,,,,,,VFR,,,,,,,,,,,,METAR,269
KN03 141835Z AUTO 32005KT 10SM CLR 28/16 A3002 RMK AO2,KN03,2025-08-14T18:35:00Z,42.5929,-76.2174,28,16,320,5,,10+,30.02,,,TRUE,TRUE,,,,,,,CLR,,,,,,,,VFR,,,,,,,,,,,,METAR,361
KMZH 141835Z AUTO 18008G18KT 112V222 10SM SCT041 26/16 A2994 RMK AO2,KMZH,2025-08-14T18:35:00Z,46.4163,-92.8049,26,16,180,8,18,10+,29.94,,,TRUE,TRUE,,,,,,,SCT,4100,,,,,,,VFR,,,,,,,,,,,,METAR,331
KMYP 141835Z AUTO 26016KT 10SM SCT100 18/M06 A3075 RMK AO2,KMYP,2025-08-14T18:35:00Z,38.4972,-106.32,18,-6,260,16,,10+,30.75,,,TRUE,TRUE,,,,,,,SCT,10000,,,,,,,VFR,,,,,,,,,,,,METAR,3629
KMYJ 141835Z AUTO 00000KT 10SM CLR 29/18 A3003 RMK AO2,KMYJ,2025-08-14T18:35:00Z,39.1561,-91.8129,29,18,0,0,,10+,30.03,,,TRUE,TRUE,,,,,,,CLR,,,,,,,,VFR,,,,,,,,,,,,METAR,249
KMWO 141835Z AUTO 02006KT 10SM BKN050 31/19 A3003 RMK AO2,KMWO,2025-08-14T18:35:00Z,39.5324,-84.3973,31,19,20,6,,10+,30.03,,,TRUE,TRUE,,,,,,,BKN,5000,,,,,,,VFR,,,,,,,,,,,,METAR,197
KMWM 141835Z AUTO 15010KT 10SM BKN110 24/20 A2991 RMK AO2,KMWM,2025-08-14T18:35:00Z,43.91,-95.1073,24,20,150,10,,10+,29.91,,,TRUE,TRUE,,,,,,,BKN,11000,,,,,,,VFR,,,,,,,,,,,,METAR,427
KMVE 141835Z AUTO 13008KT 10SM SCT100 22/21 A2986 RMK AO2,KMVE,2025-08-14T18:35:00Z,44.9675,-95.7116,22,21,130,8,,10+,29.86,,,TRUE,TRUE,,,,,,,SCT,10000,,,,,,,VFR,,,,,,,,,,,,METAR,319
KMTV 141835Z AUTO 00000KT 10SM CLR 27/22 A3001 RMK AO2 T02720224,KMTV,2025-08-14T18:35:00Z,36.6272,-80.0134,27.2,22.4,0,0,,10+,30.01,,,TRUE,TRUE,,,,,,,CLR,,,,,,,,VFR,,,,,,,,,,,,METAR,276
KMRJ 141835Z AUTO 16006KT 10SM CLR 25/17 A3008 RMK AO2 PWINO,KMRJ,2025-08-14T18:35:00Z,42.8875,-90.2315,25,17,160,6,,10+,30.08,,,TRUE,TRUE,,,,,TRUE,,CLR,,,,,,,,VFR,,,,,,,,,,,,METAR,350
KMQS 141835Z AUTO 01005KT 10SM CLR 29/24 A2997 RMK AO2,KMQS,2025-08-14T18:35:00Z,39.9773,-75.8605,29,24,10,5,,10+,29.97,,,TRUE,TRUE,,,,,,,CLR,,,,,,,,VFR,,,,,,,,,,,,METAR,200
KMQJ 141835Z AUTO VRB04KT 10SM CLR 30/19 A3004 RMK AO2 T03020189 $,KMQJ,2025-08-14T18:35:00Z,39.8402,-85.894,30.2,18.9,VRB,4,,10+,30.04,,,TRUE,TRUE,TRUE,,,,,,CLR,,,,,,,,VFR,,,,,,,,,,,,METAR,262
KMQB 141835Z AUTO 11005KT 10SM SCT044 29/19 A3005 RMK AO2 T02860187,KMQB,2025-08-14T18:35:00Z,40.5176,-90.6481,28.6,18.7,110,5,,10+,30.05,,,TRUE,TRUE,,,,,,,SCT,4400,,,,,,,VFR,,,,,,,,,,,,METAR,205
KMPR 141835Z AUTO 18015G20KT 10SM CLR 32/21 A2995 RMK AO2 T03170210,KMPR,2025-08-14T18:35:00Z,38.3491,-97.6883,31.7,21,180,15,20,10+,29.95,,,TRUE,TRUE,,,,,,,CLR,,,,,,,,VFR,,,,,,,,,,,,METAR,455
KMPE 141835Z AUTO 35004KT 10SM VCTS CLR A2999 RMK AO2 LTG DSNT S AND SW,KMPE,2025-08-14T18:35:00Z,32.7975,-89.125,,,350,4,,10+,29.99,,,TRUE,TRUE,,,,,,VCTS,CLR,,,,,,,,VFR,,,,,,,,,,,,METAR,134
KMOX 141835Z AUTO 15014KT 10SM FEW070 SCT100 26/22 A2982 RMK AO2 TSNO,KMOX,2025-08-14T18:35:00Z,45.5677,-95.9659,26,22,150,14,,10+,29.82,,,TRUE,TRUE,,,TRUE,,,,FEW,7000,SCT,10000,,,,,VFR,,,,,,,,,,,,METAR,346
KMOP 141835Z AUTO 11004KT 10SM SCT043 SCT049 BKN075 26/14 A3008 RMK AO2 T02560144,KMOP,2025-08-14T18:35:00Z,43.6229,-84.743,25.6,14.4,110,4,,10+,30.08,,,TRUE,TRUE,,,,,,,SCT,4300,SCT,4900,BKN,7500,,,VFR,,,,,,,,,,,,METAR,229
KMNH 141835Z AUTO 02003KT 10SM CLR 31/M02 A3021 RMK AO2,KMNH,2025-08-14T18:35:00Z,39.2232,-104.642,31,-2,20,3,,10+,30.21,,,TRUE,TRUE,,,,,,,CLR,,,,,,,,VFR,,,,,,,,,,,,METAR,2152
KMMH 141835Z AUTO 11009G15KT 080V140 10SM CLR 27/M02 A3021 RMK AO2,KMMH,2025-08-14T18:35:00Z,37.6253,-118.838,27,-2,110,9,15,10+,30.21,,,TRUE,TRUE,,,,,,,CLR,,,,,,,,VFR,,,,,,,,,,,,METAR,2167
KMKN 141835Z AUTO 23003KT 10SM SCT050 37/21 A2998 RMK AO2 T03720206,KMKN,2025-08-14T18:35:00Z,31.924,-98.5978,37.2,20.6,230,3,,10+,29.98,,,TRUE,TRUE,,,,,,,SCT,5000,,,,,,,VFR,,,,,,,,,,,,METAR,428
KMKJ 141835Z AUTO 00000KT 10SM SCT032 BKN044 OVC090 26/19 A3012 RMK AO2 T02550189,KMKJ,2025-08-14T18:35:00Z,36.8944,-81.3449,25.5,18.9,0,0,,10+,30.12,,,TRUE,TRUE,,,,,,,SCT,3200,BKN,4400,OVC,9000,,,VFR,,,,,,,,,,,,METAR,777
KMHL 141835Z AUTO 10005KT 10SM CLR 29/21 A3002 RMK AO2,KMHL,2025-08-14T18:35:00Z,39.093,-93.2024,29,21,100,5,,10+,30.02,,,TRUE,TRUE,,,,,,,CLR,,,,,,,,VFR,,,,,,,,,,,,METAR,236
KMGR 141835Z AUTO 23007KT 10SM SCT034 SCT044 BKN055 33/26 A3002 RMK AO2 T03310259 $,KMGR,2025-08-14T18:35:00Z,31.0835,-83.8035,33.1,25.9,230,7,,10+,30.02,,,TRUE,TRUE,TRUE,,,,,,SCT,3400,SCT,4400,BKN,5500,,,VFR,,,,,,,,,,,,METAR,86
KMGN 141835Z AUTO 24003KT 10SM OVC070 26/13 A3009 RMK AO2 T02670136,KMGN,2025-08-14T18:35:00Z,45.4241,-84.913,26.7,13.6,240,3,,10+,30.09,,,TRUE,TRUE,,,,,,,OVC,7000,,,,,,,VFR,,,,,,,,,,,,METAR,205
KMGG 141835Z AUTO 16010KT 130V190 10SM CLR 24/17 A2994 RMK AO2 T02430171,KMGG,2025-08-14T18:35:00Z,45.2354,-93.9896,24.3,17.1,160,10,,10+,29.94,,,TRUE,TRUE,,,,,,,CLR,,,,,,,,VFR,,,,,,,,,,,,METAR,310
KMGC 141835Z AUTO 35009KT 10SM CLR 26/16 A3007 RMK AO2,KMGC,2025-08-14T18:35:00Z,41.7048,-86.8183,26,16,350,9,,10+,30.07,,,TRUE,TRUE,,,,,,,CLR,,,,,,,,VFR,,,,,,,,,,,,METAR,199
KMEZ 141835Z AUTO 00000KT 10SM FEW360 32/20 A2999 RMK AO2 T03210196 $,KMEZ,2025-08-14T18:35:00Z,34.5414,-94.1918,32.1,19.6,0,0,,10+,29.99,,,TRUE,TRUE,TRUE,,,,,,FEW,36000,,,,,,,VFR,,,,,,,,,,,,METAR,320
KMDZ 141835Z AUTO 16006KT 10SM CLR 24/16 A3005 RMK AO2 T02440157 PWINO,KMDZ,2025-08-14T18:35:00Z,45.1013,-90.3064,24.4,15.7,160,6,,10+,30.05,,,TRUE,TRUE,,,,,TRUE,,CLR,,,,,,,,VFR,,,,,,,,,,,,METAR,446
KMDS 141835Z AUTO 20012G18KT 10SM BKN029 BKN035 27/25 A2983 RMK AO2 TSNO,KMDS,2025-08-14T18:35:00Z,44.0141,-97.0817,27,25,200,12,18,10+,29.83,,,TRUE,TRUE,,,TRUE,,,,BKN,2900,BKN,3500,,,,,MVFR,,,,,,,,,,,,METAR,524
KMDQ 141835Z AUTO 35004KT 10SM BKN037 BKN045 31/20 A3004 RMK A02 T03090201,KMDQ,2025-08-14T18:35:00Z,34.866,-86.559,30.9,20.1,350,4,,10+,30.04,,,TRUE,TRUE,,,,,,,BKN,3700,BKN,4500,,,,,VFR,,,,,,,,,,,,METAR,221
KMDD 141835Z AUTO 12005KT 10SM CLR 35/10 A3002 RMK AO2 T03540101,KMDD,2025-08-14T18:35:00Z,32.0359,-102.1,35.4,10.1,120,5,,10+,30.02,,,TRUE,TRUE,,,,,,,CLR,,,,,,,,VFR,,,,,,,,,,,,METAR,853
KMCX 141835Z AUTO 00000KT 10SM SCT049 28/16 A3005 RMK AO2 T02840156,KMCX,2025-08-14T18:35:00Z,40.7127,-86.7649,28.4,15.6,0,0,,10+,30.05,,,TRUE,TRUE,,,,,,,SCT,4900,,,,,,,VFR,,,,,,,,,,,,METAR,205
KMCJ 141835Z AUTO VRB03KT 10SM CLR 34/22 A2997 RMK A01 LTG DSNT NE-S,KMCJ,2025-08-14T18:35:00Z,29.7139,-95.3967,34,22,VRB,3,,10+,29.97,,,TRUE,TRUE,,,,,,,CLR,,,,,,,,VFR,,,,,,,,,,,,METAR,70
KMCD 141835Z AUTO 10007KT 060V130 10SM CLR 22/18 A3010 RMK AO2,KMCD,2025-08-14T18:35:00Z,45.866,-84.634,22,18,100,7,,10+,30.10,,,TRUE,TRUE,,,,,,,CLR,,,,,,,,VFR,,,,,,,,,,,,METAR,228
KMBY 141835Z AUTO 10003KT 10SM CLR 30/16 A3003 RMK AO2,KMBY,2025-08-14T18:35:00Z,39.464,-92.4244,30,16,100,3,,10+,30.03,,,TRUE,TRUE,,,,,,,CLR,,,,,,,,VFR,,,,,,,,,,,,METAR,263
KMAW 141835Z AUTO 00000KT 10SM CLR 33/20 A3000 RMK AO1,KMAW,2025-08-14T18:35:00Z,36.5945,-89.9865,33,20,0,0,,10+,30.00,,,TRUE,TRUE,,,,,,,CLR,,,,,,,,VFR,,,,,,,,,,,,METAR,88
KMAN 141835Z AUTO VRB06KT 9SM CLR 29/12 A2995 RMK A01,KMAN,2025-08-14T18:35:00Z,43.582,-116.521,29,12,VRB,6,,9,29.95,,,TRUE,TRUE,,,,,,,CLR,,,,,,,,VFR,,,,,,,,,,,,METAR,773
KM40 141835Z AUTO 00000KT 10SM CLR 33/25 A3001 RMK AO2,KM40,2025-08-14T18:35:00Z,33.8755,-88.4872,33,25,0,0,,10+,30.01,,,TRUE,TRUE,,,,,,,CLR,,,,,,,,VFR,,,,,,,,,,,,METAR,68
KM30 141835Z AUTO 00000KT 10SM CLR 31/21 A3001 RMK AO2 T03100209,KM30,2025-08-14T18:35:00Z,37.1824,-88.7487,31,20.9,0,0,,10+,30.01,,,TRUE,TRUE,,,,,,,CLR,,,,,,,,VFR,,,,,,,,,,,,METAR,116
KM21 141835Z AUTO 15007KT 10SM CLR 31/23 A3000 RMK AO2 T03130226,KM21,2025-08-14T18:35:00Z,37.2291,-87.1542,31.3,22.6,150,7,,10+,30.00,,,TRUE,TRUE,,,,,,,CLR,,,,,,,,VFR,,,,,,,,,,,,METAR,127
KM01 141835Z AUTO VRB04KT 9SM CLR 34/23 A2997 RMK AO2 T03360231 $,KM01,2025-08-14T18:35:00Z,35.2004,-90.0548,33.6,23.1,VRB,4,,9,29.97,,,TRUE,TRUE,TRUE,,,,,,CLR,,,,,,,,VFR,,,,,,,,,,,,METAR,68
KLYV 141835Z AUTO 17013G22KT 10SM CLR 29/22 A2986 RMK AO2,KLYV,2025-08-14T18:35:00Z,43.6217,-96.214,29,22,170,13,22,10+,29.86,,,TRUE,TRUE,,,,,,,CLR,,,,,,,,VFR,,,,,,,,,,,,METAR,435
KLYO 141835Z AUTO 16017G21KT 10SM CLR 31/20 A2994 RMK AO2 T03110201,KLYO,2025-08-14T18:35:00Z,38.343,-98.2266,31.1,20.1,160,17,21,10+,29.94,,,TRUE,TRUE,,,,,,,CLR,,,,,,,,VFR,,,,,,,,,,,,METAR,515
KLXN 141835Z AUTO 20015G22KT 10SM CLR 32/19 A2986 RMK AO2 T03200185,KLXN,2025-08-14T18:35:00Z,40.7915,-99.775,32,18.5,200,15,22,10+,29.86,,,TRUE,TRUE,,,,,,,CLR,,,,,,,,VFR,,,,,,,,,,,,METAR,734
KLXL 141835Z AUTO 17011G17KT 10SM SCT031 BKN100 26/18 A2990 RMK AO2,KLXL,2025-08-14T18:35:00Z,45.9509,-94.3441,26,18,170,11,17,10+,29.90,,,TRUE,TRUE,,,,,,,SCT,3100,BKN,10000,,,,,VFR,,,,,,,,,,,,METAR,335
KLWA 141835Z AUTO 29008KT 10SM CLR 27/20 A3005 RMK AO2,KLWA,2025-08-14T18:35:00Z,42.3476,-86.2578,27,20,290,8,,10+,30.05,,,TRUE,TRUE,,,,,,,CLR,,,,,,,,VFR,,,,,,,,,,,,METAR,199
KLVN 141835Z AUTO 16006KT 10SM SCT042 23/17 A2998 RMK AO2,KLVN,2025-08-14T18:35:00Z,44.6252,-93.2273,23,17,160,6,,10+,29.98,,,TRUE,TRUE,,,,,,,SCT,4200,,,,,,,VFR,,,,,,,,,,,,METAR,292
KLVL 141835Z AUTO 20005KT 10SM SCT022 OVC100 31/25 A2996 RMK AO1 T03050250,KLVL,2025-08-14T18:35:00Z,36.7723,-77.7925,30.5,25,200,5,,10+,29.96,,,TRUE,TRUE,,,,,,,SCT,2200,OVC,10000,,,,,VFR,,,,,,,,,,,,METAR,98
KLUM 141835Z AUTO 17010KT 10SM CLR 28/17 A3001 RMK AO2 T02800174 PWINO,KLUM,2025-08-14T18:35:00Z,44.8936,-91.8665,28,17.4,170,10,,10+,30.01,,,TRUE,TRUE,,,,,TRUE,,CLR,,,,,,,,VFR,,,,,,,,,,,,METAR,271
KLUL 141835Z AUTO 36005KT 10SM SCT034 BKN050 BKN070 32/24 A3000 RMK A02 T03220241,KLUL,2025-08-14T18:35:00Z,31.6682,-89.1705,32.2,24.1,360,5,,10+,30.00,,,TRUE,TRUE,,,,,,,SCT,3400,BKN,5000,BKN,7000,,,VFR,,,,,,,,,,,,METAR,74
KLUD 141835Z AUTO 21007KT 7SM CLR 35/20 A2996 RMK AO2 T03510199,KLUD,2025-08-14T18:35:00Z,33.2568,-97.5826,35.1,19.9,210,7,,7,29.96,,,TRUE,TRUE,,,,,,,CLR,,,,,,,,VFR,,,,,,,,,,,,METAR,319
KLUA 141835Z AUTO 11004KT 10SM CLR 31/22 A2999 RMK AO2,KLUA,2025-08-14T18:35:00Z,38.667,-78.501,31,22,110,4,,10+,29.99,,,TRUE,TRUE,,,,,,,CLR,,,,,,,,VFR,,,,,,,,,,,,METAR,273
KLRY 141835Z AUTO 13004KT 10SM CLR 31/21 A3003 RMK AO2,KLRY,2025-08-14T18:35:00Z,38.6074,-94.3453,31,21,130,4,,10+,30.03,,,TRUE,TRUE,,,,,,,CLR,,,,,,,,VFR,,,,,,,,,,,,METAR,272
KLRU 141835Z AUTO 00000KT 10SM CLR 33/08 A3012 RMK AO2 T03320078,KLRU,2025-08-14T18:35:00Z,32.2884,-106.913,33.2,7.8,0,0,,10+,30.12,,,TRUE,TRUE,,,,,,,CLR,,,,,,,,VFR,,,,,,,,,,,,METAR,1355
KLRJ 141835Z AUTO 17015G22KT 10SM FEW110 A2986 RMK AO2,KLRJ,2025-08-14T18:35:00Z,42.7771,-96.195,,,170,15,22,10+,29.86,,,TRUE,TRUE,,,,,,,FEW,11000,,,,,,,VFR,,,,,,,,,,,,METAR,363
KLQK 141835Z AUTO 33014KT 4SM +TSRA BKN033 BKN050 OVC090 24/23 A3002 RMK AO2 LTG DSNT NE P0008 T02440232,KLQK,2025-08-14T18:35:00Z,34.8069,-82.7047,24.4,23.2,330,14,,4,30.02,,,TRUE,TRUE,,,,,,+TSRA,BKN,3300,BKN,5000,OVC,9000,,,MVFR,,,,,,0.08,,,,,,METAR,291
KLNP 141835Z AUTO 36007KT 10SM BKN026 BKN033 BKN045 26/20 A3013 RMK AO2,KLNP,2025-08-14T18:35:00Z,36.9884,-82.524,26,20,360,7,,10+,30.13,,,TRUE,TRUE,,,,,,,BKN,2600,BKN,3300,BKN,4500,,,MVFR,,,,,,,,,,,,METAR,817
KLNL 141835Z AUTO 16006KT 10SM SCT030 SCT038 24/14 A3009 RMK AO2 T02370137,KLNL,2025-08-14T18:35:00Z,46.1515,-89.2108,23.7,13.7,160,6,,10+,30.09,,,TRUE,TRUE,,,,,,,SCT,3000,SCT,3800,,,,,VFR,,,,,,,,,,,,METAR,517
KLNC 141835Z AUTO 17009KT 10SM SCT050 SCT065 35/22 A2996 RMK AO2 T03540217,KLNC,2025-08-14T18:35:00Z,32.5832,-96.7209,35.4,21.7,170,9,,10+,29.96,,,TRUE,TRUE,,,,,,,SCT,5000,SCT,6500,,,,,VFR,,,,,,,,,,,,METAR,152
KLNA 141835Z AUTO 10010KT 10SM CLR 34/19 A3006 RMK AO2 T03380190,KLNA,2025-08-14T18:35:00Z,26.5925,-80.0848,33.8,19,100,10,,10+,30.06,,,TRUE,TRUE,,,,,,,CLR,,,,,,,,VFR,,,,,,,,,,,,METAR,3
KLMO 141835Z AUTO 10008KT 10SM CLR 37/03 A3002 RMK AO2 T03690028,KLMO,2025-08-14T18:35:00Z,40.1612,-105.16,36.9,2.8,100,8,,10+,30.02,,,TRUE,TRUE,,,,,,,CLR,,,,,,,,VFR,,,,,,,,,,,,METAR,1535
KLKU 141835Z AUTO 36004KT 10SM BKN034 BKN039 BKN080 30/23 A2997 RMK AO2 P0002 T03010232,KLKU,2025-08-14T18:35:00Z,38.0085,-77.9681,30.1,23.2,360,4,,10+,29.97,,,TRUE,TRUE,,,,,,,BKN,3400,BKN,3900,BKN,8000,,,VFR,,,,,,0.02,,,,,,METAR,146
KLDM 141835Z AUTO 32005KT 10SM BKN048 BKN050 26/17 A3006 RMK AO2,KLDM,2025-08-14T18:35:00Z,43.9614,-86.4107,26,17,320,5,,10+,30.06,,,TRUE,TRUE,,,,,,,BKN,4800,BKN,5000,,,,,VFR,,,,,,,,,,,,METAR,194
KLDJ 141835Z AUTO 00000KT 10SM BKN100 BKN120 31/19 A2992 RMK AO2 T03090188,KLDJ,2025-08-14T18:35:00Z,40.6162,-74.2451,30.9,18.8,0,0,,10+,29.92,,,TRUE,TRUE,,,,,,,BKN,10000,BKN,12000,,,,,VFR,,,,,,,,,,,,METAR,6
KLBO 141835Z AUTO 25004KT 10SM SCT060 SCT080 33/17 A3003 RMK AO2,KLBO,2025-08-14T18:35:00Z,37.6449,-92.6544,33,17,250,4,,10+,30.03,,,TRUE,TRUE,,,,,,,SCT,6000,SCT,8000,,,,,VFR,,,,,,,,,,,,METAR,399
KL35 141835Z AUTO 27009G18KT 10SM CLR 26/M09 A3026 RMK AO2,KL35,2025-08-14T18:35:00Z,34.2626,-116.855,26,-9,270,9,18,10+,30.26,,,TRUE,TRUE,,,,,,,CLR,,,,,,,,VFR,,,,,,,,,,,,METAR,2062
KL18 141835Z AUTO 25004KT 10SM CLR 23/17 A2995 RMK AO2,KL18,2025-08-14T18:35:00Z,33.3551,-117.249,23,17,250,4,,10+,29.95,,,TRUE,TRUE,,,,,,,CLR,,,,,,,,VFR,,,,,,,,,,,,METAR,215
KL08 141835Z AUTO 12011KT 10SM CLR 39/14 A2979 RMK AO2,KL08,2025-08-14T18:35:00Z,33.2604,-116.323,39,14,120,11,,10+,29.79,,,TRUE,TRUE,,,,,,,CLR,,,,,,,,VFR,,,,,,,,,,,,METAR,156
KKY8 141835Z AUTO 10SM FEW043 32/23 A3000 RMK A01,KKY8,2025-08-14T18:35:00Z,37.953,-86.8592,32,23,,,,10+,30.00,,,TRUE,TRUE,,,,,,,FEW,4300,,,,,,,VFR,,,,,,,,,,,,METAR,124
KK82 141835Z AUTO 17019G25KT 10SM CLR 35/19 A2989 RMK AO2 T03480191,KK82,2025-08-14T18:35:00Z,39.7606,-98.7957,34.8,19.1,170,19,25,10+,29.89,,,TRUE,TRUE,,,,,,,CLR,,,,,,,,VFR,,,,,,,,,,,,METAR,548
KJYO 141835Z AUTO 31007KT 290V030 10SM SCT041 31/23 A2995 RMK AO2 LTG DSNT NE,KJYO,2025-08-14T18:35:00Z,39.0826,-77.5605,31,23,310,7,,10+,29.95,,,TRUE,TRUE,,,,,,,SCT,4100,,,,,,,VFR,,,,,,,,,,,,METAR,112
KJYM 141835Z AUTO 10005KT 10SM SCT040 28/19 A3007 RMK AO2,KJYM,2025-08-14T18:35:00Z,41.9197,-84.5853,28,19,100,5,,10+,30.07,,,TRUE,TRUE,,,,,,,SCT,4000,,,,,,,VFR,,,,,,,,,,,,METAR,357
KJYL 141835Z AUTO 30009KT 10SM 32/25 A3001 RMK AO2 T03170250,KJYL,2025-08-14T18:35:00Z,32.6459,-81.5894,31.7,25,300,9,,10+,30.01,,,TRUE,TRUE,,,,,,,,,,,,,,,VFR,,,,,,,,,,,,METAR,54
KJYG 141835Z AUTO 19012KT 10SM CLR 24/19 A2992 RMK AO2,KJYG,2025-08-14T18:35:00Z,43.9855,-94.5527,24,19,190,12,,10+,29.92,,,TRUE,TRUE,,,,,,,CLR,,,,,,,,VFR,,,,,,,,,,,,METAR,323
KJXI 141835Z AUTO 19005KT 10SM SCT044 33/21 A2998 RMK AO2 T03310210,KJXI,2025-08-14T18:35:00Z,32.7036,-94.9471,33.1,21,190,5,,10+,29.98,,,TRUE,TRUE,,,,,,,SCT,4400,,,,,,,VFR,,,,,,,,,,,,METAR,130
KJWY 141835Z AUTO 17009KT 10SM CLR 34/23 A2997 RMK AO2 T03410231 $,KJWY,2025-08-14T18:35:00Z,32.456,-96.914,34.1,23.1,170,9,,10+,29.97,,,TRUE,TRUE,TRUE,,,,,,CLR,,,,,,,,VFR,,,,,,,,,,,,METAR,211
KJWG 141835Z AUTO 20010G14KT 160V220 10SM CLR 34/19 A2998 RMK AO2 T03410192,KJWG,2025-08-14T18:35:00Z,35.863,-98.423,34.1,19.2,200,10,14,10+,29.98,,,TRUE,TRUE,,,,,,,CLR,,,,,,,,VFR,,,,,,,,,,,,METAR,469
KJVW 141835Z AUTO 00000KT VCTS FEW038 FEW045 SCT065 33/29 A2998 RMK AO2 LTG DSNT ALQDS,KJVW,2025-08-14T18:35:00Z,32.3069,-90.412,33,29,0,0,,,29.98,,,TRUE,TRUE,,,,,,VCTS,FEW,3800,FEW,4500,SCT,6500,,,,,,,,,,,,,,,METAR,73
KJSO 141835Z AUTO VRB05KT 8SM SCT044 SCT065 34/23 A2996 RMK AO2 T03420228 $,KJSO,2025-08-14T18:35:00Z,31.869,-95.2145,34.2,22.8,VRB,5,,8,29.96,,,TRUE,TRUE,TRUE,,,,,,SCT,4400,SCT,6500,,,,,VFR,,,,,,,,,,,,METAR,204
KJRO 141835Z AUTO 35006KT 10SM SCT046 31/22 A3002 RMK AO2,KJRO,2025-08-14T18:35:00Z,38.9861,-82.5756,31,22,350,6,,10+,30.02,,,TRUE,TRUE,,,,,,,SCT,4600,,,,,,,VFR,,,,,,,,,,,,METAR,224
KJPX 141835Z AUTO 00000KT 10SM SCT120 27/21 A2991 RMK AO2 T02700211,KJPX,2025-08-14T18:35:00Z,40.9605,-72.2511,27,21.1,0,0,,10+,29.91,,,TRUE,TRUE,,,,,,,SCT,12000,,,,,,,VFR,,,,,,,,,,,,METAR,10
KJMR 141835Z AUTO 17012G18KT 10SM CLR 25/17 A2998 RMK AO2,KJMR,2025-08-14T18:35:00Z,45.8885,-93.269,25,17,170,12,18,10+,29.98,,,TRUE,TRUE,,,,,,,CLR,,,,,,,,VFR,,,,,,,,,,,,METAR,301
KJKJ 141835Z AUTO 18013G17KT 10SM SCT036 28/19 A2977 RMK AO2,KJKJ,2025-08-14T18:35:00Z,46.8404,-96.6545,28,19,180,13,17,10+,29.77,,,TRUE,TRUE,,,,,,,SCT,3600,,,,,,,VFR,,,,,,,,,,,,METAR,280
KJGG 141835Z AUTO VRB04KT 10SM BKN240 BKN270 A2993 RMK AO2 $,KJGG,2025-08-14T18:35:00Z,37.24,-76.718,,,VRB,4,,10+,29.93,,,TRUE,TRUE,TRUE,,,,,,BKN,24000,BKN,27000,,,,,VFR,,,,,,,,,,,,METAR,13
KJFZ 141835Z AUTO 28006KT 10SM BKN030 BKN043 BKN050 26/19 A3012 RMK AO2 T02630191,KJFZ,2025-08-14T18:35:00Z,37.0634,-81.7969,26.3,19.1,280,6,,10+,30.12,,,TRUE,TRUE,,,,,,,BKN,3000,BKN,4300,BKN,5000,,,MVFR,,,,,,,,,,,,METAR,809
KJFX 141835Z AUTO 00000KT 10SM BKN030 32/25 A3003 RMK AO2,KJFX,2025-08-14T18:35:00Z,33.9008,-87.3092,32,25,0,0,,10+,30.03,,,TRUE,TRUE,,,,,,,BKN,3000,,,,,,,MVFR,,,,,,,,,,,,METAR,144
KJDD 141835Z AUTO VRB04KT 9SM FEW045 33/24 A2996 RMK AO2 T03310238 $,KJDD,2025-08-14T18:35:00Z,32.7403,-95.4945,33.1,23.8,VRB,4,,9,29.96,,,TRUE,TRUE,TRUE,,,,,,FEW,4500,,,,,,,VFR,,,,,,,,,,,,METAR,127
KJAQ 141835Z AUTO 26004KT 10SM CLR 26/12 A2996 RMK AO1 T02600117,KJAQ,2025-08-14T18:35:00Z,38.3742,-120.794,26,11.7,260,4,,10+,29.96,,,TRUE,TRUE,,,,,,,CLR,,,,,,,,VFR,,,,,,,,,,,,METAR,518
KIUA 141835Z AUTO 05009KT 10SM SCT038 SCT080 28/16 A3004 RMK AO2 T02780157,KIUA,2025-08-14T18:35:00Z,42.9058,-77.3227,27.8,15.7,50,9,,10+,30.04,,,TRUE,TRUE,,,,,,,SCT,3800,SCT,8000,,,,,VFR,,,,,,,,,,,,METAR,248
KISQ 141835Z AUTO 16007KT 10SM CLR 23/15 A3009 RMK AO2 T02300146,KISQ,2025-08-14T18:35:00Z,45.9729,-86.1728,23,14.6,160,7,,10+,30.09,,,TRUE,TRUE,,,,,,,CLR,,,,,,,,VFR,,,,,,,,,,,,METAR,206
KIRS 141835Z AUTO 17007KT 10SM FEW046 29/16 A3005 RMK AO2,KIRS,2025-08-14T18:35:00Z,41.8154,-85.4376,29,16,170,7,,10+,30.05,,,TRUE,TRUE,,,,,,,FEW,4600,,,,,,,VFR,,,,,,,,,,,,METAR,282
KINJ 141835Z AUTO 19007KT CLR 34/23 A2997 RMK AO2 T03410226 PWINO,KINJ,2025-08-14T18:35:00Z,32.0844,-97.0959,34.1,22.6,190,7,,,29.97,,,TRUE,TRUE,,,,,TRUE,,CLR,,,,,,,,,,,,,,,,,,,,METAR,208
KINF 141835Z AUTO 00000KT 10SM -RA 29/27 A3006 RMK AO2 LTG DSNT SE,KINF,2025-08-14T18:35:00Z,28.8062,-82.319,29,27,0,0,,10+,30.06,,,TRUE,TRUE,,,,,,-RA,,,,,,,,,VFR,,,,,,,,,,,,METAR,14
KIMS 141835Z AUTO 35005KT 10SM SCT038 SCT075 SCT100 30/22 A3004 RMK AO2,KIMS,2025-08-14T18:35:00Z,38.7515,-85.4689,30,22,350,5,,10+,30.04,,,TRUE,TRUE,,,,,,,SCT,3800,SCT,7500,SCT,10000,,,VFR,,,,,,,,,,,,METAR,244
KIKW 141835Z AUTO 09007KT 10SM FEW047 BKN080 27/13 A3009 RMK AO2,KIKW,2025-08-14T18:35:00Z,43.6643,-84.2613,27,13,90,7,,10+,30.09,,,TRUE,TRUE,,,,,,,FEW,4700,BKN,8000,,,,,VFR,,,,,,,,,,,,METAR,190
KIKT 141835Z AUTO 00000KT 10SM CLR 31/25 A3007 RMK A01,KIKT,2025-08-14T18:35:00Z,28.5208,-88.2889,31,25,0,0,,10+,30.07,,,TRUE,TRUE,,,,,,,CLR,,,,,,,,VFR,,,,,,,,,,,,METAR,36
KIKG 141835Z AUTO 15008KT 10SM SCT055 37/21 A2993 RMK AO2 T03670211,KIKG,2025-08-14T18:35:00Z,27.5464,-98.0292,36.7,21.1,150,8,,10+,29.93,,,TRUE,TRUE,,,,,,,SCT,5500,,,,,,,VFR,,,,,,,,,,,,METAR,37
KIIY 141835Z AUTO 26006KT 10SM SCT033 31/24 A3000 RMK AO2 T03100239,KIIY,2025-08-14T18:35:00Z,33.7797,-82.8135,31,23.9,260,6,,10+,30.00,,,TRUE,TRUE,,,,,,,SCT,3300,,,,,,,VFR,,,,,,,,,,,,METAR,192
KIIB 141835Z AUTO 20008KT 10SM CLR 24/18 A3007 RMK AO2 T02440177,KIIB,2025-08-14T18:35:00Z,42.4544,-91.9504,24.4,17.7,200,8,,10+,30.07,,,TRUE,TRUE,,,,,,,CLR,,,,,,,,VFR,,,,,,,,,,,,METAR,294
KIGQ 141835Z AUTO 07003KT 10SM SCT048 27/17 A3006 RMK AO2 T02680166,KIGQ,2025-08-14T18:35:00Z,41.5412,-87.5282,26.8,16.6,70,3,,10+,30.06,,,TRUE,TRUE,,,,,,,SCT,4800,,,,,,,VFR,,,,,,,,,,,,METAR,187
KIFA 141835Z AUTO 16008KT 10SM CLR 24/18 A3003 RMK AO2 T02420179,KIFA,2025-08-14T18:35:00Z,42.4691,-93.2651,24.2,17.9,160,8,,10+,30.03,,,TRUE,TRUE,,,,,,,CLR,,,,,,,,VFR,,,,,,,,,,,,METAR,344
KIER 141835Z AUTO 00000KT 10SM CLR 33/25 A2998 RMK AO2 LTG DSNT ALQS T03270246,KIER,2025-08-14T18:35:00Z,31.736,-93.1003,32.7,24.6,0,0,,10+,29.98,,,TRUE,TRUE,,,,,,,CLR,,,,,,,,VFR,,,,,,,,,,,,METAR,35
KIDI 141835Z AUTO 29005G13KT 10SM SCT035 SCT065 29/20 A3005 RMK A01,KIDI,2025-08-14T18:35:00Z,40.6337,-79.1036,29,20,290,5,13,10+,30.05,,,TRUE,TRUE,,,,,,,SCT,3500,SCT,6500,,,,,VFR,,,,,,,,,,,,METAR,425
KICL 141835Z AUTO 18010G16KT 10SM CLR 28/22 A2998 RMK AO2,KICL,2025-08-14T18:35:00Z,40.7242,-95.0222,28,22,180,10,16,10+,29.98,,,TRUE,TRUE,,,,,,,CLR,,,,,,,,VFR,,,,,,,,,,,,METAR,299
KI75 141835Z AUTO 17007KT CLR 28/20 A3001 RMK AO2 T02790202 PWINO,KI75,2025-08-14T18:35:00Z,41.0472,-93.6876,27.9,20.2,170,7,,,30.01,,,TRUE,TRUE,,,,,TRUE,,CLR,,,,,,,,,,,,,,,,,,,,METAR,336
KI74 141835Z AUTO 00000KT 10SM SCT043 29/20 A3005 RMK AO2,KI74,2025-08-14T18:35:00Z,40.1314,-83.757,29,20,0,0,,10+,30.05,,,TRUE,TRUE,,,,,,,SCT,4300,,,,,,,VFR,,,,,,,,,,,,METAR,322
KI68 141835Z AUTO 00000KT 10SM BKN070 OVC085 29/24 A3002 RMK AO2,KI68,2025-08-14T18:35:00Z,39.4664,-84.2532,29,24,0,0,,10+,30.02,,,TRUE,TRUE,,,,,,,BKN,7000,OVC,8500,,,,,VFR,,,,,,,,,,,,METAR,274
KI67 141835Z AUTO 29003KT 10SM CLR 30/20 A3002 RMK AO1,KI67,2025-08-14T18:35:00Z,39.2565,-84.7753,30,20,290,3,,10+,30.02,,,TRUE,TRUE,,,,,,,CLR,,,,,,,,VFR,,,,,,,,,,,,METAR,177
KI63 141835Z AUTO 13008KT 10SM SCT043 28/19 A3003 RMK AO2 T02820191,KI63,2025-08-14T18:35:00Z,39.9883,-90.8023,28.2,19.1,130,8,,10+,30.03,,,TRUE,TRUE,,,,,,,SCT,4300,,,,,,,VFR,,,,,,,,,,,,METAR,221
KI40 141835Z AUTO 02003KT 10SM SCT045 30/18 A3006 RMK AO2,KI40,2025-08-14T18:35:00Z,40.3101,-81.8544,30,18,20,3,,10+,30.06,,,TRUE,TRUE,,,,,,,SCT,4500,,,,,,,VFR,,,,,,,,,,,,METAR,303
KI23 141835Z AUTO 36005KT 10SM SCT036 29/20 A3004 RMK AO1,KI23,2025-08-14T18:35:00Z,39.5697,-83.4239,29,20,360,5,,10+,30.04,,,TRUE,TRUE,,,,,,,SCT,3600,,,,,,,VFR,,,,,,,,,,,,METAR,298
KI16 141835Z AUTO 10SM SCT030 SCT039 SCT048 30/22 A3011 RMK AO2 T03000216,KI16,2025-08-14T18:35:00Z,37.5998,-81.5589,30,21.6,,,,10+,30.11,,,TRUE,TRUE,,,,,,,SCT,3000,SCT,3900,SCT,4800,,,VFR,,,,,,,,,,,,METAR,528
KHZX 141835Z AUTO 17011G20KT 10SM OVC037 25/17 A2992 RMK AO2,KHZX,2025-08-14T18:35:00Z,46.6189,-93.3128,25,17,170,11,20,10+,29.92,,,TRUE,TRUE,,,,,,,OVC,3700,,,,,,,VFR,,,,,,,,,,,,METAR,374
KHZE 141835Z AUTO 32009G18KT 10SM FEW070 FEW080 FEW090 22/17 A2980 RMK AO2,KHZE,2025-08-14T18:35:00Z,47.288,-101.577,22,17,320,9,18,10+,29.80,,,TRUE,TRUE,,,,,,,FEW,7000,FEW,8000,FEW,9000,,,VFR,,,,,,,,,,,,METAR,542
KHYX 141835Z AUTO 05006KT 010V070 10SM CLR 27/14 A3008 RMK AO2,KHYX,2025-08-14T18:35:00Z,43.4319,-83.8648,27,14,50,6,,10+,30.08,,,TRUE,TRUE,,,,,,,CLR,,,,,,,,VFR,,,,,,,,,,,,METAR,181
KHYW 141835Z AUTO 00000KT 10SM -TSRA CLR 27/26 A2996 RMK AO2 LTG DSNT ALQDS,KHYW,2025-08-14T18:35:00Z,33.8256,-79.1259,27,26,0,0,,10+,29.96,,,TRUE,TRUE,,,,,,-TSRA,CLR,,,,,,,,VFR,,,,,,,,,,,,METAR,10
KHWY 141835Z AUTO 01007KT 10SM SCT041 33/20 A2995 RMK AO2 LTG DSNT E AND SE T03280197,KHWY,2025-08-14T18:35:00Z,38.5876,-77.715,32.8,19.7,10,7,,10+,29.95,,,TRUE,TRUE,,,,,,,SCT,4100,,,,,,,VFR,,,,,,,,,,,,METAR,93
KHSP 141835Z AUTO 07003KT 10SM SCT011 BKN022 BKN030 23/20 A3016 RMK AO2 LTG DSNT E AND SE T02290195,KHSP,2025-08-14T18:35:00Z,37.9531,-79.8285,22.9,19.5,70,3,,10+,30.16,,,TRUE,TRUE,,,,,,,SCT,1100,BKN,2200,BKN,3000,,,MVFR,,,,,,,,,,,,METAR,1148
KHSB 141835Z AUTO 07003KT 10SM SCT048 SCT055 32/21 A3000 RMK AO2 T03210211,KHSB,2025-08-14T18:35:00Z,37.8128,-88.5449,32.1,21.1,70,3,,10+,30.00,,,TRUE,TRUE,,,,,,,SCT,4800,SCT,5500,,,,,VFR,,,,,,,,,,,,METAR,118
KHRX 141835Z AUTO 22011G15KT 10SM CLR 36/12 A3003 RMK AO2 T03580122 TSNO,KHRX,2025-08-14T18:35:00Z,34.8628,-102.32,35.8,12.2,220,11,15,10+,30.03,,,TRUE,TRUE,,,TRUE,,,,CLR,,,,,,,,VFR,,,,,,,,,,,,METAR,1153
KHPT 141835Z AUTO 16007KT 10SM -RA SCT033 SCT039 SCT048 21/17 A3002 RMK AO2,KHPT,2025-08-14T18:35:00Z,42.7175,-93.2244,21,17,160,7,,10+,30.02,,,TRUE,TRUE,,,,,,-RA,SCT,3300,SCT,3900,SCT,4800,,,VFR,,,,,,,,,,,,METAR,354
KHOE 141835Z AUTO 26007KT 10SM CLR 33/23 A3002 RMK AO2 T03310238,KHOE,2025-08-14T18:35:00Z,31.0561,-82.7726,33.1,23.8,260,7,,10+,30.02,,,TRUE,TRUE,,,,,,,CLR,,,,,,,,VFR,,,,,,,,,,,,METAR,56
KHMT 141835Z AUTO 24010G40KT 10SM CLR 30/14 A2995 RMK AO2,KHMT,2025-08-14T18:35:00Z,33.7303,-117.027,30,14,240,10,40,10+,29.95,,,TRUE,TRUE,,,,,,,CLR,,,,,,,,VFR,,,,,,,,,,,,METAR,462
KHLX 141835Z AUTO 24003KT 10SM -DZ SCT023 SCT050 BKN090 23/21 A3009 RMK AO2,KHLX,2025-08-14T18:35:00Z,36.7637,-80.8211,23,21,240,3,,10+,30.09,,,TRUE,TRUE,,,,,,-DZ,SCT,2300,SCT,5000,BKN,9000,,,VFR,,,,,,,,,,,,METAR,819
KHFJ 141835Z AUTO 23006KT 10SM CLR 33/18 A3001 RMK AO2,KHFJ,2025-08-14T18:35:00Z,36.9105,-94.0099,33,18,230,6,,10+,30.01,,,TRUE,TRUE,,,,,,,CLR,,,,,,,,VFR,,,,,,,,,,,,METAR,398
KHEG 141835Z AUTO 25009KT 10SM CLR 34/23 A3005 RMK AO2 TSNO,KHEG,2025-08-14T18:35:00Z,30.2771,-81.8087,34,23,250,9,,10+,30.05,,,TRUE,TRUE,,,TRUE,,,,CLR,,,,,,,,VFR,,,,,,,,,,,,METAR,25
KHDC 141835Z AUTO 00000KT 10SM CLR 34/22 A3000 RMK AO2 T03400224,KHDC,2025-08-14T18:35:00Z,30.5237,-90.4176,34,22.4,0,0,,10+,30.00,,,TRUE,TRUE,,,,,,,CLR,,,,,,,,VFR,,,,,,,,,,,,METAR,12
KHCR 141835Z AUTO 00000KT 10SM SCT150 BKN190 26/04 A3010 RMK AO2 T02620035 $,KHCR,2025-08-14T18:35:00Z,40.4774,-111.433,26.2,3.5,0,0,,10+,30.10,,,TRUE,TRUE,TRUE,,,,,,SCT,15000,BKN,19000,,,,,VFR,,,,,,,,,,,,METAR,1708
KHCO 141835Z AUTO 17014G20KT 10SM BKN031 28/22 A2970 RMK AO2,KHCO,2025-08-14T18:35:00Z,48.7524,-96.9376,28,22,170,14,20,10+,29.70,,,TRUE,TRUE,,,,,,,BKN,3100,,,,,,,VFR,,,,,,,,,,,,METAR,250
KHCD 141835Z AUTO 17006KT 10SM -RA SCT023 BKN038 OVC065 21/18 A2996 RMK AO2 T02140182,KHCD,2025-08-14T18:35:00Z,44.8597,-94.3855,21.4,18.2,170,6,,10+,29.96,,,TRUE,TRUE,,,,,,-RA,SCT,2300,BKN,3800,OVC,6500,,,VFR,,,,,,,,,,,,METAR,320
KHBV 141835Z AUTO 12010KT 10SM CLR 36/19 A2994 RMK AO2 T03630191 $,KHBV,2025-08-14T18:35:00Z,27.3516,-98.7415,36.3,19.1,120,10,,10+,29.94,,,TRUE,TRUE,TRUE,,,,,,CLR,,,,,,,,VFR,,,,,,,,,,,,METAR,200
KHAI 141835Z AUTO VRB02KT 10SM FEW045 27/19 A3004 RMK AO2,KHAI,2025-08-14T18:35:00Z,41.9591,-85.5933,27,19,VRB,2,,10+,30.04,,,TRUE,TRUE,,,,,,,FEW,4500,,,,,,,VFR,,,,,,,,,,,,METAR,250
KHAF 141835Z AUTO 17005KT 10SM BKN010 17/15 A3000 RMK AO2,KHAF,2025-08-14T18:35:00Z,37.5136,-122.5,17,15,170,5,,10+,30.00,,,TRUE,TRUE,,,,,,,BKN,1000,,,,,,,MVFR,,,,,,,,,,,,METAR,11
KHAE 141835Z AUTO 07003KT 10SM SCT044 29/17 A3003 RMK AO2,KHAE,2025-08-14T18:35:00Z,39.7262,-91.4425,29,17,70,3,,10+,30.03,,,TRUE,TRUE,,,,,,,SCT,4400,,,,,,,VFR,,,,,,,,,,,,METAR,230
KGZL 141835Z AUTO 00000KT 10SM FEW050 FEW055 SCT070 33/23 A2995 RMK AO2,KGZL,2025-08-14T18:35:00Z,35.2913,-95.0956,33,23,0,0,,10+,29.95,,,TRUE,TRUE,,,,,,,FEW,5000,FEW,5500,SCT,7000,,,VFR,,,,,,,,,,,,METAR,176
KGYL 141835Z AUTO 16004KT 10SM SCT050 SCT070 BKN085 23/18 A2995 RMK AO2 T02270180,KGYL,2025-08-14T18:35:00Z,44.7588,-94.0905,22.7,18,160,4,,10+,29.95,,,TRUE,TRUE,,,,,,,SCT,5000,SCT,7000,BKN,8500,,,VFR,,,,,,,,,,,,METAR,304
KGWW 141835Z AUTO 22003KT 10SM CLR 28/27 A2998 RMK AO2 T02840265,KGWW,2025-08-14T18:35:00Z,35.4637,-77.9604,28.4,26.5,220,3,,10+,29.98,,,TRUE,TRUE,,,,,,,CLR,,,,,,,,VFR,,,,,,,,,,,,METAR,40
KGWR 141835Z AUTO 21009G16KT 10SM CLR 28/24 A2976 RMK A01,KGWR,2025-08-14T18:35:00Z,46.2185,-97.6396,28,24,210,9,16,10+,29.76,,,TRUE,TRUE,,,,,,,CLR,,,,,,,,VFR,,,,,,,,,,,,METAR,381
KGVE 141835Z AUTO 01004KT 10SM SCT037 SCT050 BKN065 29/24 A2996 RMK AO1 P0001 T02910235,KGVE,2025-08-14T18:35:00Z,38.1569,-78.1656,29.1,23.5,10,4,,10+,29.96,,,TRUE,TRUE,,,,,,,SCT,3700,SCT,5000,BKN,6500,,,VFR,,,,,,0.01,,,,,,METAR,138
KGPM 141835Z AUTO 17010G14KT 10SM CLR 35/20 A2996 RMK AO2 T03460201,KGPM,2025-08-14T18:35:00Z,32.6928,-97.0485,34.6,20.1,170,10,14,10+,29.96,,,TRUE,TRUE,,,,,,,CLR,,,,,,,,VFR,,,,,,,,,,,,METAR,178
KGPC 141835Z AUTO 09003KT 10SM SCT065 29/21 A3004 RMK AO2 T02920213,KGPC,2025-08-14T18:35:00Z,39.635,-86.816,29.2,21.3,90,3,,10+,30.04,,,TRUE,TRUE,,,,,,,SCT,6500,,,,,,,VFR,,,,,,,,,,,,METAR,254
KGNT 141835Z AUTO 10003KT 10SM CLR 31/M03 A3024 RMK AO2 T03131026,KGNT,2025-08-14T18:35:00Z,35.1653,-107.902,31.3,-2.6,100,3,,10+,30.24,,,TRUE,TRUE,,,,,,,CLR,,,,,,,,VFR,,,,,,,,,,,,METAR,1988
KGHW 141835Z AUTO 15013KT 10SM CLR 24/19 A2990 RMK AO2,KGHW,2025-08-14T18:35:00Z,45.6456,-95.3187,24,19,150,13,,10+,29.90,,,TRUE,TRUE,,,,,,,CLR,,,,,,,,VFR,,,,,,,,,,,,METAR,423
KGHG 141835Z AUTO 17007KT 140V200 10SM CLR 29/22 A2989 RMK AO2,KGHG,2025-08-14T18:35:00Z,42.0961,-70.6769,29,22,170,7,,10+,29.89,,,TRUE,TRUE,,,,,,,CLR,,,,,,,,VFR,,,,,,,,,,,,METAR,3
KGGI 141835Z AUTO 17008KT 10SM CLR 25/19 A3005 RMK AO2 T02520189,KGGI,2025-08-14T18:35:00Z,41.7097,-92.7332,25.2,18.9,170,8,,10+,30.05,,,TRUE,TRUE,,,,,,,CLR,,,,,,,,VFR,,,,,,,,,,,,METAR,305
KGGF 141835Z AUTO VRB05KT 9SM CLR 31/18 A2989 RMK AO2,KGGF,2025-08-14T18:35:00Z,40.871,-101.734,31,18,VRB,5,,9,29.89,,,TRUE,TRUE,,,,,,,CLR,,,,,,,,VFR,,,,,,,,,,,,METAR,1044
KGGE 141835Z AUTO 22010G15KT 1SM +TSRA BKN012 OVC019 26/26 A2997 RMK AO2 LTG DSNT ALQDS P0045,KGGE,2025-08-14T18:35:00Z,33.3138,-79.3187,26,26,220,10,15,1,29.97,,,TRUE,TRUE,,,,,,+TSRA,BKN,1200,OVC,1900,,,,,IFR,,,,,,0.45,,,,,,METAR,9
KGDJ 141835Z AUTO 19005KT 10SM CLR 34/23 A2997 RMK AO2 T03380228,KGDJ,2025-08-14T18:35:00Z,32.4469,-97.817,33.8,22.8,190,5,,10+,29.97,,,TRUE,TRUE,,,,,,,CLR,,,,,,,,VFR,,,,,,,,,,,,METAR,235
KGDB 141835Z AUTO 11008KT 10SM OVC100 23/20 A2989 RMK AO2 T02320196,KGDB,2025-08-14T18:35:00Z,44.7521,-95.5591,23.2,19.6,110,8,,10+,29.89,,,TRUE,TRUE,,,,,,,OVC,10000,,,,,,,VFR,,,,,,,,,,,,METAR,316
KGDA 141835Z AUTO 00000KT 10SM SCT035 SCT042 BKN080 29/22 A3002 RMK AO2 P0001 T02930218,KGDA,2025-08-14T18:35:00Z,37.3344,-88.1095,29.3,21.8,0,0,,10+,30.02,,,TRUE,TRUE,,,,,,,SCT,3500,SCT,4200,BKN,8000,,,VFR,,,,,,0.01,,,,,,METAR,199
KGBG 141835Z AUTO 12003KT 10SM CLR 28/16 A3005 RMK AO2 T02750160,KGBG,2025-08-14T18:35:00Z,40.9329,-90.4334,27.5,16,120,3,,10+,30.05,,,TRUE,TRUE,,,,,,,CLR,,,,,,,,VFR,,,,,,,,,,,,METAR,230
KGAF 141835Z AUTO 17015KT 10SM FEW027 27/20 A2971 RMK AO2,KGAF,2025-08-14T18:35:00Z,48.4081,-97.3694,27,20,170,15,,10+,29.71,,,TRUE,TRUE,,,,,,,FEW,2700,,,,,,,VFR,,,,,,,,,,,,METAR,250
KFZG 141835Z AUTO 30007KT 10SM SCT036 SCT048 33/24 A3003 RMK AO2 T03290235,KFZG,2025-08-14T18:35:00Z,31.684,-83.2712,32.9,23.5,300,7,,10+,30.03,,,TRUE,TRUE,,,,,,,SCT,3600,SCT,4800,,,,,VFR,,,,,,,,,,,,METAR,105
KFYJ 141835Z AUTO CLR 32/22 A2993 RMK AO1 T03180220,KFYJ,2025-08-14T18:35:00Z,37.5224,-76.7663,31.8,22,,,,,29.93,,,TRUE,TRUE,,,,,,,CLR,,,,,,,,,,,,,,,,,,,,METAR,3
KFYG 141835Z AUTO VRB03KT 10SM CLR 31/21 A2999 RMK AO2,KFYG,2025-08-14T18:35:00Z,38.5877,-90.9915,31,21,VRB,3,,10+,29.99,,,TRUE,TRUE,,,,,,,CLR,,,,,,,,VFR,,,,,,,,,,,,METAR,147
KFWC 141835Z AUTO 00000KT 10SM CLR 30/20 A3000 RMK AO2 T03030204,KFWC,2025-08-14T18:35:00Z,38.3796,-88.4135,30.3,20.4,0,0,,10+,30.00,,,TRUE,TRUE,,,,,,,CLR,,,,,,,,VFR,,,,,,,,,,,,METAR,131
KFWB 141835Z AUTO VRB04KT 10SM UP CLR 34/15 A3000 RMK AO2,KFWB,2025-08-14T18:35:00Z,36.6933,-93.4049,34,15,VRB,4,,10+,30.00,,,TRUE,TRUE,,,,,,UP,CLR,,,,,,,,VFR,,,,,,,,,,,,METAR,392
KFVX 141835Z AUTO 15003KT 10SM SCT040 SCT060 34/26 A2994 RMK AO2 T03430255,KFVX,2025-08-14T18:35:00Z,37.363,-78.4372,34.3,25.5,150,3,,10+,29.94,,,TRUE,TRUE,,,,,,,SCT,4000,SCT,6000,,,,,VFR,,,,,,,,,,,,METAR,129
KFSO 141835Z AUTO 36009KT 290V020 10SM CLR 27/16 A3001 RMK AO2 T02650157,KFSO,2025-08-14T18:35:00Z,44.9411,-73.0997,26.5,15.7,360,9,,10+,30.01,,,TRUE,TRUE,,,,,,,CLR,,,,,,,,VFR,,,,,,,,,,,,METAR,70
KFSK 141835Z AUTO 16005KT 10SM CLR 32/22 A2999 RMK AO2 T03220220,KFSK,2025-08-14T18:35:00Z,37.796,-94.7676,32.2,22,160,5,,10+,29.99,,,TRUE,TRUE,,,,,,,CLR,,,,,,,,VFR,,,,,,,,,,,,METAR,276
KFSE 141835Z AUTO 17012KT 10SM 24/18 A2980 RMK AO2,KFSE,2025-08-14T18:35:00Z,47.589,-95.773,24,18,170,12,,10+,29.80,,,TRUE,TRUE,,,,,,,,,,,,,,,VFR,,,,,,,,,,,,METAR,389
KFRH 141835Z AUTO 05003KT 10SM SCT035 SCT065 30/21 A3002 RMK AO1,KFRH,2025-08-14T18:35:00Z,38.5034,-86.6442,30,21,50,3,,10+,30.02,,,TRUE,TRUE,,,,,,,SCT,3500,SCT,6500,,,,,VFR,,,,,,,,,,,,METAR,241
KFPY 141835Z AUTO 22010KT 10SM SCT031 SCT047 BKN050 33/25 A3003 RMK AO2 T03270251,KFPY,2025-08-14T18:35:00Z,30.0719,-83.5731,32.7,25.1,220,10,,10+,30.03,,,TRUE,TRUE,,,,,,,SCT,3100,SCT,4700,BKN,5000,,,VFR,,,,,,,,,,,,METAR,12
KFPK 141835Z AUTO VRB04KT 8SM SCT040 SCT075 27/18 A3006 RMK AO2,KFPK,2025-08-14T18:35:00Z,42.5764,-84.8125,27,18,VRB,4,,8,30.06,,,TRUE,TRUE,,,,,,,SCT,4000,SCT,7500,,,,,VFR,,,,,,,,,,,,METAR,269
KFLY 141835Z AUTO 08004KT 10SM 32/00 A3019 RMK AO2 T03151001,KFLY,2025-08-14T18:35:00Z,38.9439,-104.568,31.5,-0.1,80,4,,10+,30.19,,,TRUE,TRUE,,,,,,,,,,,,,,,VFR,,,,,,,,,,,,METAR,2096
KFKS 141835Z AUTO 27006KT 10SM CLR 27/19 A3007 RMK AO2 T02660191,KFKS,2025-08-14T18:35:00Z,44.6246,-86.1985,26.6,19.1,270,6,,10+,30.07,,,TRUE,TRUE,,,,,,,CLR,,,,,,,,VFR,,,,,,,,,,,,METAR,189
KFKN 141835Z AUTO 24003KT 10SM SCT018 30/24 A2994 RMK AO2 LTG DSNT S T02970235,KFKN,2025-08-14T18:35:00Z,36.6984,-76.9032,29.7,23.5,240,3,,10+,29.94,,,TRUE,TRUE,,,,,,,SCT,1800,,,,,,,VFR,,,,,,,,,,,,METAR,9
KFKA 141835Z AUTO VRB04KT 10SM FEW120 23/21 A3004 RMK AO2,KFKA,2025-08-14T18:35:00Z,43.677,-92.174,23,21,VRB,4,,10+,30.04,,,TRUE,TRUE,,,,,,,FEW,12000,,,,,,,VFR,,,,,,,,,,,,METAR,388
KFHM 141835Z 18001KT 24/18 ,KFHM,2025-08-14T18:35:00Z,34.0677,-118.242,24,18,180,1,,,0.00,,,,,,,,,,,,,,,,,,,,,,,,,,,,,,,METAR,126
KFHB 141835Z AUTO 23016G22KT 10SM BKN046 BKN050 34/24 A3002 RMK AO2 LTG DSNT SE THRU SW,KFHB,2025-08-14T18:35:00Z,30.6131,-81.4623,34,24,230,16,22,10+,30.02,,,TRUE,TRUE,,,,,,,BKN,4600,BKN,5000,,,,,VFR,,,,,,,,,,,,METAR,4
KFGN 141835Z AUTO 17014KT 10SM CLR 24/19 A2976 RMK AO2,KFGN,2025-08-14T18:35:00Z,49.318,-94.902,24,19,170,14,,10+,29.76,,,TRUE,TRUE,,,,,,,CLR,,,,,,,,VFR,,,,,,,,,,,,METAR,327
KFFX 141835Z AUTO VRB05KT 10SM CLR 27/17 A3006 RMK AO2,KFFX,2025-08-14T18:35:00Z,43.4417,-85.9936,27,17,VRB,5,,10+,30.06,,,TRUE,TRUE,,,,,,,CLR,,,,,,,,VFR,,,,,,,,,,,,METAR,234
KFFM 141835Z AUTO 17014G20KT 10SM FEW025 FEW034 27/23 A2982 RMK AO2,KFFM,2025-08-14T18:35:00Z,46.2865,-96.1534,27,23,170,14,20,10+,29.82,,,TRUE,TRUE,,,,,,,FEW,2500,FEW,3400,,,,,VFR,,,,,,,,,,,,METAR,362
KFFA 141835Z AUTO 26006KT 10SM SCT055 SCT070 30/23 A2994 RMK AO2 T03030228,KFFA,2025-08-14T18:35:00Z,36.0165,-75.6739,30.3,22.8,260,6,,10+,29.94,,,TRUE,TRUE,,,,,,,SCT,5500,SCT,7000,,,,,VFR,,,,,,,,,,,,METAR,2
KFDW 141835Z AUTO 00000KT 10SM SCT009 SCT036 OVC055 26/23 A2999 RMK AO1,KFDW,2025-08-14T18:35:00Z,34.3151,-81.1119,26,23,0,0,,10+,29.99,,,TRUE,TRUE,,,,,,,SCT,900,SCT,3600,OVC,5500,,,VFR,,,,,,,,,,,,METAR,174
KFBL 141835Z AUTO 17011G21KT 10SM SCT100 24/17 A2998 RMK AO2,KFBL,2025-08-14T18:35:00Z,44.3298,-93.3119,24,17,170,11,21,10+,29.98,,,TRUE,TRUE,,,,,,,SCT,10000,,,,,,,VFR,,,,,,,,,,,,METAR,318
KF46 141835Z AUTO 23006KT 10SM SCT060 34/21 A2997 RMK AO2 T03380210,KF46,2025-08-14T18:35:00Z,32.9322,-96.4349,33.8,21,230,6,,10+,29.97,,,TRUE,TRUE,,,,,,,SCT,6000,,,,,,,VFR,,,,,,,,,,,,METAR,175
KF05 141835Z AUTO 17009KT 10SM CLR 37/19 A2994 RMK AO2 T03670186,KF05,2025-08-14T18:35:00Z,34.2283,-99.2834,36.7,18.6,170,9,,10+,29.94,,,TRUE,TRUE,,,,,,,CLR,,,,,,,,VFR,,,,,,,,,,,,METAR,384
KEZF 141835Z AUTO 36003KT 10SM SCT040 SCT049 BKN060 32/21 A2992 RMK AO2 T03160212,KEZF,2025-08-14T18:35:00Z,38.2685,-77.448,31.6,21.2,360,3,,10+,29.92,,,TRUE,TRUE,,,,,,,SCT,4000,SCT,4900,BKN,6000,,,VFR,,,,,,,,,,,,METAR,26
KEVU 141835Z AUTO 18014G17KT 10SM CLR 28/22 A2996 RMK AO2 T02900225,KEVU,2025-08-14T18:35:00Z,40.3524,-94.9137,29,22.5,180,14,17,10+,29.96,,,TRUE,TRUE,,,,,,,CLR,,,,,,,,VFR,,,,,,,,,,,,METAR,351
KETB 141835Z AUTO 14006KT 10SM SCT050 28/15 A3007 RMK AO2,KETB,2025-08-14T18:35:00Z,43.4225,-88.1326,28,15,140,6,,10+,30.07,,,TRUE,TRUE,,,,,,,SCT,5000,,,,,,,VFR,,,,,,,,,,,,METAR,269
KERY 141835Z AUTO VRB06KT 10SM FEW055 25/13 A3009 RMK AO2,KERY,2025-08-14T18:35:00Z,46.3151,-85.4568,25,13,VRB,6,,10+,30.09,,,TRUE,TRUE,,,,,,,FEW,5500,,,,,,,VFR,,,,,,,,,,,,METAR,261
KERV 141835Z AUTO 17005KT 10SM CLR 35/21 RMK AO2 T03480205,KERV,2025-08-14T18:35:00Z,29.9779,-99.0872,34.8,20.5,170,5,,10+,0.00,,,TRUE,TRUE,,,,,,,CLR,,,,,,,,VFR,,,,,,,,,,,,METAR,483
KEQA 141835Z AUTO 16011KT 10SM CLR 32/21 A2997 RMK AO2,KEQA,2025-08-14T18:35:00Z,37.7753,-96.8145,32,21,160,11,,10+,29.97,,,TRUE,TRUE,,,,,,,CLR,,,,,,,,VFR,,,,,,,,,,,,METAR,422
KEOE 141835Z AUTO 00000KT 10SM CLR 29/22 A3002 RMK AO2 LTG DSNT E,KEOE,2025-08-14T18:35:00Z,34.3062,-81.6413,29,22,0,0,,10+,30.02,,,TRUE,TRUE,,,,,,,CLR,,,,,,,,VFR,,,,,,,,,,,,METAR,166
KENL 141835Z AUTO 04003KT 10SM CLR 32/20 A3001 RMK AO2 T03200196,KENL,2025-08-14T18:35:00Z,38.5095,-89.09,32,19.6,40,3,,10+,30.01,,,TRUE,TRUE,,,,,,,CLR,,,,,,,,VFR,,,,,,,,,,,,METAR,161
KEMV 141835Z AUTO 00000KT 10SM BKN110 30/23 A2997 RMK AO2 LTG DSNT SE T03000232,KEMV,2025-08-14T18:35:00Z,36.6858,-77.485,30,23.2,0,0,,10+,29.97,,,TRUE,TRUE,,,,,,,BKN,11000,,,,,,,VFR,,,,,,,,,,,,METAR,35
KELO 141835Z AUTO 15010KT 10SM CLR 23/13 A2997 RMK AO2,KELO,2025-08-14T18:35:00Z,47.8287,-91.8371,23,13,150,10,,10+,29.97,,,TRUE,TRUE,,,,,,,CLR,,,,,,,,VFR,,,,,,,,,,,,METAR,438
KELK 141835Z AUTO 18013KT 10SM CLR 34/19 A2995 RMK AO2 T03430187 $,KELK,2025-08-14T18:35:00Z,35.4261,-99.3926,34.3,18.7,180,13,,10+,29.95,,,TRUE,TRUE,TRUE,,,,,,CLR,,,,,,,,VFR,,,,,,,,,,,,METAR,603
KEKX 141835Z AUTO 00000KT 10SM CLR 31/20 A3000 RMK AO2 T03060202,KEKX,2025-08-14T18:35:00Z,37.6924,-85.9204,30.6,20.2,0,0,,10+,30.00,,,TRUE,TRUE,,,,,,,CLR,,,,,,,,VFR,,,,,,,,,,,,METAR,234
KEKM 141835Z AUTO 00000KT 5SM HZ FEW050 SCT065 28/16 A3004 RMK AO2 T02770159 $,KEKM,2025-08-14T18:35:00Z,41.7222,-86,27.7,15.9,0,0,,5,30.04,,,TRUE,TRUE,TRUE,,,,,HZ,FEW,5000,SCT,6500,,,,,MVFR,,,,,,,,,,,,METAR,236
KEGV 141835Z AUTO 20005KT 10SM SCT034 BKN041 BKN048 25/14 A3007 RMK AO2 T02450136,KEGV,2025-08-14T18:35:00Z,45.9309,-89.267,24.5,13.6,200,5,,10+,30.07,,,TRUE,TRUE,,,,,,,SCT,3400,BKN,4100,BKN,4800,,,VFR,,,,,,,,,,,,METAR,499
KEFT 141835Z AUTO 16008KT 10SM SCT042 26/17 A3006 RMK AO2 T02620169,KEFT,2025-08-14T18:35:00Z,42.6196,-89.5931,26.2,16.9,160,8,,10+,30.06,,,TRUE,TRUE,,,,,,,SCT,4200,,,,,,,VFR,,,,,,,,,,,,METAR,332
KEFK 141835Z AUTO 35013KT 10SM BKN039 BKN047 BKN055 25/15 A3002 RMK AO2 T02540151,KEFK,2025-08-14T18:35:00Z,44.8886,-72.2296,25.4,15.1,350,13,,10+,30.02,,,TRUE,TRUE,,,,,,,BKN,3900,BKN,4700,BKN,5500,,,VFR,,,,,,,,,,,,METAR,282
KEDN 141835Z AUTO 32004KT 10SM SCT032 SCT040 32/24 A3002 RMK AO1 T03210237,KEDN,2025-08-14T18:35:00Z,31.299,-85.9,32.1,23.7,320,4,,10+,30.02,,,TRUE,TRUE,,,,,,,SCT,3200,SCT,4000,,,,,VFR,,,,,,,,,,,,METAR,103
KEDC 141835Z AUTO VRB05G11KT 5SM HZ CLR 36/21 A2995 RMK AO2,KEDC,2025-08-14T18:35:00Z,30.3926,-97.5621,36,21,VRB,5,11,5,29.95,,,TRUE,TRUE,,,,,,HZ,CLR,,,,,,,,MVFR,,,,,,,,,,,,METAR,184
KECS 141835Z AUTO 00000KT 10SM CLR 32/02 A2994 RMK AO2,KECS,2025-08-14T18:35:00Z,43.8845,-104.312,32,2,0,0,,10+,29.94,,,TRUE,TRUE,,,,,,,CLR,,,,,,,,VFR,,,,,,,,,,,,METAR,1273
KEBA 141835Z AUTO 31003KT 10SM BKN032 31/24 A2999 RMK AO2 T03090243,KEBA,2025-08-14T18:35:00Z,34.0957,-82.8121,30.9,24.3,310,3,,10+,29.99,,,TRUE,TRUE,,,,,,,BKN,3200,,,,,,,VFR,,,,,,,,,,,,METAR,180
KE57 141835Z AUTO 22012KT 10SM CLR 36/09 A3005 RMK AO2,KE57,2025-08-14T18:35:00Z,32.976,-102.843,36,9,220,12,,10+,30.05,,,TRUE,TRUE,,,,,,,CLR,,,,,,,,VFR,,,,,,,,,,,,METAR,1090
KE42 141835Z AUTO 15017KT 10SM CLR A2997 RMK AO2,KE42,2025-08-14T18:35:00Z,36.2193,-101.194,,,150,17,,10+,29.97,,,TRUE,TRUE,,,,,,,CLR,,,,,,,,VFR,,,,,,,,,,,,METAR,942
KE41 141835Z AUTO 11008KT 070V150 7SM SCT090 SCT120 36/13 A3003 RMK AO2 T03560127,KE41,2025-08-14T18:35:00Z,31.1945,-101.473,35.6,12.7,110,8,,7,30.03,,,TRUE,TRUE,,,,,,,SCT,9000,SCT,12000,,,,,VFR,,,,,,,,,,,,METAR,825
KE38 141835Z AUTO 19016G20KT 7SM SCT090 SCT100 SCT120 26/14 A3020 RMK AO2 T02610144,KE38,2025-08-14T18:35:00Z,30.3851,-103.68,26.1,14.4,190,16,20,7,30.20,,,TRUE,TRUE,,,,,,,SCT,9000,SCT,10000,SCT,12000,,,VFR,,,,,,,,,,,,METAR,1372
KDZJ 141835Z AUTO 34004KT 10SM SCT033 29/21 A3008 RMK AO2 T02890208,KDZJ,2025-08-14T18:35:00Z,34.8552,-84.0014,28.9,20.8,340,4,,10+,30.08,,,TRUE,TRUE,,,,,,,SCT,3300,,,,,,,VFR,,,,,,,,,,,,METAR,578
KDYT 141835Z AUTO 06015G22KT 10SM FEW075 FEW090 21/19 A2994 RMK AO2,KDYT,2025-08-14T18:35:00Z,46.7231,-92.0438,21,19,60,15,22,10+,29.94,,,TRUE,TRUE,,,,,,,FEW,7500,FEW,9000,,,,,VFR,,,,,,,,,,,,METAR,185
KDYA 141835Z AUTO 00000KT 10SM SCT022 SCT031 31/25 A3002 RMK AO2 T03080250,KDYA,2025-08-14T18:35:00Z,32.4641,-87.9504,30.8,25,0,0,,10+,30.02,,,TRUE,TRUE,,,,,,,SCT,2200,SCT,3100,,,,,VFR,,,,,,,,,,,,METAR,33
KDXX 141835Z AUTO 12008KT 10SM OVC075 24/17 A2985 RMK AO2,KDXX,2025-08-14T18:35:00Z,44.9839,-96.1789,24,17,120,8,,10+,29.85,,,TRUE,TRUE,,,,,,,OVC,7500,,,,,,,VFR,,,,,,,,,,,,METAR,327
KDUX 141835Z AUTO 16013G22KT 10SM CLR 36/11 A2998 RMK AO2 T03580112,KDUX,2025-08-14T18:35:00Z,35.8608,-102.009,35.8,11.2,160,13,22,10+,29.98,,,TRUE,TRUE,,,,,,,CLR,,,,,,,,VFR,,,,,,,,,,,,METAR,1129
KDUH 141835Z AUTO 05007KT 10SM SCT085 28/15 A3006 RMK AO2 T02800147,KDUH,2025-08-14T18:35:00Z,41.7375,-83.6493,28,14.7,50,7,,10+,30.06,,,TRUE,TRUE,,,,,,,SCT,8500,,,,,,,VFR,,,,,,,,,,,,METAR,203
KDTL 141835Z AUTO 20011G17KT 10SM CLR 27/20 A2981 RMK AO2,KDTL,2025-08-14T18:35:00Z,46.8286,-95.8857,27,20,200,11,17,10+,29.81,,,TRUE,TRUE,,,,,,,CLR,,,,,,,,VFR,,,,,,,,,,,,METAR,425
KDTA 141835Z AUTO 23009G16KT 10SM CLR 33/01 A3003 RMK AO1,KDTA,2025-08-14T18:35:00Z,39.3879,-112.504,33,1,230,9,16,10+,30.03,,,TRUE,TRUE,,,,,,,CLR,,,,,,,,VFR,,,,,,,,,,,,METAR,1452
KDRM 141835Z AUTO 00000KT 10SM SCT025 BKN033 BKN044 23/16 A3012 RMK AO2 T02250162,KDRM,2025-08-14T18:35:00Z,46.009,-83.743,22.5,16.2,0,0,,10+,30.12,,,TRUE,TRUE,,,,,,,SCT,2500,BKN,3300,BKN,4400,,,VFR,,,,,,,,,,,,METAR,201
KDRI 141835Z AUTO 00000KT 10SM FEW042 SCT180 33/23 A2999 RMK AO2 T03300233 $,KDRI,2025-08-14T18:35:00Z,30.8344,-93.3359,33,23.3,0,0,,10+,29.99,,,TRUE,TRUE,TRUE,,,,,,FEW,4200,SCT,18000,,,,,VFR,,,,,,,,,,,,METAR,59
KDNV 141835Z AUTO 00000KT 10SM SCT047 30/18 A3005 RMK AO2 T02990177,KDNV,2025-08-14T18:35:00Z,40.2032,-87.5897,29.9,17.7,0,0,,10+,30.05,,,TRUE,TRUE,,,,,,,SCT,4700,,,,,,,VFR,,,,,,,,,,,,METAR,208
KDNN 141835Z AUTO VRB04KT 10SM FEW032 30/23 A3001 RMK AO2 T03020233,KDNN,2025-08-14T18:35:00Z,34.727,-84.8733,30.2,23.3,VRB,4,,10+,30.01,,,TRUE,TRUE,,,,,,,FEW,3200,,,,,,,VFR,,,,,,,,,,,,METAR,216
KDNA 141835Z AUTO VRB06KT 10SM CLR 33/10 A3010 RMK AO2,KDNA,2025-08-14T18:35:00Z,31.875,-106.694,33,10,VRB,6,,10+,30.10,,,TRUE,TRUE,,,,,,,CLR,,,,,,,,VFR,,,,,,,,,,,,METAR,1254
KDLZ 141835Z AUTO 12004KT 10SM SCT042 BKN048 29/20 A3004 RMK AO2,KDLZ,2025-08-14T18:35:00Z,40.281,-83.114,29,20,120,4,,10+,30.04,,,TRUE,TRUE,,,,,,,SCT,4200,BKN,4800,,,,,VFR,,,,,,,,,,,,METAR,287
KDLO 141835Z AUTO 00000KT 10SM CLR 28/13 A2990 RMK AO2 T02840125,KDLO,2025-08-14T18:35:00Z,35.7449,-119.239,28.4,12.5,0,0,,10+,29.90,,,TRUE,TRUE,,,,,,,CLR,,,,,,,,VFR,,,,,,,,,,,,METAR,97
KDLL 141835Z AUTO 18007KT 10SM SCT045 27/17 A3005 RMK AO2 T02710174,KDLL,2025-08-14T18:35:00Z,43.5236,-89.7736,27.1,17.4,180,7,,10+,30.05,,,TRUE,TRUE,,,,,,,SCT,4500,,,,,,,VFR,,,,,,,,,,,,METAR,297
KDBN 141835Z AUTO 30007KT 9SM FEW034 32/26 A3001 RMK AO2 T03210260 $,KDBN,2025-08-14T18:35:00Z,32.5632,-82.9855,32.1,26,300,7,,9,30.01,,,TRUE,TRUE,TRUE,,,,,,FEW,3400,,,,,,,VFR,,,,,,,,,,,,METAR,90
KD95 141835Z AUTO 13004KT 10SM SCT070 27/16 A3009 RMK AO2,KD95,2025-08-14T18:35:00Z,43.0675,-83.2702,27,16,130,4,,10+,30.09,,,TRUE,TRUE,,,,,,,SCT,7000,,,,,,,VFR,,,,,,,,,,,,METAR,253
KD60 141835Z AUTO 33010G19KT 9SM CLR 23/15 A2986 RMK AO2,KD60,2025-08-14T18:35:00Z,48.3834,-102.898,23,15,330,10,19,9,29.86,,,TRUE,TRUE,,,,,,,CLR,,,,,,,,VFR,,,,,,,,,,,,METAR,682
KD57 141835Z AUTO 36014KT 7SM -RA FEW015 21/17 A2975 RMK AO2,KD57,2025-08-14T18:35:00Z,46.814,-101.864,21,17,360,14,,7,29.75,,,TRUE,TRUE,,,,,,-RA,FEW,1500,,,,,,,VFR,,,,,,,,,,,,METAR,636
KD55 141835Z AUTO 19012G18KT 10SM BKN022 26/26 A2972 RMK AO2,KD55,2025-08-14T18:35:00Z,48.7519,-98.3971,26,26,190,12,18,10+,29.72,,,TRUE,TRUE,,,,,,,BKN,2200,,,,,,,MVFR,,,,,,,,,,,,METAR,488
KD50 141835Z AUTO 31010G17KT 10SM CLR 22/14 A2983 RMK AO2,KD50,2025-08-14T18:35:00Z,48.9248,-103.296,22,14,310,10,17,10+,29.83,,,TRUE,TRUE,,,,,,,CLR,,,,,,,,VFR,,,,,,,,,,,,METAR,591
KD39 141835Z AUTO 17010KT 10SM -DZ SCT022 BKN027 OVC090 22/19 A2990 RMK AO2 T02200190,KD39,2025-08-14T18:35:00Z,45.7057,-94.9308,22,19,170,10,,10+,29.90,,,TRUE,TRUE,,,,,,-DZ,SCT,2200,BKN,2700,OVC,9000,,,MVFR,,,,,,,,,,,,METAR,378
KD09 141835Z AUTO 31012KT 10SM CLR 24/20 A2973 RMK AO2,KD09,2025-08-14T18:35:00Z,48.83,-100.417,24,20,310,12,,10+,29.73,,,TRUE,TRUE,,,,,,,CLR,,,,,,,,VFR,,,,,,,,,,,,METAR,512
KCXE 141835Z AUTO 16004KT 10SM SCT024 SCT030 BKN095 30/24 A2997 RMK AO1 T03000240,KCXE,2025-08-14T18:35:00Z,36.7923,-78.5027,30,24,160,4,,10+,29.97,,,TRUE,TRUE,,,,,,,SCT,2400,SCT,3000,BKN,9500,,,VFR,,,,,,,,,,,,METAR,154
KCWC 141835Z AUTO 11009G14KT 10SM CLR 34/21 A2995 RMK AO2 T03400207,KCWC,2025-08-14T18:35:00Z,33.8629,-98.4914,34,20.7,110,9,14,10+,29.95,,,TRUE,TRUE,,,,,,,CLR,,,,,,,,VFR,,,,,,,,,,,,METAR,304
KCVX 141835Z AUTO 35006KT 10SM FEW065 24/15 A3009 RMK AO2,KCVX,2025-08-14T18:35:00Z,45.304,-85.2689,24,15,350,6,,10+,30.09,,,TRUE,TRUE,,,,,,,FEW,6500,,,,,,,VFR,,,,,,,,,,,,METAR,196
KCVH 141835Z AUTO 32006KT 10SM SCT017 19/14 A2999 RMK A01,KCVH,2025-08-14T18:35:00Z,36.8919,-121.41,19,14,320,6,,10+,29.99,,,TRUE,TRUE,,,,,,,SCT,1700,,,,,,,VFR,,,,,,,,,,,,METAR,68
KCTJ 141835Z AUTO 35003KT 10SM SCT028 BKN039 28/21 A3010 RMK AO2 T02820210,KCTJ,2025-08-14T18:35:00Z,33.6313,-85.1538,28.2,21,350,3,,10+,30.10,,,TRUE,TRUE,,,,,,,SCT,2800,BKN,3900,,,,,VFR,,,,,,,,,,,,METAR,351
KCQW 141835Z AUTO 15003KT 10SM VCTS BKN050 BKN060 30/24 A2998 RMK AO2 LTG DSNT SE AND S,KCQW,2025-08-14T18:35:00Z,34.7128,-79.9622,30,24,150,3,,10+,29.98,,,TRUE,TRUE,,,,,,VCTS,BKN,5000,BKN,6000,,,,,VFR,,,,,,,,,,,,METAR,67
KCQM 141835Z AUTO 15005G13KT 10SM FEW050 SCT080 BKN095 22/16 A2992 RMK AO2,KCQM,2025-08-14T18:35:00Z,47.8199,-92.6817,22,16,150,5,13,10+,29.92,,,TRUE,TRUE,,,,,,,FEW,5000,SCT,8000,BKN,9500,,,VFR,,,,,,,,,,,,METAR,406
KCQF 141835Z AUTO 20004KT 10SM CLR 31/25 A3003 RMK AO2,KCQF,2025-08-14T18:35:00Z,30.4618,-87.8749,31,25,200,4,,10+,30.03,,,TRUE,TRUE,,,,,,,CLR,,,,,,,,VFR,,,,,,,,,,,,METAR,21
KCPW 141835Z AUTO 22012G16KT 10SM CLR 17/M01 A3069 RMK AO2 LTG DSNT NE,KCPW,2025-08-14T18:35:00Z,37.464,-106.804,17,-1,220,12,16,10+,30.69,,,TRUE,TRUE,,,,,,,CLR,,,,,,,,VFR,,,,,,,,,,,,METAR,3570
KCPU 141835Z AUTO 33009KT 10SM CLR 28/11 A2995 RMK AO2 T02770106,KCPU,2025-08-14T18:35:00Z,38.1445,-120.645,27.7,10.6,330,9,,10+,29.95,,,TRUE,TRUE,,,,,,,CLR,,,,,,,,VFR,,,,,,,,,,,,METAR,400
KCPT 141835Z AUTO 16008KT 10SM FEW350 34/24 A2992 RMK AO2 T03360242 $,KCPT,2025-08-14T18:35:00Z,32.3526,-97.435,33.6,24.2,160,8,,10+,29.92,,,TRUE,TRUE,TRUE,,,,,,FEW,35000,,,,,,,VFR,,,,,,,,,,,,METAR,260
KCPK 141835Z AUTO 24004KT 10SM SCT023 30/24 A2994 RMK AO2 T03000240,KCPK,2025-08-14T18:35:00Z,36.6631,-76.3264,30,24,240,4,,10+,29.94,,,TRUE,TRUE,,,,,,,SCT,2300,,,,,,,VFR,,,,,,,,,,,,METAR,4
KCPF 141835Z AUTO 25004KT 10SM SCT031 SCT039 SCT050 28/21 A3006 RMK AO2,KCPF,2025-08-14T18:35:00Z,37.3869,-83.2593,28,21,250,4,,10+,30.06,,,TRUE,TRUE,,,,,,,SCT,3100,SCT,3900,SCT,5000,,,VFR,,,,,,,,,,,,METAR,382
KCOQ 141835Z AUTO 10SM OVC042 22/17 A2995 RMK AO2 TSNO,KCOQ,2025-08-14T18:35:00Z,46.6986,-92.5034,22,17,,,,10+,29.95,,,TRUE,TRUE,,,TRUE,,,,OVC,4200,,,,,,,VFR,,,,,,,,,,,,METAR,390
KCNC 141835Z AUTO 20007KT 10SM CLR 26/22 A3001 RMK AO2,KCNC,2025-08-14T18:35:00Z,41.0185,-93.3608,26,22,200,7,,10+,30.01,,,TRUE,TRUE,,,,,,,CLR,,,,,,,,VFR,,,,,,,,,,,,METAR,319
KCNB 141835Z AUTO 12007KT 10SM BKN075 BKN090 27/22 A2984 RMK AO2 LTG DSNT SW T02670216,KCNB,2025-08-14T18:35:00Z,44.7297,-96.2623,26.7,21.6,120,7,,10+,29.84,,,TRUE,TRUE,,,,,,,BKN,7500,BKN,9000,,,,,VFR,,,,,,,,,,,,METAR,363
KCMR 141835Z AUTO 22004KT 10SM OVC110 25/10 A3031 RMK AO2,KCMR,2025-08-14T18:35:00Z,35.3016,-112.197,25,10,220,4,,10+,30.31,,,TRUE,TRUE,,,,,,,OVC,11000,,,,,,,VFR,,,,,,,,,,,,METAR,2039
KCLW 141835Z AUTO 26004KT 10SM CLR 30/24 A3006 RMK AO2,KCLW,2025-08-14T18:35:00Z,27.9741,-82.7563,30,24,260,4,,10+,30.06,,,TRUE,TRUE,,,,,,,CLR,,,,,,,,VFR,,,,,,,,,,,,METAR,21
KCLS 141835Z AUTO 00000KT 10SM OVC031 18/12 A3006 RMK AO2,KCLS,2025-08-14T18:35:00Z,46.6774,-122.986,18,12,0,0,,10+,30.06,,,TRUE,TRUE,,,,,,,OVC,3100,,,,,,,VFR,,,,,,,,,,,,METAR,52
KCKZ 141835Z AUTO 02004KT 10SM CLR 29/23 A2996 RMK AO2,KCKZ,2025-08-14T18:35:00Z,40.3864,-75.2953,29,23,20,4,,10+,29.96,,,TRUE,TRUE,,,,,,,CLR,,,,,,,,VFR,,,,,,,,,,,,METAR,160
KCKN 141835Z AUTO 19014KT 10SM OVC029 26/20 A2975 RMK AO2,KCKN,2025-08-14T18:35:00Z,47.8404,-96.6201,26,20,190,14,,10+,29.75,,,TRUE,TRUE,,,,,,,OVC,2900,,,,,,,MVFR,,,,,,,,,,,,METAR,272
KCKM 141835Z AUTO VRB04KT 10SM A2998 RMK A01,KCKM,2025-08-14T18:35:00Z,34.2945,-90.5146,,,VRB,4,,10+,29.98,,,TRUE,TRUE,,,,,,,,,,,,,,,VFR,,,,,,,,,,,,METAR,52
KCKC 141835Z AUTO 14006KT 10SM OVC060 18/18 A3006 RMK AO2,KCKC,2025-08-14T18:35:00Z,47.8366,-90.3864,18,18,140,6,,10+,30.06,,,TRUE,TRUE,,,,,,,OVC,6000,,,,,,,VFR,,,,,,,,,,,,METAR,544
KCJR 141835Z AUTO 36006KT 10SM SCT038 32/21 A2996 RMK AO2 LTG DSNT E T03210205,KCJR,2025-08-14T18:35:00Z,38.5261,-77.8574,32.1,20.5,360,6,,10+,29.96,,,TRUE,TRUE,,,,,,,SCT,3800,,,,,,,VFR,,,,,,,,,,,,METAR,90
KCGC 141835Z AUTO 28007KT 10SM CLR A3006 RMK AO2 LTG DSNT S,KCGC,2025-08-14T18:35:00Z,28.866,-82.5741,,,280,7,,10+,30.06,,,TRUE,TRUE,,,,,,,CLR,,,,,,,,VFR,,,,,,,,,,,,METAR,3
KCFJ 141835Z AUTO 02003KT 10SM SCT044 A3005 RMK AO2,KCFJ,2025-08-14T18:35:00Z,39.9767,-86.9148,,,20,3,,10+,30.05,,,TRUE,TRUE,,,,,,,SCT,4400,,,,,,,VFR,,,,,,,,,,,,METAR,243
KCFE 141835Z AUTO 17009KT 10SM SCT120 24/19 A2994 RMK AO2,KCFE,2025-08-14T18:35:00Z,45.1601,-93.846,24,19,170,9,,10+,29.94,,,TRUE,TRUE,,,,,,,SCT,12000,,,,,,,VFR,,,,,,,,,,,,METAR,292
KCFD 141835Z AUTO 18004KT 10SM SCT044 35/21 A3000 RMK AO2 T03480209,KCFD,2025-08-14T18:35:00Z,30.7171,-96.3347,34.8,20.9,180,4,,10+,30.00,,,TRUE,TRUE,,,,,,,SCT,4400,,,,,,,VFR,,,,,,,,,,,,METAR,106
KCDI 141835Z AUTO 05004KT 10SM SCT042 SCT055 30/21 A3004 RMK AO2 T03000207,KCDI,2025-08-14T18:35:00Z,39.976,-81.577,30,20.7,50,4,,10+,30.04,,,TRUE,TRUE,,,,,,,SCT,4200,SCT,5500,,,,,VFR,,,,,,,,,,,,METAR,241
KCDH 141835Z AUTO 00000KT 10SM FEW047 36/23 A2996 RMK AO2,KCDH,2025-08-14T18:35:00Z,33.619,-92.765,36,23,0,0,,10+,29.96,,,TRUE,TRUE,,,,,,,FEW,4700,,,,,,,VFR,,,,,,,,,,,,METAR,38
KCDA 141835Z AUTO 32005KT 10SM SCT037 SCT047 OVC070 24/17 A3002 RMK AO2 T02440174,KCDA,2025-08-14T18:35:00Z,44.5677,-72.0191,24.4,17.4,320,5,,10+,30.02,,,TRUE,TRUE,,,,,,,SCT,3700,SCT,4700,OVC,7000,,,VFR,,,,,,,,,,,,METAR,357
KCCO 141835Z AUTO 29003KT 10SM SCT026 SCT034 SCT043 29/21 A3008 RMK AO2 T02940214,KCCO,2025-08-14T18:35:00Z,33.3107,-84.7713,29.4,21.4,290,3,,10+,30.08,,,TRUE,TRUE,,,,,,,SCT,2600,SCT,3400,SCT,4300,,,VFR,,,,,,,,,,,,METAR,290
KCCA 141835Z AUTO VRB04KT 10SM FEW075 35/21 A2997 RMK AO2,KCCA,2025-08-14T18:35:00Z,35.5946,-92.4455,35,21,VRB,4,,10+,29.97,,,TRUE,TRUE,,,,,,,FEW,7500,,,,,,,VFR,,,,,,,,,,,,METAR,152
KCBG 141835Z AUTO 16012G18KT 10SM CLR 26/21 A2995 RMK AO2,KCBG,2025-08-14T18:35:00Z,45.557,-93.264,26,21,160,12,18,10+,29.95,,,TRUE,TRUE,,,,,,,CLR,,,,,,,,VFR,,,,,,,,,,,,METAR,285
KCAD 141835Z AUTO VRB01KT 10SM SCT060 BKN070 25/14 A3010 RMK AO2,KCAD,2025-08-14T18:35:00Z,44.2785,-85.4207,25,14,VRB,1,,10+,30.10,,,TRUE,TRUE,,,,,,,SCT,6000,BKN,7000,,,,,VFR,,,,,,,,,,,,METAR,397
KC62 141835Z AUTO 24004KT 10SM SCT050 27/16 A3007 RMK AO2 T02690167,KC62,2025-08-14T18:35:00Z,41.4739,-85.2541,26.9,16.7,240,4,,10+,30.07,,,TRUE,TRUE,,,,,,,SCT,5000,,,,,,,VFR,,,,,,,,,,,,METAR,304
KC35 141835Z AUTO 14006KT 10SM SCT044 27/16 A3004 RMK AO2 T02700159 PWINO,KC35,2025-08-14T18:35:00Z,43.5261,-89.9809,27,15.9,140,6,,10+,30.04,,,TRUE,TRUE,,,,,TRUE,,SCT,4400,,,,,,,VFR,,,,,,,,,,,,METAR,272
KC09 141835Z AUTO 12003KT 10SM CLR 27/18 A3004 RMK AO2 T02730176,KC09,2025-08-14T18:35:00Z,41.4317,-88.4152,27.3,17.6,120,3,,10+,30.04,,,TRUE,TRUE,,,,,,,CLR,,,,,,,,VFR,,,,,,,,,,,,METAR,179
KC07 141835Z AUTO 00000KT 10SM CLR 20/M01 A3052 RMK AO2,KC07,2025-08-14T18:35:00Z,40.3544,-106.699,20,-1,0,0,,10+,30.52,,,TRUE,TRUE,,,,,,,CLR,,,,,,,,VFR,,,,,,,,,,,,METAR,3224
KBYY 141835Z AUTO 18004KT 10SM BKN035 BKN045 31/28 A2995 RMK AO2 LTG DSNT NE AND S P0001 T03140279,KBYY,2025-08-14T18:35:00Z,28.9717,-95.8584,31.4,27.9,180,4,,10+,29.95,,,TRUE,TRUE,,,,,,,BKN,3500,BKN,4500,,,,,VFR,,,,,,0.01,,,,,,METAR,12
KBYL 141835Z AUTO 00000KT 10SM 29/21 A3005 RMK AO1,KBYL,2025-08-14T18:35:00Z,36.7954,-84.2013,29,21,0,0,,10+,30.05,,,TRUE,TRUE,,,,,,,,,,,,,,,VFR,,,,,,,,,,,,METAR,355
KBXK 141835Z AUTO 15006KT 10SM CLR 38/13 A2988 RMK AO2,KBXK,2025-08-14T18:35:00Z,33.4178,-112.688,38,13,150,6,,10+,29.88,,,TRUE,TRUE,,,,,,,CLR,,,,,,,,VFR,,,,,,,,,,,,METAR,303
KBXA 141835Z AUTO 16005KT 10SM SCT044 SCT075 35/24 A3001 RMK AO2 T03480235,KBXA,2025-08-14T18:35:00Z,30.8104,-89.8627,34.8,23.5,160,5,,10+,30.01,,,TRUE,TRUE,,,,,,,SCT,4400,SCT,7500,,,,,VFR,,,,,,,,,,,,METAR,35
KBWW 141835Z AUTO 34015KT 10SM CLR 28/15 A2986 RMK AO2,KBWW,2025-08-14T18:35:00Z,46.1656,-103.296,28,15,340,15,,10+,29.86,,,TRUE,TRUE,,,,,,,CLR,,,,,,,,VFR,,,,,,,,,,,,METAR,911
KBWP 141835Z AUTO 17011G18KT 10SM CLR 29/25 A2977 RMK AO2,KBWP,2025-08-14T18:35:00Z,46.2444,-96.6046,29,25,170,11,18,10+,29.77,,,TRUE,TRUE,,,,,,,CLR,,,,,,,,VFR,,,,,,,,,,,,METAR,294
KBWD 141835Z AUTO 20008KT 10SM CLR 35/22 A2996 RMK AO2 T03540221 $,KBWD,2025-08-14T18:35:00Z,31.7898,-98.9522,35.4,22.1,200,8,,10+,29.96,,,TRUE,TRUE,TRUE,,,,,,CLR,,,,,,,,VFR,,,,,,,,,,,,METAR,420
KBVU 141835Z AUTO 14018KT 10SM CLR 37/07 A2986 RMK AO2,KBVU,2025-08-14T18:35:00Z,35.9489,-114.863,37,7,140,18,,10+,29.86,,,TRUE,TRUE,,,,,,,CLR,,,,,,,,VFR,,,,,,,,,,,,METAR,654
KBVN 141835Z AUTO 18014G23KT 10SM SCT033 29/22 A2986 RMK AO2 T02940218,KBVN,2025-08-14T18:35:00Z,41.7301,-98.0546,29.4,21.8,180,14,23,10+,29.86,,,TRUE,TRUE,,,,,,,SCT,3300,,,,,,,VFR,,,,,,,,,,,,METAR,547
KBRY 141835Z AUTO 00000KT 10SM SCT049 BKN060 32/21 A2999 RMK AO2 T03170206 $,KBRY,2025-08-14T18:35:00Z,37.8079,-85.5011,31.7,20.6,0,0,,10+,29.99,,,TRUE,TRUE,TRUE,,,,,,SCT,4900,BKN,6000,,,,,VFR,,,,,,,,,,,,METAR,192
KBRG 141835Z AUTO 20004KT 10SM CLR 34/02 A3014 RMK AO2 P0004 T03350017,KBRG,2025-08-14T18:35:00Z,34.6477,-106.833,33.5,1.7,200,4,,10+,30.14,,,TRUE,TRUE,,,,,,,CLR,,,,,,,,VFR,,,,,,0.04,,,,,,METAR,1585
KBQK 141835Z AUTO 25011KT 10SM SCT042 SCT050 34/24 A3001 RMK AO2 P0001 T03390244,KBQK,2025-08-14T18:35:00Z,31.2567,-81.4754,33.9,24.4,250,11,,10+,30.01,,,TRUE,TRUE,,,,,,,SCT,4200,SCT,5000,,,,,VFR,,,,,,0.01,,,,,,METAR,7
KBPG 141835Z AUTO 24014KT 10SM CLR 36/13 A3000 RMK AO2 T03610130,KBPG,2025-08-14T18:35:00Z,32.2097,-101.525,36.1,13,240,14,,10+,30.00,,,TRUE,TRUE,,,,,,,CLR,,,,,,,,VFR,,,,,,,,,,,,METAR,782
KBPC 141835Z AUTO 17012G23KT 10SM CLR 36/13 A2996 RMK AO2,KBPC,2025-08-14T18:35:00Z,35.8913,-101.027,36,13,170,12,23,10+,29.96,,,TRUE,TRUE,,,,,,,CLR,,,,,,,,VFR,,,,,,,,,,,,METAR,844
KBKS 141835Z AUTO 13010G17KT 10SM FEW270 37/19 A2992 RMK AO2 T03680193 $,KBKS,2025-08-14T18:35:00Z,27.2064,-98.1216,36.8,19.3,130,10,17,10+,29.92,,,TRUE,TRUE,TRUE,,,,,,FEW,27000,,,,,,,VFR,,,,,,,,,,,,METAR,34
KBKN 141835Z AUTO 17014KT 8SM CLR 37/17 A2994 RMK AO2,KBKN,2025-08-14T18:35:00Z,36.7431,-97.3479,37,17,170,14,,8,29.94,,,TRUE,TRUE,,,,,,,CLR,,,,,,,,VFR,,,,,,,,,,,,METAR,208
KBKD 141835Z AUTO 20007KT 060V360 SCT070 37/19 A2994 RMK AO2 T03730185,KBKD,2025-08-14T18:35:00Z,32.7206,-98.8931,37.3,18.5,200,7,,,29.94,,,TRUE,TRUE,,,,,,,SCT,7000,,,,,,,,,,,,,,,,,,,METAR,383
KBJI 141835Z AUTO 14011G17KT 10SM SCT020 23/18 A2984 RMK AO2 T02310182,KBJI,2025-08-14T18:35:00Z,47.5076,-94.9279,23.1,18.2,140,11,17,10+,29.84,,,TRUE,TRUE,,,,,,,SCT,2000,,,,,,,VFR,,,,,,,,,,,,METAR,422
KBIJ 141835Z AUTO 27003KT 10SM SCT033 SCT042 SCT055 31/23 A3002 RMK AO2,KBIJ,2025-08-14T18:35:00Z,31.4,-84.8939,31,23,270,3,,10+,30.02,,,TRUE,TRUE,,,,,,,SCT,3300,SCT,4200,SCT,5500,,,VFR,,,,,,,,,,,,METAR,63
KBIE 141835Z AUTO 17013G17KT 10SM CLR 31/21 A2992 RMK AO2 T03080210,KBIE,2025-08-14T18:35:00Z,40.3005,-96.7517,30.8,21,170,13,17,10+,29.92,,,TRUE,TRUE,,,,,,,CLR,,,,,,,,VFR,,,,,,,,,,,,METAR,398
KBHC 141835Z AUTO 27008KT 10SM SCT041 SCT047 33/22 A3001 RMK AO2 PNO,KBHC,2025-08-14T18:35:00Z,31.712,-82.3902,33,22,270,8,,10+,30.01,,,TRUE,TRUE,,,,,,,SCT,4100,SCT,4700,,,,,VFR,,,,,,,,,,,,METAR,61
KBGE 141835Z AUTO 27006KT 10SM BKN033 BKN039 BKN050 32/27 A3002 RMK AO2 T03160270,KBGE,2025-08-14T18:35:00Z,30.9709,-84.6344,31.6,27,270,6,,10+,30.02,,,TRUE,TRUE,,,,,,,BKN,3300,BKN,3900,BKN,5000,,,VFR,,,,,,,,,,,,METAR,40
KBEA 141835Z AUTO 14008KT 10SM SCT055 36/16 A2995 RMK AO2 T03630155,KBEA,2025-08-14T18:35:00Z,28.3692,-97.7953,36.3,15.5,140,8,,10+,29.95,,,TRUE,TRUE,,,,,,,SCT,5500,,,,,,,VFR,,,,,,,,,,,,METAR,83
KBDU 141835Z AUTO 06008KT 10SM CLR 36/03 A3003 RMK AO2,KBDU,2025-08-14T18:35:00Z,40.0377,-105.227,36,3,60,8,,10+,30.03,,,TRUE,TRUE,,,,,,,CLR,,,,,,,,VFR,,,,,,,,,,,,METAR,1614
KBDH 141835Z AUTO 14008KT 10SM FEW085 BKN100 21/21 A2990 RMK AO2,KBDH,2025-08-14T18:35:00Z,45.1111,-95.1258,21,21,140,8,,10+,29.90,,,TRUE,TRUE,,,,,,,FEW,8500,BKN,10000,,,,,VFR,,,,,,,,,,,,METAR,341
KBDG 141835Z AUTO 16005KT 10SM CLR 32/01 A3015 RMK AO2 T03210012,KBDG,2025-08-14T18:35:00Z,37.587,-109.481,32.1,1.2,160,5,,10+,30.15,,,TRUE,TRUE,,,,,,,CLR,,,,,,,,VFR,,,,,,,,,,,,METAR,1778
KBCB 141835Z AUTO 04005KT 10SM SCT034 SCT070 BKN110 27/21 A3009 RMK AO2 T02720211,KBCB,2025-08-14T18:35:00Z,37.208,-80.4127,27.2,21.1,40,5,,10+,30.09,,,TRUE,TRUE,,,,,,,SCT,3400,SCT,7000,BKN,11000,,,VFR,,,,,,,,,,,,METAR,642
KBBP 141835Z AUTO 00000KT 10SM SCT018 OVC075 27/25 A2998 RMK AO2 LTG DSNT E AND SE,KBBP,2025-08-14T18:35:00Z,34.6228,-79.7354,27,25,0,0,,10+,29.98,,,TRUE,TRUE,,,,,,,SCT,1800,OVC,7500,,,,,VFR,,,,,,,,,,,,METAR,44
KBBB 141835Z AUTO 14011KT 10SM FEW090 SCT120 25/23 A2985 RMK AO2,KBBB,2025-08-14T18:35:00Z,45.331,-95.6469,25,23,140,11,,10+,29.85,,,TRUE,TRUE,,,,,,,FEW,9000,SCT,12000,,,,,VFR,,,,,,,,,,,,METAR,315
KBAX 141835Z AUTO 02005KT 10SM CLR 26/16 A3009 RMK AO2 T02560160,KBAX,2025-08-14T18:35:00Z,43.7774,-82.9828,25.6,16,20,5,,10+,30.09,,,TRUE,TRUE,,,,,,,CLR,,,,,,,,VFR,,,,,,,,,,,,METAR,229
KBAM 141835Z AUTO 34004KT 10SM CLR 31/01 A3003 RMK AO1,KBAM,2025-08-14T18:35:00Z,40.6048,-116.872,31,1,340,4,,10+,30.03,,,TRUE,TRUE,,,,,,,CLR,,,,,,,,VFR,,,,,,,,,,,,METAR,1381
KBAC 141835Z AUTO 21014KT 10SM CLR 28/22 A2974 RMK AO2,KBAC,2025-08-14T18:35:00Z,46.9419,-98.0179,28,22,210,14,,10+,29.74,,,TRUE,TRUE,,,,,,,CLR,,,,,,,,VFR,,,,,,,,,,,,METAR,423
KAYS 141835Z AUTO 30009KT 10SM SCT043 SCT050 34/25 A3001 RMK AO2 T03440249,KAYS,2025-08-14T18:35:00Z,31.2466,-82.4014,34.4,24.9,300,9,,10+,30.01,,,TRUE,TRUE,,,,,,,SCT,4300,SCT,5000,,,,,VFR,,,,,,,,,,,,METAR,42
KAXX 141835Z AUTO 32007KT 10SM CLR 26/02 A3035 RMK AO2 T02600020,KAXX,2025-08-14T18:35:00Z,36.422,-105.29,26,2,320,7,,10+,30.35,,,TRUE,TRUE,,,,,,,CLR,,,,,,,,VFR,,,,,,,,,,,,METAR,2543
KAXV 141835Z AUTO 27005KT 10SM SCT047 30/16 A3004 RMK AO2,KAXV,2025-08-14T18:35:00Z,40.4959,-84.2929,30,16,270,5,,10+,30.04,,,TRUE,TRUE,,,,,,,SCT,4700,,,,,,,VFR,,,,,,,,,,,,METAR,278
KAXH 141835Z AUTO 00000KT 10SM 36/23 A2999 RMK AO2 LTG DSNT E AND SE T03590226,KAXH,2025-08-14T18:35:00Z,29.505,-95.476,35.9,22.6,0,0,,10+,29.99,,,TRUE,TRUE,,,,,,,,,,,,,,,VFR,,,,,,,,,,,,METAR,18
KAVC 141835Z AUTO 21005KT 10SM CLR 30/25 A3002 RMK AO2 LTG DSNT SE T02970250,KAVC,2025-08-14T18:35:00Z,36.6854,-78.0523,29.7,25,210,5,,10+,30.02,,,TRUE,TRUE,,,,,,,CLR,,,,,,,,VFR,,,,,,,,,,,,METAR,119
KAUM 141835Z AUTO 17006KT 10SM SCT040 SCT080 22/18 A3002 RMK AO2,KAUM,2025-08-14T18:35:00Z,43.6688,-92.9321,22,18,170,6,,10+,30.02,,,TRUE,TRUE,,,,,,,SCT,4000,SCT,8000,,,,,VFR,,,,,,,,,,,,METAR,376
KATS 141835Z AUTO 22007G14KT 10SM CLR 36/10 A3004 RMK AO2,KATS,2025-08-14T18:35:00Z,32.8524,-104.464,36,10,220,7,14,10+,30.04,,,TRUE,TRUE,,,,,,,CLR,,,,,,,,VFR,,,,,,,,,,,,METAR,1073
KASL 141835Z AUTO 20005KT 10SM FEW360 35/25 A2996 RMK AO2 T03500246 $,KASL,2025-08-14T18:35:00Z,32.5207,-94.3066,35,24.6,200,5,,10+,29.96,,,TRUE,TRUE,TRUE,,,,,,FEW,36000,,,,,,,VFR,,,,,,,,,,,,METAR,104
KARV 141835Z AUTO 18008KT 10SM SCT034 SCT041 25/15 A3006 RMK AO2 T02450153,KARV,2025-08-14T18:35:00Z,45.9264,-89.7307,24.5,15.3,180,8,,10+,30.06,,,TRUE,TRUE,,,,,,,SCT,3400,SCT,4100,,,,,VFR,,,,,,,,,,,,METAR,494
KANQ 141835Z AUTO VRB03KT 10SM CLR 29/18 A3005 RMK AO2,KANQ,2025-08-14T18:35:00Z,41.6404,-85.0852,29,18,VRB,3,,10+,30.05,,,TRUE,TRUE,,,,,,,CLR,,,,,,,,VFR,,,,,,,,,,,,METAR,299
KAMN 141835Z AUTO 09006KT 10SM SCT060 BKN070 BKN080 25/17 A3009 RMK AO2,KAMN,2025-08-14T18:35:00Z,43.3209,-84.6871,25,17,90,6,,10+,30.09,,,TRUE,TRUE,,,,,,,SCT,6000,BKN,7000,BKN,8000,,,VFR,,,,,,,,,,,,METAR,228
KALM 141835Z AUTO 21006G12KT 10SM CLR 34/10 A3009 RMK AO2,KALM,2025-08-14T18:35:00Z,32.8351,-105.994,34,10,210,6,12,10+,30.09,,,TRUE,TRUE,,,,,,,CLR,,,,,,,,VFR,,,,,,,,,,,,METAR,1267
KAIT 141835Z AUTO 18016G22KT 10SM SCT032 25/18 A2990 RMK AO2,KAIT,2025-08-14T18:35:00Z,46.5483,-93.6754,25,18,180,16,22,10+,29.90,,,TRUE,TRUE,,,,,,,SCT,3200,,,,,,,VFR,,,,,,,,,,,,METAR,367
KAGO 141835Z AUTO VRB05KT 10SM SCT044 SCT055 34/23 A2995 RMK A01,KAGO,2025-08-14T18:35:00Z,33.2266,-93.2154,34,23,VRB,5,,10+,29.95,,,TRUE,TRUE,,,,,,,SCT,4400,SCT,5500,,,,,VFR,,,,,,,,,,,,METAR,91
KAFO 141835Z AUTO 00000KT 10SM SCT110 26/06 A3011 RMK AO2,KAFO,2025-08-14T18:35:00Z,42.7139,-110.944,26,6,0,0,,10+,30.11,,,TRUE,TRUE,,,,,,,SCT,11000,,,,,,,VFR,,,,,,,,,,,,METAR,1881
KAEL 141835Z AUTO 16009KT 10SM CLR 22/19 A3000 RMK AO2 TSNO,KAEL,2025-08-14T18:35:00Z,43.6823,-93.3722,22,19,160,9,,10+,30.00,,,TRUE,TRUE,,,TRUE,,,,CLR,,,,,,,,VFR,,,,,,,,,,,,METAR,382
KAEJ 141835Z AUTO 16005KT CLR 28/M08 A3028 RMK AO2 T02831083 PWINO,KAEJ,2025-08-14T18:35:00Z,38.8116,-106.121,28.3,-8.3,160,5,,,30.28,,,TRUE,TRUE,,,,,TRUE,,CLR,,,,,,,,,,,,,,,,,,,,METAR,2420
KADU 141835Z AUTO 19011G17KT 10SM SCT003 BKN050 BKN070 27/21 A2997 RMK AO2,KADU,2025-08-14T18:35:00Z,41.6993,-94.9204,27,21,190,11,17,10+,29.97,,,TRUE,TRUE,,,,,,,SCT,300,BKN,5000,BKN,7000,,,VFR,,,,,,,,,,,,METAR,391
KADC 141835Z AUTO 17014G19KT 10SM CLR 26/20 A2986 RMK AO2,KADC,2025-08-14T18:35:00Z,46.4502,-95.2135,26,20,170,14,19,10+,29.86,,,TRUE,TRUE,,,,,,,CLR,,,,,,,,VFR,,,,,,,,,,,,METAR,416
KACQ 141835Z AUTO 15011G16KT 10SM SCT120 22/17 A2999 RMK AO2,KACQ,2025-08-14T18:35:00Z,44.0702,-93.5535,22,17,150,11,16,10+,29.99,,,TRUE,TRUE,,,,,,,SCT,12000,,,,,,,VFR,,,,,,,,,,,,METAR,339
KACP 141835Z AUTO 25004KT 10SM CLR 35/22 A2999 RMK AO2,KACP,2025-08-14T18:35:00Z,30.7469,-92.687,35,22,250,4,,10+,29.99,,,TRUE,TRUE,,,,,,,CLR,,,,,,,,VFR,,,,,,,,,,,,METAR,31
KACJ 141835Z AUTO 27007KT 240V300 10SM SCT034 SCT290 SCT350 32/24 A3000 RMK AO2 T03190238,KACJ,2025-08-14T18:35:00Z,32.1106,-84.1841,31.9,23.8,270,7,,10+,30.00,,,TRUE,TRUE,,,,,,,SCT,3400,SCT,29000,SCT,35000,,,VFR,,,,,,,,,,,,METAR,140
KACB 141835Z AUTO 31003KT 10SM SCT055 SCT070 26/15 A3008 RMK AO2 T02630145,KACB,2025-08-14T18:35:00Z,44.9867,-85.2022,26.3,14.5,310,3,,10+,30.08,,,TRUE,TRUE,,,,,,,SCT,5500,SCT,7000,,,,,VFR,,,,,,,,,,,,METAR,189
KABH 141835Z AUTO 14004KT 8SM SCT001 34/08 A3011 RMK AO2 SLP104 $,KABH,2025-08-14T18:35:00Z,38.7587,-104.299,34,8,140,4,,8,30.11,1010.4,,TRUE,TRUE,TRUE,,,,,,SCT,100,,,,,,,VFR,,,,,,,,,,,,SPECI,1838
KAAS 141835Z AUTO 00000KT 10SM OVC120 29/22 A3007 RMK AO1,KAAS,2025-08-14T18:35:00Z,37.3569,-85.3151,29,22,0,0,,10+,30.07,,,TRUE,TRUE,,,,,,,OVC,12000,,,,,,,VFR,,,,,,,,,,,,METAR,270
KA39 141835Z AUTO 00000KT 10SM CLR 37/13 A2994 RMK AO2,KA39,2025-08-14T18:35:00Z,32.9875,-111.922,37,13,0,0,,10+,29.94,,,TRUE,TRUE,,,,,,,CLR,,,,,,,,VFR,,,,,,,,,,,,METAR,391
K9Y1 141835Z AUTO 33010KT 10SM CLR 22/17 A2983 RMK AO2,K9Y1,2025-08-14T18:35:00Z,47.3941,-102.773,22,17,330,10,,10+,29.83,,,TRUE,TRUE,,,,,,,CLR,,,,,,,,VFR,,,,,,,,,,,,METAR,695
K9V9 141835Z AUTO 18005KT 10SM CLR 31/21 A2981 RMK AO2 T03060213,K9V9,2025-08-14T18:35:00Z,43.7653,-99.3163,30.6,21.3,180,5,,10+,29.81,,,TRUE,TRUE,,,,,,,CLR,,,,,,,,VFR,,,,,,,,,,,,METAR,511
K9MN 141835Z AUTO 16006KT 10SM SCT090 OVC110 23/16 A3003 RMK AO1 T02300159,K9MN,2025-08-14T18:35:00Z,44.0198,-92.4829,23,15.9,160,6,,10+,30.03,,,TRUE,TRUE,,,,,,,SCT,9000,OVC,11000,,,,,VFR,,,,,,,,,,,,METAR,308
K9A4 141835Z AUTO 30004KT 10SM CLR 30/20 A3004 RMK AO2,K9A4,2025-08-14T18:35:00Z,34.66,-87.349,30,20,300,4,,10+,30.04,,,TRUE,TRUE,,,,,,,CLR,,,,,,,,VFR,,,,,,,,,,,,METAR,176
K96D 141835Z AUTO 19009G16KT 150V220 10SM FEW028 28/22 A2968 RMK AO2,K96D,2025-08-14T18:35:00Z,48.9402,-97.9053,28,22,190,9,16,10+,29.68,,,TRUE,TRUE,,,,,,,FEW,2800,,,,,,,VFR,,,,,,,,,,,,METAR,290
K8W2 141835Z AUTO 00000KT 10SM BKN045 BKN095 31/20 A3000 RMK AO1 T03100202,K8W2,2025-08-14T18:35:00Z,38.6554,-78.7083,31,20.2,0,0,,10+,30.00,,,TRUE,TRUE,,,,,,,BKN,4500,BKN,9500,,,,,VFR,,,,,,,,,,,,METAR,295
K8D4 141835Z AUTO 07007KT 10SM FEW036 FEW047 28/17 A3007 RMK AO2,K8D4,2025-08-14T18:35:00Z,43.1295,-85.6779,28,17,70,7,,10+,30.07,,,TRUE,TRUE,,,,,,,FEW,3600,FEW,4700,,,,,VFR,,,,,,,,,,,,METAR,228
K8B0 141835Z AUTO 33008G16KT 10SM SCT065 25/14 A3001 RMK AO2,K8B0,2025-08-14T18:35:00Z,44.99,-70.6624,25,14,330,8,16,10+,30.01,,,TRUE,TRUE,,,,,,,SCT,6500,,,,,,,VFR,,,,,,,,,,,,METAR,552
K82V 141835Z AUTO 35007KT 10SM 34/01 A3003 RMK AO2,K82V,2025-08-14T18:35:00Z,41.151,-104.129,34,1,350,7,,10+,30.03,,,TRUE,TRUE,,,,,,,,,,,,,,,VFR,,,,,,,,,,,,METAR,1563
K81R 141835Z AUTO 10003KT 10SM CLR 35/21 A2999 RMK AO2 PWINO T03500213,K81R,2025-08-14T18:35:00Z,31.2321,-98.7154,35,21.3,100,3,,10+,29.99,,,TRUE,TRUE,,,,,TRUE,,CLR,,,,,,,,VFR,,,,,,,,,,,,METAR,381
K7W4 141835Z AUTO 00000KT 10SM BKN035 BKN044 30/22 A2995 RMK AO1 T03010223,K7W4,2025-08-14T18:35:00Z,37.9667,-77.7453,30.1,22.3,0,0,,10+,29.95,,,TRUE,TRUE,,,,,,,BKN,3500,BKN,4400,,,,,VFR,,,,,,,,,,,,METAR,115
K7L2 141835Z AUTO 25008KT 210V270 10SM CLR 30/21 A2979 RMK AO2,K7L2,2025-08-14T18:35:00Z,46.219,-100.245,30,21,250,8,,10+,29.79,,,TRUE,TRUE,,,,,,,CLR,,,,,,,,VFR,,,,,,,,,,,,METAR,541
K79S 141835Z AUTO VRB03KT 10SM BKN036 23/13 A2993 RMK AO2 T02300129 $,K79S,2025-08-14T18:35:00Z,47.845,-110.636,23,12.9,VRB,3,,10+,29.93,,,TRUE,TRUE,TRUE,,,,,,BKN,3600,,,,,,,VFR,,,,,,,,,,,,METAR,874
K77S 141835Z AUTO 31003KT 10SM FEW016 BKN032 OVC039 21/16 A3006 RMK A01,K77S,2025-08-14T18:35:00Z,43.9324,-123.006,21,16,310,3,,10+,30.06,,,TRUE,TRUE,,,,,,,FEW,1600,BKN,3200,OVC,3900,,,VFR,,,,,,,,,,,,METAR,161
K6S2 141835Z AUTO 28008KT 10SM SCT031 19/15 A3008 RMK AO2,K6S2,2025-08-14T18:35:00Z,43.9838,-124.11,19,15,280,8,,10+,30.08,,,TRUE,TRUE,,,,,,,SCT,3100,,,,,,,VFR,,,,,,,,,,,,METAR,16
K6L4 141835Z AUTO VRB04KT 10SM FEW024 28/21 A3007 RMK AO2,K6L4,2025-08-14T18:35:00Z,37.8553,-81.915,28,21,VRB,4,,10+,30.07,,,TRUE,TRUE,,,,,,,FEW,2400,,,,,,,VFR,,,,,,,,,,,,METAR,504
K6I2 141835Z AUTO 32005KT 10SM SCT043 34/20 A3002 RMK AO2,K6I2,2025-08-14T18:35:00Z,37.6352,-85.2418,34,20,320,5,,10+,30.02,,,TRUE,TRUE,,,,,,,SCT,4300,,,,,,,VFR,,,,,,,,,,,,METAR,258
K6B9 141835Z AUTO 36008KT 310V020 10SM FEW041 SCT060 SCT080 28/19 A3002 RMK AO2,K6B9,2025-08-14T18:35:00Z,42.9141,-76.4428,28,19,360,8,,10+,30.02,,,TRUE,TRUE,,,,,,,FEW,4100,SCT,6000,SCT,8000,,,VFR,,,,,,,,,,,,METAR,306
K66R 141835Z AUTO 12003KT 10SM SCT048 34/22 A2999 RMK AO2 T03440223,K66R,2025-08-14T18:35:00Z,29.6382,-96.5137,34.4,22.3,120,3,,10+,29.99,,,TRUE,TRUE,,,,,,,SCT,4800,,,,,,,VFR,,,,,,,,,,,,METAR,70
K5R8 141835Z AUTO 22005KT 10SM BKN044 BKN050 BKN075 34/23 A3000 RMK AO2 T03370227,K5R8,2025-08-14T18:35:00Z,30.4368,-93.4696,33.7,22.7,220,5,,10+,30.00,,,TRUE,TRUE,,,,,,,BKN,4400,BKN,5000,BKN,7500,,,VFR,,,,,,,,,,,,METAR,26
K5H4 141835Z AUTO 28015KT 10SM SCT042 29/23 A2974 RMK AO2,K5H4,2025-08-14T18:35:00Z,47.7906,-99.9346,29,23,280,15,,10+,29.74,,,TRUE,TRUE,,,,,,,SCT,4200,,,,,,,VFR,,,,,,,,,,,,METAR,490
K5A9 141835Z AUTO 31004KT 10SM SCT027 SCT033 BKN044 29/24 A3006 RMK AO2 T02940235,K5A9,2025-08-14T18:35:00Z,32.9362,-84.6972,29.4,23.5,310,4,,10+,30.06,,,TRUE,TRUE,,,,,,,SCT,2700,SCT,3300,BKN,4400,,,VFR,,,,,,,,,,,,METAR,268
K5A6 141835Z AUTO 00000KT 10SM BKN028 31/24 A2999 RMK AO2 LTG DSNT N AND S P0001 T03130244,K5A6,2025-08-14T18:35:00Z,33.469,-89.727,31.3,24.4,0,0,,10+,29.99,,,TRUE,TRUE,,,,,,,BKN,2800,,,,,,,MVFR,,,,,,0.01,,,,,,METAR,109
K54J 141835Z AUTO 25003KT 10SM SCT043 SCT049 33/24 A3002 RMK AO2 T03250236,K54J,2025-08-14T18:35:00Z,30.7312,-86.1542,32.5,23.6,250,3,,10+,30.02,,,TRUE,TRUE,,,,,,,SCT,4300,SCT,4900,,,,,VFR,,,,,,,,,,,,METAR,87
K4V0 141835Z AUTO 09003KT 10SM CLR 34/00 A3005 RMK AO2 T03390000,K4V0,2025-08-14T18:35:00Z,40.0956,-108.762,33.9,0,90,3,,10+,30.05,,,TRUE,TRUE,,,,,,,CLR,,,,,,,,VFR,,,,,,,,,,,,METAR,1602
K4S2 141835Z AUTO 31015G25KT 270V330 10SM CLR 21/12 A3000 RMK AO2,K4S2,2025-08-14T18:35:00Z,45.6746,-121.535,21,12,310,15,25,10+,30.00,,,TRUE,TRUE,,,,,,,CLR,,,,,,,,VFR,,,,,,,,,,,,METAR,183
K4R5 141835Z AUTO 14004KT 10SM BKN080 OVC100 24/16 A2999 RMK AO2 T02350156,K4R5,2025-08-14T18:35:00Z,46.7887,-90.7559,23.5,15.6,140,4,,10+,29.99,,,TRUE,TRUE,,,,,,,BKN,8000,OVC,10000,,,,,VFR,,,,,,,,,,,,METAR,195
K4O4 141835Z AUTO 03005KT 10SM CLR 34/23 A2997 RMK AO2,K4O4,2025-08-14T18:35:00Z,33.9133,-94.8546,34,23,30,5,,10+,29.97,,,TRUE,TRUE,,,,,,,CLR,,,,,,,,VFR,,,,,,,,,,,,METAR,148
K4M9 141835Z AUTO VRB03KT 10SM CLR 34/27 A2999 RMK A01,K4M9,2025-08-14T18:35:00Z,36.404,-90.647,34,27,VRB,3,,10+,29.99,,,TRUE,TRUE,,,,,,,CLR,,,,,,,,VFR,,,,,,,,,,,,METAR,86
K4M3 141835Z AUTO 00000KT 10SM 34/21 A2995 RMK A01,K4M3,2025-08-14T18:35:00Z,34.804,-91.707,34,21,0,0,,10+,29.95,,,TRUE,TRUE,,,,,,,,,,,,,,,VFR,,,,,,,,,,,,METAR,73
K4F2 141835Z AUTO 19005KT 10SM CLR 35/23 A2997 RMK AO2 LTG DSNT SE T03470231,K4F2,2025-08-14T18:35:00Z,32.18,-94.2976,34.7,23.1,190,5,,10+,29.97,,,TRUE,TRUE,,,,,,,CLR,,,,,,,,VFR,,,,,,,,,,,,METAR,76
K4BM 141835Z AUTO 17009G15KT 10SM CLR 22/M08 A3061 RMK AO2,K4BM,2025-08-14T18:35:00Z,39.05,-105.514,22,-8,170,9,15,10+,30.61,,,TRUE,TRUE,,,,,,,CLR,,,,,,,,VFR,,,,,,,,,,,,METAR,3432
K4B8 141835Z AUTO 05003KT 9SM FEW043 32/22 A2990 RMK AO2 T03180216,K4B8,2025-08-14T18:35:00Z,41.69,-72.865,31.8,21.6,50,3,,9,29.90,,,TRUE,TRUE,,,,,,,FEW,4300,,,,,,,VFR,,,,,,,,,,,,METAR,61
K4A9 141835Z AUTO 00000KT 10SM BKN034 SCT040 30/23 A3003 RMK AO2 T03000227,K4A9,2025-08-14T18:35:00Z,34.4759,-85.717,30,22.7,0,0,,10+,30.03,,,TRUE,TRUE,,,,,,,BKN,3400,SCT,4000,,,,,VFR,,,,,,,,,,,,METAR,273
K4A6 141835Z AUTO VRB05KT 10SM FEW050 31/24 A3003 RMK AO2,K4A6,2025-08-14T18:35:00Z,34.688,-86.006,31,24,VRB,5,,10+,30.03,,,TRUE,TRUE,,,,,,,FEW,5000,,,,,,,VFR,,,,,,,,,,,,METAR,191
K46D 141835Z AUTO 21010KT 5SM HZ CLR 28/24 A2973 RMK A01,K46D,2025-08-14T18:35:00Z,47.4509,-99.1479,28,24,210,10,,5,29.73,,,TRUE,TRUE,,,,,,HZ,CLR,,,,,,,,MVFR,,,,,,,,,,,,METAR,488
K42J 141835Z AUTO 30006KT 10SM FEW045 FEW060 FEW065 A3002 RMK A01,K42J,2025-08-14T18:35:00Z,29.844,-82.05,,,300,6,,10+,30.02,,,TRUE,TRUE,,,,,,,FEW,4500,FEW,6000,FEW,6500,,,VFR,,,,,,,,,,,,METAR,57
K40U 141835Z AUTO 11008KT 10SM CLR 28/04 A3015 RMK AO2 T02810037,K40U,2025-08-14T18:35:00Z,40.986,-109.678,28.1,3.7,110,8,,10+,30.15,,,TRUE,TRUE,,,,,,,CLR,,,,,,,,VFR,,,,,,,,,,,,METAR,1882
K3U3 141835Z AUTO VRB03KT 10SM CLR 27/03 A2996 RMK AO2 T02710035 $,K3U3,2025-08-14T18:35:00Z,46.1516,-112.868,27.1,3.5,VRB,3,,10+,29.96,,,TRUE,TRUE,TRUE,,,,,,CLR,,,,,,,,VFR,,,,,,,,,,,,METAR,1534
K3T5 141835Z AUTO 13006KT 10SM FEW380 36/20 A2995 RMK AO2 T03570205 $,K3T5,2025-08-14T18:35:00Z,29.9064,-96.9478,35.7,20.5,130,6,,10+,29.95,,,TRUE,TRUE,TRUE,,,,,,FEW,38000,,,,,,,VFR,,,,,,,,,,,,METAR,96
K3R7 141835Z AUTO 21007KT 10SM SCT043 SCT055 33/22 A3001 RMK AO2 LTG DSNT SW T03270218,K3R7,2025-08-14T18:35:00Z,30.2426,-92.6759,32.7,21.8,210,7,,10+,30.01,,,TRUE,TRUE,,,,,,,SCT,4300,SCT,5500,,,,,VFR,,,,,,,,,,,,METAR,5
K3N8 141835Z AUTO 18009G16KT 10SM SCT026 BKN037 26/20 A2980 RMK AO2 T02560197,K3N8,2025-08-14T18:35:00Z,47.26,-95.928,25.6,19.7,180,9,16,10+,29.80,,,TRUE,TRUE,,,,,,,SCT,2600,BKN,3700,,,,,VFR,,,,,,,,,,,,METAR,379
K3LF 141835Z AUTO 27003KT 10SM CLR 29/20 A3003 RMK AO2 T02880203,K3LF,2025-08-14T18:35:00Z,39.1605,-89.6742,28.8,20.3,270,3,,10+,30.03,,,TRUE,TRUE,,,,,,,CLR,,,,,,,,VFR,,,,,,,,,,,,METAR,207
K3F3 141835Z AUTO 17009G14KT 10SM BKN047 BKN055 BKN080 34/24 A3001 RMK AO2 LTG DSNT NE AND S T03400236,K3F3,2025-08-14T18:35:00Z,32.0718,-93.7641,34,23.6,170,9,14,10+,30.01,,,TRUE,TRUE,,,,,,,BKN,4700,BKN,5500,BKN,8000,,,VFR,,,,,,,,,,,,METAR,96
K3AU 141835Z AUTO 18012KT 10SM CLR 31/17 A2997 RMK AO2,K3AU,2025-08-14T18:35:00Z,37.6729,-97.0792,31,17,180,12,,10+,29.97,,,TRUE,TRUE,,,,,,,CLR,,,,,,,,VFR,,,,,,,,,,,,METAR,403
K35A 141835Z AUTO 01003KT 10SM SCT027 30/23 A3002 RMK A02 T03020235,K35A,2025-08-14T18:35:00Z,34.6849,-81.6421,30.2,23.5,10,3,,10+,30.02,,,TRUE,TRUE,,,,,,,SCT,2700,,,,,,,VFR,,,,,,,,,,,,METAR,186
K2R9 141835Z AUTO 17010G15KT 10SM CLR 37/19 A2996 RMK AO2 T03740187,K2R9,2025-08-14T18:35:00Z,28.8267,-97.8676,37.4,18.7,170,10,15,10+,29.96,,,TRUE,TRUE,,,,,,,CLR,,,,,,,,VFR,,,,,,,,,,,,METAR,88
K2M8 141835Z AUTO 10SM A2998 RMK AO2 FZRANO $,K2M8,2025-08-14T18:35:00Z,35.276,-89.931,,,,,,10+,29.98,,,TRUE,TRUE,TRUE,,,TRUE,,,,,,,,,,,VFR,,,,,,,,,,,,METAR,75
K2J9 141835Z AUTO 24006KT 10SM FEW038 33/27 A3005 RMK AO2,K2J9,2025-08-14T18:35:00Z,30.5987,-84.555,33,27,240,6,,10+,30.05,,,TRUE,TRUE,,,,,,,FEW,3800,,,,,,,VFR,,,,,,,,,,,,METAR,62
K2IS 141835Z AUTO 19006KT 10SM SCT028 SCT050 BKN100 31/26 A3006 RMK AO2 P0003 T03150256,K2IS,2025-08-14T18:35:00Z,26.739,-81.0528,31.5,25.6,190,6,,10+,30.06,,,TRUE,TRUE,,,,,,,SCT,2800,SCT,5000,BKN,10000,,,VFR,,,,,,0.03,,,,,,METAR,5
K2G9 141835Z AUTO 32007KT 300V010 10SM SCT038 26/17 A3008 RMK AO2,K2G9,2025-08-14T18:35:00Z,40.0401,-79.0158,26,17,320,7,,10+,30.08,,,TRUE,TRUE,,,,,,,SCT,3800,,,,,,,VFR,,,,,,,,,,,,METAR,677
K2D5 141835Z AUTO 19014KT CLR 27/23 A2976 RMK AO2,K2D5,2025-08-14T18:35:00Z,46.1739,-98.083,27,23,190,14,,,29.76,,,TRUE,TRUE,,,,,,,CLR,,,,,,,,,,,,,,,,,,,,METAR,407
K2C8 141835Z AUTO 19013KT 8SM OVC027 27/23 A2968 RMK AO2,K2C8,2025-08-14T18:35:00Z,48.7838,-97.6297,27,23,190,13,,8,29.68,,,TRUE,TRUE,,,,,,,OVC,2700,,,,,,,MVFR,,,,,,,,,,,,METAR,271
K28J 141835Z AUTO 26006G13KT 8SM -RA 31/25 A3004 RMK AO2 LTG DSNT NE AND S,K28J,2025-08-14T18:35:00Z,29.6602,-81.6918,31,25,260,6,13,8,30.04,,,TRUE,TRUE,,,,,,-RA,,,,,,,,,VFR,,,,,,,,,,,,METAR,9
K27K 141835Z AUTO VRB03KT 10SM FEW048 31/22 A3000 RMK AO2 T03060217,K27K,2025-08-14T18:35:00Z,38.239,-84.4336,30.6,21.7,VRB,3,,10+,30.00,,,TRUE,TRUE,,,,,,,FEW,4800,,,,,,,VFR,,,,,,,,,,,,METAR,283
K24J 141835Z AUTO 24005KT 10SM SCT046 BKN055 BKN070 34/23 A3001 RMK A01,K24J,2025-08-14T18:35:00Z,30.299,-83.0226,34,23,240,5,,10+,30.01,,,TRUE,TRUE,,,,,,,SCT,4600,BKN,5500,BKN,7000,,,VFR,,,,,,,,,,,,METAR,30
K22N 141835Z AUTO 32005KT 10SM CLR 31/18 A2995 RMK AO2,K22N,2025-08-14T18:35:00Z,40.8116,-75.7647,31,18,320,5,,10+,29.95,,,TRUE,TRUE,,,,,,,CLR,,,,,,,,VFR,,,,,,,,,,,,METAR,159
K21D 141835Z AUTO 17011G16KT 10SM CLR 23/17 A2999 RMK AO2,K21D,2025-08-14T18:35:00Z,45.0002,-92.8549,23,17,170,11,16,10+,29.99,,,TRUE,TRUE,,,,,,,CLR,,,,,,,,VFR,,,,,,,,,,,,METAR,281
K20V 141835Z AUTO 00000KT 10SM CLR CLR A3024 RMK AO2,K20V,2025-08-14T18:35:00Z,40.0563,-106.374,,,0,0,,10+,30.24,,,TRUE,TRUE,,,,,,,CLR,,,,,,,,VFR,,,,,,,,,,,,METAR,2259
K20U 141835Z AUTO 34012KT 10SM 23/14 A2991 RMK AO2 TSNO,K20U,2025-08-14T18:35:00Z,46.9251,-103.985,23,14,340,12,,10+,29.91,,,TRUE,TRUE,,,TRUE,,,,,,,,,,,,VFR,,,,,,,,,,,,METAR,839
K1R8 141835Z AUTO 17003KT 10SM SCT037 SCT043 BKN095 32/24 A3001 RMK AO2,K1R8,2025-08-14T18:35:00Z,30.8691,-87.8184,32,24,170,3,,10+,30.01,,,TRUE,TRUE,,,,,,,SCT,3700,SCT,4300,BKN,9500,,,VFR,,,,,,,,,,,,METAR,76
K1R7 141835Z AUTO 00000KT 9SM FEW039 BKN055 BKN065 32/25 A3001 RMK A01 TSNO,K1R7,2025-08-14T18:35:00Z,31.6057,-90.4072,32,25,0,0,,9,30.01,,,TRUE,TRUE,,,TRUE,,,,FEW,3900,BKN,5500,BKN,6500,,,VFR,,,,,,,,,,,,METAR,142
K1P1 141835Z AUTO 29008G18KT 10SM CLR 30/17 A2992 RMK AO2 T02960173,K1P1,2025-08-14T18:35:00Z,43.7771,-71.756,29.6,17.3,290,8,18,10+,29.92,,,TRUE,TRUE,,,,,,,CLR,,,,,,,,VFR,,,,,,,,,,,,METAR,155
K1H2 141835Z AUTO 00000KT 10SM BKN041 29/22 A3003 RMK AO2 T02920216,K1H2,2025-08-14T18:35:00Z,39.0712,-88.5293,29.2,21.6,0,0,,10+,30.03,,,TRUE,TRUE,,,,,,,BKN,4100,,,,,,,VFR,,,,,,,,,,,,METAR,174
K1F0 141835Z AUTO 16006KT 10SM CLR 34/21 A2996 RMK AO2 T03390208,K1F0,2025-08-14T18:35:00Z,34.1508,-97.1242,33.9,20.8,160,6,,10+,29.96,,,TRUE,TRUE,,,,,,,CLR,,,,,,,,VFR,,,,,,,,,,,,METAR,256
K1B9 141835Z AUTO VRB05KT 10SM FEW055 SCT070 OVC240 32/21 A2988 RMK AO2 T03180207 $,K1B9,2025-08-14T18:35:00Z,42,-71.197,31.8,20.7,VRB,5,,10+,29.88,,,TRUE,TRUE,TRUE,,,,,,FEW,5500,SCT,7000,OVC,24000,,,VFR,,,,,,,,,,,,METAR,37
K1A9 141835Z AUTO 00000KT 10SM BKN026 OVC032 31/24 A3002 RMK AO2 T03070236,K1A9,2025-08-14T18:35:00Z,32.4374,-86.5098,30.7,23.6,0,0,,10+,30.02,,,TRUE,TRUE,,,,,,,BKN,2600,OVC,3200,,,,,MVFR,,,,,,,,,,,,METAR,65
K1A6 141835Z AUTO 07004KT 10SM CLR 31/21 A3005 RMK AO2 T03100214,K1A6,2025-08-14T18:35:00Z,36.6087,-83.7369,31,21.4,70,4,,10+,30.05,,,TRUE,TRUE,,,,,,,CLR,,,,,,,,VFR,,,,,,,,,,,,METAR,348
K18A 141835Z AUTO 20004KT 10SM BKN034 BKN039 OVC055 30/23 A3001 RMK AO2 T03020234,K18A,2025-08-14T18:35:00Z,34.3418,-83.1316,30.2,23.4,200,4,,10+,30.01,,,TRUE,TRUE,,,,,,,BKN,3400,BKN,3900,OVC,5500,,,VFR,,,,,,,,,,,,METAR,260
K15M 141835Z AUTO VRB03KT 10SM FEW031 31/25 A3003 RMK AO2 T03090253 $,K15M,2025-08-14T18:35:00Z,34.7745,-88.1676,30.9,25.3,VRB,3,,10+,30.03,,,TRUE,TRUE,TRUE,,,,,,FEW,3100,,,,,,,VFR,,,,,,,,,,,,METAR,192
K14Y 141835Z AUTO 17017G20KT 10SM BKN021 OVC029 A2990 RMK AO2,K14Y,2025-08-14T18:35:00Z,45.9017,-94.8727,,,170,17,20,10+,29.90,,,TRUE,TRUE,,,,,,,BKN,2100,OVC,2900,,,,,MVFR,,,,,,,,,,,,METAR,404
K13K 141835Z AUTO 19008KT 10SM CLR 32/22 A2999 RMK AO2 T03160219,K13K,2025-08-14T18:35:00Z,37.8519,-96.2929,31.6,21.9,190,8,,10+,29.99,,,TRUE,TRUE,,,,,,,CLR,,,,,,,,VFR,,,,,,,,,,,,METAR,367
K11R 141835Z AUTO 00000KT 10SM SCT044 34/22 A2999 RMK AO2 T03370224,K11R,2025-08-14T18:35:00Z,30.2232,-96.3734,33.7,22.4,0,0,,10+,29.99,,,TRUE,TRUE,,,,,,,SCT,4400,,,,,,,VFR,,,,,,,,,,,,METAR,87
K10G 141835Z AUTO 06006KT 10SM SCT045 28/20 A3007 RMK AO2,K10G,2025-08-14T18:35:00Z,40.5357,-81.9531,28,20,60,6,,10+,30.07,,,TRUE,TRUE,,,,,,,SCT,4500,,,,,,,VFR,,,,,,,,,,,,METAR,371
K0VG 141835Z AUTO 00000KT 10SM CLR 30/22 A3004 RMK AO2,K0VG,2025-08-14T18:35:00Z,36.6576,-83.2147,30,22,0,0,,10+,30.04,,,TRUE,TRUE,,,,,,,CLR,,,,,,,,VFR,,,,,,,,,,,,METAR,426
K0V4 141835Z AUTO 21003KT 10SM SCT044 BKN070 BKN090 32/22 A2996 RMK AO1,K0V4,2025-08-14T18:35:00Z,37.1399,-79.0171,32,22,210,3,,10+,29.96,,,TRUE,TRUE,,,,,,,SCT,4400,BKN,7000,BKN,9000,,,VFR,,,,,,,,,,,,METAR,186
K0S9 141835Z AUTO 10004KT 10SM FEW008 OVC014 15/14 A3002 RMK AO2,K0S9,2025-08-14T18:35:00Z,48.0554,-122.812,15,14,100,4,,10+,30.02,,,TRUE,TRUE,,,,,,,FEW,800,OVC,1400,,,,,MVFR,,,,,,,,,,,,METAR,33
K0F2 141835Z AUTO 17004KT 10SM SCT045 34/21 A2997 RMK AO2 T03380212,K0F2,2025-08-14T18:35:00Z,33.6011,-97.7735,33.8,21.2,170,4,,10+,29.97,,,TRUE,TRUE,,,,,,,SCT,4500,,,,,,,VFR,,,,,,,,,,,,METAR,330
K0E0 141835Z AUTO 20007KT 180V240 10SM CLR 32/01 A3021 RMK AO2 T03190013,K0E0,2025-08-14T18:35:00Z,34.9837,-105.996,31.9,1.3,200,7,,10+,30.21,,,TRUE,TRUE,,,,,,,CLR,,,,,,,,VFR,,,,,,,,,,,,METAR,1887
K0CO 141835Z AUTO 01003KT 10SM SCT060 OVC080 14/M03 A3069 RMK AO2,K0CO,2025-08-14T18:35:00Z,39.794,-105.764,14,-3,10,3,,10+,30.69,,,TRUE,TRUE,,,,,,,SCT,6000,OVC,8000,,,,,VFR,,,,,,,,,,,,METAR,3804
K08D 141835Z AUTO 31008KT 10SM CLR 21/16 A2985 RMK AO2,K08D,2025-08-14T18:35:00Z,48.3018,-102.404,21,16,310,8,,10+,29.85,,,TRUE,TRUE,,,,,,,CLR,,,,,,,,VFR,,,,,,,,,,,,METAR,683
K06D 141835Z AUTO 30005G12KT 10SM SCT027 OVC033 26/17 A2974 RMK AO2,K06D,2025-08-14T18:35:00Z,48.8821,-99.6217,26,17,300,5,12,10+,29.74,,,TRUE,TRUE,,,,,,,SCT,2700,OVC,3300,,,,,VFR,,,,,,,,,,,,METAR,554
K06C 141835Z AUTO 09005KT 10SM BKN050 28/16 A3006 RMK AO2 T02780155,K06C,2025-08-14T18:35:00Z,41.9924,-88.1091,27.8,15.5,90,5,,10+,30.06,,,TRUE,TRUE,,,,,,,BKN,5000,,,,,,,VFR,,,,,,,,,,,,METAR,243
K04W 141835Z AUTO 17012G19KT 10SM OVC044 26/17 A2996 RMK AO2,K04W,2025-08-14T18:35:00Z,46.0244,-92.8991,26,17,170,12,19,10+,29.96,,,TRUE,TRUE,,,,,,,OVC,4400,,,,,,,VFR,,,,,,,,,,,,METAR,310
K04V 141835Z AUTO 14006KT 10SM CLR 26/02 A3033 RMK AO2 PWINO,K04V,2025-08-14T18:35:00Z,38.099,-106.17,26,2,140,6,,10+,30.33,,,TRUE,TRUE,,,,,TRUE,,CLR,,,,,,,,VFR,,,,,,,,,,,,METAR,2389
PAQH 141834Z AUTO 31014KT 10SM BKN011 OVC026 09/08 A3007 RMK AO2,PAQH,2025-08-14T18:34:00Z,59.751,-161.842,9,8,310,14,,10+,30.07,,,TRUE,TRUE,,,,,,,BKN,1100,OVC,2600,,,,,MVFR,,,,,,,,,,,,SPECI,8
PAPN 141834Z AUTO 28013KT 8SM SCT007 OVC026 13/12 A2993 RMK AO2 $,PAPN,2025-08-14T18:34:00Z,57.578,-157.569,13,12,280,13,,8,29.93,,,TRUE,TRUE,TRUE,,,,,,SCT,700,OVC,2600,,,,,MVFR,,,,,,,,,,,,SPECI,19
PANU 141834Z AUTO 31012KT 10SM SCT024 08/02 A2989 RMK AO2,PANU,2025-08-14T18:34:00Z,64.7304,-158.075,8,2,310,12,,10+,29.89,,,TRUE,TRUE,,,,,,,SCT,2400,,,,,,,VFR,,,,,,,,,,,,SPECI,117
KPOB 141834Z AUTO 18005KT 10SM OVC095 29/24 A2996 RMK AO2 DZB1755E01 SLP146 $,KPOB,2025-08-14T18:34:00Z,35.175,-79.008,29,24,180,5,,10+,29.96,1014.6,,TRUE,TRUE,TRUE,,,,,,OVC,9500,,,,,,,VFR,,,,,,,,,,,,SPECI,57
KOPF 141834Z 11009G17KT 10SM FEW039 33/23 A3005 RMK AO2 TSB00E15 T03330233 $,KOPF,2025-08-14T18:34:00Z,25.9102,-80.2828,33.3,23.3,110,9,17,10+,30.05,,,,TRUE,TRUE,,,,,,FEW,3900,,,,,,,VFR,,,,,,,,,,,,SPECI,1
KNTD 141834Z 23008KT 10SM OVC016 21/16 A2995 RMK AO2 T02110156 $,KNTD,2025-08-14T18:34:00Z,34.124,-119.123,21.1,15.6,230,8,,10+,29.95,,,,TRUE,TRUE,,,,,,OVC,1600,,,,,,,MVFR,,,,,,,,,,,,SPECI,1
KAUG 141834Z AUTO 21006G25KT 1/4SM HZ BKN017 BKN047 OVC065 22/19 A2992 RMK AO2 T02220189 PWINO,KAUG,2025-08-14T18:34:00Z,44.3161,-69.797,22.2,18.9,210,6,25,0.25,29.92,,,TRUE,TRUE,,,,,TRUE,HZ,BKN,1700,BKN,4700,OVC,6500,,,LIFR,,,,,,,,,,,,SPECI,107
K2DP 141834Z AUTO 31007KT M TS FEW033 SCT050 BKN070 34/26 A2992 RMK AO2 TSB34 SLP139 RVRNO PWINO TSNO $,K2DP,2025-08-14T18:34:00Z,35.672,-75.892,34,26,310,7,,,29.92,1013.9,,TRUE,TRUE,TRUE,,TRUE,,TRUE,TS,FEW,3300,SCT,5000,BKN,7000,,,,,,,,,,,,,,,SPECI,1
EHEH 141834Z AUTO 33008KT 280V030 9999 NCD 25/18 Q1019 BLU NOSIG,EHEH,2025-08-14T18:34:00Z,51.45,5.377,25,18,330,8,,6+,30.09,,,TRUE,,,TRUE,,,,,CLR,,,,,,,,VFR,,,,,,,,,,,,SPECI,20
PAJZ 141833Z AUTO 35009KT 6SM BR BKN012 BKN018 OVC024 12/10 A2996 RMK AO2 PNO $,PAJZ,2025-08-14T18:33:00Z,59.727,-157.267,12,10,350,9,,6,29.96,,,TRUE,TRUE,TRUE,,,,,BR,BKN,1200,BKN,1800,OVC,2400,,,MVFR,,,,,,,,,,,,SPECI,80
LIRK 141833Z AUTO 01013KT //// // ///////// 19/// Q1028 RMK ///,LIRK,2025-08-14T18:33:00Z,42.466,12.979,,,10,13,,,30.35,,,TRUE,,,,,,,,,,,,,,,,,,,,,,,,,,,,SPECI,1721
KXVG 141833Z AUTO 15006KT 10SM CLR 22/18 A2988 RMK AO2,KXVG,2025-08-14T18:33:00Z,46.9942,-94.206,22,18,150,6,,10+,29.88,,,TRUE,TRUE,,,,,,,CLR,,,,,,,,VFR,,,,,,,,,,,,METAR,407
KSMX 141833Z 29007KT 10SM SCT010 18/13 A2999 RMK AO2 T01780133 $,KSMX,2025-08-14T18:33:00Z,34.894,-120.452,17.8,13.3,290,7,,10+,29.99,,,,TRUE,TRUE,,,,,,SCT,1000,,,,,,,VFR,,,,,,,,,,,,SPECI,73
KPVG 141833Z 24005KT 10SM FEW022 31/26 A2994 RMK AO2 SLP299 PWINO FZRANO RVRNO,KPVG,2025-08-14T18:33:00Z,36.7824,-76.452,31,26,240,5,,10+,29.94,1029.9,,,TRUE,,,,TRUE,TRUE,,FEW,2200,,,,,,,VFR,,,,,,,,,,,,SPECI,7
KGTR 141833Z 01003KT 10SM BKN028 BKN036 33/26 A3002 RMK AO2,KGTR,2025-08-14T18:33:00Z,33.456,-88.593,33,26,10,3,,10+,30.02,,,,TRUE,,,,,,,BKN,2800,BKN,3600,,,,,MVFR,,,,,,,,,,,,SPECI,80
KFOZ 141833Z AUTO 17008KT 123V203 10SM SCT080 23/18 A2993 RMK AO2,KFOZ,2025-08-14T18:33:00Z,47.7832,-93.6533,23,18,170,8,,10+,29.93,,,TRUE,TRUE,,,,,,,SCT,8000,,,,,,,VFR,,,,,,,,,,,,METAR,412
KETH 141833Z AUTO 17012G17KT 10SM CLR 27/19 A2982 RMK AO2,KETH,2025-08-14T18:33:00Z,45.7828,-96.5461,27,19,170,12,17,10+,29.82,,,TRUE,TRUE,,,,,,,CLR,,,,,,,,VFR,,,,,,,,,,,,METAR,309
KCDD 141833Z AUTO 18007G14KT 10SM CLR 24/17 A2994 RMK AO2,KCDD,2025-08-14T18:33:00Z,48.2601,-92.4748,24,17,180,7,14,10+,29.94,,,TRUE,TRUE,,,,,,,CLR,,,,,,,,VFR,,,,,,,,,,,,METAR,344
KBPT 141833Z 19005KT 10SM -TSRA SCT037 BKN047 BKN060 32/26 A3000 RMK AO2 RAB1755 TSB27 P0001 T03170256,KBPT,2025-08-14T18:33:00Z,29.9521,-94.0262,31.7,25.6,190,5,,10+,30.00,,,,TRUE,,,,,,-TSRA,SCT,3700,BKN,4700,BKN,6000,,,VFR,,,,,,0.01,,,,,,SPECI,6
KAQP 141833Z AUTO 12009KT 10SM SCT080 26/21 A2984 RMK AO2 TSNO,KAQP,2025-08-14T18:33:00Z,45.2249,-96.0041,26,21,120,9,,10+,29.84,,,TRUE,TRUE,,,TRUE,,,,SCT,8000,,,,,,,VFR,,,,,,,,,,,,METAR,312
K1DN 141833Z AUTO 29011G18KT 10SM TS SCT120 BKN150 22/17 M RMK AO2 TSB33 SLPNO $,K1DN,2025-08-14T18:33:00Z,47.8,-101.3,22,17,290,11,18,10+,0.00,,,TRUE,TRUE,TRUE,,,,,TS,SCT,12000,BKN,15000,,,,,VFR,,,,,,,,,,,,SPECI,632
CYOD 141833Z 29014G21KT 9SM -RA BKN019 OVC027 11/08 A2981 RMK SC6SC2 DENSITY ALT 2016FT PCPN VRY LGT SLP105,CYOD,2025-08-14T18:33:00Z,54.41,-110.287,11,8,290,14,21,9,29.81,1010.5,,,,,,,,,-RA,BKN,1900,OVC,2700,,,,,MVFR,,,,,,,,,,,,SPECI,540
PAIK 141832Z AUTO 32005KT 10SM SCT022 OVC035 08/05 A2985 RMK AO2,PAIK,2025-08-14T18:32:00Z,66.975,-160.439,8,5,320,5,,10+,29.85,,,TRUE,TRUE,,,,,,,SCT,2200,OVC,3500,,,,,VFR,,,,,,,,,,,,SPECI,49
PAFE 141832Z AUTO 14005KT 10SM FEW004 BKN039 13/12 A2982 RMK AO2 $,PAFE,2025-08-14T18:32:00Z,56.961,-133.91,13,12,140,5,,10+,29.82,,,TRUE,TRUE,TRUE,,,,,,FEW,400,BKN,3900,,,,,VFR,,,,,,,,,,,,SPECI,1
KNRB 141832Z 20006G35KT 3SM -TSRA FEW010 BKN040CB OVC250 27/23 A3003 RMK AO2 PK WND 27035/1823 RAB23 TSB07 FRQ LTGICCCCG OHD TS OHD MOV E T1 SET P0040 T02670228,KNRB,2025-08-14T18:32:00Z,30.396,-81.423,26.7,22.8,200,6,35,3,30.03,,,,TRUE,,,,,,-TSRA,FEW,1000,BKN,4000,OVC,25000,,,MVFR,,,,,,0.4,,,,,,SPECI,4
KFLO 141832Z 2 1/2SM VCTS RA BR BKN024 BKN032 OVC055 25/24 A2998 RMK AO2 LTG DSNT SE P0026 T02500244,KFLO,2025-08-14T18:32:00Z,34.1877,-79.7308,25,24.4,,,,2.5,29.98,,,,TRUE,,,,,,VCTS RA BR,BKN,2400,BKN,3200,OVC,5500,,,IFR,,,,,,0.26,,,,,,SPECI,43
KBOK 141832Z AUTO 22003KT 2SM BR OVC003 A3006 RMK AO2 VIS 1 1/4V5 PNO $,KBOK,2025-08-14T18:32:00Z,42.0754,-124.29,,,220,3,,2,30.06,,,TRUE,TRUE,TRUE,,,,,BR,OVC,300,,,,,,,LIFR,,,,,,,,,,,,SPECI,140
KBLM 141832Z AUTO 10006KT 10SM BKN025 29/24 A2994 RMK AO2 LTG DSNT S,KBLM,2025-08-14T18:32:00Z,40.1822,-74.1207,29,24,100,6,,10+,29.94,,,TRUE,TRUE,,,,,,,BKN,2500,,,,,,,MVFR,,,,,,,,,,,,SPECI,45
KSOP 141831Z AUTO 22006KT 10SM BKN019 29/24 A3000 RMK AO2 $,KSOP,2025-08-14T18:31:00Z,35.2371,-79.3921,29,24,220,6,,10+,30.00,,,TRUE,TRUE,TRUE,,,,,,BKN,1900,,,,,,,MVFR,,,,,,,,,,,,SPECI,135
KGTF 141831Z 05007KT 10SM SCT027 21/12 A2995 RMK AO2 T02060117 $,KGTF,2025-08-14T18:31:00Z,47.4733,-111.383,20.6,11.7,50,7,,10+,29.95,,,,TRUE,TRUE,,,,,,SCT,2700,,,,,,,VFR,,,,,,,,,,,,SPECI,1117
KEUG 141831Z VRB03KT 10SM BKN032 21/14 A3007 RMK AO2 VIS 1 1/4 RNW 34 T02060144 $,KEUG,2025-08-14T18:31:00Z,44.1331,-123.216,20.6,14.4,VRB,3,,10+,30.07,,,,TRUE,TRUE,,,,,,BKN,3200,,,,,,,VFR,,,,,,,,,,,,SPECI,109
CYQQ 141831Z 12011KT 1/2SM R12/6000FT/D FU VV002 18/13 A2996 RMK FU8 DENSITY ALT 554FT VIS VRB 3/8-5/8 FU ALF ALQDS SLP145,CYQQ,2025-08-14T18:31:00Z,49.712,-124.895,18,13,120,11,,0.5,29.96,1014.5,,,,,,,,,FU,OVX,0,,,,,,,LIFR,,,,,,,,,,,200,SPECI,24
CYMM 141831Z AUTO 32015G20KT 9SM -RA OVC011 09/08 A2981 RMK SLP109,CYMM,2025-08-14T18:31:00Z,56.65,-111.221,9,8,320,15,20,9,29.81,1010.9,,TRUE,,,,,,,-RA,OVC,1100,,,,,,,MVFR,,,,,,,,,,,,SPECI,371
CYBX 141831Z 26009KT 15SM OVC004 20/19 A2978 RMK SC8 SLP086 DENSITY ALT 900FT,CYBX,2025-08-14T18:31:00Z,51.442,-57.188,20,19,260,9,,15,29.78,1008.6,,,,,,,,,,OVC,400,,,,,,,LIFR,,,,,,,,,,,,SPECI,32
ZYTX 141830Z 13002MPS CAVOK 23/21 Q1014 NOSIG,ZYTX,2025-08-14T18:30:00Z,41.639,123.485,23,21,130,4,,6+,29.94,,,,,,TRUE,,,,,CAVOK,,,,,,,,VFR,,,,,,,,,,,,METAR,56
ZYTL 141830Z 14002MPS CAVOK 26/23 Q1014 NOSIG,ZYTL,2025-08-14T18:30:00Z,38.961,121.556,26,23,140,4,,6+,29.94,,,,,,TRUE,,,,,CAVOK,,,,,,,,VFR,,,,,,,,,,,,METAR,33
ZWWW 141830Z VRB01MPS CAVOK 26/13 Q1009 NOSIG,ZWWW,2025-08-14T18:30:00Z,43.907,87.474,26,13,VRB,2,,6+,29.79,,,,,,TRUE,,,,,CAVOK,,,,,,,,VFR,,,,,,,,,,,,METAR,654
ZSSS 141830Z 17006MPS CAVOK 29/25 Q1013 NOSIG,ZSSS,2025-08-14T18:30:00Z,31.209,121.337,29,25,170,12,,6+,29.91,,,,,,TRUE,,,,,CAVOK,,,,,,,,VFR,,,,,,,,,,,,METAR,2
ZSPD 141830Z 16004MPS CAVOK 27/27 Q1013 NOSIG,ZSPD,2025-08-14T18:30:00Z,31.146,121.8,27,27,160,8,,6+,29.91,,,,,,TRUE,,,,,CAVOK,,,,,,,,VFR,,,,,,,,,,,,METAR,4
ZSHC 141830Z 16002MPS CAVOK 29/23 Q1012 NOSIG,ZSHC,2025-08-14T18:30:00Z,30.229,120.434,29,23,160,4,,6+,29.88,,,,,,TRUE,,,,,CAVOK,,,,,,,,VFR,,,,,,,,,,,,METAR,8
ZMCK 141830Z 06003MPS CAVOK 11/06 Q1012 NOSIG RMK QFE644.0 72,ZMCK,2025-08-14T18:30:00Z,47.651,106.822,11,6,60,6,,6+,29.88,,,,,,TRUE,,,,,CAVOK,,,,,,,,VFR,,,,,,,,,,,,METAR,1366
ZGGG 141830Z 08002MPS 9999 -SHRA FEW010 OVC033 24/24 Q1008 NOSIG,ZGGG,2025-08-14T18:30:00Z,23.392,113.307,24,24,80,4,,6+,29.76,,,,,,TRUE,,,,-SHRA,FEW,1000,OVC,3300,,,,,VFR,,,,,,,,,,,,METAR,11
ZBYN 141830Z 08004MPS CAVOK 24/17 Q1015 NOSIG,ZBYN,2025-08-14T18:30:00Z,37.747,112.628,24,17,80,8,,6+,29.97,,,,,,TRUE,,,,,CAVOK,,,,,,,,VFR,,,,,,,,,,,,METAR,778
ZBTJ 141830Z VRB01MPS 2500 BR NSC 24/23 Q1011 NOSIG,ZBTJ,2025-08-14T18:30:00Z,39.124,117.346,24,23,VRB,2,,1.55,29.85,,,,,,TRUE,,,,BR,CLR,,,,,,,,IFR,,,,,,,,,,,,METAR,4
ZBAD 141830Z 36003MPS 7000 NSC 23/22 Q1012 NOSIG,ZBAD,2025-08-14T18:30:00Z,39.501,116.412,23,22,360,6,,4.35,29.88,,,,,,TRUE,,,,,CLR,,,,,,,,MVFR,,,,,,,,,,,,METAR,25
ZBAA 141830Z VRB01MPS 9999 SCT040 22/22 Q1012 NOSIG,ZBAA,2025-08-14T18:30:00Z,40.082,116.603,22,22,VRB,2,,6+,29.88,,,,,,TRUE,,,,,SCT,4000,,,,,,,VFR,,,,,,,,,,,,METAR,31
YWLM 141830Z AUTO 30006KT 9999 -SHRA FEW004 BKN019 OVC041 11/10 Q1022,YWLM,2025-08-14T18:30:00Z,-32.794,151.836,11,10,300,6,,6+,30.18,,,TRUE,,,,,,,-SHRA,FEW,400,BKN,1900,OVC,4100,,,MVFR,,,,,,,,,,,,METAR,7
YSTW 141830Z AUTO 09005KT 9999 // NCD 04/03 Q1021,YSTW,2025-08-14T18:30:00Z,-31.084,150.847,4,3,90,5,,6+,30.15,,,TRUE,,,,,,,,CLR,,,,,,,,VFR,,,,,,,,,,,,METAR,404
YSSY 141830Z AUTO 35007KT 9000 -SHRA FEW046 BKN064 BKN072 11/10 Q1022 RESHRA,YSSY,2025-08-14T18:30:00Z,-33.946,151.173,11,10,350,7,,5.59,30.18,,,TRUE,,,,,,,-SHRA,FEW,4600,BKN,6400,BKN,7200,,,VFR,,,,,,,,,,,,METAR,3
YSRI 141830Z AUTO 00000KT 9999 // SCT031 BKN076 10/10 Q1022,YSRI,2025-08-14T18:30:00Z,-33.601,150.777,10,10,0,0,,6+,30.18,,,TRUE,,,,,,,,SCT,3100,BKN,7600,,,,,VFR,,,,,,,,,,,,METAR,19
YSNF 141830Z AUTO 10019G29KT 9999 -RA SCT012 BKN034 BKN068 14/12 Q1014,YSNF,2025-08-14T18:30:00Z,-29.039,167.941,14,12,100,19,29,6+,29.94,,,TRUE,,,,,,,-RA,SCT,1200,BKN,3400,BKN,6800,,,VFR,,,,,,,,,,,,SPECI,113
YSDU 141830Z AUTO 14007KT 9999 // NCD 04/04 Q1022,YSDU,2025-08-14T18:30:00Z,-32.221,148.575,4,4,140,7,,6+,30.18,,,TRUE,,,,,,,,CLR,,,,,,,,VFR,,,,,,,,,,,,METAR,285
YSCB 141830Z AUTO 00000KT 9999 // NCD M01/M01 Q1023,YSCB,2025-08-14T18:30:00Z,-35.309,149.2,-1,-1,0,0,,6+,30.21,,,TRUE,,,,,,,,CLR,,,,,,,,VFR,,,,,,,,,,,,METAR,577
YPXM 141830Z AUTO 12013KT 9999 // FEW025 24/19 Q1014,YPXM,2025-08-14T18:30:00Z,-10.453,105.688,24,19,120,13,,6+,29.94,,,TRUE,,,,,,,,FEW,2500,,,,,,,VFR,,,,,,,,,,,,METAR,262
YPWR 141830Z AUTO 27011KT 9999 // NCD 11/01 Q1020,YPWR,2025-08-14T18:30:00Z,-31.156,136.805,11,1,270,11,,6+,30.12,,,TRUE,,,,,,,,CLR,,,,,,,,VFR,,,,,,,,,,,,METAR,169
YPTN 141830Z AUTO 13004KT 9999 // NCD 17/11 Q1015,YPTN,2025-08-14T18:30:00Z,-14.523,132.383,17,11,130,4,,6+,29.97,,,TRUE,,,,,,,,CLR,,,,,,,,VFR,,,,,,,,,,,,METAR,135
YPPH 141830Z 27001KT CAVOK 04/03 Q1029,YPPH,2025-08-14T18:30:00Z,-31.927,115.976,4,3,270,1,,6+,30.38,,,,,,,,,,,CAVOK,,,,,,,,VFR,,,,,,,,,,,,METAR,16
YPPD 141830Z AUTO 00000KT 9999 // NCD 16/06 Q1016,YPPD,2025-08-14T18:30:00Z,-20.372,118.632,16,6,0,0,,6+,30.00,,,TRUE,,,,,,,,CLR,,,,,,,,VFR,,,,,,,,,,,,METAR,6
YPLM 141830Z AUTO 22009KT 9999 // NCD 18/10 Q1019,YPLM,2025-08-14T18:30:00Z,-22.241,114.097,18,10,220,9,,6+,30.09,,,TRUE,,,,,,,,CLR,,,,,,,,VFR,,,,,,,,,,,,METAR,5
YPKU 141830Z AUTO 20004KT 9999 // NCD 17/09 Q1014,YPKU,2025-08-14T18:30:00Z,-15.781,128.71,17,9,200,4,,6+,29.94,,,TRUE,,,,,,,,CLR,,,,,,,,VFR,,,,,,,,,,,,METAR,42
YPKG 141830Z AUTO 19004KT 9999 // NCD 04/01 Q1027,YPKG,2025-08-14T18:30:00Z,-30.785,121.453,4,1,190,4,,6+,30.32,,,TRUE,,,,,,,,CLR,,,,,,,,VFR,,,,,,,,,,,,METAR,372
YPJT 141830Z AUTO 15005KT 110V200 9999 // NCD 05/04 Q1029,YPJT,2025-08-14T18:30:00Z,-32.101,115.879,5,4,150,5,,6+,30.38,,,TRUE,,,,,,,,CLR,,,,,,,,VFR,,,,,,,,,,,,METAR,29
YPGV 141830Z AUTO 17007KT 9999 // NCD 21/19 Q1013,YPGV,2025-08-14T18:30:00Z,-12.274,136.82,21,19,170,7,,6+,29.91,,,TRUE,,,,,,,,CLR,,,,,,,,VFR,,,,,,,,,,,,METAR,53
YPEA 141830Z AUTO 34003KT 9999 // NCD 05/03 Q1029,YPEA,2025-08-14T18:30:00Z,-31.667,116.019,5,3,340,3,,6+,30.38,,,TRUE,,,,,,,,CLR,,,,,,,,VFR,,,,,,,,,,,,METAR,38
YPDN 141830Z AUTO 13002KT 9999 // SCT096 22/19 Q1013,YPDN,2025-08-14T18:30:00Z,-12.424,130.893,22,19,130,2,,6+,29.91,,,TRUE,,,,,,,,SCT,9600,,,,,,,VFR,,,,,,,,,,,,METAR,32
YPCC 141830Z AUTO 09020KT 9999 // NCD 27/21 Q1013,YPCC,2025-08-14T18:30:00Z,-12.189,96.834,27,21,90,20,,6+,29.91,,,TRUE,,,,,,,,CLR,,,,,,,,VFR,,,,,,,,,,,,METAR,3
YPAD 141830Z 35011KT 9999 -SHRA FEW020 SCT060 BKN080 14/08 Q1016,YPAD,2025-08-14T18:30:00Z,-34.952,138.52,14,8,350,11,,6+,30.00,,,,,,,,,,-SHRA,FEW,2000,SCT,6000,BKN,8000,,,VFR,,,,,,,,,,,,METAR,2
YMML 141830Z AUTO 02016KT 9999 // NCD 09/05 Q1017,YMML,2025-08-14T18:30:00Z,-37.666,144.832,9,5,20,16,,6+,30.03,,,TRUE,,,,,,,,CLR,,,,,,,,VFR,,,,,,,,,,,,METAR,115
YMLT 141830Z AUTO 35015KT 9999 // NCD 10/07 Q1013,YMLT,2025-08-14T18:30:00Z,-41.544,147.213,10,7,350,15,,6+,29.91,,,TRUE,,,,,,,,CLR,,,,,,,,VFR,,,,,,,,,,,,METAR,167
YMHB 141830Z AUTO 02009KT 9999 // NCD 12/06 Q1009,YMHB,2025-08-14T18:30:00Z,-42.834,147.503,12,6,20,9,,6+,29.79,,,TRUE,,,,,,,,CLR,,,,,,,,VFR,,,,,,,,,,,,METAR,2
YMAV 141830Z AUTO 03013KT 9999 // NCD 11/05 Q1016,YMAV,2025-08-14T18:30:00Z,-38.029,144.478,11,5,30,13,,6+,30.00,,,TRUE,,,,,,,,CLR,,,,,,,,VFR,,,,,,,,,,,,METAR,11
YLHI 141830Z AUTO 11009KT 9999 // FEW028 BKN043 BKN058 15/12 Q////,YLHI,2025-08-14T18:30:00Z,-31.538,159.077,15,12,110,9,,6+,0.00,,,TRUE,,,,,,,,FEW,2800,BKN,4300,BKN,5800,,,VFR,,,,,,,,,,,,METAR,2
YHID 141830Z AUTO 14012KT 9999 // SCT023 SCT027 BKN085 25/21 Q1011,YHID,2025-08-14T18:30:00Z,-10.584,142.29,25,21,140,12,,6+,29.85,,,TRUE,,,,,,,,SCT,2300,SCT,2700,BKN,8500,,,VFR,,,,,,,,,,,,METAR,5
YGLA 141830Z AUTO 22004KT 9999 // NCD 11/09 Q1018,YGLA,2025-08-14T18:30:00Z,-23.87,151.221,11,9,220,4,,6+,30.06,,,TRUE,,,,,,,,CLR,,,,,,,,VFR,,,,,,,,,,,,METAR,17
YGEL 141830Z AUTO 15007KT 9999 // NCD 07/06 Q1027,YGEL,2025-08-14T18:30:00Z,-28.805,114.699,7,6,150,7,,6+,30.32,,,TRUE,,,,,,,,CLR,,,,,,,,VFR,,,,,,,,,,,,METAR,32
YFRT 141830Z AUTO 22008KT 9999 // NCD 08/06 Q1024,YFRT,2025-08-14T18:30:00Z,-30.848,128.114,8,6,220,8,,6+,30.24,,,TRUE,,,,,,,,CLR,,,,,,,,VFR,,,,,,,,,,,,METAR,159
YCIN 141830Z AUTO 14010KT 9999 // NCD 21/03 Q1014,YCIN,2025-08-14T18:30:00Z,-17.574,123.831,21,3,140,10,,6+,29.94,,,TRUE,,,,,,,,CLR,,,,,,,,VFR,,,,,,,,,,,,METAR,83
YCFS 141830Z AUTO 24008KT 9999 // FEW037 SCT045 BKN059 12/// Q1020,YCFS,2025-08-14T18:30:00Z,-30.317,153.119,,,240,8,,6+,30.12,,,TRUE,,,,,,,,FEW,3700,SCT,4500,BKN,5900,,,VFR,,,,,,,,,,,,METAR,2
YBWW 141830Z AUTO 15007KT 9999 // NCD 04/04 Q1019,YBWW,2025-08-14T18:30:00Z,-27.558,151.793,4,4,150,7,,6+,30.09,,,TRUE,,,,,,,,CLR,,,,,,,,VFR,,,,,,,,,,,,METAR,460
YBTL 141830Z AUTO 31005KT 9999 // NCD 12/12 Q1017,YBTL,2025-08-14T18:30:00Z,-19.248,146.766,12,12,310,5,,6+,30.03,,,TRUE,,,,,,,,CLR,,,,,,,,VFR,,,,,,,,,,,,METAR,4
YBSU 141830Z AUTO 23007KT 9999 // NCD 11/08 Q1018,YBSU,2025-08-14T18:30:00Z,-26.603,153.091,11,8,230,7,,6+,30.06,,,TRUE,,,,,,,,CLR,,,,,,,,VFR,,,,,,,,,,,,METAR,4
YBRM 141830Z AUTO 07003KT 9999 // NCD 16/09 Q1015,YBRM,2025-08-14T18:30:00Z,-17.948,122.235,16,9,70,3,,6+,29.97,,,TRUE,,,,,,,,CLR,,,,,,,,VFR,,,,,,,,,,,,METAR,11
YBRK 141830Z AUTO 17004KT 9999 // NCD 11/10 Q1018,YBRK,2025-08-14T18:30:00Z,-23.375,150.477,11,10,170,4,,6+,30.06,,,TRUE,,,,,,,,CLR,,,,,,,,VFR,,,,,,,,,,,,METAR,10
YBMA 141830Z AUTO 19008KT 9999 // NCD 14/01 Q1019,YBMA,2025-08-14T18:30:00Z,-20.678,139.488,14,1,190,8,,6+,30.09,,,TRUE,,,,,,,,CLR,,,,,,,,VFR,,,,,,,,,,,,METAR,346
YBLN 141830Z AUTO 06004KT 9999 // OVC055 07/05 Q1029,YBLN,2025-08-14T18:30:00Z,-33.688,115.402,7,5,60,4,,6+,30.38,,,TRUE,,,,,,,,OVC,5500,,,,,,,VFR,,,,,,,,,,,,METAR,17
YBHM 141830Z AUTO 16010KT 9999 // NCD 19/15 Q1016,YBHM,2025-08-14T18:30:00Z,-20.357,148.949,19,15,160,10,,6+,30.00,,,TRUE,,,,,,,,CLR,,,,,,,,VFR,,,,,,,,,,,,METAR,4
YBCS 141830Z AUTO 15011KT 9999 // NCD 17/13 Q1015,YBCS,2025-08-14T18:30:00Z,-16.874,145.745,17,13,150,11,,6+,29.97,,,TRUE,,,,,,,,CLR,,,,,,,,VFR,,,,,,,,,,,,METAR,2
YBCG 141830Z AUTO 21008KT 9999 // NCD 13/10 Q1018,YBCG,2025-08-14T18:30:00Z,-28.168,153.505,13,10,210,8,,6+,30.06,,,TRUE,,,,,,,,CLR,,,,,,,,VFR,,,,,,,,,,,,METAR,5
YBBN 141830Z AUTO 21007KT 9999 // NCD 11/09 Q1018,YBBN,2025-08-14T18:30:00Z,-27.391,153.13,11,9,210,7,,6+,30.06,,,TRUE,,,,,,,,CLR,,,,,,,,VFR,,,,,,,,,,,,METAR,3
YBAS 141830Z AUTO 31006KT 9999 // NCD 07/01 Q1021,YBAS,2025-08-14T18:30:00Z,-23.795,133.889,7,1,310,6,,6+,30.15,,,TRUE,,,,,,,,CLR,,,,,,,,VFR,,,,,,,,,,,,METAR,549
WSSS 141830Z 16003KT 130V190 9999 FEW018 BKN150 27/24 Q1009 NOSIG,WSSS,2025-08-14T18:30:00Z,1.368,103.982,27,24,160,3,,6+,29.79,,,,,,TRUE,,,,,FEW,1800,BKN,15000,,,,,VFR,,,,,,,,,,,,METAR,17
WMKP 141830Z 00000KT 8000 TS FEW017CB 27/24 Q1008 NOSIG,WMKP,2025-08-14T18:30:00Z,5.297,100.277,27,24,0,0,,4.97,29.76,,,,,,TRUE,,,,TS,FEW,1700,,,,,,,MVFR,,,,,,,,,,,,METAR,4
WMKK 141830Z VRB02KT 9999 FEW030 24/22 Q1009 NOSIG,WMKK,2025-08-14T18:30:00Z,2.747,101.714,24,22,VRB,2,,6+,29.79,,,,,,TRUE,,,,,FEW,3000,,,,,,,VFR,,,,,,,,,,,,METAR,21
WIPP 141830Z 22002KT 9999 FEW013 25/24 Q1009 NOSIG,WIPP,2025-08-14T18:30:00Z,-2.898,104.7,25,24,220,2,,6+,29.79,,,,,,TRUE,,,,,FEW,1300,,,,,,,VFR,,,,,,,,,,,,METAR,7
WIOO 141830Z AUTO 16004KT 9999 OVC170 OVC190 24/24 Q1008,WIOO,2025-08-14T18:30:00Z,-0.151,109.404,24,24,160,4,,6+,29.76,,,TRUE,,,,,,,,OVC,17000,OVC,19000,,,,,VFR,,,,,,,,,,,,METAR,4
WIMM 141830Z 15011KT 8000 -RA FEW016CB BKN017 23/22 Q1009 NOSIG,WIMM,2025-08-14T18:30:00Z,3.636,98.874,23,22,150,11,,4.97,29.79,,,,,,TRUE,,,,-RA,FEW,1600,BKN,1700,,,,,MVFR,,,,,,,,,,,,METAR,7
WILL 141830Z VRB02KT 4000 BR BKN029 BKN120 23/23 Q1010,WILL,2025-08-14T18:30:00Z,-5.242,105.179,23,23,VRB,2,,2.49,29.82,,,,,,,,,,BR,BKN,2900,BKN,12000,,,,,IFR,,,,,,,,,,,,METAR,83
WIII 141830Z 23005KT 4500 BR SCT020 24/23 Q1010 NOSIG,WIII,2025-08-14T18:30:00Z,-6.125,106.659,24,23,230,5,,2.8,29.82,,,,,,TRUE,,,,BR,SCT,2000,,,,,,,IFR,,,,,,,,,,,,METAR,9
WIDD 141830Z 20002KT 9999 FEW014 26/24 Q1011 NOSIG,WIDD,2025-08-14T18:30:00Z,1.121,104.119,26,24,200,2,,6+,29.85,,,,,,TRUE,,,,,FEW,1400,,,,,,,VFR,,,,,,,,,,,,METAR,26
WIBB 141830Z AUTO 34005KT 9999 SCT012 SCT070 BKN120 24/23 Q1009,WIBB,2025-08-14T18:30:00Z,0.461,101.445,24,23,340,5,,6+,29.79,,,TRUE,,,,,,,,SCT,1200,SCT,7000,BKN,12000,,,VFR,,,,,,,,,,,,METAR,41
WBSB 141830Z 23004KT 9999 FEW014 BKN140 26/24 Q1008 NOSIG,WBSB,2025-08-14T18:30:00Z,4.944,114.928,26,24,230,4,,6+,29.76,,,,,,TRUE,,,,,FEW,1400,BKN,14000,,,,,VFR,,,,,,,,,,,,METAR,15
WBKK 141830Z VRB03KT 9999 FEW014 24/23 Q1007 NOSIG,WBKK,2025-08-14T18:30:00Z,5.937,116.051,24,23,VRB,3,,6+,29.73,,,,,,TRUE,,,,,FEW,1400,,,,,,,VFR,,,,,,,,,,,,METAR,9
WBGG 141830Z 00000KT 9999 FEW020 25/24 Q1009 NOSIG,WBGG,2025-08-14T18:30:00Z,1.484,110.34,25,24,0,0,,6+,29.79,,,,,,TRUE,,,,,FEW,2000,,,,,,,VFR,,,,,,,,,,,,METAR,26
WATT 141830Z AUTO 11009KT 9999 NCD 25/20 Q1012,WATT,2025-08-14T18:30:00Z,-10.172,123.671,25,20,110,9,,6+,29.88,,,TRUE,,,,,,,,CLR,,,,,,,,VFR,,,,,,,,,,,,METAR,104
WARR 141830Z 23004KT 8000 FEW020 24/21 Q1011 NOSIG,WARR,2025-08-14T18:30:00Z,-7.38,112.787,24,21,230,4,,4.97,29.85,,,,,,TRUE,,,,,FEW,2000,,,,,,,MVFR,,,,,,,,,,,,METAR,3
WAPP 141830Z 23004KT 9000 SCT016 26/23 Q1010 NOSIG,WAPP,2025-08-14T18:30:00Z,-3.71,128.089,26,23,230,4,,5.59,29.82,,,,,,TRUE,,,,,SCT,1600,,,,,,,VFR,,,,,,,,,,,,METAR,20
WAOO 141830Z AUTO VRB02KT 5000 NCD 23/23 Q1009,WAOO,2025-08-14T18:30:00Z,-3.44,114.759,23,23,VRB,2,,3.11,29.79,,,TRUE,,,,,,,,CLR,,,,,,,,MVFR,,,,,,,,,,,,METAR,23
WAMM 141830Z 11004KT 9999 SCT019 24/22 Q1011 NOSIG,WAMM,2025-08-14T18:30:00Z,1.541,124.926,24,22,110,4,,6+,29.85,,,,,,TRUE,,,,,SCT,1900,,,,,,,VFR,,,,,,,,,,,,METAR,86
WALL 141830Z 25004KT 9000 FEW020 23/22 Q1009 NOSIG,WALL,2025-08-14T18:30:00Z,-1.268,116.894,23,22,250,4,,5.59,29.79,,,,,,TRUE,,,,,FEW,2000,,,,,,,VFR,,,,,,,,,,,,METAR,3
WAJJ 141830Z VRB02KT 9999 FEW013 24/24 Q1008 NOSIG,WAJJ,2025-08-14T18:30:00Z,-2.573,140.514,24,24,VRB,2,,6+,29.76,,,,,,TRUE,,,,,FEW,1300,,,,,,,VFR,,,,,,,,,,,,METAR,93
WAHS 141830Z AUTO VRB01KT 9999 FEW080 25/20 Q1010,WAHS,2025-08-14T18:30:00Z,-6.973,110.375,25,20,VRB,1,,6+,29.82,,,TRUE,,,,,,,,FEW,8000,,,,,,,VFR,,,,,,,,,,,,METAR,3
WADD 141830Z 13010KT 9999 FEW017 26/22 Q1012 NOSIG,WADD,2025-08-14T18:30:00Z,-8.748,115.167,26,22,130,10,,6+,29.88,,,,,,TRUE,,,,,FEW,1700,,,,,,,VFR,,,,,,,,,,,,METAR,3
WABB 141830Z VRB02KT 9999 SCT015 24/24 Q1008 NOSIG,WABB,2025-08-14T18:30:00Z,-1.19,136.108,24,24,VRB,2,,6+,29.76,,,,,,TRUE,,,,,SCT,1500,,,,,,,VFR,,,,,,,,,,,,METAR,12
WAAA 141830Z 15003KT 8000 FEW019 19/19 Q1010 NOSIG,WAAA,2025-08-14T18:30:00Z,-5.062,119.554,19,19,150,3,,4.97,29.82,,,,,,TRUE,,,,,FEW,1900,,,,,,,MVFR,,,,,,,,,,,,METAR,13
VYYY 141830Z 19002KT 6000 BKN015 FEW020CB BKN100 26/25 Q1007 NOSIG,VYYY,2025-08-14T18:30:00Z,16.906,96.137,26,25,190,2,,3.73,29.73,,,,,,TRUE,,,,,BKN,1500,FEW,2000,BKN,10000,,,MVFR,,,,,,,,,,,,METAR,31
VVVD 141830Z AUTO 05011G24KT 9999 TS FEW018/// SCT049/// 27/26 Q1003 NOSIG,VVVD,2025-08-14T18:30:00Z,21.118,107.414,27,26,50,11,24,6+,29.62,,,TRUE,,,TRUE,,,,TS,FEW,1800,SCT,4900,,,,,VFR,,,,,,,,,,,,METAR,8
VVTS 141830Z 26002KT CAVOK 26/25 Q1006 NOSIG,VVTS,2025-08-14T18:30:00Z,10.817,106.667,26,25,260,2,,6+,29.70,,,,,,TRUE,,,,,CAVOK,,,,,,,,VFR,,,,,,,,,,,,METAR,10
VVPQ 141830Z 25009KT 9999 SCT015 SCT040 27/26 Q1006 NOSIG,VVPQ,2025-08-14T18:30:00Z,10.169,103.995,27,26,250,9,,6+,29.70,,,,,,TRUE,,,,,SCT,1500,SCT,4000,,,,,VFR,,,,,,,,,,,,METAR,8
VVPB 141830Z 23003KT 9999 FEW017 28/22 Q1003 NOSIG,VVPB,2025-08-14T18:30:00Z,16.399,107.699,28,22,230,3,,6+,29.62,,,,,,TRUE,,,,,FEW,1700,,,,,,,VFR,,,,,,,,,,,,METAR,15
VVNB 141830Z 11004KT 9999 -RA FEW034 BKN040 BKN086 28/25 Q1002 NOSIG,VVNB,2025-08-14T18:30:00Z,21.218,105.805,28,25,110,4,,6+,29.59,,,,,,TRUE,,,,-RA,FEW,3400,BKN,4000,BKN,8600,,,VFR,,,,,,,,,,,,METAR,6
VVDN 141830Z 22004KT 170V240 9999 FEW017 25/23 Q1004 NOSIG,VVDN,2025-08-14T18:30:00Z,16.044,108.199,25,23,220,4,,6+,29.65,,,,,,TRUE,,,,,FEW,1700,,,,,,,VFR,,,,,,,,,,,,METAR,7
VVCT 141830Z 17001KT 9999 FEW015 BKN050 25/25 Q1007 NOSIG,VVCT,2025-08-14T18:30:00Z,10.085,105.712,25,25,170,1,,6+,29.73,,,,,,TRUE,,,,,FEW,1500,BKN,5000,,,,,VFR,,,,,,,,,,,,METAR,6
VVCR 141830Z 29007KT CAVOK 27/22 Q1005 NOSIG,VVCR,2025-08-14T18:30:00Z,11.998,109.219,27,22,290,7,,6+,29.68,,,,,,TRUE,,,,,CAVOK,,,,,,,,VFR,,,,,,,,,,,,METAR,12
VVCI 141830Z 15005KT 9999 SCT017 30/27 Q1002 NOSIG,VVCI,2025-08-14T18:30:00Z,20.823,106.727,30,27,150,5,,6+,29.59,,,,,,TRUE,,,,,SCT,1700,,,,,,,VFR,,,,,,,,,,,,METAR,6
VTSS 141830Z VRB01KT 9999 FEW020 BKN100 25/23 Q1007 NOSIG,VTSS,2025-08-14T18:30:00Z,6.933,100.393,25,23,VRB,1,,6+,29.73,,,,,,TRUE,,,,,FEW,2000,BKN,10000,,,,,VFR,,,,,,,,,,,,METAR,28
VTSP 141830Z 34006KT 300V020 9000 -RA FEW018 BKN050 25/25 Q1008 NOSIG,VTSP,2025-08-14T18:30:00Z,8.105,98.308,25,25,340,6,,5.59,29.76,,,,,,TRUE,,,,-RA,FEW,1800,BKN,5000,,,,,VFR,,,,,,,,,,,,METAR,12
VTCC 141830Z VRB02KT 9999 FEW035 26/24 Q1006 NOSIG,VTCC,2025-08-14T18:30:00Z,18.771,98.963,26,24,VRB,2,,6+,29.70,,,,,,TRUE,,,,,FEW,3500,,,,,,,VFR,,,,,,,,,,,,METAR,308
VTBU 141830Z 29006KT 9999 FEW020 SCT100 29/24 Q1006 NOSIG,VTBU,2025-08-14T18:30:00Z,12.68,101.001,29,24,290,6,,6+,29.70,,,,,,TRUE,,,,,FEW,2000,SCT,10000,,,,,VFR,,,,,,,,,,,,METAR,12
VTBS 141830Z 29010KT 9999 -RA FEW020 SCT035 28/20 Q1005 NOSIG,VTBS,2025-08-14T18:30:00Z,13.686,100.767,28,20,290,10,,6+,29.68,,,,,,TRUE,,,,-RA,FEW,2000,SCT,3500,,,,,VFR,,,,,,,,,,,,METAR,1
VTBD 141830Z 26011KT 9999 FEW020 SCT045 28/21 Q1005 NOSIG,VTBD,2025-08-14T18:30:00Z,13.913,100.607,28,21,260,11,,6+,29.68,,,,,,TRUE,,,,,FEW,2000,SCT,4500,,,,,VFR,,,,,,,,,,,,METAR,6
VOTV 141830Z 32004KT 4000 BR SCT012 FEW025CB BKN080 26/24 Q1009 TEMPO 3000 -RA BR,VOTV,2025-08-14T18:30:00Z,8.484,76.919,26,24,320,4,,2.49,29.79,,,,,,,,,,BR,SCT,1200,FEW,2500,BKN,8000,,,IFR,,,,,,,,,,,,METAR,9
VOTR 141830Z 26010KT 5000 HZ FEW016 SCT100 28/23 Q1007 NOSIG,VOTR,2025-08-14T18:30:00Z,10.765,78.71,28,23,260,10,,3.11,29.73,,,,,,TRUE,,,,HZ,FEW,1600,SCT,10000,,,,,MVFR,,,,,,,,,,,,METAR,90
VOMM 141830Z 29003KT 5000 BR SCT020 SCT100 28/25 Q1005 NOSIG,VOMM,2025-08-14T18:30:00Z,12.994,80.18,28,25,290,3,,3.11,29.68,,,,,,TRUE,,,,BR,SCT,2000,SCT,10000,,,,,MVFR,,,,,,,,,,,,METAR,7
VOML 141830Z 00000KT 2500 -RA BR FEW002 SCT012 BKN080 23/22 Q1008 BECMG 3000 BR,VOML,2025-08-14T18:30:00Z,12.961,74.89,23,22,0,0,,1.55,29.76,,,,,,,,,,-RA BR,FEW,200,SCT,1200,BKN,8000,,,IFR,,,,,,,,,,,,METAR,100
VOMD 141830Z 31006KT 5000 HZ FEW018 SCT090 28/20 Q1007 NOSIG,VOMD,2025-08-14T18:30:00Z,9.835,78.093,28,20,310,6,,3.11,29.73,,,,,,TRUE,,,,HZ,FEW,1800,SCT,9000,,,,,MVFR,,,,,,,,,,,,METAR,135
VOKN 141830Z 19003KT 1200 BR SCT002 SCT012 BKN080 23/23 Q1009 TEMPO 0800 FG,VOKN,2025-08-14T18:30:00Z,11.917,75.547,23,23,190,3,,0.75,29.79,,,,,,,,,,BR,SCT,200,SCT,1200,BKN,8000,,,LIFR,,,,,,,,,,,,METAR,105
VOHS 141830Z 27008KT 4000 -DZ SCT010 SCT015 BKN080 23/22 Q1007 NOSIG,VOHS,2025-08-14T18:30:00Z,17.233,78.429,23,22,270,8,,2.49,29.73,,,,,,TRUE,,,,-DZ,SCT,1000,SCT,1500,BKN,8000,,,IFR,,,,,,,,,,,,METAR,607
VOGA 141830Z 23005KT 2200 BR FEW007 SCT015 OVC070 27/27 Q1007 NOSIG,VOGA,2025-08-14T18:30:00Z,15.7426,73.8631,27,27,230,5,,1.37,29.73,,,,,,TRUE,,,,BR,FEW,700,SCT,1500,OVC,7000,,,IFR,,,,,,,,,,,,METAR,168
VOCL 141830Z 00000KT 4000 BR FEW004 SCT012 BKN080 23/22 Q1009 TEMPO 3000 -RA BR,VOCL,2025-08-14T18:30:00Z,11.137,75.955,23,22,0,0,,2.49,29.79,,,,,,,,,,BR,FEW,400,SCT,1200,BKN,8000,,,IFR,,,,,,,,,,,,METAR,104
VOCI 141830Z 05002KT 3000 BR FEW010 SCT012 BKN080 24/24 Q1009 NOSIG,VOCI,2025-08-14T18:30:00Z,10.152,76.402,24,24,50,2,,1.86,29.79,,,,,,TRUE,,,,BR,FEW,1000,SCT,1200,BKN,8000,,,IFR,,,,,,,,,,,,METAR,8
VOCB 141830Z 22008KT 5000 BR FEW008 SCT012 BKN080 24/22 Q1010 NOSIG,VOCB,2025-08-14T18:30:00Z,11.03,77.043,24,22,220,8,,3.11,29.82,,,,,,TRUE,,,,BR,FEW,800,SCT,1200,BKN,8000,,,MVFR,,,,,,,,,,,,METAR,394
VOBL 141830Z 27007KT 6000 FEW008 SCT012 BKN080 20/18 Q1011 NOSIG,VOBL,2025-08-14T18:30:00Z,13.205,77.704,20,18,270,7,,3.73,29.85,,,,,,TRUE,,,,,FEW,800,SCT,1200,BKN,8000,,,MVFR,,,,,,,,,,,,METAR,908
VOBG 141830Z 24008KT 6000 SCT012 SCT080 20/18 Q1012 NOSIG,VOBG,2025-08-14T18:30:00Z,12.949,77.663,20,18,240,8,,3.73,29.88,,,,,,TRUE,,,,,SCT,1200,SCT,8000,,,,,MVFR,,,,,,,,,,,,METAR,884
VNKT 141830Z 15003KT 7000 FEW010 SCT030 BKN100 22/22 Q1014 NOSIG,VNKT,2025-08-14T18:30:00Z,27.697,85.359,22,22,150,3,,4.35,29.94,,,,,,TRUE,,,,,FEW,1000,SCT,3000,BKN,10000,,,MVFR,,,,,,,,,,,,METAR,1334
VMMC 141830Z 09006KT 9999 -SHRA FEW010 SCT022 26/25 Q1007 TEMPO 4000 SHRA,VMMC,2025-08-14T18:30:00Z,22.141,113.596,26,25,90,6,,6+,29.73,,,,,,,,,,-SHRA,FEW,1000,SCT,2200,,,,,VFR,,,,,,,,,,,,METAR,1
VILK 141830Z 08003KT 4000 BR FEW100 28/28 Q1004 TEMPO 3000 BR,VILK,2025-08-14T18:30:00Z,26.761,80.889,28,28,80,3,,2.49,29.65,,,,,,,,,,BR,FEW,10000,,,,,,,IFR,,,,,,,,,,,,METAR,121
VIJP 141830Z 10006KT 3000 BR SCT025 SCT100 27/25 Q1006 NOSIG,VIJP,2025-08-14T18:30:00Z,26.824,75.812,27,25,100,6,,1.86,29.70,,,,,,TRUE,,,,BR,SCT,2500,SCT,10000,,,,,IFR,,,,,,,,,,,,METAR,383
VIDP 141830Z 14002KT 3000 BR SCT030 SCT090 27/25 Q1005 NOSIG,VIDP,2025-08-14T18:30:00Z,28.567,77.117,27,25,140,2,,1.86,29.68,,,,,,TRUE,,,,BR,SCT,3000,SCT,9000,,,,,IFR,,,,,,,,,,,,METAR,236
VIAR 141830Z 15003KT 2500 BR SCT025 OVC090 27/26 Q1005 NOSIG,VIAR,2025-08-14T18:30:00Z,31.707,74.801,27,26,150,3,,1.55,29.68,,,,,,TRUE,,,,BR,SCT,2500,OVC,9000,,,,,IFR,,,,,,,,,,,,METAR,226
VHHH 141830Z 10006KT 9999 FEW008 SCT022 27/25 Q1007 NOSIG,VHHH,2025-08-14T18:30:00Z,22.309,113.922,27,25,100,6,,6+,29.73,,,,,,TRUE,,,,,FEW,800,SCT,2200,,,,,VFR,,,,,,,,,,,,METAR,9
VGHS 141830Z 15006KT 4000 HZ SCT012 BKN100 27/26 Q1004 NOSIG,VGHS,2025-08-14T18:30:00Z,23.846,90.4,27,26,150,6,,2.49,29.65,,,,,,TRUE,,,,HZ,SCT,1200,BKN,10000,,,,,IFR,,,,,,,,,,,,METAR,11
VERC 141830Z 11006KT 3000 BR SCT010 SCT018 BKN100 24/22 Q1008 NOSIG,VERC,2025-08-14T18:30:00Z,23.314,85.322,24,22,110,6,,1.86,29.76,,,,,,TRUE,,,,BR,SCT,1000,SCT,1800,BKN,10000,,,IFR,,,,,,,,,,,,METAR,646
VEPT 141830Z 07003KT 4000 BR SCT018 BKN100 29/29 Q1003 NOSIG,VEPT,2025-08-14T18:30:00Z,25.591,85.088,29,29,70,3,,2.49,29.62,,,,,,TRUE,,,,BR,SCT,1800,BKN,10000,,,,,IFR,,,,,,,,,,,,METAR,53
VEGT 141830Z 25003KT 3000 BR SCT018 BKN090 27/25 Q1005 NOSIG,VEGT,2025-08-14T18:30:00Z,26.107,91.587,27,25,250,3,,1.86,29.68,,,,,,TRUE,,,,BR,SCT,1800,BKN,9000,,,,,IFR,,,,,,,,,,,,METAR,50
VECC 141830Z 09005KT 3500 HZ SCT018 28/27 Q1003 NOSIG,VECC,2025-08-14T18:30:00Z,22.651,88.445,28,27,90,5,,2.17,29.62,,,,,,TRUE,,,,HZ,SCT,1800,,,,,,,IFR,,,,,,,,,,,,METAR,11
VEBS 141830Z 08002KT 4000 HZ SCT018 SCT100 28/26 Q1001 NOSIG,VEBS,2025-08-14T18:30:00Z,20.244,85.818,28,26,80,2,,2.49,29.56,,,,,,TRUE,,,,HZ,SCT,1800,SCT,10000,,,,,IFR,,,,,,,,,,,,METAR,42
VDSV 141830Z VRB01KT 9000 SCT015 SCT040 26/25 Q1006,VDSV,2025-08-14T18:30:00Z,10.582,103.637,26,25,VRB,1,,5.59,29.70,,,,,,,,,,,SCT,1500,SCT,4000,,,,,VFR,,,,,,,,,,,,METAR,1
VDSA 141830Z 07004KT 030V090 9000 -RA SCT015 FEW017CB SCT040 24/23 Q1006 RMK CB:S,VDSA,2025-08-14T18:30:00Z,13.371,104.225,24,23,70,4,,5.59,29.70,,,,,,,,,,-RA,SCT,1500,FEW,1700,SCT,4000,,,VFR,,,,,,,,,,,,METAR,59
VDPP 141830Z VRB01KT 9000 SCT015 SCT040 27/27 Q1005,VDPP,2025-08-14T18:30:00Z,11.547,104.844,27,27,VRB,1,,5.59,29.68,,,,,,,,,,,SCT,1500,SCT,4000,,,,,VFR,,,,,,,,,,,,METAR,10
VAUD 141830Z 00000KT 2000 BR SCT030 BKN080 27/24 Q1006 NOSIG,VAUD,2025-08-14T18:30:00Z,24.618,73.896,27,24,0,0,,1.24,29.70,,,,,,TRUE,,,,BR,SCT,3000,BKN,8000,,,,,IFR,,,,,,,,,,,,METAR,506
VASU 141830Z 15003KT 5000 BR FEW018 SCT025 SCT080 27/25 Q1003 NOSIG,VASU,2025-08-14T18:30:00Z,21.114,72.742,27,25,150,3,,3.11,29.62,,,,,,TRUE,,,,BR,FEW,1800,SCT,2500,SCT,8000,,,MVFR,,,,,,,,,,,,METAR,6
VANP 141830Z VRB02KT 4000 BR FEW010 SCT018 OVC080 27/25 Q1004 NOSIG,VANP,2025-08-14T18:30:00Z,21.089,79.055,27,25,VRB,2,,2.49,29.65,,,,,,TRUE,,,,BR,FEW,1000,SCT,1800,OVC,8000,,,IFR,,,,,,,,,,,,METAR,309
VABP 141830Z 01003KT 2000 BR SCT020 SCT025 26/25 Q1006 NOSIG,VABP,2025-08-14T18:30:00Z,23.288,77.337,26,25,10,3,,1.24,29.70,,,,,,TRUE,,,,BR,SCT,2000,SCT,2500,,,,,IFR,,,,,,,,,,,,METAR,520
VABO 141830Z 21007KT 3000 HZ FEW015 SCT020 BKN080 28/26 Q1003 NOSIG,VABO,2025-08-14T18:30:00Z,22.333,73.225,28,26,210,7,,1.86,29.62,,,,,,TRUE,,,,HZ,FEW,1500,SCT,2000,BKN,8000,,,IFR,,,,,,,,,,,,METAR,36
VABB 141830Z 32005KT 3000 BR SCT018 FEW025TCU BKN090 26/25 Q1004 NOSIG,VABB,2025-08-14T18:30:00Z,19.1,72.859,26,25,320,5,,1.86,29.65,,,,,,TRUE,,,,BR,SCT,1800,FEW,2500,BKN,9000,,,IFR,,,,,,,,,,,,METAR,14
VAAH 141830Z 19006KT 4000 HZ SCT020 SCT080 28/24 Q1003 NOSIG,VAAH,2025-08-14T18:30:00Z,23.077,72.635,28,24,190,6,,2.49,29.62,,,,,,TRUE,,,,HZ,SCT,2000,SCT,8000,,,,,IFR,,,,,,,,,,,,METAR,52
UWWW 141830Z 29002MPS 250V330 9999 SCT033 15/14 Q1007 R33/290150 NOSIG RMK QFE745/0993,UWWW,2025-08-14T18:30:00Z,53.509,50.163,15,14,290,4,,6+,29.73,,,,,,TRUE,,,,,SCT,3300,,,,,,,VFR,,,,,,,,,,,,METAR,124
UWUU 141830Z 29002MPS 260V340 9999 SCT040 16/14 Q1003 R32L/0///60 NOSIG,UWUU,2025-08-14T18:30:00Z,54.57,55.87,16,14,290,4,,6+,29.62,,,,,,TRUE,,,,,SCT,4000,,,,,,,VFR,,,,,,,,,,,,METAR,137
UWSG 141830Z 27004MPS CAVOK 15/10 Q1011 R26/CLRD70 NOSIG RMK QFE755/1007,UWSG,2025-08-14T18:30:00Z,51.713,46.171,15,10,270,8,,6+,29.85,,,,,,TRUE,,,,,CAVOK,,,,,,,,VFR,,,,,,,,,,,,METAR,31
UWPS 141830Z 32005MPS 9999 SCT022 15/12 Q1012 R02/CLRD60 NOSIG RMK QFE740,UWPS,2025-08-14T18:30:00Z,54.116,45.203,15,12,320,10,,6+,29.88,,,,,,TRUE,,,,,SCT,2200,,,,,,,VFR,,,,,,,,,,,,METAR,206
UWOO 141830Z 27002MPS 9000 FEW049 14/14 Q1004 R26/190055 NOSIG RMK QFE743/0990,UWOO,2025-08-14T18:30:00Z,51.795,55.457,14,14,270,4,,5.59,29.65,,,,,,TRUE,,,,,FEW,4900,,,,,,,VFR,,,,,,,,,,,,METAR,90
UWLL 141830Z 29005MPS 200V310 9999 BKN025CB 17/14 Q1008 R02/090065 NOSIG RMK QFE744/0992,UWLL,2025-08-14T18:30:00Z,54.274,48.236,17,14,290,10,,6+,29.76,,,,,,TRUE,,,,,BKN,2500,,,,,,,MVFR,,,,,,,,,,,,METAR,119
UWKS 141830Z 33005MPS 9999 SCT020CB 16/14 Q1009 R24/190060 NOSIG RMK QFE742,UWKS,2025-08-14T18:30:00Z,56.09,47.347,16,14,330,10,,6+,29.79,,,,,,TRUE,,,,,SCT,2000,,,,,,,VFR,,,,,,,,,,,,METAR,165
UWKE 141830Z 32003MPS CAVOK 15/14 Q1005 R21/290355 NOSIG RMK QFE737/0983,UWKE,2025-08-14T18:30:00Z,55.566,52.1,15,14,320,6,,6+,29.68,,,,,,TRUE,,,,,CAVOK,,,,,,,,VFR,,,,,,,,,,,,METAR,193
UWKD 141830Z 32006MPS CAVOK 17/15 Q1007 R29/CLRD70 NOSIG RMK QFE744/0992,UWKD,2025-08-14T18:30:00Z,55.61,49.275,17,15,320,12,,6+,29.73,,,,,,TRUE,,,,,CAVOK,,,,,,,,VFR,,,,,,,,,,,,METAR,114
UWGG 141830Z 29003MPS 9999 BKN009CB 17/15 Q1012 R36R/090070 TEMPO -TSRA,UWGG,2025-08-14T18:30:00Z,56.225,43.786,17,15,290,6,,6+,29.88,,,,,,,,,,,BKN,900,,,,,,,IFR,,,,,,,,,,,,METAR,73
UUYY 141830Z 36003MPS 9999 FEW033CB 19/11 Q1009 R36/61D NOSIG RMK QFE747/0997,UUYY,2025-08-14T18:30:00Z,61.647,50.845,19,11,360,6,,6+,29.79,,,,,,TRUE,,,,,FEW,3300,,,,,,,VFR,,,,,,,,,,,,METAR,107
UUWW 141830Z 32006MPS 9999 FEW015 15/13 Q1019 R24/000065 NOSIG,UUWW,2025-08-14T18:30:00Z,55.592,37.261,15,13,320,12,,6+,30.09,,,,,,TRUE,,,,,FEW,1500,,,,,,,VFR,,,,,,,,,,,,METAR,195
UUOO 141830Z 31003MPS CAVOK 15/11 Q1017 R30/010070 NOSIG RMK QFE750,UUOO,2025-08-14T18:30:00Z,51.814,39.228,15,11,310,6,,6+,30.03,,,,,,TRUE,,,,,CAVOK,,,,,,,,VFR,,,,,,,,,,,,METAR,154
UUOL 141830Z AUTO 29004MPS 9999 NCD 12/11 Q1017,UUOL,2025-08-14T18:30:00Z,52.702,39.534,12,11,290,8,,6+,30.03,,,TRUE,,,,,,,,CLR,,,,,,,,VFR,,,,,,,,,,,,METAR,176
UUOK 141830Z 32002MPS CAVOK 15/12 Q1020 R12/090060 NOSIG RMK QFE747/0996,UUOK,2025-08-14T18:30:00Z,51.751,36.297,15,12,320,4,,6+,30.12,,,,,,TRUE,,,,,CAVOK,,,,,,,,VFR,,,,,,,,,,,,METAR,203
UUOB 141830Z 04004MPS CAVOK 16/09 Q1020 R29/010070 NOSIG,UUOB,2025-08-14T18:30:00Z,50.644,36.59,16,9,40,8,,6+,30.12,,,,,,TRUE,,,,,CAVOK,,,,,,,,VFR,,,,,,,,,,,,METAR,218
UUEE 141830Z 31005MPS 270V340 9999 BKN011 16/14 Q1019 R24L/CLRD62 R24C/CLRD62 NOSIG,UUEE,2025-08-14T18:30:00Z,55.973,37.415,16,14,310,10,,6+,30.09,,,,,,TRUE,,,,,BKN,1100,,,,,,,MVFR,,,,,,,,,,,,METAR,186
UUDL 141830Z 31003MPS 9999 BKN040 17/16 Q1016 R23/010060 NOSIG RMK QFE754,UUDL,2025-08-14T18:30:00Z,57.561,40.157,17,16,310,6,,6+,30.00,,,,,,TRUE,,,,,BKN,4000,,,,,,,VFR,,,,,,,,,,,,METAR,88
UUDD 141830Z 32004MPS 9999 BKN027 15/13 Q1018 R31L/CLRD60 NOSIG,UUDD,2025-08-14T18:30:00Z,55.409,37.906,15,13,320,8,,6+,30.06,,,,,,TRUE,,,,,BKN,2700,,,,,,,MVFR,,,,,,,,,,,,METAR,165
UUBW 141830Z 32005MPS 9999 SCT043 16/14 Q1018 R30/010060 NOSIG RMK QFE753,UUBW,2025-08-14T18:30:00Z,55.553,38.15,16,14,320,10,,6+,30.06,,,,,,TRUE,,,,,SCT,4300,,,,,,,VFR,,,,,,,,,,,,METAR,111
UUBC 141830Z 32004MPS 9999 SCT009 14/14 Q1019 R31/290150 NOSIG RMK QFE747/0997,UUBC,2025-08-14T18:30:00Z,54.552,36.37,14,14,320,8,,6+,30.09,,,,,,TRUE,,,,,SCT,900,,,,,,,VFR,,,,,,,,,,,,METAR,198
UTTT 141830Z 03002KT CAVOK 30/07 Q1011 R26R/CLRD70 NOSIG,UTTT,2025-08-14T18:30:00Z,41.258,69.281,30,7,30,2,,6+,29.85,,,,,,TRUE,,,,,CAVOK,,,,,,,,VFR,,,,,,,,,,,,METAR,429
UTST 141830Z 15004KT 060V200 CAVOK 29/12 Q1007 R25/CLRD70 NOSIG,UTST,2025-08-14T18:30:00Z,37.287,67.318,29,12,150,4,,6+,29.73,,,,,,TRUE,,,,,CAVOK,,,,,,,,VFR,,,,,,,,,,,,METAR,311
UTSS 141830Z 20004KT 9999 NSC 24/11 Q1012 R09/CLRD70 NOSIG,UTSS,2025-08-14T18:30:00Z,39.7,66.974,24,11,200,4,,6+,29.88,,,,,,TRUE,,,,,CLR,,,,,,,,VFR,,,,,,,,,,,,METAR,665
UTSK 141830Z 34012KT CAVOK 27/07 Q1011 R34/CLRD70,UTSK,2025-08-14T18:30:00Z,38.804,65.773,27,7,340,12,,6+,29.85,,,,,,,,,,,CAVOK,,,,,,,,VFR,,,,,,,,,,,,METAR,399
UTSB 141830Z 32012KT CAVOK 27/07 Q1012 R01/CLRD70 NOSIG,UTSB,2025-08-14T18:30:00Z,39.775,64.483,27,7,320,12,,6+,29.88,,,,,,TRUE,,,,,CAVOK,,,,,,,,VFR,,,,,,,,,,,,METAR,225
UTSA 141830Z 34004KT 9999 NSC 26/03 Q1013 R25/CLRD70 NOSIG,UTSA,2025-08-14T18:30:00Z,40.116,65.167,26,3,340,4,,6+,29.91,,,,,,TRUE,,,,,CLR,,,,,,,,VFR,,,,,,,,,,,,METAR,346
UTNU 141830Z 20006KT CAVOK 23/12 Q1012 R13/CLRD70 NOSIG,UTNU,2025-08-14T18:30:00Z,41.584,60.642,23,12,200,6,,6+,29.88,,,,,,TRUE,,,,,CAVOK,,,,,,,,VFR,,,,,,,,,,,,METAR,97
UTNN 141830Z 22004KT CAVOK 24/08 Q1012 R33/CLRD70 NOSIG,UTNN,2025-08-14T18:30:00Z,42.488,59.623,24,8,220,4,,6+,29.88,,,,,,TRUE,,,,,CAVOK,,,,,,,,VFR,,,,,,,,,,,,METAR,76
UTFN 141830Z 32006KT 9999 NSC 26/14 Q1009 R28/CLRD70 NOSIG,UTFN,2025-08-14T18:30:00Z,40.983,71.573,26,14,320,6,,6+,29.79,,,,,,TRUE,,,,,CLR,,,,,,,,VFR,,,,,,,,,,,,METAR,477
UTFF 141830Z 22018KT 9999 NSC 31/08 Q1010 R18/CLRD70,UTFF,2025-08-14T18:30:00Z,40.356,71.745,31,8,220,18,,6+,29.82,,,,,,,,,,,CLR,,,,,,,,VFR,,,,,,,,,,,,METAR,612
UTDT 141830Z 09002MPS 9999 FEW130 25/14 Q1007 R35/CLRD70 RMK QFE716/0955,UTDT,2025-08-14T18:30:00Z,37.866,68.865,25,14,90,4,,6+,29.73,,,,,,,,,,,FEW,13000,,,,,,,VFR,,,,,,,,,,,,METAR,443
UTDL 141830Z 23005MPS 9999 NSC 25/12 Q1011 R26/CLRD70 NOSIG RMK QFE720/0961,UTDL,2025-08-14T18:30:00Z,40.215,69.695,25,12,230,10,,6+,29.85,,,,,,TRUE,,,,,CLR,,,,,,,,VFR,,,,,,,,,,,,METAR,436
UTDK 141830Z 02004MPS 9999 NSC 27/10 Q1011 R01/09//70 RMK QFE701/0934,UTDK,2025-08-14T18:30:00Z,37.988,69.805,27,10,20,8,,6+,29.85,,,,,,,,,,,CLR,,,,,,,,VFR,,,,,,,,,,,,METAR,675
UTDD 141830Z 09002MPS 6000 NSC 24/11 Q1011 R09/CLRD// NOSIG RMK QFE690/0921,UTDD,2025-08-14T18:30:00Z,38.543,68.825,24,11,90,4,,3.73,29.85,,,,,,TRUE,,,,,CLR,,,,,,,,MVFR,,,,,,,,,,,,METAR,785
USTR 141830Z 31003MPS CAVOK 14/14 Q1000 R30/090065 R21/090065 TEMPO 1000 -TSRA BR SCT016CB,USTR,2025-08-14T18:30:00Z,57.19,65.324,14,14,310,6,,6+,29.53,,,,,,,,,,,CAVOK,,,,,,,,VFR,,,,,,,,,,,,METAR,93
USSS 141830Z 00000MPS CAVOK 12/12 Q1002 R26R/010060 R26L/210060 NOSIG RMK QFE731/0975,USSS,2025-08-14T18:30:00Z,56.745,60.792,12,12,0,0,,6+,29.59,,,,,,TRUE,,,,,CAVOK,,,,,,,,VFR,,,,,,,,,,,,METAR,222
USRR 141830Z 08002MPS CAVOK 12/12 Q0999 R07/CLRD60 RMK QFE745,USRR,2025-08-14T18:30:00Z,61.342,73.422,12,12,80,4,,6+,29.50,,,,,,,,,,,CAVOK,,,,,,,,VFR,,,,,,,,,,,,METAR,52
USPP 141830Z VRB01MPS CAVOK 17/13 Q1004 R03/090060 NOSIG RMK QFE742,USPP,2025-08-14T18:30:00Z,57.914,56.021,17,13,VRB,2,,6+,29.65,,,,,,TRUE,,,,,CAVOK,,,,,,,,VFR,,,,,,,,,,,,METAR,120
USNN 141830Z 05003MPS CAVOK 12/12 Q0999 R03/0///65 NOSIG RMK QFE746,USNN,2025-08-14T18:30:00Z,60.959,76.497,12,12,50,6,,6+,29.50,,,,,,TRUE,,,,,CAVOK,,,,,,,,VFR,,,,,,,,,,,,METAR,52
USHH 141830Z 00000MPS 8000 MIFG NSC 13/13 Q0999 R06/010060 TEMPO 1000 BR,USHH,2025-08-14T18:30:00Z,61.029,69.086,13,13,0,0,,4.97,29.50,,,,,,,,,,MIFG,CLR,,,,,,,,MVFR,,,,,,,,,,,,METAR,46
USDA 141830Z AUTO 03008MPS 0800 0500NE R04/0500D // VV002 10/10 Q1013 RMK QFE758/1011,USDA,2025-08-14T18:30:00Z,71.216,72.05,10,10,30,16,,0.5,29.91,,,TRUE,,,,,,,,OVX,0,,,,,,,LIFR,,,,,,,,,,,200,METAR,5
USCM 141830Z 25003MPS 9999 FEW030CB 13/12 Q1003 R36/090060 NOSIG RMK QFE714,USCM,2025-08-14T18:30:00Z,53.393,58.756,13,12,250,6,,6+,29.62,,,,,,TRUE,,,,,FEW,3000,,,,,,,VFR,,,,,,,,,,,,METAR,425
USCC 141830Z 30003MPS CAVOK 12/12 Q1001 R27/000060 NOSIG RMK QFE731,USCC,2025-08-14T18:30:00Z,55.306,61.503,12,12,300,6,,6+,29.56,,,,,,TRUE,,,,,CAVOK,,,,,,,,VFR,,,,,,,,,,,,METAR,227
URWW 141830Z 33002MPS CAVOK 19/08 Q1014 R23/010070 TEMPO -TSRAGR BKN030CB,URWW,2025-08-14T18:30:00Z,48.788,44.336,19,8,330,4,,6+,29.94,,,,,,,,,,,CAVOK,,,,,,,,VFR,,,,,,,,,,,,METAR,131
URWI 141830Z AUTO 32003MPS 9999 // NSC 20/05 Q1016,URWI,2025-08-14T18:30:00Z,46.374,44.331,20,5,320,6,,6+,30.00,,,TRUE,,,,,,,,CLR,,,,,,,,VFR,,,,,,,,,,,,METAR,145
URWA 141830Z 27002MPS CAVOK 21/07 Q1014 R27/010070 NOSIG RMK QFE762/1016,URWA,2025-08-14T18:30:00Z,46.286,47.995,21,7,270,4,,6+,29.94,,,,,,TRUE,,,,,CAVOK,,,,,,,,VFR,,,,,,,,,,,,METAR,-19
URSS 141830Z 03003MPS 9999 NSC 21/17 Q1016 R02/010070 R06/010070 NOSIG RMK R06/07003MPS QFE761,URSS,2025-08-14T18:30:00Z,43.438,39.926,21,17,30,6,,6+,30.00,,,,,,TRUE,,,,,CLR,,,,,,,,VFR,,,,,,,,,,,,METAR,4
URRP 141830Z 36002MPS CAVOK 23/07 Q1017 R05/CLRD70 NOSIG RMK QFE758/1010,URRP,2025-08-14T18:30:00Z,47.494,39.925,23,7,360,4,,6+,30.03,,,,,,TRUE,,,,,CAVOK,,,,,,,,VFR,,,,,,,,,,,,METAR,73
URMT 141830Z 31004MPS CAVOK 22/06 Q1018 R25/010070 NOSIG RMK QFE724,URMT,2025-08-14T18:30:00Z,45.108,42.1,22,6,310,8,,6+,30.06,,,,,,TRUE,,,,,CAVOK,,,,,,,,VFR,,,,,,,,,,,,METAR,448
URMO 141830Z 09003MPS 9999 BKN092 20/12 Q1017 R09/010073 NOSIG RMK QFE719/0959,URMO,2025-08-14T18:30:00Z,43.204,44.608,20,12,90,6,,6+,30.03,,,,,,TRUE,,,,,BKN,9200,,,,,,,VFR,,,,,,,,,,,,METAR,505
URMM 141830Z VRB01MPS 9999 NSC 23/06 Q1017 R29/010070 NOSIG RMK QFE734/0979,URMM,2025-08-14T18:30:00Z,44.225,43.082,23,6,VRB,2,,6+,30.03,,,,,,TRUE,,,,,CLR,,,,,,,,VFR,,,,,,,,,,,,METAR,318
URML 141830Z 00000MPS 9999 NSC 23/13 Q1016 R32/01//70 NOSIG RMK QFE761/1015,URML,2025-08-14T18:30:00Z,42.817,47.652,23,13,0,0,,6+,30.00,,,,,,TRUE,,,,,CLR,,,,,,,,VFR,,,,,,,,,,,,METAR,4
URMG 141830Z 06002MPS CAVOK 23/07 Q1016 R26/090070 NOSIG RMK QFE747/0996,URMG,2025-08-14T18:30:00Z,43.387,45.702,23,7,60,4,,6+,30.00,,,,,,TRUE,,,,,CAVOK,,,,,,,,VFR,,,,,,,,,,,,METAR,160
URKK 141830Z 34003MPS CAVOK 22/10 Q1017 R05R/CLRD70 NOSIG RMK QFE759,URKK,2025-08-14T18:30:00Z,45.033,39.15,22,10,340,6,,6+,30.03,,,,,,TRUE,,,,,CAVOK,,,,,,,,VFR,,,,,,,,,,,,METAR,29
URKA 141830Z 05002MPS CAVOK 17/11 Q1017 R03/010065 NOSIG RMK QFE759/1012,URKA,2025-08-14T18:30:00Z,44.995,37.341,17,11,50,4,,6+,30.03,,,,,,TRUE,,,,,CAVOK,,,,,,,,VFR,,,,,,,,,,,,METAR,41
UNWW 141830Z 08001MPS 6000 2800S BR NSC 14/14 Q1005 R19/09//55 NOSIG RMK QFE727,UNWW,2025-08-14T18:30:00Z,53.811,86.878,14,14,80,2,,3.73,29.68,,,,,,TRUE,,,,BR,CLR,,,,,,,,MVFR,,,,,,,,,,,,METAR,307
UNTT 141830Z 16003MPS 9999 FEW034CB 16/15 Q1002 R21/090060 NOSIG RMK QFE736,UNTT,2025-08-14T18:30:00Z,56.381,85.207,16,15,160,6,,6+,29.59,,,,,,TRUE,,,,,FEW,3400,,,,,,,VFR,,,,,,,,,,,,METAR,179
UNOO 141830Z 35002MPS 9999 BKN015 BKN030CB 15/15 Q0995 R25/290345 NOSIG RMK QFE738,UNOO,2025-08-14T18:30:00Z,54.964,73.32,15,15,350,4,,6+,29.38,,,,,,TRUE,,,,,BKN,1500,BKN,3000,,,,,MVFR,,,,,,,,,,,,METAR,85
UNNT 141830Z 14004MPS 9999 SCT039CB 18/14 Q1000 R07/290255 R16/290255 NOSIG RMK QFE740/0987,UNNT,2025-08-14T18:30:00Z,55.013,82.651,18,14,140,8,,6+,29.53,,,,,,TRUE,,,,,SCT,3900,,,,,,,VFR,,,,,,,,,,,,METAR,106
UNKL 141830Z 00000MPS 0600 0200S R29/P2000D PRFG NSC 12/12 Q1007 R29/290050 NOSIG RMK QFE730,UNKL,2025-08-14T18:30:00Z,56.173,92.493,12,12,0,0,,0.37,29.73,,,,,,TRUE,,,,PRFG,CLR,,,,,,,,LIFR,,,,,,,,,,,,METAR,278
UNEE 141830Z 14002MPS 9999 SCT043 16/16 Q1004 R23/////// NOSIG RMK QFE730,UNEE,2025-08-14T18:30:00Z,55.27,86.107,16,16,140,4,,6+,29.65,,,,,,TRUE,,,,,SCT,4300,,,,,,,VFR,,,,,,,,,,,,METAR,261
UNBB 141830Z 16004MPS 9999 BKN040 19/12 Q1002 R06/CLRD66 NOSIG RMK QFE729,UNBB,2025-08-14T18:30:00Z,53.362,83.54,19,12,160,8,,6+,29.59,,,,,,TRUE,,,,,BKN,4000,,,,,,,VFR,,,,,,,,,,,,METAR,249
UNAA 141830Z 32001MPS CAVOK 13/13 Q1006 R02/CLRD65 NOSIG RMK QFE732,UNAA,2025-08-14T18:30:00Z,53.74,91.385,13,13,320,2,,6+,29.70,,,,,,TRUE,,,,,CAVOK,,,,,,,,VFR,,,,,,,,,,,,METAR,249
UMOO 141830Z 31002MPS CAVOK 18/10 Q1025 NOSIG,UMOO,2025-08-14T18:30:00Z,53.954,30.1,18,10,310,4,,6+,30.27,,,,,,TRUE,,,,,CAVOK,,,,,,,,VFR,,,,,,,,,,,,METAR,188
UMMS 141830Z 01001MPS CAVOK 13/11 Q1025 NOSIG,UMMS,2025-08-14T18:30:00Z,53.883,28.031,13,11,10,2,,6+,30.27,,,,,,TRUE,,,,,CAVOK,,,,,,,,VFR,,,,,,,,,,,,METAR,196
UMKK 141830Z 09003MPS CAVOK 20/17 Q1023 R06/CLRD95 NOSIG RMK QFE766/1021,UMKK,2025-08-14T18:30:00Z,54.885,20.583,20,17,90,6,,6+,30.21,,,,,,TRUE,,,,,CAVOK,,,,,,,,VFR,,,,,,,,,,,,METAR,6
UMIO 141830Z VRB01MPS CAVOK 16/10 Q1024 NOSIG RMK QFE751/1001,UMIO,2025-08-14T18:30:00Z,54.44,30.297,16,10,VRB,2,,6+,30.24,,,,,,TRUE,,,,,CAVOK,,,,,,,,VFR,,,,,,,,,,,,METAR,189
ULWC 141830Z 30002MPS CAVOK 16/13 Q1019 R21/010060 NOSIG RMK QFE754/1006,ULWC,2025-08-14T18:30:00Z,59.281,38.019,16,13,300,4,,6+,30.09,,,,,,TRUE,,,,,CAVOK,,,,,,,,VFR,,,,,,,,,,,,METAR,113
ULOO 141830Z 00000MPS CAVOK 15/11 Q1025 R01/010060 NOSIG RMK QFE764,ULOO,2025-08-14T18:30:00Z,57.79,28.397,15,11,0,0,,6+,30.27,,,,,,TRUE,,,,,CAVOK,,,,,,,,VFR,,,,,,,,,,,,METAR,46
ULMM 141830Z 19003MPS CAVOK 16/11 Q1016 R31/090070 NOSIG RMK QFE755,ULMM,2025-08-14T18:30:00Z,68.781,32.749,16,11,190,6,,6+,30.00,,,,,,TRUE,,,,,CAVOK,,,,,,,,VFR,,,,,,,,,,,,METAR,79
ULLI 141830Z 28004MPS 9000 NSC 17/11 Q1024 R88/090060 NOSIG,ULLI,2025-08-14T18:30:00Z,59.798,30.267,17,11,280,8,,5.59,30.24,,,,,,TRUE,,,,,CLR,,,,,,,,VFR,,,,,,,,,,,,METAR,25
ULAA 141830Z 32003MPS 9999 FEW030 15/13 Q1018 R26/CLRD70 NOSIG RMK QFE762/1016,ULAA,2025-08-14T18:30:00Z,64.599,40.712,15,13,320,6,,6+,30.06,,,,,,TRUE,,,,,FEW,3000,,,,,,,VFR,,,,,,,,,,,,METAR,10
UIUU 141830Z VRB01MPS 9999 NSC 12/10 Q1009 R26/CLRD60 NOSIG RMK QFE713/0951,UIUU,2025-08-14T18:30:00Z,51.808,107.443,12,10,VRB,2,,6+,29.79,,,,,,TRUE,,,,,CLR,,,,,,,,VFR,,,,,,,,,,,,METAR,508
UIII 141830Z 09003MPS CAVOK 09/08 Q1009 R12/CLRD60 NOSIG RMK QFE715/0953,UIII,2025-08-14T18:30:00Z,52.273,104.38,9,8,90,6,,6+,29.79,,,,,,TRUE,,,,,CAVOK,,,,,,,,VFR,,,,,,,,,,,,METAR,480
UIBB 141830Z 09002MPS 7000 NSC 12/12 Q1009 R12/CLRD60 NOSIG RMK QFE714/0952,UIBB,2025-08-14T18:30:00Z,56.365,101.716,12,12,90,4,,4.35,29.79,,,,,,TRUE,,,,,CLR,,,,,,,,MVFR,,,,,,,,,,,,METAR,485
UIAA 141830Z 31001MPS 9999 NSC 09/08 Q1010 R29/CLRD57 NOSIG RMK QFE699/0932,UIAA,2025-08-14T18:30:00Z,52.026,113.31,9,8,310,2,,6+,29.82,,,,,,TRUE,,,,,CLR,,,,,,,,VFR,,,,,,,,,,,,METAR,650
UHWW 141830Z 00000MPS 9999 OVC005 22/21 Q1014 R25L/0///70 NOSIG RMK QBB150 OBST OBSC QFE759,UHWW,2025-08-14T18:30:00Z,43.399,132.146,22,21,0,0,,6+,29.94,,,,,,TRUE,,,,,OVC,500,,,,,,,IFR,,,,,,,,,,,,METAR,11
UHSS 141830Z 14003MPS 9999 SCT024CB 21/20 Q1009 R19/70D NOSIG RMK MT OBSC QFE756/1008,UHSS,2025-08-14T18:30:00Z,46.887,142.719,21,20,140,6,,6+,29.79,,,,,,TRUE,,,,,SCT,2400,,,,,,,VFR,,,,,,,,,,,,METAR,14
UHPP 141830Z 08002MPS 9999 OVC006 14/14 Q1019 R34L/CLRD60 NOSIG RMK MT OBSC QFE760/1014,UHPP,2025-08-14T18:30:00Z,53.175,158.444,14,14,80,4,,6+,30.09,,,,,,TRUE,,,,,OVC,600,,,,,,,IFR,,,,,,,,,,,,METAR,33
UHMM 141830Z 09005MPS 2800 -SHRA SCT010 OVC017CB 11/11 Q1009 R10/290550 TEMPO 1000 SHRA BR RMK MT OBSC QFE742 R28/11004MPS,UHMM,2025-08-14T18:30:00Z,59.911,150.725,11,11,90,10,,1.74,29.79,,,,,,,,,,-SHRA,SCT,1000,OVC,1700,,,,,IFR,,,,,,,,,,,,METAR,175
UHMA 141830Z 16005MPS 9999 SCT054 10/09 Q1013 R02/////// NOSIG RMK MID 17006MPS END R02/17005MPS QFE756/1008,UHMA,2025-08-14T18:30:00Z,64.733,177.739,10,9,160,10,,6+,29.91,,,,,,TRUE,,,,,SCT,5400,,,,,,,VFR,,,,,,,,,,,,METAR,53
UHHH 141830Z 23005MPS CAVOK 18/16 Q1007 R23R/090060 NOSIG RMK QFE749/0999,UHHH,2025-08-14T18:30:00Z,48.527,135.184,18,16,230,10,,6+,29.73,,,,,,TRUE,,,,,CAVOK,,,,,,,,VFR,,,,,,,,,,,,METAR,74
UHBB 141830Z 24004MPS 9999 FEW033 15/13 Q1004 R36/090060 NOSIG RMK QFE736/0981,UHBB,2025-08-14T18:30:00Z,50.425,127.412,15,13,240,8,,6+,29.65,,,,,,TRUE,,,,,FEW,3300,,,,,,,VFR,,,,,,,,,,,,METAR,185
UGTB 141830Z 33011KT 9999 SCT050CB 25/15 Q1018 NOSIG,UGTB,2025-08-14T18:30:00Z,41.669,44.955,25,15,330,11,,6+,30.06,,,,,,TRUE,,,,,SCT,5000,,,,,,,VFR,,,,,,,,,,,,METAR,468
UGSB 141830Z 12006KT CAVOK 21/18 Q1016 NOSIG,UGSB,2025-08-14T18:30:00Z,41.61,41.6,21,18,120,6,,6+,30.00,,,,,,TRUE,,,,,CAVOK,,,,,,,,VFR,,,,,,,,,,,,METAR,32
UGMS 141830Z AUTO 01003KT 340V050 //// ////// 16/08 Q1022,UGMS,2025-08-14T18:30:00Z,43.055,42.75,16,8,10,3,,,30.18,,,TRUE,,,,,,,,,,,,,,,,,,,,,,,,,,,,METAR,1442
UGKO 141830Z 21003KT CAVOK 21/17 Q1016 NOSIG,UGKO,2025-08-14T18:30:00Z,42.177,42.483,21,17,210,3,,6+,30.00,,,,,,TRUE,,,,,CAVOK,,,,,,,,VFR,,,,,,,,,,,,METAR,44
UGAM 141830Z AUTO VRB01KT //// ////// 17/13 Q1019,UGAM,2025-08-14T18:30:00Z,42.527,43.135,17,13,VRB,1,,,30.09,,,TRUE,,,,,,,,,,,,,,,,,,,,,,,,,,,,METAR,544
UEEE 141830Z 31004MPS CAVOK 05/02 Q1010 R23/09//60 NOSIG RMK QFE749,UEEE,2025-08-14T18:30:00Z,62.093,129.774,5,2,310,8,,6+,29.82,,,,,,TRUE,,,,,CAVOK,,,,,,,,VFR,,,,,,,,,,,,METAR,106
UDYZ 141830Z 03022G37KT 9999 NSC 26/08 Q1014 NOSIG,UDYZ,2025-08-14T18:30:00Z,40.147,44.396,26,8,30,22,37,6+,29.94,,,,,,TRUE,,,,,CLR,,,,,,,,VFR,,,,,,,,,,,,METAR,851
UDSG 141830Z 06012KT 9999 NSC 18/11 Q1021 NOSIG,UDSG,2025-08-14T18:30:00Z,40.75,43.859,18,11,60,12,,6+,30.15,,,,,,TRUE,,,,,CLR,,,,,,,,VFR,,,,,,,,,,,,METAR,1515
UCFO 141830Z 18003MPS 8000 FEW050CB 26/10 Q1013 NOSIG,UCFO,2025-08-14T18:30:00Z,40.61,72.791,26,10,180,6,,4.97,29.91,,,,,,TRUE,,,,,FEW,5000,,,,,,,MVFR,,,,,,,,,,,,METAR,881
UCFM 141830Z 24006MPS 9999 VCTS SCT066CB 23/10 Q1010 NOSIG,UCFM,2025-08-14T18:30:00Z,43.061,74.478,23,10,240,12,,6+,29.82,,,,,,TRUE,,,,VCTS,SCT,6600,,,,,,,VFR,,,,,,,,,,,,METAR,632
UBLC 141830Z AUTO 18006KT 140V200 9999 // ///015/// 16/13 Q1020 RMK QFE623/0831,UBLC,2025-08-14T18:30:00Z,-99.99,-99.99,16,13,180,6,,6+,30.12,,,TRUE,,,,,,,,,,,,,,,,VFR,,,,,,,,,,,,METAR,9999
UBBZ 141830Z AUTO 04008KT 9999 // ///067/// 24/14 Q1018,UBBZ,2025-08-14T18:30:00Z,39.094,46.734,24,14,40,8,,6+,30.06,,,TRUE,,,,,,,,,,,,,,,,VFR,,,,,,,,,,,,METAR,489
UBBN 141830Z 14012KT 9999 NSC 26/14 Q1013 NOSIG RMK QFE685,UBBN,2025-08-14T18:30:00Z,39.189,45.458,26,14,140,12,,6+,29.91,,,,,,TRUE,,,,,CLR,,,,,,,,VFR,,,,,,,,,,,,METAR,857
UBBG 141830Z 13004KT 100V170 9999 FEW100 25/18 Q1016 NOSIG,UBBG,2025-08-14T18:30:00Z,40.738,46.318,25,18,130,4,,6+,30.00,,,,,,TRUE,,,,,FEW,10000,,,,,,,VFR,,,,,,,,,,,,METAR,333
UBBF 141830Z AUTO 35006KT 9999 // NSC 23/15 Q1017,UBBF,2025-08-14T18:30:00Z,39.595,47.196,23,15,350,6,,6+,30.03,,,TRUE,,,,,,,,CLR,,,,,,,,VFR,,,,,,,,,,,,METAR,370
UBBB 141830Z VRB02KT CAVOK 23/15 Q1016 NOSIG,UBBB,2025-08-14T18:30:00Z,40.469,50.061,23,15,VRB,2,,6+,30.00,,,,,,TRUE,,,,,CAVOK,,,,,,,,VFR,,,,,,,,,,,,METAR,94
UATT 141830Z 25002MPS CAVOK 17/14 Q1005 NOSIG RMK QFE734/0979,UATT,2025-08-14T18:30:00Z,50.248,57.203,17,14,250,4,,6+,29.68,,,,,,TRUE,,,,,CAVOK,,,,,,,,VFR,,,,,,,,,,,,METAR,217
UATG 141830Z 27004MPS CAVOK 21/07 Q1010 NOSIG RMK QFE759/1013,UATG,2025-08-14T18:30:00Z,47.122,51.829,21,7,270,8,,6+,29.82,,,,,,TRUE,,,,,CAVOK,,,,,,,,VFR,,,,,,,,,,,,METAR,-23
UATE 141830Z 27003MPS CAVOK 22/15 Q1015 NOSIG RMK QFE760/1013,UATE,2025-08-14T18:30:00Z,43.86,51.092,22,15,270,6,,6+,29.97,,,,,,TRUE,,,,,CAVOK,,,,,,,,VFR,,,,,,,,,,,,METAR,21
UASK 141830Z 09004MPS 9999 VCTS SCT050CB BKN093 18/13 Q1003 TEMPO VRB16MPS -TSRA SQ BKN020CB RMK QFE727/0970,UASK,2025-08-14T18:30:00Z,50.027,82.5,18,13,90,8,,6+,29.62,,,,,,,,,,VCTS,SCT,5000,BKN,9300,,,,,VFR,,,,,,,,,,,,METAR,285
UARR 141830Z 29005MPS 9999 BKN050CB 18/14 Q1007 NOSIG RMK QFE751/1002,UARR,2025-08-14T18:30:00Z,51.151,51.541,18,14,290,10,,6+,29.73,,,,,,TRUE,,,,,BKN,5000,,,,,,,VFR,,,,,,,,,,,,METAR,33
UAOO 141830Z 21002MPS CAVOK 20/10 Q1009 NOSIG RMK QFE745/0993,UAOO,2025-08-14T18:30:00Z,44.707,65.593,20,10,210,4,,6+,29.79,,,,,,TRUE,,,,,CAVOK,,,,,,,,VFR,,,,,,,,,,,,METAR,130
UAKK 141830Z 24005MPS 9999 SCT050CB 14/12 Q1003 NOSIG RMK QFE706/0941,UAKK,2025-08-14T18:30:00Z,49.672,73.333,14,12,240,10,,6+,29.62,,,,,,TRUE,,,,,SCT,5000,,,,,,,VFR,,,,,,,,,,,,METAR,532
UAIT 141830Z 33004MPS CAVOK 22/03 Q1010 NOSIG RMK QFE731/0974,UAIT,2025-08-14T18:30:00Z,43.311,68.55,22,3,330,8,,6+,29.82,,,,,,TRUE,,,,,CAVOK,,,,,,,,VFR,,,,,,,,,,,,METAR,301
UAII 141830Z VRB01MPS CAVOK 24/06 Q1011 NOSIG RMK QFE723/0964,UAII,2025-08-14T18:30:00Z,42.366,69.476,24,6,VRB,2,,6+,29.85,,,,,,TRUE,,,,,CAVOK,,,,,,,,VFR,,,,,,,,,,,,METAR,410
UADD 141830Z 26005MPS 9999 SCT050 BKN100 25/07 Q1011 NOSIG RMK QFE701/0935,UADD,2025-08-14T18:30:00Z,42.854,71.304,25,7,260,10,,6+,29.85,,,,,,TRUE,,,,,SCT,5000,BKN,10000,,,,,VFR,,,,,,,,,,,,METAR,663
UACC 141830Z 24005MPS 9999 FEW033CB 15/13 Q1000 NOSIG RMK QFE719/0959,UACC,2025-08-14T18:30:00Z,51.024,71.468,15,13,240,10,,6+,29.53,,,,,,TRUE,,,,,FEW,3300,,,,,,,VFR,,,,,,,,,,,,METAR,354
UAAA 141830Z 16003MPS 140V210 9999 SCT050CB BKN100 27/09 Q1009 NOSIG,UAAA,2025-08-14T18:30:00Z,43.35,77.027,27,9,160,6,,6+,29.79,,,,,,TRUE,,,,,SCT,5000,BKN,10000,,,,,VFR,,,,,,,,,,,,METAR,673
TFFR 141830Z AUTO 13010KT 070V180 9999 SCT040 SCT047 BKN058 32/22 Q1013 TEMPO 4000 SHRA BKN020TCU,TFFR,2025-08-14T18:30:00Z,16.265,-61.532,32,22,130,10,,6+,29.91,,,TRUE,,,,,,,,SCT,4000,SCT,4700,BKN,5800,,,VFR,,,,,,,,,,,,METAR,6
TFFJ 141830Z AUTO 10015KT 9999 FEW021/// OVC210/// ///TCU ///// Q1014,TFFJ,2025-08-14T18:30:00Z,17.904,-62.844,,,100,15,,6+,29.94,,,TRUE,,,,,,,,FEW,2100,OVC,21000,,,,,VFR,,,,,,,,,,,,METAR,13
TFFF 141830Z AUTO 11011KT 080V150 9999 FEW037 32/23 Q1012 NOSIG,TFFF,2025-08-14T18:30:00Z,14.591,-61.003,32,23,110,11,,6+,29.88,,,TRUE,,,TRUE,,,,,FEW,3700,,,,,,,VFR,,,,,,,,,,,,METAR,3
SPZO 141830Z VRB04KT 9999 SCT100 20/M04 Q1031 NOSIG RMK BIRD HAZARD RWY 10/28,SPZO,2025-08-14T18:30:00Z,-13.536,-71.939,20,-4,VRB,4,,6+,30.44,,,,,,TRUE,,,,,SCT,10000,,,,,,,VFR,,,,,,,,,,,,METAR,3249
SPJR 141830Z VRB03KT 9999 SCT020 BKN050 21/05 Q1027,SPJR,2025-08-14T18:30:00Z,-7.139,-78.489,21,5,VRB,3,,6+,30.32,,,,,,,,,,,SCT,2000,BKN,5000,,,,,VFR,,,,,,,,,,,,METAR,2622
SOCA 141830Z AUTO 08010KT 050V130 9999 FEW024 SCT046 BKN052 31/26 Q1011 TEMPO 2500 SHRA SCT012 FEW015CB BKN018TCU,SOCA,2025-08-14T18:30:00Z,4.822,-52.365,31,26,80,10,,6+,29.85,,,TRUE,,,,,,,,FEW,2400,SCT,4600,BKN,5200,,,VFR,,,,,,,,,,,,METAR,7
ROAH 141830Z AUTO 12009KT 080V160 5000 -RA BR FEW011 SCT015 BKN050 //////TCU 29/26 Q1012 RMK A2990 TCU OHD MOV UNKNOWN AND 20KM E MOV SW,ROAH,2025-08-14T18:30:00Z,26.196,127.646,29,26,120,9,,3.11,29.88,,,TRUE,,,,,,,-RA BR,FEW,1100,SCT,1500,BKN,5000,,,MVFR,,,,,,,,,,,,METAR,6
RKSI 141830Z 00000KT 9999 SCT010 24/24 Q1016 NOSIG,RKSI,2025-08-14T18:30:00Z,37.469,126.451,24,24,0,0,,6+,30.00,,,,,,TRUE,,,,,SCT,1000,,,,,,,VFR,,,,,,,,,,,,METAR,7
RKJK 141830Z 14005KT 10SM OVC007 26/25 A2999 RMK AO2A SLP160 $,RKJK,2025-08-14T18:30:00Z,35.9,126.618,26,25,140,5,,10+,29.99,1016,,,TRUE,TRUE,,,,,,OVC,700,,,,,,,IFR,,,,,,,,,,,,SPECI,8
RJTT 141830Z 20009KT 9999 FEW010 26/23 Q1014 NOSIG RMK 1CU010 A2996,RJTT,2025-08-14T18:30:00Z,35.553,139.781,26,23,200,9,,6+,29.94,,,,,,TRUE,,,,,FEW,1000,,,,,,,VFR,,,,,,,,,,,,METAR,5
RJGG 141830Z AUTO 09004KT 9999 SCT014 OVC031 26/24 Q1015 NOSIG,RJGG,2025-08-14T18:30:00Z,34.858,136.805,26,24,90,4,,6+,29.97,,,TRUE,,,TRUE,,,,,SCT,1400,OVC,3100,,,,,VFR,,,,,,,,,,,,METAR,5
RJFF 141830Z AUTO 11002KT 9999 FEW017 26/24 Q1015 NOSIG RMK A2999,RJFF,2025-08-14T18:30:00Z,33.584,130.452,26,24,110,2,,6+,29.97,,,TRUE,,,TRUE,,,,,FEW,1700,,,,,,,VFR,,,,,,,,,,,,METAR,7
RJCC 141830Z 15014KT 5000 -SHRA BR FEW003 BKN008 23/22 Q1009 RMK 1ST003 7ST008 A2982,RJCC,2025-08-14T18:30:00Z,42.774,141.693,23,22,150,14,,3.11,29.79,,,,,,,,,,-SHRA BR,FEW,300,BKN,800,,,,,IFR,,,,,,,,,,,,METAR,19
RJBB 141830Z AUTO 22006KT 9999 BKN030 27/26 Q1015 NOSIG,RJBB,2025-08-14T18:30:00Z,34.434,135.233,27,26,220,6,,6+,29.97,,,TRUE,,,TRUE,,,,,BKN,3000,,,,,,,MVFR,,,,,,,,,,,,METAR,8
RJAA 141830Z AUTO 16001KT 9999 NCD 22/22 Q1015 NOSIG RMK A2997,RJAA,2025-08-14T18:30:00Z,35.765,140.386,22,22,160,1,,6+,29.97,,,TRUE,,,TRUE,,,,,CLR,,,,,,,,VFR,,,,,,,,,,,,METAR,36
RCTP 141830Z 08019KT 9999 FEW015 29/22 Q1008 WS ALL RWY NOSIG RMK A2977,RCTP,2025-08-14T18:30:00Z,25.078,121.233,29,22,80,19,,6+,29.76,,,,,,TRUE,,,,,FEW,1500,,,,,,,VFR,,,,,,,,,,,,METAR,33
PAFR 141830Z AUTO 01006KT 7SM -RA BKN055 BKN070 OVC085 12/12 A2982 RMK AO2 RAE1755RAB20 SLP100 $,PAFR,2025-08-14T18:30:00Z,61.263,-149.66,12,12,10,6,,7,29.82,1010,,TRUE,TRUE,TRUE,,,,,-RA,BKN,5500,BKN,7000,OVC,8500,,,VFR,,,,,,,,,,,,SPECI,106
PAEN 141830Z 30005KT 10SM FEW007 OVC031 12/11 A2983 RMK AO2 T01220111,PAEN,2025-08-14T18:30:00Z,60.579,-151.242,12.2,11.1,300,5,,10+,29.83,,,,TRUE,,,,,,,FEW,700,OVC,3100,,,,,VFR,,,,,,,,,,,,SPECI,30
OTBD 141830Z 03006KT CAVOK 36/29 Q0996 NOSIG,OTBD,2025-08-14T18:30:00Z,25.261,51.565,36,29,30,6,,6+,29.41,,,,,,TRUE,,,,,CAVOK,,,,,,,,VFR,,,,,,,,,,,,METAR,13
OPST 141830Z 00000KT 4000 FU SCT040 SCT100 27/26 Q1006 NOSIG RH92,OPST,2025-08-14T18:30:00Z,32.536,74.364,27,26,0,0,,2.49,29.70,,,,,,TRUE,,,,FU,SCT,4000,SCT,10000,,,,,IFR,,,,,,,,,,,,METAR,234
OPPS 141830Z 31010KT 4000 FEW025TCU SCT030 BKN080 29/25 Q1004,OPPS,2025-08-14T18:30:00Z,33.996,71.515,29,25,310,10,,2.49,29.65,,,,,,,,,,,FEW,2500,SCT,3000,BKN,8000,,,IFR,,,,,,,,,,,,METAR,356
OPMT 141830Z 18008KT 4000 FU SCT100 33/26 Q1002 NOSIG,OPMT,2025-08-14T18:30:00Z,30.203,71.419,33,26,180,8,,2.49,29.59,,,,,,TRUE,,,,FU,SCT,10000,,,,,,,IFR,,,,,,,,,,,,METAR,122
OPLA 141830Z 19004KT 4000 FU SCT040 BKN100 27/25 Q1005 NOSIG RMK QFE979 A29.68,OPLA,2025-08-14T18:30:00Z,31.522,74.404,27,25,190,4,,2.49,29.68,,,,,,TRUE,,,,FU,SCT,4000,BKN,10000,,,,,IFR,,,,,,,,,,,,METAR,217
OPKC 141830Z 24007KT 5000 FU SCT030 BKN100 29/22 Q1003 NOSIG,OPKC,2025-08-14T18:30:00Z,24.902,67.139,29,22,240,7,,3.11,29.62,,,,,,TRUE,,,,FU,SCT,3000,BKN,10000,,,,,MVFR,,,,,,,,,,,,METAR,20
OPIS 141830Z 13012KT 6000 SCT040 BKN100 25/24 Q1006 TEMPO 13015G30KT,OPIS,2025-08-14T18:30:00Z,33.551,72.827,25,24,130,12,,3.73,29.70,,,,,,,,,,,SCT,4000,BKN,10000,,,,,MVFR,,,,,,,,,,,,METAR,542
OMSJ 141830Z 06002KT CAVOK 36/20 Q0997 NOSIG,OMSJ,2025-08-14T18:30:00Z,25.329,55.517,36,20,60,2,,6+,29.44,,,,,,TRUE,,,,,CAVOK,,,,,,,,VFR,,,,,,,,,,,,METAR,33
OMDW 141830Z 06003KT 8000 NSC 36/23 Q0997 NOSIG,OMDW,2025-08-14T18:30:00Z,24.897,55.161,36,23,60,3,,4.97,29.44,,,,,,TRUE,,,,,CLR,,,,,,,,MVFR,,,,,,,,,,,,METAR,34
OMDB 141830Z 08004KT 8000 NSC 39/19 Q0996 NOSIG,OMDB,2025-08-14T18:30:00Z,25.254,55.366,39,19,80,4,,4.97,29.41,,,,,,TRUE,,,,,CLR,,,,,,,,MVFR,,,,,,,,,,,,METAR,5
OMAD 141830Z 02004KT CAVOK 36/28 Q0996 NOSIG,OMAD,2025-08-14T18:30:00Z,24.428,54.458,36,28,20,4,,6+,29.41,,,,,,TRUE,,,,,CAVOK,,,,,,,,VFR,,,,,,,,,,,,METAR,9
OIZH 141830Z 35004KT 1500 DU NSC 30/03 Q1012 A2990,OIZH,2025-08-14T18:30:00Z,29.472,60.901,30,3,350,4,,0.93,29.88,,,,,,,,,,DU,CLR,,,,,,,,LIFR,,,,,,,,,,,,METAR,1378
OITT 141830Z 10012KT 9999 FEW035 24/12 Q1018 A3008,OITT,2025-08-14T18:30:00Z,38.13,46.24,24,12,100,12,,6+,30.06,,,,,,,,,,,FEW,3500,,,,,,,VFR,,,,,,,,,,,,METAR,1353
OISS 141830Z 06006KT CAVOK 33/03 Q1012 A2990,OISS,2025-08-14T18:30:00Z,29.539,52.59,33,3,60,6,,6+,29.88,,,,,,,,,,,CAVOK,,,,,,,,VFR,,,,,,,,,,,,METAR,1484
OIMM 141830Z 10004KT CAVOK 26/09 Q1017 A3004,OIMM,2025-08-14T18:30:00Z,36.236,59.639,26,9,100,4,,6+,30.03,,,,,,,,,,,CAVOK,,,,,,,,VFR,,,,,,,,,,,,METAR,995
OIKB 141830Z 08004KT 2500 BR NSC 32/29 Q0998 A2948,OIKB,2025-08-14T18:30:00Z,27.218,56.378,32,29,80,4,,1.55,29.47,,,,,,,,,,BR,CLR,,,,,,,,IFR,,,,,,,,,,,,METAR,6
OIII 141830Z 08006KT CAVOK 32/07 Q1015 A2998,OIII,2025-08-14T18:30:00Z,35.686,51.304,32,7,80,6,,6+,29.97,,,,,,,,,,,CAVOK,,,,,,,,VFR,,,,,,,,,,,,METAR,1182
OIIE 141830Z 14006KT CAVOK 32/07 Q1013,OIIE,2025-08-14T18:30:00Z,35.416,51.152,32,7,140,6,,6+,29.91,,,,,,,,,,,CAVOK,,,,,,,,VFR,,,,,,,,,,,,METAR,993
OIFM 141830Z 23006KT CAVOK 28/05 Q1017,OIFM,2025-08-14T18:30:00Z,32.752,51.866,28,5,230,6,,6+,30.03,,,,,,,,,,,CAVOK,,,,,,,,VFR,,,,,,,,,,,,METAR,1539
OIAW 141830Z 00000KT CAVOK 37/08 Q0995,OIAW,2025-08-14T18:30:00Z,31.343,48.751,37,8,0,0,,6+,29.38,,,,,,,,,,,CAVOK,,,,,,,,VFR,,,,,,,,,,,,METAR,25
NZWN 141830Z AUTO 35006KT 9999 NCD 07/05 Q1021,NZWN,2025-08-14T18:30:00Z,-41.331,174.806,7,5,350,6,,6+,30.15,,,TRUE,,,,,,,,CLR,,,,,,,,VFR,,,,,,,,,,,,METAR,12
NZQN 141830Z AUTO 01007KT 9999 FEW190/// 03/M01 Q1020,NZQN,2025-08-14T18:30:00Z,-45.021,168.739,3,-1,10,7,,6+,30.12,,,TRUE,,,,,,,,FEW,19000,,,,,,,VFR,,,,,,,,,,,,METAR,356
NZCH 141830Z AUTO 05002KT 9999 NCD M01/M01 Q1020,NZCH,2025-08-14T18:30:00Z,-43.489,172.528,-1,-1,50,2,,6+,30.12,,,TRUE,,,,,,,,CLR,,,,,,,,VFR,,,,,,,,,,,,METAR,36
NZAA 141830Z AUTO 02001KT 4200 BR FEW032/// 04/04 Q1024,NZAA,2025-08-14T18:30:00Z,-37.008,174.792,4,4,20,1,,2.61,30.24,,,TRUE,,,,,,,BR,FEW,3200,,,,,,,IFR,,,,,,,,,,,,METAR,7
NWWW 141830Z AUTO 04004KT 010V090 9999 -RA ///CB 16/15 Q1013 BECMG SCT030 OVC080,NWWW,2025-08-14T18:30:00Z,-22.015,166.213,16,15,40,4,,6+,29.91,,,TRUE,,,,,,,-RA,,,,,,,,,VFR,,,,,,,,,,,,METAR,16
NTTO 141830Z AUTO 04013KT 9999 BKN026/// BKN032/// 27/22 Q1017,NTTO,2025-08-14T18:30:00Z,-18.075,-140.946,27,22,40,13,,6+,30.03,,,TRUE,,,,,,,,BKN,2600,BKN,3200,,,,,MVFR,,,,,,,,,,,,METAR,3
NTTB 141830Z AUTO 03012KT 9999 FEW026/// OVC052/// 28/22 Q1014 NOSIG,NTTB,2025-08-14T18:30:00Z,-16.445,-151.752,28,22,30,12,,6+,29.94,,,TRUE,,,TRUE,,,,,FEW,2600,OVC,5200,,,,,VFR,,,,,,,,,,,,METAR,6
NTAT 141830Z AUTO 34018KT 9999 NCD 24/23 Q1012,NTAT,2025-08-14T18:30:00Z,-23.365,-149.524,24,23,340,18,,6+,29.88,,,TRUE,,,,,,,,CLR,,,,,,,,VFR,,,,,,,,,,,,METAR,2
NTAA 141830Z AUTO 05012KT CAVOK 28/21 Q1015 NOSIG,NTAA,2025-08-14T18:30:00Z,-17.554,-149.607,28,21,50,12,,6+,29.97,,,TRUE,,,TRUE,,,,,CAVOK,,,,,,,,VFR,,,,,,,,,,,,METAR,2
NIUE 141830Z AUTO 14006KT 9999 OVC039/// 21/17 Q1016,NIUE,2025-08-14T18:30:00Z,-19.079,-169.926,21,17,140,6,,6+,30.00,,,TRUE,,,,,,,,OVC,3900,,,,,,,VFR,,,,,,,,,,,,METAR,22
LZZI 141830Z VRB02KT CAVOK 24/15 Q1020,LZZI,2025-08-14T18:30:00Z,49.231,18.613,24,15,VRB,2,,6+,30.12,,,,,,,,,,,CAVOK,,,,,,,,VFR,,,,,,,,,,,,METAR,311
LZTT 141830Z 05004KT 030V090 9999 FEW066 21/15 Q1023,LZTT,2025-08-14T18:30:00Z,49.068,20.25,21,15,50,4,,6+,30.21,,,,,,,,,,,FEW,6600,,,,,,,VFR,,,,,,,,,,,,METAR,693
LZPP 141830Z VRB02KT CAVOK 25/15 Q1018,LZPP,2025-08-14T18:30:00Z,48.613,17.832,25,15,VRB,2,,6+,30.06,,,,,,,,,,,CAVOK,,,,,,,,VFR,,,,,,,,,,,,METAR,160
LZKZ 141830Z 33004KT CAVOK 27/14 Q1019 NOSIG,LZKZ,2025-08-14T18:30:00Z,48.661,21.24,27,14,330,4,,6+,30.09,,,,,,TRUE,,,,,CAVOK,,,,,,,,VFR,,,,,,,,,,,,METAR,227
LZIB 141830Z 36004KT CAVOK 26/13 Q1018 NOSIG,LZIB,2025-08-14T18:30:00Z,48.17,17.207,26,13,360,4,,6+,30.06,,,,,,TRUE,,,,,CAVOK,,,,,,,,VFR,,,,,,,,,,,,METAR,129
LYVR 141830Z AUTO 15012KT CAVOK 32/09 Q1016,LYVR,2025-08-14T18:30:00Z,45.147,21.31,32,9,150,12,,6+,30.00,,,TRUE,,,,,,,,CAVOK,,,,,,,,VFR,,,,,,,,,,,,METAR,82
LYTV 141830Z VRB01KT CAVOK 28/22 Q1012 NOSIG,LYTV,2025-08-14T18:30:00Z,42.405,18.723,28,22,VRB,1,,6+,29.88,,,,,,TRUE,,,,,CAVOK,,,,,,,,VFR,,,,,,,,,,,,METAR,3
LYPG 141830Z 11002KT CAVOK 33/14 Q1012 NOSIG,LYPG,2025-08-14T18:30:00Z,42.359,19.252,33,14,110,2,,6+,29.88,,,,,,TRUE,,,,,CAVOK,,,,,,,,VFR,,,,,,,,,,,,METAR,32
LYNI 141830Z 08006KT 030V150 CAVOK 29/03 Q1016 NOSIG,LYNI,2025-08-14T18:30:00Z,43.338,21.863,29,3,80,6,,6+,30.00,,,,,,TRUE,,,,,CAVOK,,,,,,,,VFR,,,,,,,,,,,,METAR,197
LYKV 141830Z VRB03KT CAVOK 25/07 Q1017 NOSIG,LYKV,2025-08-14T18:30:00Z,43.818,20.587,25,7,VRB,3,,6+,30.03,,,,,,TRUE,,,,,CAVOK,,,,,,,,VFR,,,,,,,,,,,,METAR,209
LYBT 141830Z 11004KT CAVOK 27/12 Q1016 NOSIG,LYBT,2025-08-14T18:30:00Z,44.935,20.258,27,12,110,4,,6+,30.00,,,,,,TRUE,,,,,CAVOK,,,,,,,,VFR,,,,,,,,,,,,METAR,78
LYBE 141830Z 10004KT CAVOK 27/09 Q1016 NOSIG,LYBE,2025-08-14T18:30:00Z,44.824,20.291,27,9,100,4,,6+,30.00,,,,,,TRUE,,,,,CAVOK,,,,,,,,VFR,,,,,,,,,,,,METAR,93
LUKK 141830Z 01007KT 350V060 CAVOK 27/09 Q1020 NOSIG,LUKK,2025-08-14T18:30:00Z,46.928,28.931,27,9,10,7,,6+,30.12,,,,,,TRUE,,,,,CAVOK,,,,,,,,VFR,,,,,,,,,,,,METAR,102
LRTR 141830Z 04007KT CAVOK 29/08 Q1017,LRTR,2025-08-14T18:30:00Z,45.811,21.333,29,8,40,7,,6+,30.03,,,,,,,,,,,CAVOK,,,,,,,,VFR,,,,,,,,,,,,METAR,104
LRTM 141830Z AUTO 09005KT 9999 NCD 24/16 Q1019,LRTM,2025-08-14T18:30:00Z,46.468,24.421,24,16,90,5,,6+,30.09,,,TRUE,,,,,,,,CLR,,,,,,,,VFR,,,,,,,,,,,,METAR,289
LRTC 141830Z AUTO 15004KT 9999 NCD 23/16 Q1020,LRTC,2025-08-14T18:30:00Z,45.065,28.716,23,16,150,4,,6+,30.12,,,TRUE,,,,,,,,CLR,,,,,,,,VFR,,,,,,,,,,,,METAR,52
LRSV 141830Z 04004KT CAVOK 23/13 Q1022,LRSV,2025-08-14T18:30:00Z,47.686,26.354,23,13,40,4,,6+,30.18,,,,,,,,,,,CAVOK,,,,,,,,VFR,,,,,,,,,,,,METAR,406
LRSM 141830Z AUTO 04006KT 9999 NCD 25/14 Q1018,LRSM,2025-08-14T18:30:00Z,47.703,22.886,25,14,40,6,,6+,30.06,,,TRUE,,,,,,,,CLR,,,,,,,,VFR,,,,,,,,,,,,METAR,123
LRSB 141830Z 20002KT CAVOK 24/17 Q1020,LRSB,2025-08-14T18:30:00Z,45.789,24.091,24,17,200,2,,6+,30.12,,,,,,,,,,,CAVOK,,,,,,,,VFR,,,,,,,,,,,,METAR,442
LROP 141830Z 10006KT CAVOK 25/04 Q1019 NOSIG,LROP,2025-08-14T18:30:00Z,44.572,26.102,25,4,100,6,,6+,30.09,,,,,,TRUE,,,,,CAVOK,,,,,,,,VFR,,,,,,,,,,,,METAR,92
LROD 141830Z 01008KT CAVOK 30/13 Q1018,LROD,2025-08-14T18:30:00Z,47.036,21.896,30,13,10,8,,6+,30.06,,,,,,,,,,,CAVOK,,,,,,,,VFR,,,,,,,,,,,,METAR,132
LRIA 141830Z 31003KT CAVOK 23/12 Q1020,LRIA,2025-08-14T18:30:00Z,47.164,27.627,23,12,310,3,,6+,30.12,,,,,,,,,,,CAVOK,,,,,,,,VFR,,,,,,,,,,,,METAR,71
LRCV 141830Z 07007KT CAVOK 25/08 Q1018,LRCV,2025-08-14T18:30:00Z,44.31,23.867,25,8,70,7,,6+,30.06,,,,,,,,,,,CAVOK,,,,,,,,VFR,,,,,,,,,,,,METAR,192
LRCL 141830Z 27004KT CAVOK 23/17 Q1020,LRCL,2025-08-14T18:30:00Z,46.783,23.676,23,17,270,4,,6+,30.12,,,,,,,,,,,CAVOK,,,,,,,,VFR,,,,,,,,,,,,METAR,313
LRCK 141830Z 07002KT CAVOK 22/17 Q1020 NOSIG,LRCK,2025-08-14T18:30:00Z,44.362,28.488,22,17,70,2,,6+,30.12,,,,,,TRUE,,,,,CAVOK,,,,,,,,VFR,,,,,,,,,,,,METAR,108
LRBV 141830Z VRB03KT CAVOK 23/14 Q1021,LRBV,2025-08-14T18:30:00Z,45.706,25.524,23,14,VRB,3,,6+,30.15,,,,,,,,,,,CAVOK,,,,,,,,VFR,,,,,,,,,,,,METAR,538
LRBS 141830Z 07005KT CAVOK 25/10 Q1019 NOSIG,LRBS,2025-08-14T18:30:00Z,44.511,26.078,25,10,70,5,,6+,30.09,,,,,,TRUE,,,,,CAVOK,,,,,,,,VFR,,,,,,,,,,,,METAR,91
LRBM 141830Z AUTO 36005KT 310V100 9999 NCD 26/16 Q1019,LRBM,2025-08-14T18:30:00Z,47.658,23.47,26,16,360,5,,6+,30.09,,,TRUE,,,,,,,,CLR,,,,,,,,VFR,,,,,,,,,,,,METAR,180
LRBC 141830Z 32003KT CAVOK 23/14 Q1020,LRBC,2025-08-14T18:30:00Z,46.522,26.91,23,14,320,3,,6+,30.12,,,,,,,,,,,CAVOK,,,,,,,,VFR,,,,,,,,,,,,METAR,183
LRAR 141830Z AUTO 03006KT 9999 NCD 30/13 Q1017,LRAR,2025-08-14T18:30:00Z,46.176,21.264,30,13,30,6,,6+,30.03,,,TRUE,,,,,,,,CLR,,,,,,,,VFR,,,,,,,,,,,,METAR,102
LQTZ 141830Z 08002KT CAVOK 22/11 Q1017,LQTZ,2025-08-14T18:30:00Z,44.461,18.728,22,11,80,2,,6+,30.03,,,,,,,,,,,CAVOK,,,,,,,,VFR,,,,,,,,,,,,METAR,242
LQSA 141830Z 35004KT 300V110 CAVOK 24/14 Q1018 NOSIG,LQSA,2025-08-14T18:30:00Z,43.825,18.331,24,14,350,4,,6+,30.06,,,,,,TRUE,,,,,CAVOK,,,,,,,,VFR,,,,,,,,,,,,METAR,505
LQMO 141830Z VRB04KT CAVOK 27/17 Q1013,LQMO,2025-08-14T18:30:00Z,43.285,17.84,27,17,VRB,4,,6+,29.91,,,,,,,,,,,CAVOK,,,,,,,,VFR,,,,,,,,,,,,METAR,49
LQBK 141830Z 30002KT CAVOK 24/13 Q1016 NOSIG,LQBK,2025-08-14T18:30:00Z,44.937,17.299,24,13,300,2,,6+,30.00,,,,,,TRUE,,,,,CAVOK,,,,,,,,VFR,,,,,,,,,,,,METAR,114
LPPT 141830Z 22009KT CAVOK 31/15 Q1012,LPPT,2025-08-14T18:30:00Z,38.781,-9.136,31,15,220,9,,6+,29.88,,,,,,,,,,,CAVOK,,,,,,,,VFR,,,,,,,,,,,,METAR,98
LPPS 141830Z 34010KT 9999 FEW015 23/17 Q1017,LPPS,2025-08-14T18:30:00Z,33.073,-16.35,23,17,340,10,,6+,30.03,,,,,,,,,,,FEW,1500,,,,,,,VFR,,,,,,,,,,,,METAR,89
LPPR 141830Z VRB02KT CAVOK 27/17 Q1012,LPPR,2025-08-14T18:30:00Z,41.235,-8.684,27,17,VRB,2,,6+,29.88,,,,,,,,,,,CAVOK,,,,,,,,VFR,,,,,,,,,,,,METAR,64
LPPD 141830Z 27014KT 9999 FEW022 23/18 Q1018,LPPD,2025-08-14T18:30:00Z,37.741,-25.698,23,18,270,14,,6+,30.06,,,,,,,,,,,FEW,2200,,,,,,,VFR,,,,,,,,,,,,METAR,62
LPMA 141830Z 35013KT 9999 SCT015 SCT030 23/17 Q1016,LPMA,2025-08-14T18:30:00Z,32.698,-16.774,23,17,350,13,,6+,30.00,,,,,,,,,,,SCT,1500,SCT,3000,,,,,VFR,,,,,,,,,,,,METAR,54
LPHR 141830Z 31013KT 9999 FEW025 BKN070 24/18 Q1018,LPHR,2025-08-14T18:30:00Z,38.521,-28.714,24,18,310,13,,6+,30.06,,,,,,,,,,,FEW,2500,BKN,7000,,,,,VFR,,,,,,,,,,,,METAR,39
LPFR 141830Z 09004KT CAVOK 27/20 Q1012,LPFR,2025-08-14T18:30:00Z,37.014,-7.966,27,20,90,4,,6+,29.88,,,,,,,,,,,CAVOK,,,,,,,,VFR,,,,,,,,,,,,METAR,3
LPFL 141830Z 32013KT 290V360 9999 FEW013 SCT017 23/18 Q1019,LPFL,2025-08-14T18:30:00Z,39.455,-31.131,23,18,320,13,,6+,30.09,,,,,,,,,,,FEW,1300,SCT,1700,,,,,VFR,,,,,,,,,,,,METAR,35
LPCS 141830Z 24007KT 220V280 CAVOK 29/17 Q1012,LPCS,2025-08-14T18:30:00Z,38.725,-9.355,29,17,240,7,,6+,29.88,,,,,,,,,,,CAVOK,,,,,,,,VFR,,,,,,,,,,,,METAR,99
LPAZ 141830Z 29010KT 9999 FEW022 24/18 Q1018,LPAZ,2025-08-14T18:30:00Z,36.971,-25.171,24,18,290,10,,6+,30.06,,,,,,,,,,,FEW,2200,,,,,,,VFR,,,,,,,,,,,,METAR,96
LKTB 141830Z 10005KT CAVOK 29/14 Q1019 NOSIG,LKTB,2025-08-14T18:30:00Z,49.151,16.694,29,14,100,5,,6+,30.09,,,,,,TRUE,,,,,CAVOK,,,,,,,,VFR,,,,,,,,,,,,METAR,233
LKPR 141830Z 05004KT CAVOK 28/12 Q1019 NOSIG,LKPR,2025-08-14T18:30:00Z,50.101,14.26,28,12,50,4,,6+,30.09,,,,,,TRUE,,,,,CAVOK,,,,,,,,VFR,,,,,,,,,,,,METAR,364
LKPD 141830Z 03002KT CAVOK 30/16 Q1018 NOSIG RMK BLU BLU,LKPD,2025-08-14T18:30:00Z,50.016,15.74,30,16,30,2,,6+,30.06,,,,,,TRUE,,,,,CAVOK,,,,,,,,VFR,,,,,,,,,,,,METAR,226
LKNA 141830Z 14005KT CAVOK 27/13 Q1020 NOSIG RMK BLACK,LKNA,2025-08-14T18:30:00Z,49.166,16.125,27,13,140,5,,6+,30.12,,,,,,TRUE,,,,,CAVOK,,,,,,,,VFR,,,,,,,,,,,,METAR,460
LKMT 141830Z 08004KT 060V130 CAVOK 26/16 Q1020 NOSIG,LKMT,2025-08-14T18:30:00Z,49.696,18.111,26,16,80,4,,6+,30.12,,,,,,TRUE,,,,,CAVOK,,,,,,,,VFR,,,,,,,,,,,,METAR,251
LKKV 141830Z 03004KT 360V070 CAVOK 26/13 Q1021,LKKV,2025-08-14T18:30:00Z,50.202,12.91,26,13,30,4,,6+,30.15,,,,,,,,,,,CAVOK,,,,,,,,VFR,,,,,,,,,,,,METAR,600
LKCV 141830Z 05003KT CAVOK 30/16 Q1018 NOSIG RMK BLU BLU,LKCV,2025-08-14T18:30:00Z,49.94,15.382,30,16,50,3,,6+,30.06,,,,,,TRUE,,,,,CAVOK,,,,,,,,VFR,,,,,,,,,,,,METAR,234
LJPZ 141830Z AUTO VRB02KT 9999 NCD 31/15 Q1014,LJPZ,2025-08-14T18:30:00Z,45.473,13.615,31,15,VRB,2,,6+,29.94,,,TRUE,,,,,,,,CLR,,,,,,,,VFR,,,,,,,,,,,,METAR,2
LJMB 141830Z AUTO 34003KT 9999 NCD 25/16 Q1018,LJMB,2025-08-14T18:30:00Z,46.48,15.682,25,16,340,3,,6+,30.06,,,TRUE,,,,,,,,CLR,,,,,,,,VFR,,,,,,,,,,,,METAR,263
LJLJ 141830Z 09004KT 300V120 CAVOK 25/16 Q1018 NOSIG,LJLJ,2025-08-14T18:30:00Z,46.218,14.477,25,16,90,4,,6+,30.06,,,,,,TRUE,,,,,CAVOK,,,,,,,,VFR,,,,,,,,,,,,METAR,363
LJCE 141830Z AUTO 00000KT 9999 NCD 27/17 Q1017,LJCE,2025-08-14T18:30:00Z,45.899,15.523,27,17,0,0,,6+,30.03,,,TRUE,,,,,,,,CLR,,,,,,,,VFR,,,,,,,,,,,,METAR,153
LHBP 141830Z 08003KT 360V150 CAVOK 27/14 Q1017 NOSIG,LHBP,2025-08-14T18:30:00Z,47.437,19.256,27,14,80,3,,6+,30.03,,,,,,TRUE,,,,,CAVOK,,,,,,,,VFR,,,,,,,,,,,,METAR,141
LFYR 141830Z AUTO VRB02KT CAVOK 31/18 Q1017,LFYR,2025-08-14T18:30:00Z,47.32,1.688,31,18,VRB,2,,6+,30.03,,,TRUE,,,,,,,,CAVOK,,,,,,,,VFR,,,,,,,,,,,,METAR,83
LFVP 141830Z AUTO 22013KT 9000 NSC 22/19 Q1015 NOSIG,LFVP,2025-08-14T18:30:00Z,46.764,-56.169,22,19,220,13,,5.59,29.97,,,TRUE,,,TRUE,,,,,CLR,,,,,,,,VFR,,,,,,,,,,,,METAR,5
LFTW 141830Z AUTO 10008KT 9999 ///CB 29/14 Q1016 BECMG NSC,LFTW,2025-08-14T18:30:00Z,43.757,4.416,29,14,100,8,,6+,30.00,,,TRUE,,,,,,,,,,,,,,,,VFR,,,,,,,,,,,,METAR,91
LFTH 141830Z AUTO 12004KT 070V160 CAVOK 29/11 Q1015 NOSIG,LFTH,2025-08-14T18:30:00Z,43.094,6.146,29,11,120,4,,6+,29.97,,,TRUE,,,TRUE,,,,,CAVOK,,,,,,,,VFR,,,,,,,,,,,,METAR,3
LFSX 141830Z AUTO 34001KT CAVOK 31/17 Q1018,LFSX,2025-08-14T18:30:00Z,47.783,6.364,31,17,340,1,,6+,30.06,,,TRUE,,,,,,,,CAVOK,,,,,,,,VFR,,,,,,,,,,,,METAR,266
LFST 141830Z AUTO 05004KT CAVOK 30/20 Q1018 NOSIG,LFST,2025-08-14T18:30:00Z,48.549,7.64,30,20,50,4,,6+,30.06,,,TRUE,,,TRUE,,,,,CAVOK,,,,,,,,VFR,,,,,,,,,,,,METAR,149
LFSO 141830Z AUTO 03003KT CAVOK 30/15 Q1019,LFSO,2025-08-14T18:30:00Z,48.583,5.955,30,15,30,3,,6+,30.09,,,TRUE,,,,,,,,CAVOK,,,,,,,,VFR,,,,,,,,,,,,METAR,328
LFSN 141830Z AUTO 32003KT CAVOK 31/15 Q1018,LFSN,2025-08-14T18:30:00Z,48.692,6.231,31,15,320,3,,6+,30.06,,,TRUE,,,,,,,,CAVOK,,,,,,,,VFR,,,,,,,,,,,,METAR,214
LFSL 141830Z AUTO 29002KT CAVOK 33/13 Q1018 NOSIG,LFSL,2025-08-14T18:30:00Z,45.04,1.486,33,13,290,2,,6+,30.06,,,TRUE,,,TRUE,,,,,CAVOK,,,,,,,,VFR,,,,,,,,,,,,METAR,300
LFSI 141830Z AUTO 02005KT 9999 ////// 30/18 Q1018,LFSI,2025-08-14T18:30:00Z,48.631,4.904,30,18,20,5,,6+,30.06,,,TRUE,,,,,,,,,,,,,,,,VFR,,,,,,,,,,,,METAR,136
LFSG 141830Z AUTO 01004KT CAVOK 29/16 Q1019,LFSG,2025-08-14T18:30:00Z,48.325,6.07,29,16,10,4,,6+,30.09,,,TRUE,,,,,,,,CAVOK,,,,,,,,VFR,,,,,,,,,,,,METAR,320
LFSD 141830Z AUTO VRB03KT CAVOK 32/16 Q1018,LFSD,2025-08-14T18:30:00Z,47.269,5.09,32,16,VRB,3,,6+,30.06,,,TRUE,,,,,,,,CAVOK,,,,,,,,VFR,,,,,,,,,,,,METAR,218
LFSB 141830Z AUTO 32005KT CAVOK 29/17 Q1018 NOSIG,LFSB,2025-08-14T18:30:00Z,47.614,7.51,29,17,320,5,,6+,30.06,,,TRUE,,,TRUE,,,,,CAVOK,,,,,,,,VFR,,,,,,,,,,,,METAR,262
LFRZ 141830Z AUTO 02009KT 9999 ////// 28/15 Q1018,LFRZ,2025-08-14T18:30:00Z,47.312,-2.163,28,15,20,9,,6+,30.06,,,TRUE,,,,,,,,,,,,,,,,VFR,,,,,,,,,,,,METAR,2
LFRV 141830Z AUTO 05010KT CAVOK 24/16 Q1020,LFRV,2025-08-14T18:30:00Z,47.722,-2.727,24,16,50,10,,6+,30.12,,,TRUE,,,,,,,,CAVOK,,,,,,,,VFR,,,,,,,,,,,,METAR,132
LFRU 141830Z AUTO 03008KT CAVOK 19/16 Q1021,LFRU,2025-08-14T18:30:00Z,48.601,-3.814,19,16,30,8,,6+,30.15,,,TRUE,,,,,,,,CAVOK,,,,,,,,VFR,,,,,,,,,,,,METAR,85
LFRT 141830Z AUTO 03010KT CAVOK 19/15 Q1022,LFRT,2025-08-14T18:30:00Z,48.536,-2.853,19,15,30,10,,6+,30.18,,,TRUE,,,,,,,,CAVOK,,,,,,,,VFR,,,,,,,,,,,,METAR,134
LFRS 141830Z AUTO 36005KT 320V040 CAVOK 28/14 Q1018 NOSIG,LFRS,2025-08-14T18:30:00Z,47.15,-1.609,28,14,360,5,,6+,30.06,,,TRUE,,,TRUE,,,,,CAVOK,,,,,,,,VFR,,,,,,,,,,,,METAR,26
LFRQ 141830Z AUTO 35009KT CAVOK 23/16 Q1020 BECMG 05010KT,LFRQ,2025-08-14T18:30:00Z,47.975,-4.168,23,16,350,9,,6+,30.12,,,TRUE,,,,,,,,CAVOK,,,,,,,,VFR,,,,,,,,,,,,METAR,94
LFRO 141830Z AUTO 03005KT 350V060 CAVOK 19/17 Q1022,LFRO,2025-08-14T18:30:00Z,48.755,-3.469,19,17,30,5,,6+,30.18,,,TRUE,,,,,,,,CAVOK,,,,,,,,VFR,,,,,,,,,,,,METAR,86
LFRN 141830Z AUTO 35008KT CAVOK 24/15 Q1020 NOSIG,LFRN,2025-08-14T18:30:00Z,48.069,-1.734,24,15,350,8,,6+,30.12,,,TRUE,,,TRUE,,,,,CAVOK,,,,,,,,VFR,,,,,,,,,,,,METAR,35
LFRM 141830Z AUTO 02007KT 350V050 CAVOK 29/17 Q1019 NOSIG,LFRM,2025-08-14T18:30:00Z,47.949,0.202,29,17,20,7,,6+,30.09,,,TRUE,,,TRUE,,,,,CAVOK,,,,,,,,VFR,,,,,,,,,,,,METAR,51
LFRL 141830Z AUTO 02009KT CAVOK 20/15 Q1021 NOSIG,LFRL,2025-08-14T18:30:00Z,48.279,-4.439,20,15,20,9,,6+,30.15,,,TRUE,,,TRUE,,,,,CAVOK,,,,,,,,VFR,,,,,,,,,,,,METAR,80
LFRK 141830Z AUTO 01006KT CAVOK 21/17 Q1021 NOSIG,LFRK,2025-08-14T18:30:00Z,49.18,-0.456,21,17,10,6,,6+,30.15,,,TRUE,,,TRUE,,,,,CAVOK,,,,,,,,VFR,,,,,,,,,,,,METAR,66
LFRJ 141830Z AUTO 02009KT CAVOK 20/15 Q1021,LFRJ,2025-08-14T18:30:00Z,48.527,-4.138,20,15,20,9,,6+,30.15,,,TRUE,,,,,,,,CAVOK,,,,,,,,VFR,,,,,,,,,,,,METAR,109
LFRI 141830Z AUTO 01007KT CAVOK 29/17 Q1018 NOSIG,LFRI,2025-08-14T18:30:00Z,46.702,-1.379,29,17,10,7,,6+,30.06,,,TRUE,,,TRUE,,,,,CAVOK,,,,,,,,VFR,,,,,,,,,,,,METAR,89
LFRH 141830Z AUTO 05015KT CAVOK 26/16 Q1019 NOSIG,LFRH,2025-08-14T18:30:00Z,47.761,-3.44,26,16,50,15,,6+,30.09,,,TRUE,,,TRUE,,,,,CAVOK,,,,,,,,VFR,,,,,,,,,,,,METAR,46
LFRG 141830Z AUTO 32004KT CAVOK 21/16 Q1021 NOSIG,LFRG,2025-08-14T18:30:00Z,49.365,0.154,21,16,320,4,,6+,30.15,,,TRUE,,,TRUE,,,,,CAVOK,,,,,,,,VFR,,,,,,,,,,,,METAR,146
LFRD 141830Z AUTO 02007KT 9999 FEW011 20/17 Q1021 TEMPO BKN005,LFRD,2025-08-14T18:30:00Z,48.589,-2.075,20,17,20,7,,6+,30.15,,,TRUE,,,,,,,,FEW,1100,,,,,,,VFR,,,,,,,,,,,,METAR,56
LFRC 141830Z AUTO 31006KT 270V340 CAVOK 19/16 Q1022,LFRC,2025-08-14T18:30:00Z,49.65,-1.47,19,16,310,6,,6+,30.18,,,TRUE,,,,,,,,CAVOK,,,,,,,,VFR,,,,,,,,,,,,METAR,137
LFRB 141830Z AUTO 02008KT CAVOK 20/15 Q1021 NOSIG,LFRB,2025-08-14T18:30:00Z,48.444,-4.412,20,15,20,8,,6+,30.15,,,TRUE,,,TRUE,,,,,CAVOK,,,,,,,,VFR,,,,,,,,,,,,METAR,91
LFQQ 141830Z AUTO 31008KT CAVOK 25/16 Q1020 NOSIG,LFQQ,2025-08-14T18:30:00Z,50.562,3.089,25,16,310,8,,6+,30.12,,,TRUE,,,TRUE,,,,,CAVOK,,,,,,,,VFR,,,,,,,,,,,,METAR,43
LFQA 141830Z AUTO 33011KT CAVOK 29/19 Q1018,LFQA,2025-08-14T18:30:00Z,49.21,4.155,29,19,330,11,,6+,30.06,,,TRUE,,,,,,,,CAVOK,,,,,,,,VFR,,,,,,,,,,,,METAR,92
LFPV 141830Z AUTO 34007KT 320V020 CAVOK 26/17 Q1020 NOSIG,LFPV,2025-08-14T18:30:00Z,48.77,2.205,26,17,340,7,,6+,30.12,,,TRUE,,,TRUE,,,,,CAVOK,,,,,,,,VFR,,,,,,,,,,,,METAR,171
LFPT 141830Z AUTO 01007KT CAVOK 25/17 Q1019,LFPT,2025-08-14T18:30:00Z,49.097,2.041,25,17,10,7,,6+,30.09,,,TRUE,,,,,,,,CAVOK,,,,,,,,VFR,,,,,,,,,,,,METAR,91
LFPO 141830Z AUTO 34010KT CAVOK 27/18 Q1019 NOSIG,LFPO,2025-08-14T18:30:00Z,48.717,2.384,27,18,340,10,,6+,30.09,,,TRUE,,,TRUE,,,,,CAVOK,,,,,,,,VFR,,,,,,,,,,,,METAR,88
LFPN 141830Z AUTO 35007KT 9999 NCD 26/18 Q1020 NOSIG,LFPN,2025-08-14T18:30:00Z,48.752,2.114,26,18,350,7,,6+,30.12,,,TRUE,,,TRUE,,,,,CLR,,,,,,,,VFR,,,,,,,,,,,,METAR,152
LFPM 141830Z AUTO 36008KT CAVOK 28/19 Q1019,LFPM,2025-08-14T18:30:00Z,48.611,2.68,28,19,360,8,,6+,30.09,,,TRUE,,,,,,,,CAVOK,,,,,,,,VFR,,,,,,,,,,,,METAR,91
LFPG 141830Z 34008KT CAVOK 27/18 Q1019 NOSIG,LFPG,2025-08-14T18:30:00Z,49.015,2.534,27,18,340,8,,6+,30.09,,,,,,TRUE,,,,,CAVOK,,,,,,,,VFR,,,,,,,,,,,,METAR,107
LFPB 141830Z AUTO 33006KT 290V360 CAVOK 27/18 Q1019 NOSIG,LFPB,2025-08-14T18:30:00Z,48.967,2.428,27,18,330,6,,6+,30.09,,,TRUE,,,TRUE,,,,,CAVOK,,,,,,,,VFR,,,,,,,,,,,,METAR,50
LFOZ 141830Z AUTO 36005KT 330V030 CAVOK 29/18 Q1018,LFOZ,2025-08-14T18:30:00Z,47.897,2.163,29,18,360,5,,6+,30.06,,,TRUE,,,,,,,,CAVOK,,,,,,,,VFR,,,,,,,,,,,,METAR,121
LFOV 141830Z AUTO 34009KT CAVOK 26/16 Q1019,LFOV,2025-08-14T18:30:00Z,48.031,-0.746,26,16,340,9,,6+,30.09,,,TRUE,,,,,,,,CAVOK,,,,,,,,VFR,,,,,,,,,,,,METAR,99
LFOT 141830Z AUTO 34006KT CAVOK 29/19 Q1018 NOSIG,LFOT,2025-08-14T18:30:00Z,47.444,0.728,29,19,340,6,,6+,30.06,,,TRUE,,,TRUE,,,,,CAVOK,,,,,,,,VFR,,,,,,,,,,,,METAR,107
LFOP 141830Z AUTO 33009KT CAVOK 21/15 Q1021,LFOP,2025-08-14T18:30:00Z,49.383,1.182,21,15,330,9,,6+,30.15,,,TRUE,,,,,,,,CAVOK,,,,,,,,VFR,,,,,,,,,,,,METAR,149
LFOK 141830Z AUTO 32006KT CAVOK 28/20 Q1019 NOSIG,LFOK,2025-08-14T18:30:00Z,48.777,4.165,28,20,320,6,,6+,30.09,,,TRUE,,,TRUE,,,,,CAVOK,,,,,,,,VFR,,,,,,,,,,,,METAR,166
LFOJ 141830Z AUTO 01011KT CAVOK 28/18 Q1018 NOSIG,LFOJ,2025-08-14T18:30:00Z,47.985,1.754,28,18,10,11,,6+,30.06,,,TRUE,,,TRUE,,,,,CAVOK,,,,,,,,VFR,,,,,,,,,,,,METAR,122
LFOH 141830Z AUTO 01007KT CAVOK 19/17 Q1021,LFOH,2025-08-14T18:30:00Z,49.533,0.091,19,17,10,7,,6+,30.15,,,TRUE,,,,,,,,CAVOK,,,,,,,,VFR,,,,,,,,,,,,METAR,87
LFOE 141830Z AUTO 35010KT 310V020 CAVOK 24/16 Q1021 NOSIG,LFOE,2025-08-14T18:30:00Z,49.025,1.222,24,16,350,10,,6+,30.15,,,TRUE,,,TRUE,,,,,CAVOK,,,,,,,,VFR,,,,,,,,,,,,METAR,132
LFOB 141830Z AUTO 33012KT CAVOK 23/16 Q1020 NOSIG,LFOB,2025-08-14T18:30:00Z,49.454,2.113,23,16,330,12,,6+,30.12,,,TRUE,,,TRUE,,,,,CAVOK,,,,,,,,VFR,,,,,,,,,,,,METAR,99
LFOA 141830Z AUTO VRB01KT CAVOK 32/15 Q1018 NOSIG,LFOA,2025-08-14T18:30:00Z,47.052,2.642,32,15,VRB,1,,6+,30.06,,,TRUE,,,TRUE,,,,,CAVOK,,,,,,,,VFR,,,,,,,,,,,,METAR,174
LFMY 141830Z AUTO 07019G31KT 9999 ////// 30/12 Q1016,LFMY,2025-08-14T18:30:00Z,43.604,5.108,30,12,70,19,31,6+,30.00,,,TRUE,,,,,,,,,,,,,,,,VFR,,,,,,,,,,,,METAR,57
LFMV 141830Z AUTO 09018G30KT CAVOK 29/13 Q1015 BECMG VRB03KT,LFMV,2025-08-14T18:30:00Z,43.911,4.903,29,13,90,18,30,6+,29.97,,,TRUE,,,,,,,,CAVOK,,,,,,,,VFR,,,,,,,,,,,,METAR,33
LFMU 141830Z AUTO 20004KT 160V230 CAVOK 31/15 Q1015 TEMPO VRB20G35KT TSRA FEW060CB,LFMU,2025-08-14T18:30:00Z,43.322,3.353,31,15,200,4,,6+,29.97,,,TRUE,,,,,,,,CAVOK,,,,,,,,VFR,,,,,,,,,,,,METAR,14
LFMT 141830Z AUTO 11015G26KT 030V180 CAVOK 29/20 Q1016 TEMPO 3000 TSRA FEW060CB BECMG 21008KT,LFMT,2025-08-14T18:30:00Z,43.577,3.963,29,20,110,15,26,6+,30.00,,,TRUE,,,,,,,,CAVOK,,,,,,,,VFR,,,-0.8,,,,,,,,,METAR,1
LFMP 141830Z AUTO 00000KT CAVOK 34/12 Q1015 TEMPO VRB20G35KT TSRA FEW060CB,LFMP,2025-08-14T18:30:00Z,42.737,2.873,34,12,0,0,,6+,29.97,,,TRUE,,,,,,,,CAVOK,,,,,,,,VFR,,,,,,,,,,,,METAR,41
LFMO 141830Z AUTO 09010KT CAVOK 30/12 Q1016 BECMG 22005KT,LFMO,2025-08-14T18:30:00Z,44.144,4.861,30,12,90,10,,6+,30.00,,,TRUE,,,,,,,,CAVOK,,,,,,,,VFR,,,,,,,,,,,,METAR,56
LFMN 141830Z 35012KT 320V020 CAVOK 30/13 Q1015 NOSIG,LFMN,2025-08-14T18:30:00Z,43.658,7.216,30,13,350,12,,6+,29.97,,,,,,TRUE,,,,,CAVOK,,,,,,,,VFR,,,,,,,,,,,,METAR,4
LFML 141830Z AUTO 07026G37KT 9999 FEW008 30/13 Q1015 TEMPO FEW100CB BECMG VRB03KT,LFML,2025-08-14T18:30:00Z,43.438,5.216,30,13,70,26,37,6+,29.97,,,TRUE,,,,,,,,FEW,800,,,,,,,VFR,,,,,,,,,,,,METAR,20
LFMK 141830Z AUTO 29007KT CAVOK 33/12 Q1016,LFMK,2025-08-14T18:30:00Z,43.214,2.31,33,12,290,7,,6+,30.00,,,TRUE,,,,,,,,CAVOK,,,,,,,,VFR,,,,,,,,,,,,METAR,124
LFMI 141830Z AUTO 10013KT 070V130 CAVOK 31/13 Q1016 TEMPO FEW130CB BECMG 20010KT,LFMI,2025-08-14T18:30:00Z,43.516,4.935,31,13,100,13,,6+,30.00,,,TRUE,,,,,,,,CAVOK,,,,,,,,VFR,,,1,,,,,,,,,METAR,20
LFMH 141830Z AUTO 06007KT CAVOK 31/13 Q1019,LFMH,2025-08-14T18:30:00Z,45.533,4.293,31,13,60,7,,6+,30.09,,,TRUE,,,,,,,,CAVOK,,,,,,,,VFR,,,,,,,,,,,,METAR,400
LFMD 141830Z AUTO 33008KT 280V010 CAVOK 32/10 Q1015 TEMPO 33020G35KT,LFMD,2025-08-14T18:30:00Z,43.544,6.953,32,10,330,8,,6+,29.97,,,TRUE,,,,,,,,CAVOK,,,,,,,,VFR,,,,,,,,,,,,METAR,2
LFMC 141830Z AUTO 33019KT CAVOK 29/12 Q1015,LFMC,2025-08-14T18:30:00Z,43.383,6.386,29,12,330,19,,6+,29.97,,,TRUE,,,,,,,,CAVOK,,,,,,,,VFR,,,,,,,,,,,,METAR,79
LFLY 141830Z AUTO 34007KT CAVOK 32/16 Q1017 TEMPO VRB20G30KT 4000 TSRA BKN090CB,LFLY,2025-08-14T18:30:00Z,45.726,4.938,32,16,340,7,,6+,30.03,,,TRUE,,,,,,,,CAVOK,,,,,,,,VFR,,,,,,,,,,,,METAR,197
LFLX 141830Z AUTO 12004KT CAVOK 32/13 Q1017 NOSIG,LFLX,2025-08-14T18:30:00Z,46.87,1.741,32,13,120,4,,6+,30.03,,,TRUE,,,TRUE,,,,,CAVOK,,,,,,,,VFR,,,,,,,,,,,,METAR,157
LFLW 141830Z AUTO 31004KT 270V340 CAVOK 29/15 Q1020 NOSIG,LFLW,2025-08-14T18:30:00Z,44.899,2.421,29,15,310,4,,6+,30.12,,,TRUE,,,TRUE,,,,,CAVOK,,,,,,,,VFR,,,,,,,,,,,,METAR,638
LFLS 141830Z AUTO 34003KT 310V010 CAVOK 30/17 Q1018 TEMPO VRB15G35KT 3000 TSRA BKN080CB,LFLS,2025-08-14T18:30:00Z,45.363,5.329,30,17,340,3,,6+,30.06,,,TRUE,,,,,,,,CAVOK,,,,,,,,VFR,,,,,,,,,,,,METAR,386
LFLP 141830Z AUTO VRB03KT 9999 -TSRA FEW009/// BKN096/// BKN110/// ///CB 21/17 Q1021,LFLP,2025-08-14T18:30:00Z,45.93,6.106,21,17,VRB,3,,6+,30.15,,,TRUE,,,,,,,-TSRA,FEW,900,BKN,9600,BKN,11000,,,VFR,,,,,,,,,,,,METAR,460
LFLN 141830Z AUTO 32006KT CAVOK 30/16 Q1018 TEMPO FEW080CB BKN130,LFLN,2025-08-14T18:30:00Z,46.412,4.025,30,16,320,6,,6+,30.06,,,TRUE,,,,,,,,CAVOK,,,,,,,,VFR,,,,,,,,,,,,METAR,238
LFLL 141830Z 34007KT CAVOK 31/17 Q1017 NOSIG,LFLL,2025-08-14T18:30:00Z,45.726,5.078,31,17,340,7,,6+,30.03,,,,,,TRUE,,,,,CAVOK,,,,,,,,VFR,,,,,,,,,,,,METAR,234
LFLC 141830Z AUTO 01004KT 340V040 CAVOK 29/15 Q1019 TEMPO FEW080CB,LFLC,2025-08-14T18:30:00Z,45.787,3.169,29,15,10,4,,6+,30.09,,,TRUE,,,,,,,,CAVOK,,,,,,,,VFR,,,,,,,,,,,,METAR,325
LFLB 141830Z AUTO VRB09G21KT 1200 0900 R18/1300N R36/1800D +TSRA BCFG SCT018/// BKN034/// BKN052/// ///CB 19/17 Q1021 TEMPO VRB15G35KT BECMG 9999 NSW,LFLB,2025-08-14T18:30:00Z,45.637,5.883,19,17,VRB,9,21,0.75,30.15,,,TRUE,,,,,,,BCFG +TSRA,SCT,1800,BKN,3400,BKN,5200,,,LIFR,,,,,,,,,,,,METAR,234
LFKS 141830Z AUTO VRB02KT CAVOK 28/20 Q1015,LFKS,2025-08-14T18:30:00Z,41.924,9.406,28,20,VRB,2,,6+,29.97,,,TRUE,,,,,,,,CAVOK,,,,,,,,VFR,,,,,,,,,,,,METAR,22
LFKJ 141830Z AUTO 05004KT CAVOK 27/18 Q1016 TEMPO TSRA SCT060CB,LFKJ,2025-08-14T18:30:00Z,41.924,8.803,27,18,50,4,,6+,30.00,,,TRUE,,,,,,,,CAVOK,,,,,,,,VFR,,,,,,,,,,,,METAR,9
LFKF 141830Z AUTO 20005KT 080V240 CAVOK 27/21 Q1015 TEMPO VRB20G35KT TSRA SCT060CB,LFKF,2025-08-14T18:30:00Z,41.501,9.098,27,21,200,5,,6+,29.97,,,TRUE,,,,,,,,CAVOK,,,,,,,,VFR,,,,,,,,,,,,METAR,15
LFKC 141830Z AUTO VRB02KT 9999 // FEW030 ///// Q1016,LFKC,2025-08-14T18:30:00Z,42.531,8.793,,,VRB,2,,6+,30.00,,,TRUE,,,,,,,,FEW,3000,,,,,,,VFR,,,,,,,,,,,,METAR,38
LFKB 141830Z AUTO 01009KT CAVOK 28/22 Q1015 TEMPO VRB15G35KT 3000 TSRA SCT060CB,LFKB,2025-08-14T18:30:00Z,42.553,9.484,28,22,10,9,,6+,29.97,,,TRUE,,,,,,,,CAVOK,,,,,,,,VFR,,,,,,,,,,,,METAR,7
LFJR 141830Z AUTO 36003KT 9999 3900 NSC 28/17 Q1018,LFJR,2025-08-14T18:30:00Z,47.562,-0.317,28,17,360,3,,6+,30.06,,,TRUE,,,,,,,,CLR,,,,,,,,VFR,,,,,,,,,,,,METAR,50
LFJL 141830Z AUTO 32005KT 280V010 CAVOK 31/16 Q1019 NOSIG,LFJL,2025-08-14T18:30:00Z,48.982,6.251,31,16,320,5,,6+,30.09,,,TRUE,,,TRUE,,,,,CAVOK,,,,,,,,VFR,,,,,,,,,,,,METAR,259
LFHP 141830Z AUTO 36003KT 9999 //////CB 27/13 Q1022,LFHP,2025-08-14T18:30:00Z,45.075,3.764,27,13,360,3,,6+,30.18,,,TRUE,,,,,,,,,,,,,,,,VFR,,,,,,,,,,,,METAR,829
LFGJ 141830Z AUTO 06004KT CAVOK 31/16 Q1017,LFGJ,2025-08-14T18:30:00Z,47.044,5.427,31,16,60,4,,6+,30.03,,,TRUE,,,,,,,,CAVOK,,,,,,,,VFR,,,,,,,,,,,,METAR,191
LFGA 141830Z AUTO 34003KT CAVOK 28/20 Q1018,LFGA,2025-08-14T18:30:00Z,48.11,7.359,28,20,340,3,,6+,30.06,,,TRUE,,,,,,,,CAVOK,,,,,,,,VFR,,,,,,,,,,,,METAR,191
LFCR 141830Z AUTO 30006KT CAVOK 28/16 Q1020 NOSIG,LFCR,2025-08-14T18:30:00Z,44.41,2.483,28,16,300,6,,6+,30.12,,,TRUE,,,TRUE,,,,,CAVOK,,,,,,,,VFR,,,,,,,,,,,,METAR,576
LFCK 141830Z AUTO 30006KT CAVOK 33/14 Q1018 BECMG 12014KT,LFCK,2025-08-14T18:30:00Z,43.556,2.289,33,14,300,6,,6+,30.06,,,TRUE,,,,,,,,CAVOK,,,,,,,,VFR,,,,,,,,,,,,METAR,223
LFBZ 141830Z AUTO 07007KT CAVOK 29/22 Q1015 BECMG 28010KT,LFBZ,2025-08-14T18:30:00Z,43.469,-1.534,29,22,70,7,,6+,29.97,,,TRUE,,,,,,,,CAVOK,,,,,,,,VFR,,,,,,,,,,,,METAR,70
LFBY 141830Z AUTO 12003KT //// // ////// 31/21 Q1015,LFBY,2025-08-14T18:30:00Z,43.69,-1.07,31,21,120,3,,,29.97,,,TRUE,,,,,,,,,,,,,,,,,,,,,,,,,,,,METAR,32
LFBX 141830Z AUTO 22001KT CAVOK 32/16 Q1016,LFBX,2025-08-14T18:30:00Z,45.196,0.815,32,16,220,1,,6+,30.00,,,TRUE,,,,,,,,CAVOK,,,,,,,,VFR,,,,,,,,,,,,METAR,97
LFBU 141830Z AUTO 32004KT CAVOK 33/15 Q1017 BECMG 06010KT,LFBU,2025-08-14T18:30:00Z,45.728,0.22,33,15,320,4,,6+,30.03,,,TRUE,,,,,,,,CAVOK,,,,,,,,VFR,,,,,,,,,,,,METAR,124
LFBT 141830Z AUTO VRB02KT CAVOK 31/15 Q1018 NOSIG,LFBT,2025-08-14T18:30:00Z,43.189,,31,15,VRB,2,,6+,30.06,,,TRUE,,,TRUE,,,,,CAVOK,,,,,,,,VFR,,,,,,,,,,,,METAR,359
LFBP 141830Z AUTO 07003KT CAVOK 31/18 Q1016 NOSIG,LFBP,2025-08-14T18:30:00Z,43.385,-0.416,31,18,70,3,,6+,30.00,,,TRUE,,,TRUE,,,,,CAVOK,,,,,,,,VFR,,,,,,,,,,,,METAR,182
LFBO 141830Z AUTO 35005KT CAVOK 33/15 Q1017 NOSIG,LFBO,2025-08-14T18:30:00Z,43.621,1.379,33,15,350,5,,6+,30.03,,,TRUE,,,TRUE,,,,,CAVOK,,,,,,,,VFR,,,,,,,,,,,,METAR,150
LFBM 141830Z AUTO 12003KT CAVOK 33/17 Q1015 NOSIG,LFBM,2025-08-14T18:30:00Z,43.912,-0.507,33,17,120,3,,6+,29.97,,,TRUE,,,TRUE,,,,,CAVOK,,,,,,,,VFR,,,,,,,,,,,,METAR,56
LFBL 141830Z AUTO 34005KT CAVOK 31/13 Q1019 NOSIG,LFBL,2025-08-14T18:30:00Z,45.863,1.179,31,13,340,5,,6+,30.09,,,TRUE,,,TRUE,,,,,CAVOK,,,,,,,,VFR,,,,,,,,,,,,METAR,402
LFBI 141830Z AUTO 02008KT CAVOK 31/17 Q1017 NOSIG,LFBI,2025-08-14T18:30:00Z,46.584,0.309,31,17,20,8,,6+,30.03,,,TRUE,,,TRUE,,,,,CAVOK,,,,,,,,VFR,,,,,,,,,,,,METAR,117
LFBH 141830Z AUTO 31010KT CAVOK 23/18 Q1017 BECMG 04012KT,LFBH,2025-08-14T18:30:00Z,46.178,-1.193,23,18,310,10,,6+,30.03,,,TRUE,,,,,,,,CAVOK,,,,,,,,VFR,,,,,,,,,,,,METAR,18
LFBG 141830Z AUTO 34004KT 270V010 CAVOK 32/18 Q1016 NOSIG,LFBG,2025-08-14T18:30:00Z,45.665,-0.316,32,18,340,4,,6+,30.00,,,TRUE,,,TRUE,,,,,CAVOK,,,,,,,,VFR,,,,,,,,,,,,METAR,28
LFBF 141830Z AUTO 33004KT CAVOK 33/17 Q1017,LFBF,2025-08-14T18:30:00Z,43.546,1.367,33,17,330,4,,6+,30.03,,,TRUE,,,,,,,,CAVOK,,,,,,,,VFR,,,,,,,,,,,,METAR,159
LFBE 141830Z AUTO VRB01KT CAVOK 33/16 Q1016 NOSIG,LFBE,2025-08-14T18:30:00Z,44.826,0.516,33,16,VRB,1,,6+,30.00,,,TRUE,,,TRUE,,,,,CAVOK,,,,,,,,VFR,,,,,,,,,,,,METAR,49
LFBD 141830Z AUTO 01006KT CAVOK 29/19 Q1016 NOSIG,LFBD,2025-08-14T18:30:00Z,44.831,-0.691,29,19,10,6,,6+,30.00,,,TRUE,,,TRUE,,,,,CAVOK,,,,,,,,VFR,,,,,,,,,,,,METAR,48
LFBC 141830Z AUTO 34005KT 310V010 CAVOK 26/20 Q1016,LFBC,2025-08-14T18:30:00Z,44.533,-1.125,26,20,340,5,,6+,30.00,,,TRUE,,,,,,,,CAVOK,,,,,,,,VFR,,,,,,,,,,,,METAR,22
LFBA 141830Z AUTO 35004KT 9999 ////// 33/15 Q1016,LFBA,2025-08-14T18:30:00Z,44.176,0.593,33,15,350,4,,6+,30.00,,,TRUE,,,,,,,,,,,,,,,,VFR,,,,,,,,,,,,METAR,68
LFAT 141830Z AUTO 29005KT 230V340 CAVOK 20/16 Q1021,LFAT,2025-08-14T18:30:00Z,50.515,1.623,20,16,290,5,,6+,30.15,,,TRUE,,,,,,,,CAVOK,,,,,,,,VFR,,,,,,,,,,,,METAR,2
LFAQ 141830Z AUTO 32011KT CAVOK 22/15 Q1020,LFAQ,2025-08-14T18:30:00Z,49.972,2.704,22,15,320,11,,6+,30.12,,,TRUE,,,,,,,,CAVOK,,,,,,,,VFR,,,,,,,,,,,,METAR,107
LFAC 141830Z AUTO 27012KT CAVOK 21/16 Q1020,LFAC,2025-08-14T18:30:00Z,50.962,1.955,21,16,270,12,,6+,30.12,,,TRUE,,,,,,,,CAVOK,,,,,,,,VFR,,,,,,,,,,,,METAR,3
LEZL 141830Z 23008KT CAVOK 39/10 Q1011 NOSIG,LEZL,2025-08-14T18:30:00Z,37.418,-5.893,39,10,230,8,,6+,29.85,,,,,,TRUE,,,,,CAVOK,,,,,,,,VFR,,,,,,,,,,,,METAR,26
LEZG 141830Z 09005KT CAVOK 34/13 Q1016 NOSIG,LEZG,2025-08-14T18:30:00Z,41.661,-1.004,34,13,90,5,,6+,30.00,,,,,,TRUE,,,,,CAVOK,,,,,,,,VFR,,,,,,,,,,,,METAR,245
LEXJ 141830Z 05003KT 340V140 9000 BKN026 22/20 Q1017,LEXJ,2025-08-14T18:30:00Z,43.429,-3.831,22,20,50,3,,5.59,30.03,,,,,,,,,,,BKN,2600,,,,,,,MVFR,,,,,,,,,,,,METAR,1
LEVX 141830Z 26003KT 220V300 CAVOK 29/19 Q1013 NOSIG,LEVX,2025-08-14T18:30:00Z,42.239,-8.624,29,19,260,3,,6+,29.91,,,,,,TRUE,,,,,CAVOK,,,,,,,,VFR,,,,,,,,,,,,METAR,253
LEVT 141830Z VRB02KT 9999 FEW077 FEW080TCU 33/15 Q1017,LEVT,2025-08-14T18:30:00Z,42.872,-2.733,33,15,VRB,2,,6+,30.03,,,,,,,,,,,FEW,7700,FEW,8000,,,,,VFR,,,,,,,,,,,,METAR,501
LEVS 141830Z 15005KT 120V180 CAVOK 35/09 Q1017,LEVS,2025-08-14T18:30:00Z,40.371,-3.785,35,9,150,5,,6+,30.03,,,,,,,,,,,CAVOK,,,,,,,,VFR,,,,,,,,,,,,METAR,683
LEVD 141830Z 13007KT CAVOK 32/09 Q1018 NOSIG,LEVD,2025-08-14T18:30:00Z,41.706,-4.852,32,9,130,7,,6+,30.06,,,,,,TRUE,,,,,CAVOK,,,,,,,,VFR,,,,,,,,,,,,METAR,844
LEVC 141830Z 13004KT CAVOK 30/18 Q1016 NOSIG,LEVC,2025-08-14T18:30:00Z,39.489,-0.482,30,18,130,4,,6+,30.00,,,,,,TRUE,,,,,CAVOK,,,,,,,,VFR,,,,,,,,,,,,METAR,58
LETU 141830Z AUTO /////KT //// // ///////// ///// Q////,LETU,2025-08-14T18:30:00Z,-99.99,-99.99,,,,,,,0.00,,,TRUE,,,,,,,,,,,,,,,,,,,,,,,,,,,,METAR,9999
LETO 141830Z 17004KT 140V240 CAVOK 36/07 Q1016 NOSIG,LETO,2025-08-14T18:30:00Z,40.489,-3.451,36,7,170,4,,6+,30.00,,,,,,TRUE,,,,,CAVOK,,,,,,,,VFR,,,,,,,,,,,,METAR,598
LETL 141830Z AUTO 12008KT CAVOK 29/13 Q1022,LETL,2025-08-14T18:30:00Z,40.404,-1.218,29,13,120,8,,6+,30.18,,,TRUE,,,,,,,,CAVOK,,,,,,,,VFR,,,,,,,,,,,,METAR,1024
LEST 141830Z 04006KT 360V080 CAVOK 29/21 Q1014 NOSIG,LEST,2025-08-14T18:30:00Z,42.888,-8.411,29,21,40,6,,6+,29.94,,,,,,TRUE,,,,,CAVOK,,,,,,,,VFR,,,,,,,,,,,,METAR,363
LESO 141830Z 34003KT 290V030 CAVOK 24/23 Q1015,LESO,2025-08-14T18:30:00Z,43.361,-1.787,24,23,340,3,,6+,29.97,,,,,,,,,,,CAVOK,,,,,,,,VFR,,,,,,,,,,,,METAR,3
LESB 141830Z AUTO 05009KT CAVOK 32/20 Q1015,LESB,2025-08-14T18:30:00Z,39.599,2.703,32,20,50,9,,6+,29.97,,,TRUE,,,,,,,,CAVOK,,,,,,,,VFR,,,,,,,,,,,,METAR,48
LESA 141830Z 21008KT 9999 FEW048 33/12 Q1017,LESA,2025-08-14T18:30:00Z,40.96,-5.498,33,12,210,8,,6+,30.03,,,,,,,,,,,FEW,4800,,,,,,,VFR,,,,,,,,,,,,METAR,788
LERT 141830Z 14013KT 110V170 CAVOK 33/14 Q1012 NOSIG,LERT,2025-08-14T18:30:00Z,36.645,-6.349,33,14,140,13,,6+,29.88,,,,,,TRUE,,,,,CAVOK,,,,,,,,VFR,,,,,,,,,,,,METAR,27
LERS 141830Z 22005KT 170V240 CAVOK 30/22 Q1016,LERS,2025-08-14T18:30:00Z,41.15,1.179,30,22,220,5,,6+,30.00,,,,,,,,,,,CAVOK,,,,,,,,VFR,,,,,,,,,,,,METAR,68
LEPP 141830Z 19003KT 160V230 CAVOK 34/09 Q1017,LEPP,2025-08-14T18:30:00Z,42.777,-1.65,34,9,190,3,,6+,30.03,,,,,,,,,,,CAVOK,,,,,,,,VFR,,,,,,,,,,,,METAR,448
LEPA 141830Z 09004KT 030V150 CAVOK 33/19 Q1015 NOSIG,LEPA,2025-08-14T18:30:00Z,39.561,2.737,33,19,90,4,,6+,29.97,,,,,,TRUE,,,,,CAVOK,,,,,,,,VFR,,,,,,,,,,,,METAR,8
LEMI 141830Z 10006KT CAVOK 30/14 Q1017,LEMI,2025-08-14T18:30:00Z,37.803,-1.125,30,14,100,6,,6+,30.03,,,,,,,,,,,CAVOK,,,,,,,,VFR,,,,,,,,,,,,METAR,193
LEMH 141830Z 02008KT 360V060 CAVOK 28/21 Q1017,LEMH,2025-08-14T18:30:00Z,39.855,4.216,28,21,20,8,,6+,30.03,,,,,,,,,,,CAVOK,,,,,,,,VFR,,,,,,,,,,,,METAR,82
LEMG 141830Z 10005KT 080V160 CAVOK 28/19 Q1015 NOSIG,LEMG,2025-08-14T18:30:00Z,36.666,-4.482,28,19,100,5,,6+,29.97,,,,,,TRUE,,,,,CAVOK,,,,,,,,VFR,,,,,,,,,,,,METAR,5
LEMD 141830Z 14007KT 110V190 CAVOK 36/09 Q1016 NOSIG,LEMD,2025-08-14T18:30:00Z,40.466,-3.555,36,9,140,7,,6+,30.00,,,,,,TRUE,,,,,CAVOK,,,,,,,,VFR,,,,,,,,,,,,METAR,589
LELO 141830Z AUTO 09004KT 050V140 CAVOK 31/13 Q1016,LELO,2025-08-14T18:30:00Z,42.4523,-2.3309,31,13,90,4,,6+,30.00,,,TRUE,,,,,,,,CAVOK,,,,,,,,VFR,,,,,,,,,,,,METAR,352
LELN 141830Z 13004KT 090V170 CAVOK 32/09 Q1018,LELN,2025-08-14T18:30:00Z,42.588,-5.651,32,9,130,4,,6+,30.06,,,,,,,,,,,CAVOK,,,,,,,,VFR,,,,,,,,,,,,METAR,911
LELL 141830Z 00000KT CAVOK 31/16 Q1016,LELL,2025-08-14T18:30:00Z,41.521,2.105,31,16,0,0,,6+,30.00,,,,,,,,,,,CAVOK,,,,,,,,VFR,,,,,,,,,,,,METAR,136
LELC 141830Z 07004KT 030V120 CAVOK 28/22 Q1016 NOSIG,LELC,2025-08-14T18:30:00Z,37.775,-0.812,28,22,70,4,,6+,30.00,,,,,,TRUE,,,,,CAVOK,,,,,,,,VFR,,,,,,,,,,,,METAR,3
LEJR 141830Z 16006KT 120V200 CAVOK 35/10 Q1012,LEJR,2025-08-14T18:30:00Z,36.751,-6.056,35,10,160,6,,6+,29.88,,,,,,,,,,,CAVOK,,,,,,,,VFR,,,,,,,,,,,,METAR,25
LEIB 141830Z 08004KT 050V110 CAVOK 29/21 Q1016 NOSIG,LEIB,2025-08-14T18:30:00Z,38.876,1.384,29,21,80,4,,6+,30.00,,,,,,TRUE,,,,,CAVOK,,,,,,,,VFR,,,,,,,,,,,,METAR,4
LEHC 141830Z AUTO VRB01KT CAVOK 33/11 Q1019,LEHC,2025-08-14T18:30:00Z,42.082,-0.324,33,11,VRB,1,,6+,30.09,,,TRUE,,,,,,,,CAVOK,,,,,,,,VFR,,,,,,,,,,,,METAR,540
LEGT 141830Z AUTO 14004KT CAVOK 36/09 Q1017,LEGT,2025-08-14T18:30:00Z,40.299,-3.723,36,9,140,4,,6+,30.03,,,TRUE,,,,,,,,CAVOK,,,,,,,,VFR,,,,,,,,,,,,METAR,619
LEGR 141830Z 19009KT 140V230 CAVOK 35/08 Q1016,LEGR,2025-08-14T18:30:00Z,37.19,-3.789,35,8,190,9,,6+,30.00,,,,,,,,,,,CAVOK,,,,,,,,VFR,,,,,,,,,,,,METAR,560
LEGE 141830Z 18004KT CAVOK 28/15 Q1016 NOSIG,LEGE,2025-08-14T18:30:00Z,41.911,2.763,28,15,180,4,,6+,30.00,,,,,,TRUE,,,,,CAVOK,,,,,,,,VFR,,,,,,,,,,,,METAR,140
LEDA 141830Z AUTO 03009KT CAVOK 30/15 Q1017,LEDA,2025-08-14T18:30:00Z,41.734,0.538,30,15,30,9,,6+,30.03,,,TRUE,,,,,,,,CAVOK,,,,,,,,VFR,,,,,,,,,,,,METAR,352
LECO 141830Z 34004KT 300V020 CAVOK 28/19 Q1013 NOSIG,LECO,2025-08-14T18:30:00Z,43.307,-8.372,28,19,340,4,,6+,29.91,,,,,,TRUE,,,,,CAVOK,,,,,,,,VFR,,,,,,,,,,,,METAR,80
LECH 141830Z AUTO 10003KT 060V120 CAVOK 28/19 Q1018,LECH,2025-08-14T18:30:00Z,40.211,0.067,28,19,100,3,,6+,30.06,,,TRUE,,,,,,,,CAVOK,,,,,,,,VFR,,,,,,,,,,,,METAR,360
LEBZ 141830Z 27010KT CAVOK 38/11 Q1011,LEBZ,2025-08-14T18:30:00Z,38.883,-6.814,38,11,270,10,,6+,29.85,,,,,,,,,,,CAVOK,,,,,,,,VFR,,,,,,,,,,,,METAR,183
LEBT 141830Z AUTO 11003KT 070V150 CAVOK 29/20 Q1017,LEBT,2025-08-14T18:30:00Z,39.58,-0.45,29,20,110,3,,6+,30.03,,,TRUE,,,,,,,,CAVOK,,,,,,,,VFR,,,,,,,,,,,,METAR,50
LEBR 141830Z AUTO 12005KT CAVOK 34/14 Q1016,LEBR,2025-08-14T18:30:00Z,42.2,-1.43,34,14,120,5,,6+,30.00,,,TRUE,,,,,,,,CAVOK,,,,,,,,VFR,,,,,,,,,,,,METAR,347
LEBL 141830Z 23011KT 9999 FEW035 29/23 Q1015 NOSIG,LEBL,2025-08-14T18:30:00Z,41.293,2.07,29,23,230,11,,6+,29.97,,,,,,TRUE,,,,,FEW,3500,,,,,,,VFR,,,,,,,,,,,,METAR,2
LEBG 141830Z AUTO 00000KT CAVOK 30/09 Q1020,LEBG,2025-08-14T18:30:00Z,42.356,-3.622,30,9,0,0,,6+,30.12,,,TRUE,,,,,,,,CAVOK,,,,,,,,VFR,,,,,,,,,,,,METAR,892
LEBB 141830Z 28010KT 9999 FEW025 25/22 Q1016 NOSIG,LEBB,2025-08-14T18:30:00Z,43.298,-2.906,25,22,280,10,,6+,30.00,,,,,,TRUE,,,,,FEW,2500,,,,,,,VFR,,,,,,,,,,,,METAR,38
LEBA 141830Z AUTO 18008KT CAVOK 38/07 Q1012,LEBA,2025-08-14T18:30:00Z,37.842,-4.849,38,7,180,8,,6+,29.88,,,TRUE,,,,,,,,CAVOK,,,,,,,,VFR,,,,,,,,,,,,METAR,88
LEAS 141830Z 10005KT 060V150 9999 BKN024 23/20 Q1017 NOSIG,LEAS,2025-08-14T18:30:00Z,43.567,-6.044,23,20,100,5,,6+,30.03,,,,,,TRUE,,,,,BKN,2400,,,,,,,MVFR,,,,,,,,,,,,METAR,120
LEAO 141830Z 08006KT 040V120 CAVOK 36/08 Q1016,LEAO,2025-08-14T18:30:00Z,38.953,-3.741,36,8,80,6,,6+,30.00,,,,,,,,,,,CAVOK,,,,,,,,VFR,,,,,,,,,,,,METAR,621
LEAM 141830Z 08017KT CAVOK 32/14 Q1015,LEAM,2025-08-14T18:30:00Z,36.846,-2.357,32,14,80,17,,6+,29.97,,,,,,,,,,,CAVOK,,,,,,,,VFR,,,,,,,,,,,,METAR,16
LEAL 141830Z 10004KT 060V140 CAVOK 29/22 Q1016 NOSIG,LEAL,2025-08-14T18:30:00Z,38.282,-0.558,29,22,100,4,,6+,30.00,,,,,,TRUE,,,,,CAVOK,,,,,,,,VFR,,,,,,,,,,,,METAR,26
LEAG 141830Z AUTO 07004KT 030V100 CAVOK 26/22 Q1015,LEAG,2025-08-14T18:30:00Z,36.129,-5.441,26,22,70,4,,6+,29.97,,,TRUE,,,,,,,,CAVOK,,,,,,,,VFR,,,,,,,,,,,,METAR,4
LEAB 141830Z 18007KT 150V220 CAVOK 32/09 Q1019 NOSIG,LEAB,2025-08-14T18:30:00Z,38.952,-1.863,32,9,180,7,,6+,30.09,,,,,,TRUE,,,,,CAVOK,,,,,,,,VFR,,,,,,,,,,,,METAR,704
LDZD 141830Z 08006KT CAVOK 31/16 Q1014 NOSIG,LDZD,2025-08-14T18:30:00Z,44.108,15.347,31,16,80,6,,6+,29.94,,,,,,TRUE,,,,,CAVOK,,,,,,,,VFR,,,,,,,,,,,,METAR,82
LDZA 141830Z 07004KT CAVOK 30/13 Q1016 NOSIG,LDZA,2025-08-14T18:30:00Z,45.729,16.054,30,13,70,4,,6+,30.00,,,,,,TRUE,,,,,CAVOK,,,,,,,,VFR,,,,,,,,,,,,METAR,103
LDSP 141830Z VRB04KT 9999 FEW050 30/11 Q1013 NOSIG,LDSP,2025-08-14T18:30:00Z,43.539,16.301,30,11,VRB,4,,6+,29.91,,,,,,TRUE,,,,,FEW,5000,,,,,,,VFR,,,,,,,,,,,,METAR,16
LDRI 141830Z 07009KT 020V110 CAVOK 33/13 Q1015,LDRI,2025-08-14T18:30:00Z,45.218,14.573,33,13,70,9,,6+,29.97,,,,,,,,,,,CAVOK,,,,,,,,VFR,,,,,,,,,,,,METAR,80
LDPL 141830Z 06007KT CAVOK 30/14 Q1014 NOSIG,LDPL,2025-08-14T18:30:00Z,44.894,13.922,30,14,60,7,,6+,29.94,,,,,,TRUE,,,,,CAVOK,,,,,,,,VFR,,,,,,,,,,,,METAR,63
LDOS 141830Z 11003KT CAVOK 26/13 Q1016,LDOS,2025-08-14T18:30:00Z,45.463,18.81,26,13,110,3,,6+,30.00,,,,,,,,,,,CAVOK,,,,,,,,VFR,,,,,,,,,,,,METAR,82
LDDU 141830Z 01010KT 300V080 CAVOK 32/13 Q1013 NOSIG,LDDU,2025-08-14T18:30:00Z,42.56,18.269,32,13,10,10,,6+,29.91,,,,,,TRUE,,,,,CAVOK,,,,,,,,VFR,,,,,,,,,,,,METAR,156
LCPH 141830Z 33006KT CAVOK 31/15 Q1008 NOSIG,LCPH,2025-08-14T18:30:00Z,34.715,32.479,31,15,330,6,,6+,29.76,,,,,,TRUE,,,,,CAVOK,,,,,,,,VFR,,,,,,,,,,,,METAR,8
LCLK 141830Z 31007KT 270V330 CAVOK 34/12 Q1006 NOSIG,LCLK,2025-08-14T18:30:00Z,34.874,33.617,34,12,310,7,,6+,29.70,,,,,,TRUE,,,,,CAVOK,,,,,,,,VFR,,,,,,,,,,,,METAR,2
LBWN 141830Z AUTO 05006KT 9999 NCD 23/16 Q1019 NOSIG,LBWN,2025-08-14T18:30:00Z,43.232,27.825,23,16,50,6,,6+,30.09,,,TRUE,,,TRUE,,,,,CLR,,,,,,,,VFR,,,,,,,,,,,,METAR,74
LBSF 141830Z 09008KT CAVOK 25/10 Q1019 NOSIG,LBSF,2025-08-14T18:30:00Z,42.694,23.414,25,10,90,8,,6+,30.09,,,,,,TRUE,,,,,CAVOK,,,,,,,,VFR,,,,,,,,,,,,METAR,531
LBPD 141830Z AUTO 11011KT 9999 BKN170/// 26/12 Q1018 NOSIG,LBPD,2025-08-14T18:30:00Z,42.064,24.86,26,12,110,11,,6+,30.06,,,TRUE,,,TRUE,,,,,BKN,17000,,,,,,,VFR,,,,,,,,,,,,METAR,182
LBGO 141830Z AUTO 10009KT 9999 NCD 25/11 Q1018,LBGO,2025-08-14T18:30:00Z,43.151,25.713,25,11,100,9,,6+,30.06,,,TRUE,,,,,,,,CLR,,,,,,,,VFR,,,,,,,,,,,,METAR,84
LBBG 141830Z AUTO 04011KT 9999 NSC 24/16 Q1018 NOSIG,LBBG,2025-08-14T18:30:00Z,42.569,27.514,24,16,40,11,,6+,30.06,,,TRUE,,,TRUE,,,,,CLR,,,,,,,,VFR,,,,,,,,,,,,METAR,41
KUKF 141830Z AUTO 34008KT 300V360 10SM SCT036 SCT042 BKN050 29/22 A3006 RMK AO2,KUKF,2025-08-14T18:30:00Z,36.2188,-81.1002,29,22,340,8,,10+,30.06,,,TRUE,TRUE,,,,,,,SCT,3600,SCT,4200,BKN,5000,,,VFR,,,,,,,,,,,,METAR,383
KSPG 141830Z 36005KT 10SM 31/24 A3004 RMK AO2 LTG DSNT N AND NE TSE27 T03110239,KSPG,2025-08-14T18:30:00Z,27.7685,-82.6257,31.1,23.9,360,5,,10+,30.04,,,,TRUE,,,,,,,,,,,,,,,VFR,,,,,,,,,,,,SPECI,1
KRSW 141830Z 23005KT 8SM TS SCT035 BKN060 BKN080 30/24 A3005 RMK AO1 TSB21 P0010 T03000244 $,KRSW,2025-08-14T18:30:00Z,26.538,-81.7567,30,24.4,230,5,,8,30.05,,,,TRUE,TRUE,,,,,TS,SCT,3500,BKN,6000,BKN,8000,,,VFR,,,,,,0.1,,,,,,SPECI,8
KRCZ 141830Z AUTO 13004KT 10SM CLR 27/22 A3000 RMK AO2 T02730219,KRCZ,2025-08-14T18:30:00Z,34.8955,-79.7576,27.3,21.9,130,4,,10+,30.00,,,TRUE,TRUE,,,,,,,CLR,,,,,,,,VFR,,,,,,,,,,,,METAR,110
KQFW 141830Z AUTO 15001KT 0800 FG OVC002 23/25 A2987 RMK A02 TSNO,KQFW,2025-08-14T18:30:00Z,-99.99,-99.99,23,25,150,1,,0.5,29.87,,,TRUE,TRUE,,,TRUE,,,FG,OVC,200,,,,,,,LIFR,,,,,,,,,,,,METAR,9999
KQFT 141830Z AUTO 18001KT 3200 BR OVC005 24/24 A3000 RMK A02 TSNO,KQFT,2025-08-14T18:30:00Z,-99.99,-99.99,24,24,180,1,,1.99,30.00,,,TRUE,TRUE,,,TRUE,,,BR,OVC,500,,,,,,,IFR,,,,,,,,,,,,METAR,9999
KQEY 141830Z AUTO 32002KT 1600 BR FEW004 OVC016 24/24 A2975 RMK A02 TSNO,KQEY,2025-08-14T18:30:00Z,-99.99,-99.99,24,24,320,2,,0.99,29.75,,,TRUE,TRUE,,,TRUE,,,BR,FEW,400,OVC,1600,,,,,LIFR,,,,,,,,,,,,METAR,9999
KQEV 141830Z AUTO 31001KT 9999 BKN050 25/24 A2998 RMK A02 TSNO,KQEV,2025-08-14T18:30:00Z,-99.99,-99.99,25,24,310,1,,6+,29.98,,,TRUE,TRUE,,,TRUE,,,,BKN,5000,,,,,,,VFR,,,,,,,,,,,,METAR,9999
KQER 141830Z AUTO 04001KT 4800 FEW014 BKN027 22/24 A3000 RMK A02 TSNO,KQER,2025-08-14T18:30:00Z,-99.99,-99.99,22,24,40,1,,2.98,30.00,,,TRUE,TRUE,,,TRUE,,,,FEW,1400,BKN,2700,,,,,IFR,,,,,,,,,,,,METAR,9999
KQEN 141830Z AUTO 3200 BR BKN002 20/20 A3012 RMK A02 TSNO,KQEN,2025-08-14T18:30:00Z,-99.99,-99.99,20,20,,,,1.99,30.12,,,TRUE,TRUE,,,TRUE,,,BR,BKN,200,,,,,,,LIFR,,,,,,,,,,,,METAR,9999
KQEJ 141830Z AUTO 08001KT 4800 BR BKN002 BKN014 OVC019 23/23 A3001 RMK A02 TSNO,KQEJ,2025-08-14T18:30:00Z,-99.99,-99.99,23,23,80,1,,2.98,30.01,,,TRUE,TRUE,,,TRUE,,,BR,BKN,200,BKN,1400,OVC,1900,,,LIFR,,,,,,,,,,,,METAR,9999
KPWM 141830Z 18008KT 10SM TS FEW047 28/19 A2988 RMK AO2 LTG DSNT SW-NW TSB24 TS NW MOV NE T02830194 $,KPWM,2025-08-14T18:30:00Z,43.6424,-70.3044,28.3,19.4,180,8,,10+,29.88,,,,TRUE,TRUE,,,,,TS,FEW,4700,,,,,,,VFR,,,,,,,,,,,,SPECI,15
KMRN 141830Z AUTO 10004KT 10SM SCT041 SCT110 32/23 A3004 RMK AO2 T03200234,KMRN,2025-08-14T18:30:00Z,35.8192,-81.6097,32,23.4,100,4,,10+,30.04,,,TRUE,TRUE,,,,,,,SCT,4100,SCT,11000,,,,,VFR,,,,,,,,,,,,METAR,375
KMDT 141830Z 14005KT 10SM FEW012 BKN042 OVC060 26/23 A2995 RMK AO2 LTG DSNT E AND S RAB04E25 TSE09B29E30 CB DSNT S P0039 T02560228,KMDT,2025-08-14T18:30:00Z,40.1962,-76.7725,25.6,22.8,140,5,,10+,29.95,,,,TRUE,,,,,,,FEW,1200,BKN,4200,OVC,6000,,,VFR,,,,,,0.39,,,,,,SPECI,91
KJNX 141830Z AUTO 21003KT 10SM -RA SCT047 SCT060 SCT110 28/28 A2997 RMK AO2 LTG DSNT SE,KJNX,2025-08-14T18:30:00Z,35.5369,-78.3934,28,28,210,3,,10+,29.97,,,TRUE,TRUE,,,,,,-RA,SCT,4700,SCT,6000,SCT,11000,,,VFR,,,,,,,,,,,,METAR,41
KHRJ 141830Z AUTO 20005KT 10SM SCT015 BKN110 28/25 A2999 RMK AO2 T02840248,KHRJ,2025-08-14T18:30:00Z,35.3794,-78.7356,28.4,24.8,200,5,,10+,29.99,,,TRUE,TRUE,,,,,,,SCT,1500,BKN,11000,,,,,VFR,,,,,,,,,,,,METAR,55
KEYF 141830Z AUTO 34004KT 10SM OVC019 29/26 A2998 RMK AO2 LTG DSNT SE THRU W T02870260,KEYF,2025-08-14T18:30:00Z,34.6042,-78.579,28.7,26,340,4,,10+,29.98,,,TRUE,TRUE,,,,,,,OVC,1900,,,,,,,MVFR,,,,,,,,,,,,METAR,39
HRYR 141830Z 04005KT 9999 SCT024 24/12 Q1020 NOSIG,HRYR,2025-08-14T18:30:00Z,-1.969,30.14,24,12,40,5,,6+,30.12,,,,,,TRUE,,,,,SCT,2400,,,,,,,VFR,,,,,,,,,,,,METAR,1493
HECA 141830Z 05012KT CAVOK 33/16 Q1010 NOSIG,HECA,2025-08-14T18:30:00Z,30.133,31.405,33,16,50,12,,6+,29.82,,,,,,TRUE,,,,,CAVOK,,,,,,,,VFR,,,,,,,,,,,,METAR,142
GQNO 141830Z 26013KT 8000 BKN013 29/24 Q1011 NOSIG,GQNO,2025-08-14T18:30:00Z,18.31,-15.97,29,24,260,13,,4.97,29.85,,,,,,TRUE,,,,,BKN,1300,,,,,,,MVFR,,,,,,,,,,,,METAR,1
GOBD 141830Z 02005KT 300V070 9999 FEW010 27/22 Q1012 NOSIG,GOBD,2025-08-14T18:30:00Z,14.671,-17.067,27,22,20,5,,6+,29.88,,,,,,TRUE,,,,,FEW,1000,,,,,,,VFR,,,,,,,,,,,,METAR,90
GMTT 141830Z 08018KT CAVOK 34/09 Q1011 NOSIG,GMTT,2025-08-14T18:30:00Z,35.727,-5.917,34,9,80,18,,6+,29.85,,,,,,TRUE,,,,,CAVOK,,,,,,,,VFR,,,,,,,,,,,,METAR,19
GMMX 141830Z 29011KT 260V320 8000 SCT026 FEW034CB BKN090 36/20 Q1013 TEMPO 30017G27KT,GMMX,2025-08-14T18:30:00Z,31.607,-8.036,36,20,290,11,,4.97,29.91,,,,,,,,,,,SCT,2600,FEW,3400,BKN,9000,,,MVFR,,,,,,,,,,,,METAR,465
GMMN 141830Z 35008KT 330V030 CAVOK 27/21 Q1012 NOSIG,GMMN,2025-08-14T18:30:00Z,33.367,-7.59,27,21,350,8,,6+,29.88,,,,,,TRUE,,,,,CAVOK,,,,,,,,VFR,,,,,,,,,,,,METAR,196
GMME 141830Z 34004KT 310V010 5000 NSC 26/23 Q1010 NOSIG,GMME,2025-08-14T18:30:00Z,34.051,-6.752,26,23,340,4,,3.11,29.82,,,,,,TRUE,,,,,CLR,,,,,,,,MVFR,,,,,,,,,,,,METAR,84
GMFO 141830Z 35010KT CAVOK 31/17 Q1015 NOSIG,GMFO,2025-08-14T18:30:00Z,34.787,-1.924,31,17,350,10,,6+,29.97,,,,,,TRUE,,,,,CAVOK,,,,,,,,VFR,,,,,,,,,,,,METAR,452
GMFF 141830Z 36008KT CAVOK 39/M03 Q1014 NOSIG,GMFF,2025-08-14T18:30:00Z,33.929,-4.976,39,-3,360,8,,6+,29.94,,,,,,TRUE,,,,,CAVOK,,,,,,,,VFR,,,,,,,,,,,,METAR,575
GMAD 141830Z 24009KT 8000 NSC 25/20 Q1011 NOSIG,GMAD,2025-08-14T18:30:00Z,30.325,-9.413,25,20,240,9,,4.97,29.85,,,,,,TRUE,,,,,CLR,,,,,,,,MVFR,,,,,,,,,,,,METAR,66
GLRB 141830Z 21005KT 9999 BKN014 FEW023CB 25/22 Q1014 NOSIG RMK CB-SE,GLRB,2025-08-14T18:30:00Z,6.234,-10.362,25,22,210,5,,6+,29.94,,,,,,TRUE,,,,,BKN,1400,FEW,2300,,,,,MVFR,,,,,,,,,,,,METAR,12
GEML 141830Z 13008KT 080V160 9999 SCT009 BKN012 26/22 Q1014,GEML,2025-08-14T18:30:00Z,35.278,-2.956,26,22,130,8,,6+,29.94,,,,,,,,,,,SCT,900,BKN,1200,,,,,MVFR,,,,,,,,,,,,METAR,48
GECE 141830Z AUTO 10005KT 050V160 CAVOK 27/23 Q1015,GECE,2025-08-14T18:30:00Z,35.893,-5.306,27,23,100,5,,6+,29.97,,,TRUE,,,,,,,,CAVOK,,,,,,,,VFR,,,,,,,,,,,,METAR,2
GCXO 141830Z 30018KT 9999 FEW006 20/17 Q1017 NOSIG,GCXO,2025-08-14T18:30:00Z,28.483,-16.342,20,17,300,18,,6+,30.03,,,,,,TRUE,,,,,FEW,600,,,,,,,VFR,,,,,,,,,,,,METAR,623
GCTS 141830Z 09017KT CAVOK 26/19 Q1014 NOSIG,GCTS,2025-08-14T18:30:00Z,28.047,-16.561,26,19,90,17,,6+,29.94,,,,,,TRUE,,,,,CAVOK,,,,,,,,VFR,,,,,,,,,,,,METAR,59
GCRR 141830Z 36017KT 9999 FEW020 25/19 Q1013,GCRR,2025-08-14T18:30:00Z,28.952,-13.6,25,19,360,17,,6+,29.91,,,,,,,,,,,FEW,2000,,,,,,,VFR,,,,,,,,,,,,METAR,9
GCLP 141830Z 01024KT 9999 FEW020 25/19 Q1012 NOSIG,GCLP,2025-08-14T18:30:00Z,27.923,-15.389,25,19,10,24,,6+,29.88,,,,,,TRUE,,,,,FEW,2000,,,,,,,VFR,,,,,,,,,,,,METAR,16
GCLA 141830Z 02009KT 340V070 9999 SCT025 25/19 Q1015,GCLA,2025-08-14T18:30:00Z,28.633,-17.755,25,19,20,9,,6+,29.97,,,,,,,,,,,SCT,2500,,,,,,,VFR,,,,,,,,,,,,METAR,20
GCHI 141830Z 35020KT 9999 FEW025 24/18 Q1015,GCHI,2025-08-14T18:30:00Z,27.819,-17.889,24,18,350,20,,6+,29.97,,,,,,,,,,,FEW,2500,,,,,,,VFR,,,,,,,,,,,,METAR,21
GCGM 141830Z AUTO 18003KT 100V240 CAVOK 24/20 Q1015 RMK R09/16003KT 100V220 ARP/17003KT 120V210,GCGM,2025-08-14T18:30:00Z,28.032,-17.211,24,20,180,3,,6+,29.97,,,TRUE,,,,,,,,CAVOK,,,,,,,,VFR,,,,,,,,,,,,METAR,217
GCFV 141830Z 01017G27KT 9999 FEW020 26/19 Q1013,GCFV,2025-08-14T18:30:00Z,28.445,-13.863,26,19,10,17,27,6+,29.91,,,,,,,,,,,FEW,2000,,,,,,,VFR,,,,,,,,,,,,METAR,11
GABS 141830Z 23006KT 9999 BKN008 FEW020CB 25/22 Q1014 NOSIG,GABS,2025-08-14T18:30:00Z,12.534,-7.95,25,22,230,6,,6+,29.94,,,,,,TRUE,,,,,BKN,800,FEW,2000,,,,,IFR,,,,,,,,,,,,METAR,375
FMMI 141830Z 08005KT 9999 FEW017 13/13 Q1025 NOSIG,FMMI,2025-08-14T18:30:00Z,-18.797,47.479,13,13,80,5,,6+,30.27,,,,,,TRUE,,,,,FEW,1700,,,,,,,VFR,,,,,,,,,,,,METAR,1269
FMEP 141830Z AUTO 08007KT 040V110 CAVOK 20/11 Q1021,FMEP,2025-08-14T18:30:00Z,-21.32,55.425,20,11,80,7,,6+,30.15,,,TRUE,,,,,,,,CAVOK,,,,,,,,VFR,,,,,,,,,,,,METAR,21
FMEE 141830Z AUTO 11012KT 9999 FEW072 20/11 Q1021 NOSIG,FMEE,2025-08-14T18:30:00Z,-20.887,55.51,20,11,110,12,,6+,30.15,,,TRUE,,,TRUE,,,,,FEW,7200,,,,,,,VFR,,,,,,,,,,,,METAR,20
FMCZ 141830Z AUTO VRB02KT CAVOK 23/20 Q1017 NOSIG,FMCZ,2025-08-14T18:30:00Z,-12.805,45.281,23,20,VRB,2,,6+,30.03,,,TRUE,,,TRUE,,,,,CAVOK,,,,,,,,VFR,,,,,,,,,,,,METAR,7
FAOR 141830Z 31006KT 250V320 CAVOK 15/02 Q1025 NOSIG,FAOR,2025-08-14T18:30:00Z,-26.139,28.246,15,2,310,6,,6+,30.27,,,,,,TRUE,,,,,CAVOK,,,,,,,,VFR,,,,,,,,,,,,METAR,1684
EPZG 141830Z 09005KT CAVOK 28/15 Q1019,EPZG,2025-08-14T18:30:00Z,52.137,15.779,28,15,90,5,,6+,30.09,,,,,,,,,,,CAVOK,,,,,,,,VFR,,,,,,,,,,,,METAR,59
EPWR 141830Z VRB02KT CAVOK 26/16 Q1019,EPWR,2025-08-14T18:30:00Z,51.1032,16.8998,26,16,VRB,2,,6+,30.09,,,,,,,,,,,CAVOK,,,,,,,,VFR,,,,,,,,,,,,METAR,118
EPWA 141830Z 07007KT CAVOK 29/13 Q1021 NOSIG,EPWA,2025-08-14T18:30:00Z,52.163,20.961,29,13,70,7,,6+,30.15,,,,,,TRUE,,,,,CAVOK,,,,,,,,VFR,,,,,,,,,,,,METAR,107
EPSY 141830Z 06004KT CAVOK 22/15 Q1023,EPSY,2025-08-14T18:30:00Z,53.482,20.938,22,15,60,4,,6+,30.21,,,,,,,,,,,CAVOK,,,,,,,,VFR,,,,,,,,,,,,METAR,136
EPSC 141830Z 10002KT CAVOK 24/19 Q1019,EPSC,2025-08-14T18:30:00Z,53.585,14.902,24,19,100,2,,6+,30.09,,,,,,,,,,,CAVOK,,,,,,,,VFR,,,,,,,,,,,,METAR,47
EPRZ 141830Z 07005KT CAVOK 24/18 Q1021,EPRZ,2025-08-14T18:30:00Z,50.112,22.025,24,18,70,5,,6+,30.15,,,,,,,,,,,CAVOK,,,,,,,,VFR,,,,,,,,,,,,METAR,206
EPRA 141830Z 07006KT CAVOK 24/13 Q1021,EPRA,2025-08-14T18:30:00Z,51.39,21.211,24,13,70,6,,6+,30.15,,,,,,,,,,,CAVOK,,,,,,,,VFR,,,,,,,,,,,,METAR,182
EPPO 141830Z 08005KT CAVOK 26/14 Q1020,EPPO,2025-08-14T18:30:00Z,52.417,16.835,26,14,80,5,,6+,30.12,,,,,,,,,,,CAVOK,,,,,,,,VFR,,,,,,,,,,,,METAR,87
EPMO 141830Z 05006KT CAVOK 23/15 Q1022,EPMO,2025-08-14T18:30:00Z,52.452,20.642,23,15,50,6,,6+,30.18,,,,,,,,,,,CAVOK,,,,,,,,VFR,,,,,,,,,,,,METAR,102
EPLL 141830Z 05008KT CAVOK 26/13 Q1021,EPLL,2025-08-14T18:30:00Z,51.724,19.401,26,13,50,8,,6+,30.15,,,,,,,,,,,CAVOK,,,,,,,,VFR,,,,,,,,,,,,METAR,176
EPLB 141830Z 06004KT CAVOK 23/15 Q1022,EPLB,2025-08-14T18:30:00Z,51.239,22.714,23,15,60,4,,6+,30.18,,,,,,,,,,,CAVOK,,,,,,,,VFR,,,,,,,,,,,,METAR,206
EPKT 141830Z VRB03KT CAVOK 23/16 Q1020,EPKT,2025-08-14T18:30:00Z,50.478,19.085,23,16,VRB,3,,6+,30.12,,,,,,,,,,,CAVOK,,,,,,,,VFR,,,,,,,,,,,,METAR,296
EPKK 141830Z 03004KT CAVOK 26/16 Q1020,EPKK,2025-08-14T18:30:00Z,50.078,19.797,26,16,30,4,,6+,30.12,,,,,,,,,,,CAVOK,,,,,,,,VFR,,,,,,,,,,,,METAR,237
EPGD 141830Z 07005KT CAVOK 21/17 Q1022,EPGD,2025-08-14T18:30:00Z,54.379,18.466,21,17,70,5,,6+,30.18,,,,,,,,,,,CAVOK,,,,,,,,VFR,,,,,,,,,,,,METAR,136
EPBY 141830Z 11003KT CAVOK 26/14 Q1021,EPBY,2025-08-14T18:30:00Z,53.0962,17.9949,26,14,110,3,,6+,30.15,,,,,,,,,,,CAVOK,,,,,,,,VFR,,,,,,,,,,,,METAR,66
EIWF 141830Z 25006KT CAVOK 19/16 Q1021,EIWF,2025-08-14T18:30:00Z,52.187,-7.087,19,16,250,6,,6+,30.15,,,,,,,,,,,CAVOK,,,,,,,,VFR,,,,,,,,,,,,METAR,26
EISG 141830Z 29004KT 9999 BKN038 17/15 Q1020,EISG,2025-08-14T18:30:00Z,54.28,-8.599,17,15,290,4,,6+,30.12,,,,,,,,,,,BKN,3800,,,,,,,VFR,,,,,,,,,,,,METAR,1
EINN 141830Z 31006KT 9999 FEW025 BKN200 21/16 Q1021 NOSIG,EINN,2025-08-14T18:30:00Z,52.702,-8.925,21,16,310,6,,6+,30.15,,,,,,TRUE,,,,,FEW,2500,BKN,20000,,,,,VFR,,,,,,,,,,,,METAR,20
EIDW 141830Z 29010KT 9999 FEW018 SCT030 22/16 Q1020 NOSIG,EIDW,2025-08-14T18:30:00Z,53.422,-6.298,22,16,290,10,,6+,30.12,,,,,,TRUE,,,,,FEW,1800,SCT,3000,,,,,VFR,,,,,,,,,,,,METAR,75
EIDL 141830Z 36006KT CAVOK 18/13 Q1021,EIDL,2025-08-14T18:30:00Z,55.044,-8.341,18,13,360,6,,6+,30.15,,,,,,,,,,,CAVOK,,,,,,,,VFR,,,,,,,,,,,,METAR,2
EICK 141830Z 22006KT 9999 FEW024 BKN120 19/16 Q1021 NOSIG,EICK,2025-08-14T18:30:00Z,51.848,-8.479,19,16,220,6,,6+,30.15,,,,,,TRUE,,,,,FEW,2400,BKN,12000,,,,,VFR,,,,,,,,,,,,METAR,158
DTTJ 141830Z 11007KT 9999 FEW020 30/20 Q1014,DTTJ,2025-08-14T18:30:00Z,33.875,10.775,30,20,110,7,,6+,29.94,,,,,,,,,,,FEW,2000,,,,,,,VFR,,,,,,,,,,,,METAR,3
DTTA 141830Z 36004KT 9999 FEW026 27/24 Q1015,DTTA,2025-08-14T18:30:00Z,36.851,10.227,27,24,360,4,,6+,29.97,,,,,,,,,,,FEW,2600,,,,,,,VFR,,,,,,,,,,,,METAR,4
DTNH 141830Z 06007KT 9999 R27///// FEW030 28/24 Q1015,DTNH,2025-08-14T18:30:00Z,36.074,10.436,28,24,60,7,,6+,29.97,,,,,,,,,,,FEW,3000,,,,,,,VFR,,,,,,,,,,,,METAR,1
DTMB 141830Z 09008KT 9999 FEW026 28/24 Q1015,DTMB,2025-08-14T18:30:00Z,35.758,10.755,28,24,90,8,,6+,29.97,,,,,,,,,,,FEW,2600,,,,,,,VFR,,,,,,,,,,,,METAR,1
DIAP 141830Z 22009KT 9999 FEW011 25/21 Q1016 NOSIG,DIAP,2025-08-14T18:30:00Z,5.261,-3.926,25,21,220,9,,6+,30.00,,,,,,TRUE,,,,,FEW,1100,,,,,,,VFR,,,,,,,,,,,,METAR,4
CWPF 141830Z AUTO 15010KT 14/11 RMK AO1 SLP159 T01420109 53007,CWPF,2025-08-14T18:30:00Z,48.432,-123.439,14.2,10.9,150,10,,,0.00,1015.9,,TRUE,TRUE,,,,,,,,,,,,,,,,0.07,,,,,,,,,,,METAR,5
BKPR 141830Z 36007KT CAVOK 27/02 Q1017 NOSIG,BKPR,2025-08-14T18:30:00Z,42.576,21.03,27,2,360,7,,6+,30.03,,,,,,TRUE,,,,,CAVOK,,,,,,,,VFR,,,,,,,,,,,,METAR,545
BIKF 141830Z 27012KT 9999 SCT015 BKN035 BKN230 11/08 Q1017,BIKF,2025-08-14T18:30:00Z,63.987,-22.614,11,8,270,12,,6+,30.03,,,,,,,,,,,SCT,1500,BKN,3500,BKN,23000,,,VFR,,,,,,,,,,,,METAR,49
PFKT 141829Z AUTO 00000KT 10SM BKN015 07/04 A3003 RMK AO2,PFKT,2025-08-14T18:29:00Z,65.33,-166.479,7,4,0,0,,10+,30.03,,,TRUE,TRUE,,,,,,,BKN,1500,,,,,,,MVFR,,,,,,,,,,,,SPECI,8
OEYN 141829Z 02024KT 3000 TS BLDU FEW025CB BKN040 42/15 Q1001 NOSIG,OEYN,2025-08-14T18:29:00Z,24.144,38.063,42,15,20,24,,1.86,29.56,,,,,,TRUE,,,,TS BLDU,FEW,2500,BKN,4000,,,,,IFR,,,,,,,,,,,,SPECI,20
KMMV 141829Z AUTO 00000KT 10SM SCT027 OVC034 21/13 A3005 RMK AO2 T02110133,KMMV,2025-08-14T18:29:00Z,45.1957,-123.134,21.1,13.3,0,0,,10+,30.05,,,TRUE,TRUE,,,,,,,SCT,2700,OVC,3400,,,,,VFR,,,,,,,,,,,,SPECI,48
KILM 141829Z 24015G27KT 3/4SM +TSRA SCT033 BKN070 OVC110 25/22 A3000 RMK AO2 PK WND 25027/1829 RAB1755 TSB03 P0008 T02500217 RVRNO,KILM,2025-08-14T18:29:00Z,34.2668,-77.8999,25,21.7,240,15,27,0.75,30.00,,,,TRUE,,,,,,+TSRA,SCT,3300,BKN,7000,OVC,11000,,,LIFR,,,,,,0.08,,,,,,SPECI,9
KFME 141829Z AUTO 31006KT A2994 RMK AO1,KFME,2025-08-14T18:29:00Z,39.086,-76.757,,,310,6,,,29.94,,,TRUE,TRUE,,,,,,,,,,,,,,,,,,,,,,,,,,,METAR,43
KDCA 141829Z 36008G15KT 10SM SCT040 SCT250 33/21 A2991 RMK AO2 CB DSNT N-SE MOV SE T03330211,KDCA,2025-08-14T18:29:00Z,38.8472,-77.0345,33.3,21.1,360,8,15,10+,29.91,,,,TRUE,,,,,,,SCT,4000,SCT,25000,,,,,VFR,,,,,,,,,,,,SPECI,4
CYSJ 141829Z 17008KT 150V210 3SM BR OVC006 22/20 A2991 RMK SC8 SLP129 DENSITY ALT 1300FT,CYSJ,2025-08-14T18:29:00Z,45.309,-65.886,22,20,170,8,,3,29.91,1012.9,,,,,,,,,BR,OVC,600,,,,,,,IFR,,,,,,,,,,,,SPECI,89
CYPG 141829Z 18009G15KT 15SM -SHRA BKN031 BKN120 25/21 A2966 RMK SC5AC1 CU ASOCTD DENSITY ALT 2942FT LTNG DTCTRS REP STRIKES 15 NM W SLP042,CYPG,2025-08-14T18:29:00Z,49.903,-98.284,25,21,180,9,15,15,29.66,1004.2,,,,,,,,,-SHRA,BKN,3100,BKN,12000,,,,,VFR,,,,,,,,,,,,SPECI,270
PFWS 141828Z AUTO 32005KT 10SM OVC004 13/13 RMK AO2 CIG 004V008 $,PFWS,2025-08-14T18:28:00Z,58.704,-157.005,13,13,320,5,,10+,0.00,,,TRUE,TRUE,TRUE,,,,,,OVC,400,,,,,,,LIFR,,,,,,,,,,,,SPECI,40
PAHC 141828Z AUTO 28007KT 10SM SCT014 SCT021 OVC026 10/07 A2994 RMK AO2,PAHC,2025-08-14T18:28:00Z,62.191,-159.773,10,7,280,7,,10+,29.94,,,TRUE,TRUE,,,,,,,SCT,1400,SCT,2100,OVC,2600,,,MVFR,,,,,,,,,,,,SPECI,21
PADQ 141828Z 29013KT 10SM FEW019 13/11 A2982 RMK AO2 T01330106 $,PADQ,2025-08-14T18:28:00Z,57.7507,-152.488,13.3,10.6,290,13,,10+,29.82,,,,TRUE,TRUE,,,,,,FEW,1900,,,,,,,VFR,,,,,,,,,,,,SPECI,5
KSXS 141828Z AUTO 03005KT 9SM FEW035 33/24 A3000 RMK AO2 SLP156 $,KSXS,2025-08-14T18:28:00Z,31.364,-85.846,33,24,30,5,,9,30.00,1015.6,,TRUE,TRUE,TRUE,,,,,,FEW,3500,,,,,,,VFR,,,,,,,,,,,,SPECI,120
KHBG 141828Z AUTO 26004KT 10SM SCT037 SCT070 33/24 A3001 RMK AO2 LTG DSNT NE AND SW T03330244,KHBG,2025-08-14T18:28:00Z,31.2648,-89.2561,33.3,24.4,260,4,,10+,30.01,,,TRUE,TRUE,,,,,,,SCT,3700,SCT,7000,,,,,VFR,,,,,,,,,,,,SPECI,45
KCRQ 141828Z AUTO 21006KT 10SM OVC015 21/17 A2994 RMK AO2 T02110167,KCRQ,2025-08-14T18:28:00Z,33.1299,-117.277,21.1,16.7,210,6,,10+,29.94,,,TRUE,TRUE,,,,,,,OVC,1500,,,,,,,MVFR,,,,,,,,,,,,SPECI,96
KCEC 141828Z AUTO 19006KT 10SM OVC010 17/14 A3006 RMK AO2 T01670139,KCEC,2025-08-14T18:28:00Z,41.7836,-124.238,16.7,13.9,190,6,,10+,30.06,,,TRUE,TRUE,,,,,,,OVC,1000,,,,,,,MVFR,,,,,,,,,,,,SPECI,17
K4I3 141828Z VRB03KT 10SM SCT085 29/20 A3005 RMK AO2,K4I3,2025-08-14T18:28:00Z,40.3268,-82.5201,29,20,VRB,3,,10+,30.05,,,,TRUE,,,,,,,SCT,8500,,,,,,,VFR,,,,,,,,,,,,METAR,361
CYOY 141828Z 30010KT 270V350 15SM FEW050 FEW250 24/08 A2999 RMK CU1CI1 DENSITY ALT 1848FT LAST OBS /NEXT 181100 UTC SLP154,CYOY,2025-08-14T18:28:00Z,46.9,-71.503,24,8,300,10,,15,29.99,1015.4,,,,,,,,,,FEW,5000,FEW,25000,,,,,VFR,,,,,,,,,,,,SPECI,167
CYHA 141828Z 32012KT 3SM -DZ FEW003 SCT008 OVC010 05/05 A2976 RMK SF1ST3ST4 SLP080,CYHA,2025-08-14T18:28:00Z,61.048,-69.624,5,5,320,12,,3,29.76,1008,,,,,,,,,-DZ,FEW,300,SCT,800,OVC,1000,,,MVFR,,,,,,,,,,,,SPECI,31
RJOS 141827Z 26006KT 9999 FEW008 BKN015 27/23 Q1014 RMK 1ST008 7CU015 A2997,RJOS,2025-08-14T18:27:00Z,34.132,134.609,27,23,260,6,,6+,29.94,,,,,,,,,,,FEW,800,BKN,1500,,,,,MVFR,,,,,,,,,,,,SPECI,3
PATQ 141827Z AUTO 32010KT 10SM BKN016 BKN060 02/00 A2992 RMK AO2 FZRANO TSNO,PATQ,2025-08-14T18:27:00Z,70.469,-157.428,2,0,320,10,,10+,29.92,,,TRUE,TRUE,,,TRUE,TRUE,,,BKN,1600,BKN,6000,,,,,MVFR,,,,,,,,,,,,SPECI,28
KTMB 141827Z AUTO A3006 RMK AO2 LTG DSNT N PWINO $,KTMB,2025-08-14T18:27:00Z,25.6423,-80.4347,,,,,,,30.06,,,TRUE,TRUE,TRUE,,,,TRUE,,,,,,,,,,,,,,,,,,,,,,SPECI,2
KGDK 141827Z 00000KT 7SM SCT065 BKN090 29/21 A3003 RMK AO2,KGDK,2025-08-14T18:27:00Z,39.6935,-83.9896,29,21,0,0,,7,30.03,,,,TRUE,,,,,,,SCT,6500,BKN,9000,,,,,VFR,,,,,,,,,,,,METAR,284
CYZX 141827Z 29011G18KT 12SM -TSRA BKN045CB BKN060 24/19 A2990 RMK CB6SC1 DENSITY ALT 1508FT FRQ LTGCCCG OHD FU SLP125,CYZX,2025-08-14T18:27:00Z,44.985,-64.912,24,19,290,11,18,12,29.90,1012.5,,,,,,,,,-TSRA,BKN,4500,BKN,6000,,,,,VFR,,,,,,,,,,,,SPECI,28
PARY 141826Z AUTO VRB05KT 2SM -RA BR OVC004 08/07 A2980 RMK AO2 VIS 1 1/4V4 P0002 TSNO,PARY,2025-08-14T18:26:00Z,64.731,-155.463,8,7,VRB,5,,2,29.80,,,TRUE,TRUE,,,TRUE,,,-RA BR,OVC,400,,,,,,,LIFR,,,,,,0.02,,,,,,SPECI,185
PAIN 141826Z AUTO 00000KT 10SM -RA FEW011 BKN019 OVC045 09/07 A2981 RMK AO2 RAB12 P0000 TSNO,PAIN,2025-08-14T18:26:00Z,63.733,-148.912,9,7,0,0,,10+,29.81,,,TRUE,TRUE,,,TRUE,,,-RA,FEW,1100,BKN,1900,OVC,4500,,,MVFR,,,,,,0.005,,,,,,SPECI,525
PAFB 141826Z 22003KT 8SM -RA SCT004 BKN006 OVC015 13/12 A2977 RMK AO2A SLP087 $,PAFB,2025-08-14T18:26:00Z,64.836,-147.614,13,12,220,3,,8,29.77,1008.7,,,TRUE,TRUE,,,,,-RA,SCT,400,BKN,600,OVC,1500,,,IFR,,,,,,,,,,,,SPECI,137
KMCF 141826Z AUTO 25009KT 10SM VCTS FEW100 SCT160 SCT180 BKN200 31/24 A3005 RMK AO2 TSE26 SLP178,KMCF,2025-08-14T18:26:00Z,27.8598,-82.5133,31,24,250,9,,10+,30.05,1017.8,,TRUE,TRUE,,,,,,VCTS,FEW,10000,SCT,16000,SCT,18000,BKN,20000,VFR,,,,,,,,,,,,SPECI,3
KEKQ 141826Z AUTO 35010KT 10SM TS FEW039 SCT049 OVC110 29/21 A3006 RMK AO2 LTG DSNT NE AND W TSB06E25B26,KEKQ,2025-08-14T18:26:00Z,36.8576,-84.8562,29,21,350,10,,10+,30.06,,,TRUE,TRUE,,,,,,TS,FEW,3900,SCT,4900,OVC,11000,,,VFR,,,,,,,,,,,,SPECI,291
KCRG 141826Z 32003KT 3SM -TSRA FEW024 BKN047 BKN075 28/25 A3004 RMK AO2 PK WND 28028/1808 LTG DSNT N AND NW RAB08 TSB08 P0033 T02830250,KCRG,2025-08-14T18:26:00Z,30.3371,-81.5128,28.3,25,320,3,,3,30.04,,,,TRUE,,,,,,-TSRA,FEW,2400,BKN,4700,BKN,7500,,,MVFR,,,,,,0.33,,,,,,SPECI,12
CYFB 141826Z 34009KT 30SM -RA FEW012 SCT021 OVC036 05/02 A2979 RMK ST2SC2SC4 SLP091,CYFB,2025-08-14T18:26:00Z,63.75,-68.544,5,2,340,9,,30,29.79,1009.1,,,,,,,,,-RA,FEW,1200,SCT,2100,OVC,3600,,,VFR,,,,,,,,,,,,SPECI,23
PFSH 141825Z AUTO 36018KT 10SM BKN027 08/03 A2998 RMK AO2 TSNO PNO $,PFSH,2025-08-14T18:25:00Z,64.367,-161.217,8,3,360,18,,10+,29.98,,,TRUE,TRUE,TRUE,,TRUE,,,,BKN,2700,,,,,,,MVFR,,,,,,,,,,,,SPECI,6
PFKW 141825Z AUTO 10SM SCT019 BKN024 OVC028 A3003 RMK AO2 FZRANO PNO $,PFKW,2025-08-14T18:25:00Z,60.793,-161.44,,,,,,10+,30.03,,,TRUE,TRUE,TRUE,,,TRUE,,,SCT,1900,BKN,2400,OVC,2800,,,MVFR,,,,,,,,,,,,SPECI,4
PANW 141825Z AUTO 01007G15KT 10SM SCT005 BKN009 OVC013 12/12 A2992 RMK AO2,PANW,2025-08-14T18:25:00Z,59.451,-157.325,12,12,10,7,15,10+,29.92,,,TRUE,TRUE,,,,,,,SCT,500,BKN,900,OVC,1300,,,IFR,,,,,,,,,,,,SPECI,100
KW40 141825Z AUTO 24004KT 10SM SCT021 BKN060 29/25 A2998 RMK AO2 T02910248,KW40,2025-08-14T18:25:00Z,35.2211,-78.0404,29.1,24.8,240,4,,10+,29.98,,,TRUE,TRUE,,,,,,,SCT,2100,BKN,6000,,,,,VFR,,,,,,,,,,,,METAR,50
KW29 141825Z AUTO 02003KT 10SM CLR 30/23 A2992 RMK AO2 LTG DSNT W T02960230,KW29,2025-08-14T18:25:00Z,38.9777,-76.3276,29.6,23,20,3,,10+,29.92,,,TRUE,TRUE,,,,,,,CLR,,,,,,,,VFR,,,,,,,,,,,,METAR,1
KVUJ 141825Z AUTO 00000KT 10SM SCT025 BKN055 OVC095 30/22 A3002 RMK AO2 LTG DSNT E AND SE T03010223,KVUJ,2025-08-14T18:25:00Z,35.4173,-80.1508,30.1,22.3,0,0,,10+,30.02,,,TRUE,TRUE,,,,,,,SCT,2500,BKN,5500,OVC,9500,,,VFR,,,,,,,,,,,,METAR,174
KTTA 141825Z AUTO 19005KT 10SM CLR 29/24 A2998 RMK AO2 T02850240,KTTA,2025-08-14T18:25:00Z,35.5762,-79.1035,28.5,24,190,5,,10+,29.98,,,TRUE,TRUE,,,,,,,CLR,,,,,,,,VFR,,,,,,,,,,,,METAR,71
KTDF 141825Z AUTO 00000KT 10SM OVC120 28/23 A3000 RMK AO2 LTG DSNT S,KTDF,2025-08-14T18:25:00Z,36.284,-78.9884,28,23,0,0,,10+,30.00,,,TRUE,TRUE,,,,,,,OVC,12000,,,,,,,VFR,,,,,,,,,,,,METAR,180
KSVH 141825Z AUTO 00000KT 7SM BKN100 31/22 A3000 RMK AO2 T03050218,KSVH,2025-08-14T18:25:00Z,35.7635,-80.9473,30.5,21.8,0,0,,7,30.00,,,TRUE,TRUE,,,,,,,BKN,10000,,,,,,,VFR,,,,,,,,,,,,METAR,286
KSUT 141825Z AUTO 19006KT 10SM CLR 29/25 A2999 RMK AO2 LTG DSNT NE AND W,KSUT,2025-08-14T18:25:00Z,33.9292,-78.0722,29,25,190,6,,10+,29.99,,,TRUE,TRUE,,,,,,,CLR,,,,,,,,VFR,,,,,,,,,,,,METAR,6
KSIF 141825Z AUTO 00000KT 7SM CLR 30/23 A2999 RMK AO2 T03030232,KSIF,2025-08-14T18:25:00Z,36.4408,-79.8544,30.3,23.2,0,0,,7,29.99,,,TRUE,TRUE,,,,,,,CLR,,,,,,,,VFR,,,,,,,,,,,,METAR,206
KSCR 141825Z AUTO 17003KT 10SM CLR 29/24 A2999 RMK AO2 T02920238,KSCR,2025-08-14T18:25:00Z,35.7058,-79.5051,29.2,23.8,170,3,,10+,29.99,,,TRUE,TRUE,,,,,,,CLR,,,,,,,,VFR,,,,,,,,,,,,METAR,182
KRUQ 141825Z AUTO 32003KT 10SM OVC090 29/22 A2999 RMK AO2 T02870222,KRUQ,2025-08-14T18:25:00Z,35.6441,-80.5236,28.7,22.2,320,3,,10+,29.99,,,TRUE,TRUE,,,,,,,OVC,9000,,,,,,,VFR,,,,,,,,,,,,METAR,231
KPGV 141825Z AUTO 25008G19KT 10SM -RA SCT029 SCT048 BKN120 27/26 A2997 RMK AO2 LTG DSNT SE AND S,KPGV,2025-08-14T18:25:00Z,35.6374,-77.3851,27,26,250,8,19,10+,29.97,,,TRUE,TRUE,,,,,,-RA,SCT,2900,SCT,4800,BKN,12000,,,VFR,,,,,,,,,,,,METAR,6
KONX 141825Z AUTO 00000KT 10SM BKN025 BKN032 32/25 A2994 RMK AO2 T03170250,KONX,2025-08-14T18:25:00Z,36.399,-76.014,31.7,25,0,0,,10+,29.94,,,TRUE,TRUE,,,,,,,BKN,2500,BKN,3200,,,,,MVFR,,,,,,,,,,,,METAR,4
KMWK 141825Z AUTO 12005KT 10SM BKN031 29/23 A3002 RMK AO2 T02890229,KMWK,2025-08-14T18:25:00Z,36.4568,-80.5548,28.9,22.9,120,5,,10+,30.02,,,TRUE,TRUE,,,,,,,BKN,3100,,,,,,,VFR,,,,,,,,,,,,METAR,374
KMRT 141825Z 08005KT 10SM SCT050 SCT090 28/20 A3005 RMK AO2,KMRT,2025-08-14T18:25:00Z,40.2237,-83.3475,28,20,80,5,,10+,30.05,,,,TRUE,,,,,,,SCT,5000,SCT,9000,,,,,VFR,,,,,,,,,,,,METAR,302
KMQI 141825Z AUTO 33006KT 10SM CLR 30/24 A2996 RMK AO2 T03040243,KMQI,2025-08-14T18:25:00Z,35.9188,-75.6989,30.4,24.3,330,6,,10+,29.96,,,TRUE,TRUE,,,,,,,CLR,,,,,,,,VFR,,,,,,,,,,,,METAR,3
KMCZ 141825Z AUTO 26006KT 10SM SCT060 31/26 A2996 RMK AO2 T03090257,KMCZ,2025-08-14T18:25:00Z,35.862,-77.178,30.9,25.7,260,6,,10+,29.96,,,TRUE,TRUE,,,,,,,SCT,6000,,,,,,,VFR,,,,,,,,,,,,METAR,23
KLHZ 141825Z AUTO 22003KT 7SM SCT022 28/23 A2999 RMK AO2,KLHZ,2025-08-14T18:25:00Z,36.0229,-78.3341,28,23,220,3,,7,29.99,,,TRUE,TRUE,,,,,,,SCT,2200,,,,,,,VFR,,,,,,,,,,,,METAR,104
KIXA 141825Z AUTO 24004KT 10SM SCT028 BKN033 BKN042 28/27 A2996 RMK AO2,KIXA,2025-08-14T18:25:00Z,36.331,-77.6333,28,27,240,4,,10+,29.96,,,TRUE,TRUE,,,,,,,SCT,2800,BKN,3300,BKN,4200,,,VFR,,,,,,,,,,,,METAR,43
KIPJ 141825Z AUTO 00000KT 10SM SCT080 BKN100 31/22 A3000 RMK AO2 T03090220,KIPJ,2025-08-14T18:25:00Z,35.4861,-81.1564,30.9,22,0,0,,10+,30.00,,,TRUE,TRUE,,,,,,,SCT,8000,BKN,10000,,,,,VFR,,,,,,,,,,,,METAR,266
KHNZ 141825Z AUTO 21006KT 10SM SCT017 SCT022 27/23 A2998 RMK AO2 T02650225,KHNZ,2025-08-14T18:25:00Z,36.3635,-78.5289,26.5,22.5,210,6,,10+,29.98,,,TRUE,TRUE,,,,,,,SCT,1700,SCT,2200,,,,,VFR,,,,,,,,,,,,METAR,158
KHBI 141825Z AUTO 16003KT 10SM SCT100 28/21 A3001 RMK AO2 T02830209,KHBI,2025-08-14T18:25:00Z,35.6527,-79.8942,28.3,20.9,160,3,,10+,30.01,,,TRUE,TRUE,,,,,,,SCT,10000,,,,,,,VFR,,,,,,,,,,,,METAR,199
KGEV 141825Z AUTO 04005KT 10SM SCT050 26/20 A3012 RMK AO2 LTG DSNT E T02600204,KGEV,2025-08-14T18:25:00Z,36.4312,-81.4206,26,20.4,40,5,,10+,30.12,,,TRUE,TRUE,,,,,,,SCT,5000,,,,,,,VFR,,,,,,,,,,,,METAR,961
KFQD 141825Z AUTO 15004KT 10SM TS SCT035 SCT048 SCT050 30/22 A3001 RMK AO2,KFQD,2025-08-14T18:25:00Z,35.43,-81.936,30,22,150,4,,10+,30.01,,,TRUE,TRUE,,,,,,TS,SCT,3500,SCT,4800,SCT,5000,,,VFR,,,,,,,,,,,,METAR,325
KEXX 141825Z AUTO 00000KT 10SM OVC100 29/23 A2999 RMK AO2 T02900227,KEXX,2025-08-14T18:25:00Z,35.7804,-80.3084,29,22.7,0,0,,10+,29.99,,,TRUE,TRUE,,,,,,,OVC,10000,,,,,,,VFR,,,,,,,,,,,,METAR,221
KETC 141825Z AUTO 22006KT 10SM SCT030 SCT037 BKN043 30/25 A2996 RMK AO2 T02960253,KETC,2025-08-14T18:25:00Z,35.9363,-77.5416,29.6,25.3,220,6,,10+,29.96,,,TRUE,TRUE,,,,,,,SCT,3000,SCT,3700,BKN,4300,,,VFR,,,,,,,,,,,,METAR,15
KEHO 141825Z AUTO 19003KT 10SM BKN031 BKN050 OVC100 30/22 A3000 RMK AO2 T02960218,KEHO,2025-08-14T18:25:00Z,35.2556,-81.5986,29.6,21.8,190,3,,10+,30.00,,,TRUE,TRUE,,,,,,,BKN,3100,BKN,5000,OVC,10000,,,VFR,,,,,,,,,,,,METAR,261
KEDE 141825Z AUTO 29006KT 10SM CLR 32/28 A2995 RMK AO2 T03210277,KEDE,2025-08-14T18:25:00Z,36.0286,-76.5668,32.1,27.7,290,6,,10+,29.95,,,TRUE,TRUE,,,,,,,CLR,,,,,,,,VFR,,,,,,,,,,,,METAR,4
KDPL 141825Z AUTO 26005KT 7SM BKN024 BKN030 BKN060 31/25 A2998 RMK AO2,KDPL,2025-08-14T18:25:00Z,34.9994,-77.9799,31,25,260,5,,7,29.98,,,TRUE,TRUE,,,,,,,BKN,2400,BKN,3000,BKN,6000,,,MVFR,,,,,,,,,,,,METAR,39
KDMW 141825Z AUTO 30003KT 1/2SM +TSRA OVC005 26/24 A2999 RMK AO2 LTG DSNT ALQDS P0093,KDMW,2025-08-14T18:25:00Z,39.61,-77.007,26,24,300,3,,0.5,29.99,,,TRUE,TRUE,,,,,,+TSRA,OVC,500,,,,,,,LIFR,,,,,,,,,,,,METAR,239
KCTZ 141825Z AUTO 00000KT 10SM SCT020 SCT049 SCT065 29/29 A2999 RMK AO2 P0001 T02860286,KCTZ,2025-08-14T18:25:00Z,34.9752,-78.3627,28.6,28.6,0,0,,10+,29.99,,,TRUE,TRUE,,,,,,,SCT,2000,SCT,4900,SCT,6500,,,VFR,,,,,,0.01,,,,,,METAR,43
KCPC 141825Z AUTO 15004KT 4SM HZ SCT013 SCT035 BKN085 29/26 A2998 RMK AO2 T02920260,KCPC,2025-08-14T18:25:00Z,34.2753,-78.7146,29.2,26,150,4,,4,29.98,,,TRUE,TRUE,,,,,,HZ,SCT,1300,SCT,3500,BKN,8500,,,MVFR,,,,,,,,,,,,METAR,27
KCGS 141825Z AUTO 29005KT 4SM HZ SCT038 SCT050 BKN090 32/23 A2993 RMK AO2 T03200227,KCGS,2025-08-14T18:25:00Z,38.9806,-76.9251,32,22.7,290,5,,4,29.93,,,TRUE,TRUE,,,,,,HZ,SCT,3800,SCT,5000,BKN,9000,,,MVFR,,,,,,,,,,,,METAR,15
KCGE 141825Z AUTO 34006KT 10SM CLR 31/22 A2992 RMK A01,KCGE,2025-08-14T18:25:00Z,38.5372,-76.0309,31,22,340,6,,10+,29.92,,,TRUE,TRUE,,,,,,,CLR,,,,,,,,VFR,,,,,,,,,,,,METAR,5
KCBE 141825Z AUTO 33003KT 10SM SCT046 BKN060 BKN065 30/20 A3002 RMK AO2 T03030201,KCBE,2025-08-14T18:25:00Z,39.6182,-78.7598,30.3,20.1,330,3,,10+,30.02,,,TRUE,TRUE,,,,,,,SCT,4600,BKN,6000,BKN,6500,,,VFR,,,,,,,,,,,,METAR,226
KASJ 141825Z AUTO 29003KT 10SM CLR 30/24 A2995 RMK AO2 T03000237,KASJ,2025-08-14T18:25:00Z,36.2941,-77.1724,30,23.7,290,3,,10+,29.95,,,TRUE,TRUE,,,,,,,CLR,,,,,,,,VFR,,,,,,,,,,,,METAR,20
KACZ 141825Z AUTO 27004KT 10SM SCT023 SCT029 SCT110 30/26 A2997 RMK AO2 T03030260,KACZ,2025-08-14T18:25:00Z,34.718,-78.005,30.3,26,270,4,,10+,29.97,,,TRUE,TRUE,,,,,,,SCT,2300,SCT,2900,SCT,11000,,,VFR,,,,,,,,,,,,METAR,30
K7W6 141825Z AUTO 18010G15KT 10SM SCT023 SCT031 SCT037 30/26 A2995 RMK AO2 T03010259,K7W6,2025-08-14T18:25:00Z,35.5594,-75.955,30.1,25.9,180,10,15,10+,29.95,,,TRUE,TRUE,,,,,,,SCT,2300,SCT,3100,SCT,3700,,,VFR,,,,,,,,,,,,METAR,1
K2W6 141825Z AUTO 15006KT 7SM -RA BKN030 BKN037 OVC130 28/24 A2994 RMK AO2 RAB1825 P0000 T02790244,K2W6,2025-08-14T18:25:00Z,38.315,-76.55,27.9,24.4,150,6,,7,29.94,,,TRUE,TRUE,,,,,,-RA,BKN,3000,BKN,3700,OVC,13000,,,MVFR,,,,,,0.005,,,,,,METAR,40
K2G4 141825Z AUTO 34007KT 310V020 10SM FEW027 FEW036 FEW041 25/18 A3011 RMK AO2 TSNO,K2G4,2025-08-14T18:25:00Z,39.5827,-79.3418,25,18,340,7,,10+,30.11,,,TRUE,TRUE,,,TRUE,,,,FEW,2700,FEW,3600,FEW,4100,,,VFR,,,,,,,,,,,,METAR,908
K24A 141825Z AUTO 00000KT A3012 RMK AO2,K24A,2025-08-14T18:25:00Z,35.3156,-83.2071,,,0,0,,,30.12,,,TRUE,TRUE,,,,,,,,,,,,,,,,,,,,,,,,,,,METAR,864
K1A5 141825Z AUTO 33004KT 10SM CLR 30/20 A3009 RMK AO2 T03000204,K1A5,2025-08-14T18:25:00Z,35.2228,-83.415,30,20.4,330,4,,10+,30.09,,,TRUE,TRUE,,,,,,,CLR,,,,,,,,VFR,,,,,,,,,,,,METAR,611
K0W3 141825Z AUTO 34005KT 10SM FEW028 30/27 A2994 RMK AO2 T03050269 $,K0W3,2025-08-14T18:25:00Z,39.566,-76.202,30.5,26.9,340,5,,10+,29.94,,,TRUE,TRUE,TRUE,,,,,,FEW,2800,,,,,,,VFR,,,,,,,,,,,,METAR,125
EHWO 141825Z AUTO 33006KT 280V020 9999 NCD 22/16 Q1019 BLU,EHWO,2025-08-14T18:25:00Z,51.448,4.342,22,16,330,6,,6+,30.09,,,TRUE,,,,,,,,CLR,,,,,,,,VFR,,,,,,,,,,,,METAR,15
EHVL 141825Z AUTO 28008KT 9999 NCD 20/18 Q1019 BLU,EHVL,2025-08-14T18:25:00Z,53.297,5.086,20,18,280,8,,6+,30.09,,,TRUE,,,,,,,,CLR,,,,,,,,VFR,,,,,,,,,,,,METAR,2
EHVK 141825Z AUTO 31005KT 280V360 9999 BKN310 26/18 Q1018 BLU,EHVK,2025-08-14T18:25:00Z,51.658,5.707,26,18,310,5,,6+,30.06,,,TRUE,,,,,,,,BKN,31000,,,,,,,VFR,,,,,,,,,,,,METAR,20
EHSG 141825Z AUTO 21006KT 180V240 //// // NSC 20/17 Q1020 RE//,EHSG,2025-08-14T18:25:00Z,51.7,3.056,20,17,210,6,,,30.12,,,TRUE,,,,,,,,CLR,,,,,,,,,,,,,,,,,,,,METAR,40
EHSC 141825Z AUTO 24008KT 9999 ///////// 20/18 Q1020 W21/H5,EHSC,2025-08-14T18:25:00Z,51.926,3.67,20,18,240,8,,6+,30.12,,,TRUE,,,,,,,,,,,,,,,,VFR,,,,,,,,,,,,METAR,19
EHSA 141825Z AUTO 22011KT 9999 ///////// 20/18 Q1020 W20/H6,EHSA,2025-08-14T18:25:00Z,51.998,3.275,20,18,220,11,,6+,30.12,,,TRUE,,,,,,,,,,,,,,,,VFR,,,,,,,,,,,,METAR,18
EHRD 141825Z AUTO 28006KT 250V330 9999 NCD 21/17 Q1020 NOSIG,EHRD,2025-08-14T18:25:00Z,51.954,4.444,21,17,280,6,,6+,30.12,,,TRUE,,,TRUE,,,,,CLR,,,,,,,,VFR,,,,,,,,,,,,METAR,-4
EHQW 141825Z AUTO 25009KT //// // NSC 20/18 Q1020 RE//,EHQW,2025-08-14T18:25:00Z,52.679,3.805,20,18,250,9,,,30.12,,,TRUE,,,,,,,,CLR,,,,,,,,,,,,,,,,,,,,METAR,40
EHQS 141825Z AUTO 29010KT //// // NCD 20/19 Q1020 RE//,EHQS,2025-08-14T18:25:00Z,52.319,4.043,20,19,290,10,,,30.12,,,TRUE,,,,,,,,CLR,,,,,,,,,,,,,,,,,,,,METAR,40
EHQN 141825Z AUTO 28010KT //// // NCD 20/18 Q1020 RE//,EHQN,2025-08-14T18:25:00Z,52.654,4.262,20,18,280,10,,,30.12,,,TRUE,,,,,,,,CLR,,,,,,,,,,,,,,,,,,,,METAR,40
EHPG 141825Z AUTO 23006KT 9999 NSC 20/18 Q1020,EHPG,2025-08-14T18:25:00Z,52.36,3.342,20,18,230,6,,6+,30.12,,,TRUE,,,,,,,,CLR,,,,,,,,VFR,,,,,,,,,,,,METAR,24
EHMG 141825Z AUTO VRB10KT 9000 NCD 20/18 Q1019,EHMG,2025-08-14T18:25:00Z,53.614,4.96,20,18,VRB,10,,5.59,30.09,,,TRUE,,,,,,,,CLR,,,,,,,,VFR,,,,,,,,,,,,METAR,30
EHMA 141825Z AUTO 27015KT 9999 NCD 22/19 Q1018,EHMA,2025-08-14T18:25:00Z,53.492,5.942,22,19,270,15,,6+,30.06,,,TRUE,,,,,,,,CLR,,,,,,,,VFR,,,,,,,,,,,,METAR,27
EHLW 141825Z AUTO 27011KT 240V300 9999 NCD 21/19 Q1018 BLU,EHLW,2025-08-14T18:25:00Z,53.223,5.752,21,19,270,11,,6+,30.06,,,TRUE,,,,,,,,CLR,,,,,,,,VFR,,,,,,,,,,,,METAR,1
EHLE 141825Z AUTO 30009KT 270V330 9999 FEW012 21/18 Q1019 NOSIG,EHLE,2025-08-14T18:25:00Z,52.456,5.522,21,18,300,9,,6+,30.09,,,TRUE,,,TRUE,,,,,FEW,1200,,,,,,,VFR,,,,,,,,,,,,METAR,-3
EHKV 141825Z AUTO 23011KT 9999 NSC 20/18 Q1019,EHKV,2025-08-14T18:25:00Z,53.269,3.628,20,18,230,11,,6+,30.09,,,TRUE,,,,,,,,CLR,,,,,,,,VFR,,,,,,,,,,,,METAR,28
EHKD 141825Z AUTO 28005KT 250V310 9000 BR NCD 20/18 Q1019 BLU,EHKD,2025-08-14T18:25:00Z,52.927,4.781,20,18,280,5,,5.59,30.09,,,TRUE,,,,,,,BR,CLR,,,,,,,,VFR,,,,,,,,,,,,METAR,1
EHJA 141825Z AUTO 22018KT 9999 NCD 19/17 Q1018 RERA,EHJA,2025-08-14T18:25:00Z,53.824,2.945,19,17,220,18,,6+,30.06,,,TRUE,,,,,,,,CLR,,,,,,,,VFR,,,,,,,,,,,,METAR,34
EHHW 141825Z AUTO 13003KT 070V180 9999 NCD 21/18 Q1018,EHHW,2025-08-14T18:25:00Z,54.037,6.042,21,18,130,3,,6+,30.06,,,TRUE,,,,,,,,CLR,,,,,,,,VFR,,,,,,,,,,,,METAR,10
EHGR 141825Z AUTO 30008KT 260V340 9999 NCD 23/16 Q1019 BLU,EHGR,2025-08-14T18:25:00Z,51.565,4.935,23,16,300,8,,6+,30.09,,,TRUE,,,,,,,,CLR,,,,,,,,VFR,,,,,,,,,,,,METAR,12
EHGG 141825Z AUTO 26010KT 230V300 9999 NSC 26/20 Q1018 NOSIG,EHGG,2025-08-14T18:25:00Z,53.12,6.579,26,20,260,10,,6+,30.06,,,TRUE,,,TRUE,,,,,CLR,,,,,,,,VFR,,,,,,,,,,,,METAR,2
EHFS 141825Z AUTO 29014KT 9999 NCD 21/18 Q1020,EHFS,2025-08-14T18:25:00Z,51.441,3.596,21,18,290,14,,6+,30.12,,,TRUE,,,,,,,,CLR,,,,,,,,VFR,,,,,,,,,,,,METAR,1
EHFD 141825Z AUTO 25010KT 9999 FEW013/// BKN030/// BKN038/// 19/18 Q1018,EHFD,2025-08-14T18:25:00Z,54.854,4.696,19,18,250,10,,6+,30.06,,,TRUE,,,,,,,,FEW,1300,BKN,3000,BKN,3800,,,MVFR,,,,,,,,,,,,METAR,24
EHDV 141825Z AUTO /////KT 9999 NCD 19/17 Q1018,EHDV,2025-08-14T18:25:00Z,54.326,2.936,19,17,,,,6+,30.06,,,TRUE,,,,,,,,CLR,,,,,,,,VFR,,,,,,,,,,,,METAR,36
EHDL 141825Z AUTO 30008KT 230V020 9999 SCT310 25/18 Q1019 BLU,EHDL,2025-08-14T18:25:00Z,52.061,5.887,25,18,300,8,,6+,30.09,,,TRUE,,,,,,,,SCT,31000,,,,,,,VFR,,,,,,,,,,,,METAR,49
EHBK 141825Z AUTO 24003KT 9999 NSC 31/16 Q1018 BECMG 31010KT,EHBK,2025-08-14T18:25:00Z,50.905,5.762,31,16,240,3,,6+,30.06,,,TRUE,,,,,,,,CLR,,,,,,,,VFR,,,,,,,,,,,,METAR,112
EHAM 141825Z 30007KT 9999 FEW014 21/17 Q1020 NOSIG,EHAM,2025-08-14T18:25:00Z,52.315,4.79,21,17,300,7,,6+,30.12,,,,,,TRUE,,,,,FEW,1400,,,,,,,VFR,,,,,,,,,,,,METAR,-2
EHAK 141825Z AUTO 21012KT 9999 NCD 19/18 Q1018,EHAK,2025-08-14T18:25:00Z,55.399,3.81,19,18,210,12,,6+,30.06,,,TRUE,,,,,,,,CLR,,,,,,,,VFR,,,,,,,,,,,,METAR,33
EBLB 141825Z AUTO VRB02KT //// NCD 25/19 Q1021,EBLB,2025-08-14T18:25:00Z,50.482,6.181,25,19,VRB,2,,,30.15,,,TRUE,,,,,,,,CLR,,,,,,,,,,,,,,,,,,,,METAR,563
EBFS 141825Z AUTO 32005KT 9999 BKN160/// 26/19 Q1020 BLU,EBFS,2025-08-14T18:25:00Z,50.243,4.646,26,19,320,5,,6+,30.12,,,TRUE,,,,,,,,BKN,16000,,,,,,,VFR,,,,,,,,,,,,METAR,276
EBFN 141825Z AUTO 28011KT 9999 NCD 21/16 Q1020 BLU,EBFN,2025-08-14T18:25:00Z,51.09,2.653,21,16,280,11,,6+,30.12,,,TRUE,,,,,,,,CLR,,,,,,,,VFR,,,,,,,,,,,,METAR,9
EBDT 141825Z AUTO 35011KT 9999 OVC220/// 26/18 Q1019 BLU,EBDT,2025-08-14T18:25:00Z,51.005,5.067,26,18,350,11,,6+,30.09,,,TRUE,,,,,,,,OVC,22000,,,,,,,VFR,,,,,,,,,,,,METAR,25
EBCV 141825Z AUTO 34009KT 9999 NCD 24/17 Q1019 BLU,EBCV,2025-08-14T18:25:00Z,50.576,3.831,24,17,340,9,,6+,30.09,,,TRUE,,,,,,,,CLR,,,,,,,,VFR,,,,,,,,,,,,METAR,56
EBBL 141825Z AUTO 32007KT 9999 NCD 26/19 Q1019 BLU,EBBL,2025-08-14T18:25:00Z,51.168,5.47,26,19,320,7,,6+,30.09,,,TRUE,,,,,,,,CLR,,,,,,,,VFR,,,,,,,,,,,,METAR,50
EBBE 141825Z AUTO 32008KT 9999 NCD 25/19 Q1019 BLU,EBBE,2025-08-14T18:25:00Z,50.759,4.768,25,19,320,8,,6+,30.09,,,TRUE,,,,,,,,CLR,,,,,,,,VFR,,,,,,,,,,,,METAR,127
CYQD 141825Z AUTO 27010G27KT 9SM BKN019 OVC028 17/13 A2953 RMK SLP005 DENSITY ALT 1800FT,CYQD,2025-08-14T18:25:00Z,53.975,-101.089,17,13,270,10,27,9,29.53,1000.5,,TRUE,,,,,,,,BKN,1900,OVC,2800,,,,,MVFR,,,,,,,,,,,,SPECI,268
KULM 141824Z 18012G18KT 10SM CLR 23/18 A2993 RMK AO2,KULM,2025-08-14T18:24:00Z,44.3228,-94.5024,23,18,180,12,18,10+,29.93,,,,TRUE,,,,,,,CLR,,,,,,,,VFR,,,,,,,,,,,,METAR,305
CYZT 141824Z VRB02KT 6SM RA BR FEW012 SCT022 OVC050 13/13 A2993 RMK SF2SC3SC3 SLP136,CYZT,2025-08-14T18:24:00Z,50.685,-127.369,13,13,VRB,2,,6,29.93,1013.6,,,,,,,,,RA BR,FEW,1200,SCT,2200,OVC,5000,,,VFR,,,,,,,,,,,,SPECI,13
CYQV 141824Z AUTO 30017G28KT 9SM BKN026 OVC031 19/13 A2973 RMK SLP073 DENSITY ALT 2700FT,CYQV,2025-08-14T18:24:00Z,51.26,-102.461,19,13,300,17,28,9,29.73,1007.3,,TRUE,,,,,,,,BKN,2600,OVC,3100,,,,,MVFR,,,,,,,,,,,,SPECI,493
PAPE 141823Z AUTO 06005KT 9SM CLR 16/08 A3004 RMK AO2,PAPE,2025-08-14T18:23:00Z,55.9096,-159.16,16,8,60,5,,9,30.04,,,TRUE,TRUE,,,,,,,CLR,,,,,,,,VFR,,,,,,,,,,,,SPECI,15
KLNS 141823Z 27005KT 3SM TSRA BR SCT042 BKN060 OVC085 23/22 A2997 RMK AO2 LTG DSNT SW AND W RAB1757 TSB19 TS SW MOV SE P0034 T02330222 $,KLNS,2025-08-14T18:23:00Z,40.1206,-76.2944,23.3,22.2,270,5,,3,29.97,,,,TRUE,TRUE,,,,,TSRA BR,SCT,4200,BKN,6000,OVC,8500,,,MVFR,,,,,,0.34,,,,,,SPECI,122
RJNY 141822Z 26002KT 9999 FEW015 SCT080 25/23 Q1015 RMK 1CU015 3AC080 A2999,RJNY,2025-08-14T18:22:00Z,34.814,138.294,25,23,260,2,,6+,29.97,,,,,,,,,,,FEW,1500,SCT,8000,,,,,VFR,,,,,,,,,,,,SPECI,7
PAMD 141822Z AUTO 05005KT 10SM BKN014 OVC080 14/12 A2977 RMK AO2 $,PAMD,2025-08-14T18:22:00Z,59.442,-146.317,14,12,50,5,,10+,29.77,,,TRUE,TRUE,TRUE,,,,,,BKN,1400,OVC,8000,,,,,MVFR,,,,,,,,,,,,SPECI,20
KRHP 141822Z AUTO 00000KT 10SM SCT045 29/21 A3006 RMK AO2 T02910210,KRHP,2025-08-14T18:22:00Z,35.1939,-83.8618,29.1,21,0,0,,10+,30.06,,,TRUE,TRUE,,,,,,,SCT,4500,,,,,,,VFR,,,,,,,,,,,,METAR,515
KLFT 141822Z VRB06KT 10SM -TSRA SCT038 BKN050 OVC110 29/24 A3003 RMK AO2 LTG DSNT E RAB18 TSB16 P0000 T02890244,KLFT,2025-08-14T18:22:00Z,30.1986,-91.9896,28.9,24.4,VRB,6,,10+,30.03,,,,TRUE,,,,,,-TSRA,SCT,3800,BKN,5000,OVC,11000,,,VFR,,,,,,0.005,,,,,,SPECI,9
KBKW 141822Z AUTO 01007KT 10SM BKN023 BKN039 26/19 A3011 RMK AO2 T02610189,KBKW,2025-08-14T18:22:00Z,37.7836,-81.1228,26.1,18.9,10,7,,10+,30.11,,,TRUE,TRUE,,,,,,,BKN,2300,BKN,3900,,,,,MVFR,,,,,,,,,,,,SPECI,762
PAEG 141821Z AUTO 06003KT 5SM HZ FEW090 17/10 A2970 RMK AO2 T01670100 PWINO TSNO $,PAEG,2025-08-14T18:21:00Z,64.7761,-141.164,16.7,10,60,3,,5,29.70,,,TRUE,TRUE,TRUE,,TRUE,,TRUE,HZ,FEW,9000,,,,,,,MVFR,,,,,,,,,,,,SPECI,273
KUNU 141821Z AUTO 15006KT 10SM SCT043 SCT049 SCT055 26/15 A3007 RMK AO2 T02560150 TSNO,KUNU,2025-08-14T18:21:00Z,43.4285,-88.7017,25.6,15,150,6,,10+,30.07,,,TRUE,TRUE,,,TRUE,,,,SCT,4300,SCT,4900,SCT,5500,,,VFR,,,,,,,,,,,,METAR,281
KPMH 141821Z 01007KT 10SM FEW043 SCT055 SCT070 31/21 A3001 RMK AO2,KPMH,2025-08-14T18:21:00Z,38.8387,-82.8493,31,21,10,7,,10+,30.01,,,,TRUE,,,,,,,FEW,4300,SCT,5500,SCT,7000,,,VFR,,,,,,,,,,,,METAR,200
KHWO 141821Z 10008KT 080V150 10SM CLR 33/24 A3006 RMK AO2 LTG DSNT SW T03330244 $,KHWO,2025-08-14T18:21:00Z,25.9996,-80.2412,33.3,24.4,100,8,,10+,30.06,,,,TRUE,TRUE,,,,,,CLR,,,,,,,,VFR,,,,,,,,,,,,SPECI,2
KFNL 141821Z 13007KT 080V170 9SM CLR 37/03 A3001 RMK AO2 $,KFNL,2025-08-14T18:21:00Z,40.4427,-105.01,37,3,130,7,,9,30.01,,,,TRUE,TRUE,,,,,,CLR,,,,,,,,VFR,,,,,,,,,,,,SPECI,1529
KCHO 141821Z AUTO 00000KT 10SM VCTS FEW035 31/21 A2997 RMK AO2 T03060211,KCHO,2025-08-14T18:21:00Z,38.1374,-78.4551,30.6,21.1,0,0,,10+,29.97,,,TRUE,TRUE,,,,,,VCTS,FEW,3500,,,,,,,VFR,,,,,,,,,,,,SPECI,193
PKWA 141820Z AUTO 08012KT 10SM SCT100 26/24 A2982 RMK AO2 T02620238,PKWA,2025-08-14T18:20:00Z,8.72,167.724,26.2,23.8,80,12,,10+,29.82,,,TRUE,TRUE,,,,,,,SCT,10000,,,,,,,VFR,,,,,,,,,,,,METAR,6
PANV 141820Z AUTO 29007KT 10SM BKN018 BKN025 08/06 A2993 RMK AO2 TSNO,PANV,2025-08-14T18:20:00Z,62.647,-160.191,8,6,290,7,,10+,29.93,,,TRUE,TRUE,,,TRUE,,,,BKN,1800,BKN,2500,,,,,MVFR,,,,,,,,,,,,SPECI,91
MMAA 141820Z 23012KT 6SM SCT008 BKN010CB OVC080 28/23 A2996 RMK 8/96/ HZY OCNL DROPS,MMAA,2025-08-14T18:20:00Z,16.758,-99.754,28,23,230,12,,6,29.96,,,,,,,,,,,SCT,800,BKN,1000,OVC,8000,,,MVFR,,,,,,,,,,,,METAR,5
LXGB 141820Z 09009KT 9999 FEW014 27/22 Q1015 NOSIG,LXGB,2025-08-14T18:20:00Z,36.151,-5.35,27,22,90,9,,6+,29.97,,,,,,TRUE,,,,,FEW,1400,,,,,,,VFR,,,,,,,,,,,,METAR,5
LWSK 141820Z 04008KT 360V060 9999 SCT100 31/04 Q1014 NOSIG,LWSK,2025-08-14T18:20:00Z,41.952,21.627,31,4,40,8,,6+,29.94,,,,,,TRUE,,,,,SCT,10000,,,,,,,VFR,,,,,,,,,,,,METAR,232
LWOH 141820Z 32003KT 9999 FEW045 SCT090 25/13 Q1017,LWOH,2025-08-14T18:20:00Z,41.181,20.744,25,13,320,3,,6+,30.03,,,,,,,,,,,FEW,4500,SCT,9000,,,,,VFR,,,,,,,,,,,,METAR,700
LTFM 141820Z 07024KT 9999 SCT028 25/18 Q1016 NOSIG RMK RWY17L 06023KT RWY34L 06019KT RWY16R 06024KT RWY36 06018G28KT RWY18 07020KT,LTFM,2025-08-14T18:20:00Z,41.262,28.74,25,18,70,24,,6+,30.00,,,,,,TRUE,,,,,SCT,2800,,,,,,,VFR,,,,,,,,,,,,METAR,99
LTFJ 141820Z 06016KT CAVOK 24/18 Q1015 NOSIG RMK RWY24R 07012KT RWY06R 05016KT RWY24L 06012KT,LTFJ,2025-08-14T18:20:00Z,40.899,29.309,24,18,60,16,,6+,29.97,,,,,,TRUE,,,,,CAVOK,,,,,,,,VFR,,,,,,,,,,,,METAR,83
LTFE 141820Z 02003KT 340V060 CAVOK 25/19 Q1011 NOSIG RMK RWY10 VRB03KT,LTFE,2025-08-14T18:20:00Z,37.245,27.673,25,19,20,3,,6+,29.85,,,,,,TRUE,,,,,CAVOK,,,,,,,,VFR,,,,,,,,,,,,METAR,6
LTFC 141820Z 30012KT CAVOK 30/15 Q1014 RMK RWY23 29010KT 260V320 SKC,LTFC,2025-08-14T18:20:00Z,37.855,30.368,30,15,300,12,,6+,29.94,,,,,,,,,,,CAVOK,,,,,,,,VFR,,,,,,,,,,,,METAR,862
LTDB 141820Z 16004KT 060V200 CAVOK 27/18 Q1007 NOSIG,LTDB,2025-08-14T18:20:00Z,36.8938,35.07,27,18,160,4,,6+,29.73,,,,,,TRUE,,,,,CAVOK,,,,,,,,VFR,,,,,,,,,,,,METAR,6
LTCS 141820Z 33008KT CAVOK 32/M01 Q1011 RMK RWY22 35007KT SKC,LTCS,2025-08-14T18:20:00Z,37.445,38.904,32,-1,330,8,,6+,29.85,,,,,,,,,,,CAVOK,,,,,,,,VFR,,,,,,,,,,,,METAR,825
LTCJ 141820Z 02004KT CAVOK 27/14 Q1006 NOSIG RMK RWY20 04004KT 340V060 SKC,LTCJ,2025-08-14T18:20:00Z,37.93,41.117,27,14,20,4,,6+,29.70,,,,,,TRUE,,,,,CAVOK,,,,,,,,VFR,,,,,,,,,,,,METAR,559
LTCG 141820Z 10004KT 050V160 9999 SCT035 26/20 Q1017 NOSIG RMK RWY29 16005KT 140V210,LTCG,2025-08-14T18:20:00Z,40.995,39.782,26,20,100,4,,6+,30.03,,,,,,TRUE,,,,,SCT,3500,,,,,,,VFR,,,,,,,,,,,,METAR,28
LTCE 141820Z 22005KT CAVOK 18/M01 Q1022 NOSIG RMK RWY08R 26006KT RWY26R 23006KT RWY08L 28009KT SKC,LTCE,2025-08-14T18:20:00Z,39.956,41.17,18,-1,220,5,,6+,30.18,,,,,,TRUE,,,,,CAVOK,,,,,,,,VFR,,,,,,,,,,,,METAR,1758
LTCC 141820Z 28010KT CAVOK 32/M03 Q1008 NOSIG RMK RWY16 26010KT SKC,LTCC,2025-08-14T18:20:00Z,37.894,40.201,32,-3,280,10,,6+,29.76,,,,,,TRUE,,,,,CAVOK,,,,,,,,VFR,,,,,,,,,,,,METAR,676
LTBU 141820Z 05014KT 9999 FEW030 23/18 Q1016 RMK RWY22 05012KT,LTBU,2025-08-14T18:20:00Z,41.139,27.919,23,18,50,14,,6+,30.00,,,,,,,,,,,FEW,3000,,,,,,,VFR,,,,,,,,,,,,METAR,165
LTBS 141820Z 24006KT CAVOK 30/21 Q1009 NOSIG RMK RWY19 13004KT 110V170 SKC,LTBS,2025-08-14T18:20:00Z,36.713,28.793,30,21,240,6,,6+,29.79,,,,,,TRUE,,,,,CAVOK,,,,,,,,VFR,,,,,,,,,,,,METAR,2
LTBR 141820Z 33004KT 300V030 CAVOK 25/12 Q1014 NOSIG RMK RWY07 33003KT 290V020,LTBR,2025-08-14T18:20:00Z,40.255,29.562,25,12,330,4,,6+,29.94,,,,,,TRUE,,,,,CAVOK,,,,,,,,VFR,,,,,,,,,,,,METAR,233
LTBJ 141820Z 23004KT 190V250 CAVOK 26/19 Q1011 NOSIG RMK RWY16 25003KT 220V350,LTBJ,2025-08-14T18:20:00Z,38.285,27.155,26,19,230,4,,6+,29.85,,,,,,TRUE,,,,,CAVOK,,,,,,,,VFR,,,,,,,,,,,,METAR,123
LTBA 141820Z 06019KT CAVOK 25/17 Q1015 RMK RWY23 06016G26KT,LTBA,2025-08-14T18:20:00Z,40.982,28.821,25,17,60,19,,6+,29.97,,,,,,,,,,,CAVOK,,,,,,,,VFR,,,,,,,,,,,,METAR,33
LTAZ 141820Z 04010KT CAVOK 29/M02 Q1016 RMK RWY29 05007KT,LTAZ,2025-08-14T18:20:00Z,38.771,34.521,29,-2,40,10,,6+,30.00,,,,,,,,,,,CAVOK,,,,,,,,VFR,,,,,,,,,,,,METAR,944
LTAU 141820Z 00000KT CAVOK 25/M02 Q1017 NOSIG RMK RWY07 00000KT,LTAU,2025-08-14T18:20:00Z,38.77,35.495,25,-2,0,0,,6+,30.03,,,,,,TRUE,,,,,CAVOK,,,,,,,,VFR,,,,,,,,,,,,METAR,1053
LTAT 141820Z 31010KT CAVOK 31/M05 Q1013 NOSIG RMK RWY03 30009KT,LTAT,2025-08-14T18:20:00Z,38.435,38.092,31,-5,310,10,,6+,29.91,,,,,,TRUE,,,,,CAVOK,,,,,,,,VFR,,,,,,,,,,,,METAR,850
LTAJ 141820Z 33005KT 300V060 CAVOK 29/M07 Q1011 NOSIG RMK RWY10 29006KT SKC,LTAJ,2025-08-14T18:20:00Z,36.947,37.479,29,-7,330,5,,6+,29.85,,,,,,TRUE,,,,,CAVOK,,,,,,,,VFR,,,,,,,,,,,,METAR,684
LTAI 141820Z 06005KT 020V090 CAVOK 31/25 Q1007 NOSIG RMK RWY18C 35003KT 330V060 RWY36R VRB02KT RWY18L VRB02KT,LTAI,2025-08-14T18:20:00Z,36.9,30.798,31,25,60,5,,6+,29.73,,,,,,TRUE,,,,,CAVOK,,,,,,,,VFR,,,,,,,,,,,,METAR,50
LTAG 141820Z 16004KT CAVOK 31/13 Q1006 NOSIG RMK 2CI200,LTAG,2025-08-14T18:20:00Z,37.002,35.426,31,13,160,4,,6+,29.70,,,,,,TRUE,,,,,CAVOK,,,,,,,,VFR,,,,,,,,,,,,METAR,62
LTAF 141820Z 00000KT CAVOK 30/16 Q1007 NOSIG RMK RWY23 00000KT 2AC100,LTAF,2025-08-14T18:20:00Z,36.989,35.293,30,16,0,0,,6+,29.73,,,,,,TRUE,,,,,CAVOK,,,,,,,,VFR,,,,,,,,,,,,METAR,19
LTAC 141820Z 36006KT CAVOK 27/07 Q1016 NOSIG RMK RWY21C 34006KT RWY03L 35006KT RWY21R 35006KT RWY03R 02005KT 350V050 RWY21L 36004KT 310V060,LTAC,2025-08-14T18:20:00Z,40.128,32.995,27,7,360,6,,6+,30.00,,,,,,TRUE,,,,,CAVOK,,,,,,,,VFR,,,,,,,,,,,,METAR,952
LSZS 141820Z AUTO 03004KT 320V080 9999 VCTS SCT///CB 13/12 Q1028,LSZS,2025-08-14T18:20:00Z,46.526,9.879,13,12,30,4,,6+,30.35,,,TRUE,,,,,,,VCTS,,,,,,,,,VFR,,,,,,,,,,,,METAR,1708
LSZR 141820Z AUTO VRB02KT CAVOK 25/20 Q1018,LSZR,2025-08-14T18:20:00Z,47.485,9.561,25,20,VRB,2,,6+,30.06,,,TRUE,,,,,,,,CAVOK,,,,,,,,VFR,,,,,,,,,,,,METAR,396
LSZL 141820Z AUTO 11010KT 080V140 9999NDV NCD 29/20 Q1017 RMK,LSZL,2025-08-14T18:20:00Z,46.164,8.878,29,20,110,10,,,30.03,,,TRUE,,,,,,,,CLR,,,,,,,,,,,,,,,,,,,,METAR,198
LSZH 141820Z VRB03KT CAVOK 28/17 Q1019 NOSIG,LSZH,2025-08-14T18:20:00Z,47.48,8.536,28,17,VRB,3,,6+,30.09,,,,,,TRUE,,,,,CAVOK,,,,,,,,VFR,,,,,,,,,,,,METAR,424
LSZG 141820Z AUTO 10003KT 060V120 CAVOK 27/16 Q1019,LSZG,2025-08-14T18:20:00Z,47.179,7.415,27,16,100,3,,6+,30.09,,,TRUE,,,,,,,,CAVOK,,,,,,,,VFR,,,,,,,,,,,,METAR,428
LSZC 141820Z AUTO 28005KT 240V310 CAVOK 26/19 Q1020,LSZC,2025-08-14T18:20:00Z,46.972,8.392,26,19,280,5,,6+,30.12,,,TRUE,,,,,,,,CAVOK,,,,,,,,VFR,,,,,,,,,,,,METAR,445
LSZB 141820Z AUTO VRB02KT 9999 //////TCU 27/17 Q1019,LSZB,2025-08-14T18:20:00Z,46.914,7.497,27,17,VRB,2,,6+,30.09,,,TRUE,,,,,,,,,,,,,,,,VFR,,,,,,,,,,,,METAR,510
LSZA 141820Z AUTO 35003KT 310V020 9999 SCT///CB 27/23 Q1017,LSZA,2025-08-14T18:20:00Z,46.004,8.91,27,23,350,3,,6+,30.03,,,TRUE,,,,,,,,,,,,,,,,VFR,,,,,,,,,,,,METAR,276
LSMP 141820Z AUTO 03005KT 360V060 9999NDV NCD 30/16 Q1019 RMK,LSMP,2025-08-14T18:20:00Z,46.844,6.916,30,16,30,5,,,30.09,,,TRUE,,,,,,,,CLR,,,,,,,,,,,,,,,,,,,,METAR,490
LSMM 141820Z AUTO 15005KT 110V210 9999NDV NCD 27/18 Q1020 RMK,LSMM,2025-08-14T18:20:00Z,46.743,8.11,27,18,150,5,,,30.12,,,TRUE,,,,,,,,CLR,,,,,,,,,,,,,,,,,,,,METAR,570
LSME 141820Z AUTO 00000KT 9999NDV NCD 28/19 Q1019 RMK,LSME,2025-08-14T18:20:00Z,47.092,8.305,28,19,0,0,,,30.09,,,TRUE,,,,,,,,CLR,,,,,,,,,,,,,,,,,,,,METAR,427
LSMD 141820Z AUTO 06001KT 9999NDV NCD 28/17 Q1019 RMK,LSMD,2025-08-14T18:20:00Z,47.399,8.648,28,17,60,1,,,30.09,,,TRUE,,,,,,,,CLR,,,,,,,,,,,,,,,,,,,,METAR,436
LSMA 141820Z AUTO 21003KT 9999NDV -SHRA NCD 27/20 Q1019 RMK,LSMA,2025-08-14T18:20:00Z,46.943,8.286,27,20,210,3,,,30.09,,,TRUE,,,,,,,-SHRA,CLR,,,,,,,,,,,,,,,,,,,,METAR,441
LSGS 141820Z AUTO 25006KT 210V280 9999 FEW150 BKN160 SCT///CB 24/15 Q1021 RETS,LSGS,2025-08-14T18:20:00Z,46.219,7.33,24,15,250,6,,6+,30.15,,,TRUE,,,,,,,,FEW,15000,BKN,16000,,,,,VFR,,,,,,,,,,,,METAR,482
LSGG 141820Z AUTO 13005KT 9999 FEW080 FEW///CB 30/17 Q1019 NOSIG,LSGG,2025-08-14T18:20:00Z,46.248,6.128,30,17,130,5,,6+,30.09,,,TRUE,,,TRUE,,,,,FEW,8000,,,,,,,VFR,,,,,,,,,,,,METAR,411
LSGC 141820Z AUTO VRB02KT CAVOK 22/15 Q1024,LSGC,2025-08-14T18:20:00Z,47.083,6.792,22,15,VRB,2,,6+,30.24,,,TRUE,,,,,,,,CAVOK,,,,,,,,VFR,,,,,,,,,,,,METAR,1018
LOWW 141820Z 02003KT CAVOK 26/14 Q1018 NOSIG,LOWW,2025-08-14T18:20:00Z,48.117,16.582,26,14,20,3,,6+,30.06,,,,,,TRUE,,,,,CAVOK,,,,,,,,VFR,,,,,,,,,,,,METAR,179
LOWS 141820Z AUTO VRB02KT 9999 NCD 27/19 Q1019 NOSIG,LOWS,2025-08-14T18:20:00Z,47.789,13.009,27,19,VRB,2,,6+,30.09,,,TRUE,,,TRUE,,,,,CLR,,,,,,,,VFR,,,,,,,,,,,,METAR,427
LOWL 141820Z AUTO 12002KT 9999 NCD 28/19 Q1018 NOSIG,LOWL,2025-08-14T18:20:00Z,48.233,14.188,28,19,120,2,,6+,30.06,,,TRUE,,,TRUE,,,,,CLR,,,,,,,,VFR,,,,,,,,,,,,METAR,290
LOWK 141820Z AUTO 07005KT 9999 NCD 29/11 Q1019 NOSIG,LOWK,2025-08-14T18:20:00Z,46.648,14.318,29,11,70,5,,6+,30.09,,,TRUE,,,TRUE,,,,,CLR,,,,,,,,VFR,,,,,,,,,,,,METAR,450
LOWI 141820Z AUTO VRB02KT 9999 FEW080 26/16 Q1020 NOSIG,LOWI,2025-08-14T18:20:00Z,47.26,11.344,26,16,VRB,2,,6+,30.12,,,TRUE,,,TRUE,,,,,FEW,8000,,,,,,,VFR,,,,,,,,,,,,METAR,570
LOWG 141820Z AUTO 36002KT 9999 NCD 28/13 Q1019 NOSIG,LOWG,2025-08-14T18:20:00Z,46.997,15.447,28,13,360,2,,6+,30.09,,,TRUE,,,TRUE,,,,,CLR,,,,,,,,VFR,,,,,,,,,,,,METAR,337
LLBG 141820Z VRB02KT CAVOK 31/24 Q1009 NOSIG,LLBG,2025-08-14T18:20:00Z,32.011,34.887,31,24,VRB,2,,6+,29.79,,,,,,TRUE,,,,,CAVOK,,,,,,,,VFR,,,,,,,,,,,,METAR,35
LIRZ 141820Z AUTO 24007KT 200V280 9999 VCTS FEW120/// 26/14 Q1017,LIRZ,2025-08-14T18:20:00Z,43.097,12.51,26,14,240,7,,6+,30.03,,,TRUE,,,,,,,VCTS,FEW,12000,,,,,,,VFR,,,,,,,,,,,,METAR,206
LIRQ 141820Z 18005KT 9999 FEW080 29/13 Q1016,LIRQ,2025-08-14T18:20:00Z,43.81,11.205,29,13,180,5,,6+,30.00,,,,,,,,,,,FEW,8000,,,,,,,VFR,,,,,,,,,,,,METAR,33
LIRN 141820Z VRB02KT 9999 TS SCT070CB 24/18 Q1015 RERA NOSIG,LIRN,2025-08-14T18:20:00Z,40.885,14.292,24,18,VRB,2,,6+,29.97,,,,,,TRUE,,,,TS,SCT,7000,,,,,,,VFR,,,,,,,,,,,,METAR,76
LIRF 141820Z 29008KT CAVOK 28/19 Q1014 NOSIG,LIRF,2025-08-14T18:20:00Z,41.8,12.239,28,19,290,8,,6+,29.94,,,,,,TRUE,,,,,CAVOK,,,,,,,,VFR,,,,,,,,,,,,METAR,2
LIRA 141820Z 27006KT CAVOK 30/13 Q1015,LIRA,2025-08-14T18:20:00Z,41.808,12.585,30,13,270,6,,6+,29.97,,,,,,,,,,,CAVOK,,,,,,,,VFR,,,,,,,,,,,,METAR,101
LIPZ 141820Z 27003KT 250V310 CAVOK 30/23 Q1014 NOSIG,LIPZ,2025-08-14T18:20:00Z,45.505,12.352,30,23,270,3,,6+,29.94,,,,,,TRUE,,,,,CAVOK,,,,,,,,VFR,,,,,,,,,,,,METAR,3
LIPY 141820Z AUTO 22003KT 9999 NCD 27/18 Q1014,LIPY,2025-08-14T18:20:00Z,43.617,13.36,27,18,220,3,,6+,29.94,,,TRUE,,,,,,,,CLR,,,,,,,,VFR,,,,,,,,,,,,METAR,11
LIPX 141820Z 17002KT CAVOK 31/17 Q1015,LIPX,2025-08-14T18:20:00Z,45.387,10.872,31,17,170,2,,6+,29.97,,,,,,,,,,,CAVOK,,,,,,,,VFR,,,,,,,,,,,,METAR,67
LIPR 141820Z VRB01KT CAVOK 27/22 Q1014,LIPR,2025-08-14T18:20:00Z,44.02,12.612,27,22,VRB,1,,6+,29.94,,,,,,,,,,,CAVOK,,,,,,,,VFR,,,,,,,,,,,,METAR,10
LIPQ 141820Z AUTO 10009KT 9999 NCD 33/14 Q1014,LIPQ,2025-08-14T18:20:00Z,45.828,13.472,33,14,100,9,,6+,29.94,,,TRUE,,,,,,,,CLR,,,,,,,,VFR,,,,,,,,,,,,METAR,6
LIPO 141820Z AUTO 10004KT 9999 NCD 30/18 Q1015,LIPO,2025-08-14T18:20:00Z,45.429,10.331,30,18,100,4,,6+,29.97,,,TRUE,,,,,,,,CLR,,,,,,,,VFR,,,,,,,,,,,,METAR,104
LIPH 141820Z VRB01KT CAVOK 30/19 Q1014,LIPH,2025-08-14T18:20:00Z,45.648,12.194,30,19,VRB,1,,6+,29.94,,,,,,,,,,,CAVOK,,,,,,,,VFR,,,,,,,,,,,,METAR,10
LIPE 141820Z 08004KT CAVOK 32/17 Q1014,LIPE,2025-08-14T18:20:00Z,44.531,11.297,32,17,80,4,,6+,29.94,,,,,,,,,,,CAVOK,,,,,,,,VFR,,,,,,,,,,,,METAR,37
LIMZ 141820Z AUTO 24011KT 9999 -RA VCTS FEW024/// SCT099/// BKN130/// 27/14 Q1018,LIMZ,2025-08-14T18:20:00Z,44.547,7.623,27,14,240,11,,6+,30.06,,,TRUE,,,,,,,-RA VCTS,FEW,2400,SCT,9900,BKN,13000,,,VFR,,,,,,,,,,,,METAR,377
LIMW 141820Z 28008KT 250V330 CAVOK 26/12 Q1022,LIMW,2025-08-14T18:20:00Z,45.7385,7.3676,26,12,280,8,,6+,30.18,,,,,,,,,,,CAVOK,,,,,,,,VFR,,,,,,,,,,,,METAR,554
LIML 141820Z VRB01KT 9999 FEW070 29/20 Q1015 NOSIG,LIML,2025-08-14T18:20:00Z,45.461,9.263,29,20,VRB,1,,6+,29.97,,,,,,TRUE,,,,,FEW,7000,,,,,,,VFR,,,,,,,,,,,,METAR,109
LIMJ 141820Z 04006KT CAVOK 27/23 Q1014,LIMJ,2025-08-14T18:20:00Z,44.413,8.838,27,23,40,6,,6+,29.94,,,,,,,,,,,CAVOK,,,,,,,,VFR,,,,,,,,,,,,METAR,3
LIMF 141820Z 12002KT 9999 SCT130 30/18 Q1017,LIMF,2025-08-14T18:20:00Z,45.203,7.649,30,18,120,2,,6+,30.03,,,,,,,,,,,SCT,13000,,,,,,,VFR,,,,,,,,,,,,METAR,295
LIME 141820Z 21005KT 180V240 9999 FEW100 32/18 Q1016 NOSIG,LIME,2025-08-14T18:20:00Z,45.674,9.704,32,18,210,5,,6+,30.00,,,,,,TRUE,,,,,FEW,10000,,,,,,,VFR,,,,,,,,,,,,METAR,239
LIMC 141820Z 23004KT 190V280 CAVOK 32/19 Q1016 NOSIG,LIMC,2025-08-14T18:20:00Z,45.631,8.728,32,19,230,4,,6+,30.00,,,,,,TRUE,,,,,CAVOK,,,,,,,,VFR,,,,,,,,,,,,METAR,221
LIEO 141820Z 23005KT CAVOK 30/15 Q1014,LIEO,2025-08-14T18:20:00Z,40.899,9.518,30,15,230,5,,6+,29.94,,,,,,,,,,,CAVOK,,,,,,,,VFR,,,,,,,,,,,,METAR,8
LIEE 141820Z VRB01KT CAVOK 29/18 Q1014,LIEE,2025-08-14T18:20:00Z,39.243,9.06,29,18,VRB,1,,6+,29.94,,,,,,,,,,,CAVOK,,,,,,,,VFR,,,,,,,,,,,,METAR,1
LIEA 141820Z 30006KT 260V320 CAVOK 28/23 Q1015,LIEA,2025-08-14T18:20:00Z,40.631,8.289,28,23,300,6,,6+,29.97,,,,,,,,,,,CAVOK,,,,,,,,VFR,,,,,,,,,,,,METAR,22
LICR 141820Z AUTO VRB02KT 9999 NCD 29/20 Q1014,LICR,2025-08-14T18:20:00Z,38.072,15.654,29,20,VRB,2,,6+,29.94,,,TRUE,,,,,,,,CLR,,,,,,,,VFR,,,,,,,,,,,,METAR,16
LICJ 141820Z 04008KT 9999 FEW018 28/25 Q1014,LICJ,2025-08-14T18:20:00Z,38.176,13.091,28,25,40,8,,6+,29.94,,,,,,,,,,,FEW,1800,,,,,,,VFR,,,,,,,,,,,,METAR,20
LICG 141820Z AUTO 36005KT 9999 BKN004/// 25/24 Q1015,LICG,2025-08-14T18:20:00Z,36.814,11.971,25,24,360,5,,6+,29.97,,,TRUE,,,,,,,,BKN,400,,,,,,,LIFR,,,,,,,,,,,,METAR,192
LICD 141820Z AUTO 36006KT 9999 FEW010/// 27/24 Q1014,LICD,2025-08-14T18:20:00Z,35.498,12.618,27,24,360,6,,6+,29.94,,,TRUE,,,,,,,,FEW,1000,,,,,,,VFR,,,,,,,,,,,,METAR,20
LICC 141820Z 06006KT CAVOK 28/25 Q1014,LICC,2025-08-14T18:20:00Z,37.467,15.064,28,25,60,6,,6+,29.94,,,,,,,,,,,CAVOK,,,,,,,,VFR,,,,,,,,,,,,METAR,6
LICB 141820Z AUTO 25005KT 9999 NCD 27/20 Q1015,LICB,2025-08-14T18:20:00Z,36.994,14.606,27,20,250,5,,6+,29.97,,,TRUE,,,,,,,,CLR,,,,,,,,VFR,,,,,,,,,,,,METAR,212
LICA 141820Z AUTO 23004KT 9999 NCD 28/25 Q1014,LICA,2025-08-14T18:20:00Z,38.908,16.242,28,25,230,4,,6+,29.94,,,TRUE,,,,,,,,CLR,,,,,,,,VFR,,,,,,,,,,,,METAR,7
LIBR 141820Z 33007KT CAVOK 27/22 Q1014,LIBR,2025-08-14T18:20:00Z,40.658,17.951,27,22,330,7,,6+,29.94,,,,,,,,,,,CAVOK,,,,,,,,VFR,,,,,,,,,,,,METAR,5
LIBP 141820Z AUTO VRB01KT 9999 SCT130/// OVC160/// 27/18 Q1015,LIBP,2025-08-14T18:20:00Z,42.432,14.181,27,18,VRB,1,,6+,29.97,,,TRUE,,,,,,,,SCT,13000,OVC,16000,,,,,VFR,,,,,,,,,,,,METAR,10
LIBD 141820Z 04004KT CAVOK 27/18 Q1014,LIBD,2025-08-14T18:20:00Z,41.138,16.765,27,18,40,4,,6+,29.94,,,,,,,,,,,CAVOK,,,,,,,,VFR,,,,,,,,,,,,METAR,42
LGZA 141820Z 00000KT 9999 FEW020 27/17 Q1013,LGZA,2025-08-14T18:20:00Z,37.751,20.884,27,17,0,0,,6+,29.91,,,,,,,,,,,FEW,2000,,,,,,,VFR,,,,,,,,,,,,METAR,3
LGTS 141820Z VRB03KT 9999 FEW030 28/14 Q1014 NOSIG,LGTS,2025-08-14T18:20:00Z,40.52,22.971,28,14,VRB,3,,6+,29.94,,,,,,TRUE,,,,,FEW,3000,,,,,,,VFR,,,,,,,,,,,,METAR,4
LGSR 141820Z VRB04KT 9999 FEW020 25/22 Q1013,LGSR,2025-08-14T18:20:00Z,36.399,25.479,25,22,VRB,4,,6+,29.91,,,,,,,,,,,FEW,2000,,,,,,,VFR,,,,,,,,,,,,METAR,31
LGSO 141820Z AUTO VRB01KT //// // ////// 25/20 Q1013 RE//,LGSO,2025-08-14T18:20:00Z,37.422,24.95,25,20,VRB,1,,,29.91,,,TRUE,,,,,,,,,,,,,,,,,,,,,,,,,,,,METAR,71
LGSM 141820Z 00000KT 9999 FEW025 26/21 Q1011,LGSM,2025-08-14T18:20:00Z,37.69,26.912,26,21,0,0,,6+,29.85,,,,,,,,,,,FEW,2500,,,,,,,VFR,,,,,,,,,,,,METAR,5
LGSK 141820Z VRB01KT 9999 FEW035 27/17 Q1013,LGSK,2025-08-14T18:20:00Z,39.177,23.504,27,17,VRB,1,,6+,29.91,,,,,,,,,,,FEW,3500,,,,,,,VFR,,,,,,,,,,,,METAR,13
LGSA 141820Z 27006KT 9999 FEW016 25/22 Q1013,LGSA,2025-08-14T18:20:00Z,35.54,24.141,25,22,270,6,,6+,29.91,,,,,,,,,,,FEW,1600,,,,,,,VFR,,,,,,,,,,,,METAR,122
LGRP 141820Z 24012KT CAVOK 28/25 Q1010 NOSIG,LGRP,2025-08-14T18:20:00Z,36.405,28.086,28,25,240,12,,6+,29.82,,,,,,TRUE,,,,,CAVOK,,,,,,,,VFR,,,,,,,,,,,,METAR,3
LGPA 141820Z AUTO 36007KT //// // ////// 25/19 Q1013 RE//,LGPA,2025-08-14T18:20:00Z,37.022,25.114,25,19,360,7,,,29.91,,,TRUE,,,,,,,,,,,,,,,,,,,,,,,,,,,,METAR,42
LGMT 141820Z VRB03KT CAVOK 29/20 Q1011,LGMT,2025-08-14T18:20:00Z,39.054,26.604,29,20,VRB,3,,6+,29.85,,,,,,,,,,,CAVOK,,,,,,,,VFR,,,,,,,,,,,,METAR,4
LGMK 141820Z 34012KT CAVOK 24/19 Q1012,LGMK,2025-08-14T18:20:00Z,37.435,25.348,24,19,340,12,,6+,29.88,,,,,,,,,,,CAVOK,,,,,,,,VFR,,,,,,,,,,,,METAR,126
LGLM 141820Z VRB02KT CAVOK 26/19 Q1012,LGLM,2025-08-14T18:20:00Z,39.917,25.236,26,19,VRB,2,,6+,29.88,,,,,,,,,,,CAVOK,,,,,,,,VFR,,,,,,,,,,,,METAR,4
LGKZ 141820Z AUTO 19005KT //// // ////// 24/08 Q1018 RE//,LGKZ,2025-08-14T18:20:00Z,40.288,21.842,24,8,190,5,,,30.06,,,TRUE,,,,,,,,,,,,,,,,,,,,,,,,,,,,METAR,615
LGKV 141820Z 00000KT 9999 FEW035 25/20 Q1014,LGKV,2025-08-14T18:20:00Z,40.915,24.622,25,20,0,0,,6+,29.94,,,,,,,,,,,FEW,3500,,,,,,,VFR,,,,,,,,,,,,METAR,5
LGKR 141820Z VRB02KT 9999 FEW025 29/20 Q1012 NOSIG,LGKR,2025-08-14T18:20:00Z,39.61,19.913,29,20,VRB,2,,6+,29.88,,,,,,TRUE,,,,,FEW,2500,,,,,,,VFR,,,,,,,,,,,,METAR,2
LGKP 141820Z 31017KT CAVOK 26/22 Q1011,LGKP,2025-08-14T18:20:00Z,35.421,27.146,26,22,310,17,,6+,29.85,,,,,,,,,,,CAVOK,,,,,,,,VFR,,,,,,,,,,,,METAR,20
LGKO 141820Z 31013KT CAVOK 24/22 Q1011,LGKO,2025-08-14T18:20:00Z,36.801,27.091,24,22,310,13,,6+,29.85,,,,,,,,,,,CAVOK,,,,,,,,VFR,,,,,,,,,,,,METAR,130
LGKL 141820Z VRB02KT 9999 FEW025 26/22 Q1013,LGKL,2025-08-14T18:20:00Z,37.068,22.026,26,22,VRB,2,,6+,29.91,,,,,,,,,,,FEW,2500,,,,,,,VFR,,,,,,,,,,,,METAR,4
LGKF 141820Z 33007KT 9999 FEW030 28/24 Q1013,LGKF,2025-08-14T18:20:00Z,38.12,20.5,28,24,330,7,,6+,29.91,,,,,,,,,,,FEW,3000,,,,,,,VFR,,,,,,,,,,,,METAR,14
LGIR 141820Z 33004KT 9999 FEW016 26/21 Q1013 NOSIG,LGIR,2025-08-14T18:20:00Z,35.337,25.173,26,21,330,4,,6+,29.91,,,,,,TRUE,,,,,FEW,1600,,,,,,,VFR,,,,,,,,,,,,METAR,37
LGIO 141820Z VRB02KT 9999 VCTS FEW030CB SCT035TCU BKN090 22/19 Q1017,LGIO,2025-08-14T18:20:00Z,39.696,20.823,22,19,VRB,2,,6+,30.03,,,,,,,,,,VCTS,FEW,3000,SCT,3500,BKN,9000,,,VFR,,,,,,,,,,,,METAR,476
LGEL 141820Z 32006KT CAVOK 27/15 Q1013,LGEL,2025-08-14T18:20:00Z,38.064,23.556,27,15,320,6,,6+,29.91,,,,,,,,,,,CAVOK,,,,,,,,VFR,,,,,,,,,,,,METAR,21
LGAV 141820Z VRB01KT 9999 FEW025 26/16 Q1014 NOSIG,LGAV,2025-08-14T18:20:00Z,37.936,23.945,26,16,VRB,1,,6+,29.94,,,,,,TRUE,,,,,FEW,2500,,,,,,,VFR,,,,,,,,,,,,METAR,83
LGAL 141820Z 07011KT CAVOK 27/16 Q1014,LGAL,2025-08-14T18:20:00Z,40.856,25.945,27,16,70,11,,6+,29.94,,,,,,,,,,,CAVOK,,,,,,,,VFR,,,,,,,,,,,,METAR,5
LGAD 141820Z 00000KT 9999 FEW020 25/22 Q1013,LGAD,2025-08-14T18:20:00Z,37.923,21.287,25,22,0,0,,6+,29.91,,,,,,,,,,,FEW,2000,,,,,,,VFR,,,,,,,,,,,,METAR,8
LCRA 141820Z 31003KT CAVOK 31/26 Q1007 NOSIG,LCRA,2025-08-14T18:20:00Z,34.59,32.988,31,26,310,3,,6+,29.73,,,,,,TRUE,,,,,CAVOK,,,,,,,,VFR,,,,,,,,,,,,METAR,23
LCEN 141820Z 27017KT CAVOK 32/17 Q1008 NOSIG RMK RWY11R 28016KT,LCEN,2025-08-14T18:20:00Z,35.155,33.496,32,17,270,17,,6+,29.76,,,,,,TRUE,,,,,CAVOK,,,,,,,,VFR,,,,,,,,,,,,METAR,91
LATI 141820Z 21005KT 180V280 9999 FEW045 SCT080 28/20 Q1014 NOSIG,LATI,2025-08-14T18:20:00Z,41.419,19.716,28,20,210,5,,6+,29.94,,,,,,TRUE,,,,,FEW,4500,SCT,8000,,,,,VFR,,,,,,,,,,,,METAR,32
KPO1 141820Z AUTO VRB04G13KT 10SM FEW037 24/14 A2988 RMK AO2 TSNO,KPO1,2025-08-14T18:20:00Z,48.134,-105.162,24,14,VRB,4,13,10+,29.88,,,TRUE,TRUE,,,TRUE,,,,FEW,3700,,,,,,,VFR,,,,,,,,,,,,METAR,621
KOYE 141820Z AUTO 21004KT 10SM 31/25 A3004 RMK A01,KOYE,2025-08-14T18:20:00Z,28.8669,-90.4911,31,25,210,4,,10+,30.04,,,TRUE,TRUE,,,,,,,,,,,,,,,VFR,,,,,,,,,,,,METAR,30
KOLG 141820Z AUTO 18013G16KT 10SM BKN100 BKN120 27/13 A2997 RMK AO1,KOLG,2025-08-14T18:20:00Z,46.3153,-91.8183,27,13,180,13,16,10+,29.97,,,TRUE,TRUE,,,,,,,BKN,10000,BKN,12000,,,,,VFR,,,,,,,,,,,,METAR,334
KNYG 141820Z 31008KT 270V020 7SM TS FEW042 SCT075 SCT085 33/22 A2993 RMK AO2 TSB14 T03280217,KNYG,2025-08-14T18:20:00Z,38.503,-77.301,32.8,21.7,310,8,,7,29.93,,,,TRUE,,,,,,TS,FEW,4200,SCT,7500,SCT,8500,,,VFR,,,,,,,,,,,,SPECI,2
KMWS 141820Z 26002G06KT 23/06 ,KMWS,2025-08-14T18:20:00Z,34.226,-118.057,23,6,260,2,6,,0.00,,,,,,,,,,,,,,,,,,,,,,,,,,,,,,,METAR,1745
KM08 141820Z AUTO 11003KT 10SM 33/23 A2999 RMK A01,KM08,2025-08-14T18:20:00Z,35.2155,-89.0449,33,23,110,3,,10+,29.99,,,TRUE,TRUE,,,,,,,,,,,,,,,VFR,,,,,,,,,,,,METAR,149
KJSL 141820Z AUTO VRB05KT 10SM CLR 31/23 A3004 RMK A01,KJSL,2025-08-14T18:20:00Z,26.2367,-91.2567,31,23,VRB,5,,10+,30.04,,,TRUE,TRUE,,,,,,,CLR,,,,,,,,VFR,,,,,,,,,,,,METAR,45
KGHB 141820Z AUTO 20003KT 10SM CLR 34/25 A3004 RMK A01,KGHB,2025-08-14T18:20:00Z,27.8403,-91.9878,34,25,200,3,,10+,30.04,,,TRUE,TRUE,,,,,,,CLR,,,,,,,,VFR,,,,,,,,,,,,METAR,30
K40B 141820Z AUTO VRB04G11KT 25/15 A2995 RMK AO1 SLP134 T02550152 10258 20206 54001,K40B,2025-08-14T18:20:00Z,46.616,-69.533,25.5,15.2,VRB,4,11,,29.95,1013.4,,TRUE,TRUE,,,,,,,,,,,,,,,,,25.8,20.6,,,,,,,,,METAR,344
EYVI 141820Z 05005KT CAVOK 19/12 Q1025 NOSIG,EYVI,2025-08-14T18:20:00Z,54.634,25.286,19,12,50,5,,6+,30.27,,,,,,TRUE,,,,,CAVOK,,,,,,,,VFR,,,,,,,,,,,,METAR,180
EYSA 141820Z 14004KT CAVOK 20/12 Q1025 NOSIG,EYSA,2025-08-14T18:20:00Z,55.894,23.395,20,12,140,4,,6+,30.27,,,,,,TRUE,,,,,CAVOK,,,,,,,,VFR,,,,,,,,,,,,METAR,135
EYPA 141820Z 10001KT CAVOK 20/17 Q1024,EYPA,2025-08-14T18:20:00Z,55.973,21.092,20,17,100,1,,6+,30.24,,,,,,,,,,,CAVOK,,,,,,,,VFR,,,,,,,,,,,,METAR,15
EYKA 141820Z 08005KT CAVOK 19/14 Q1025,EYKA,2025-08-14T18:20:00Z,54.962,24.069,19,14,80,5,,6+,30.27,,,,,,,,,,,CAVOK,,,,,,,,VFR,,,,,,,,,,,,METAR,68
EVVA 141820Z AUTO 06004KT CAVOK 20/14 Q1024,EVVA,2025-08-14T18:20:00Z,57.361,21.545,20,14,60,4,,6+,30.24,,,TRUE,,,,,,,,CAVOK,,,,,,,,VFR,,,,,,,,,,,,METAR,1
EVRA 141820Z 21001KT CAVOK 18/15 Q1024 NOSIG,EVRA,2025-08-14T18:20:00Z,56.924,23.968,18,15,210,1,,6+,30.24,,,,,,TRUE,,,,,CAVOK,,,,,,,,VFR,,,,,,,,,,,,METAR,7
EVLA 141820Z AUTO 00000KT 3600 BR NCD 19/17 Q1023,EVLA,2025-08-14T18:20:00Z,56.517,21.097,19,17,0,0,,2.24,30.21,,,TRUE,,,,,,,BR,CLR,,,,,,,,IFR,,,,,,,,,,,,METAR,5
EVGA 141820Z 11002KT CAVOK 17/15 Q1025 NOSIG,EVGA,2025-08-14T18:20:00Z,56.778,24.854,17,15,110,2,,6+,30.27,,,,,,TRUE,,,,,CAVOK,,,,,,,,VFR,,,,,,,,,,,,METAR,61
ETWM 141820Z AUTO 30001KT //// // ////// 26/18 Q1017 ///,ETWM,2025-08-14T18:20:00Z,52.725,7.33,26,18,300,1,,,30.03,,,TRUE,,,,,,,,,,,,,,,,,,,,,,,,,,,,METAR,18
ETSN 141820Z 09002KT 9999 FEW080 BKN290 29/17 Q1018 BLU+,ETSN,2025-08-14T18:20:00Z,48.71,11.21,29,17,90,2,,6+,30.06,,,,,,,,,,,FEW,8000,BKN,29000,,,,,VFR,,,,,,,,,,,,METAR,378
ETSL 141820Z 06003KT 9999 BKN300 26/15 Q1020 BLU+,ETSL,2025-08-14T18:20:00Z,48.185,10.861,26,15,60,3,,6+,30.12,,,,,,,,,,,BKN,30000,,,,,,,VFR,,,,,,,,,,,,METAR,548
ETSI 141820Z AUTO 19002KT 9999 // ////// 29/18 Q1018 ///,ETSI,2025-08-14T18:20:00Z,48.716,11.534,29,18,190,2,,6+,30.06,,,TRUE,,,,,,,,,,,,,,,,VFR,,,,,,,,,,,,METAR,366
ETSH 141820Z 05003KT 9999 SCT380 28/16 Q1018 BLU+,ETSH,2025-08-14T18:20:00Z,51.768,13.168,28,16,50,3,,6+,30.06,,,,,,,,,,,SCT,38000,,,,,,,VFR,,,,,,,,,,,,METAR,79
ETSB 141820Z AUTO 03004KT //// // ////// 29/17 Q1020 ///,ETSB,2025-08-14T18:20:00Z,50.175,7.06,29,17,30,4,,,30.12,,,TRUE,,,,,,,,,,,,,,,,,,,,,,,,,,,,METAR,477
ETNW 141820Z 35005KT 9999 BKN160 SCT200 30/18 Q1017 BLU BLU,ETNW,2025-08-14T18:20:00Z,52.457,9.427,30,18,350,5,,6+,30.03,,,,,,,,,,,BKN,16000,SCT,20000,,,,,VFR,,,,,,,,,,,,METAR,57
ETNT 141820Z 10001KT 9999 BKN300 26/20 Q1017 BLACKBLU+,ETNT,2025-08-14T18:20:00Z,53.548,7.667,26,20,100,1,,6+,30.03,,,,,,,,,,,BKN,30000,,,,,,,VFR,,,,,,,,,,,,METAR,5
ETNS 141820Z AUTO VRB02KT //// // ////// 26/21 Q1018 ///,ETNS,2025-08-14T18:20:00Z,54.457,9.52,26,21,VRB,2,,,30.06,,,TRUE,,,,,,,,,,,,,,,,,,,,,,,,,,,,METAR,22
ETNN 141820Z 31003KT 9999 FEW120 BKN220 30/17 Q1018 BLU+,ETNN,2025-08-14T18:20:00Z,50.829,6.66,30,17,310,3,,6+,30.06,,,,,,,,,,,FEW,12000,BKN,22000,,,,,VFR,,,,,,,,,,,,METAR,108
ETNL 141820Z 10003KT 9999 SCT150 BKN380 27/18 Q1018 BLU+,ETNL,2025-08-14T18:20:00Z,53.916,12.279,27,18,100,3,,6+,30.06,,,,,,,,,,,SCT,15000,BKN,38000,,,,,VFR,,,,,,,,,,,,METAR,40
ETNH 141820Z AUTO VRB02KT 9999 // ////// 25/22 Q1017 ///,ETNH,2025-08-14T18:20:00Z,54.312,9.538,25,22,VRB,2,,6+,30.03,,,TRUE,,,,,,,,,,,,,,,,VFR,,,,,,,,,,,,METAR,6
ETMN 141820Z 11002KT 9999 FEW100 BKN350 25/21 Q1018 BLU+BLU+,ETMN,2025-08-14T18:20:00Z,53.765,8.658,25,21,110,2,,6+,30.06,,,,,,,,,,,FEW,10000,BKN,35000,,,,,VFR,,,,,,,,,,,,METAR,23
ETHS 141820Z 05001KT 9999 SCT150 SCT210 29/18 Q1017 BLU+BLU+ TEMPO BLU,ETHS,2025-08-14T18:20:00Z,52.918,10.184,29,18,50,1,,6+,30.03,,,,,,,,,,,SCT,15000,SCT,21000,,,,,VFR,,,,,,,,,,,,METAR,71
ETHN 141820Z 03004KT 9999 BKN280 29/14 Q1019 BLU+BLU+,ETHN,2025-08-14T18:20:00Z,49.392,9.958,29,14,30,4,,6+,30.09,,,,,,,,,,,BKN,28000,,,,,,,VFR,,,,,,,,,,,,METAR,466
ETHL 141820Z 06001KT 9999 FEW270 28/14 Q1020 BLU+,ETHL,2025-08-14T18:20:00Z,48.218,9.91,28,14,60,1,,6+,30.12,,,,,,,,,,,FEW,27000,,,,,,,VFR,,,,,,,,,,,,METAR,536
ETHF 141820Z 29003KT 9999 FEW150 SCT310 27/20 Q1017 BLU+,ETHF,2025-08-14T18:20:00Z,51.114,9.286,27,20,290,3,,6+,30.03,,,,,,,,,,,FEW,15000,SCT,31000,,,,,VFR,,,,,,,,,,,,METAR,171
ETHC 141820Z 34002KT 9999 SCT170 BKN360 30/18 Q1017 BLU+BLU+,ETHC,2025-08-14T18:20:00Z,52.591,10.022,30,18,340,2,,6+,30.03,,,,,,,,,,,SCT,17000,BKN,36000,,,,,VFR,,,,,,,,,,,,METAR,35
ETHB 141820Z 02003KT 9999 FEW060 BKN160 31/16 Q1017 BLU,ETHB,2025-08-14T18:20:00Z,52.279,9.082,31,16,20,3,,6+,30.03,,,,,,,,,,,FEW,6000,BKN,16000,,,,,VFR,,,,,,,,,,,,METAR,69
ETHA 141820Z 05005KT 9999 FEW060 BKN200 BKN280 26/14 Q1021 BLU+,ETHA,2025-08-14T18:20:00Z,47.834,10.867,26,14,50,5,,6+,30.15,,,,,,,,,,,FEW,6000,BKN,20000,BKN,28000,,,VFR,,,,,,,,,,,,METAR,738
ETGG 141820Z AUTO VRB02KT 9999 // ////// 23/19 Q1018 ///,ETGG,2025-08-14T18:20:00Z,54.827,9.506,23,19,VRB,2,,6+,30.06,,,TRUE,,,,,,,,,,,,,,,,VFR,,,,,,,,,,,,METAR,33
ESUT 141820Z AUTO 15003KT 9999 SCT045/// BKN061/// OVC082/// 14/14 Q1017,ESUT,2025-08-14T18:20:00Z,65.806,15.083,14,14,150,3,,6+,30.03,,,TRUE,,,,,,,,SCT,4500,BKN,6100,OVC,8200,,,VFR,,,,,,,,,,,,METAR,457
ESUP 141820Z AUTO 19006KT 9999 // ///////// 18/15 Q1015,ESUP,2025-08-14T18:20:00Z,67.246,23.069,18,15,190,6,,6+,29.97,,,TRUE,,,,,,,,,,,,,,,,VFR,,,,,,,,,,,,METAR,164
ESTL 141820Z AUTO 12005KT 9999 NCD 22/15 Q1020,ESTL,2025-08-14T18:20:00Z,56.083,13.213,22,15,120,5,,6+,30.12,,,TRUE,,,,,,,,CLR,,,,,,,,VFR,,,,,,,,,,,,METAR,39
ESTA 141820Z 11009KT CAVOK 23/15 Q1020,ESTA,2025-08-14T18:20:00Z,56.294,12.848,23,15,110,9,,6+,30.12,,,,,,,,,,,CAVOK,,,,,,,,VFR,,,,,,,,,,,,METAR,19
ESSV 141820Z 11003KT CAVOK 19/15 Q1023,ESSV,2025-08-14T18:20:00Z,57.662,18.348,19,15,110,3,,6+,30.21,,,,,,,,,,,CAVOK,,,,,,,,VFR,,,,,,,,,,,,METAR,38
ESST 141820Z AUTO 15003KT 9999 -RA FEW086/// SCT100/// 21/17 Q1020,ESST,2025-08-14T18:20:00Z,60.158,12.992,21,17,150,3,,6+,30.12,,,TRUE,,,,,,,-RA,FEW,8600,SCT,10000,,,,,VFR,,,,,,,,,,,,METAR,110
ESSP 141820Z AUTO 15007KT 9999 NCD 23/09 Q1021,ESSP,2025-08-14T18:20:00Z,58.584,16.255,23,9,150,7,,6+,30.15,,,TRUE,,,,,,,,CLR,,,,,,,,VFR,,,,,,,,,,,,METAR,3
ESSL 141820Z AUTO 15008KT 9999 BKN130/// 24/10 Q1021,ESSL,2025-08-14T18:20:00Z,58.406,15.681,24,10,150,8,,6+,30.15,,,TRUE,,,,,,,,BKN,13000,,,,,,,VFR,,,,,,,,,,,,METAR,51
ESSD 141820Z AUTO 22004KT 9999 NCD 23/14 Q1020,ESSD,2025-08-14T18:20:00Z,60.422,15.515,23,14,220,4,,6+,30.12,,,TRUE,,,,,,,,CLR,,,,,,,,VFR,,,,,,,,,,,,METAR,151
ESSB 141820Z 17006KT 120V210 CAVOK 22/12 Q1022,ESSB,2025-08-14T18:20:00Z,59.356,17.933,22,12,170,6,,6+,30.18,,,,,,,,,,,CAVOK,,,,,,,,VFR,,,,,,,,,,,,METAR,14
ESSA 141820Z 17008KT CAVOK 21/13 Q1021 NOSIG,ESSA,2025-08-14T18:20:00Z,59.664,17.92,21,13,170,8,,6+,30.15,,,,,,TRUE,,,,,CAVOK,,,,,,,,VFR,,,,,,,,,,,,METAR,36
ESPE 141820Z AUTO 23004KT 190V270 9999 NCD 20/15 Q1017,ESPE,2025-08-14T18:20:00Z,65.875,20.144,20,15,230,4,,6+,30.03,,,TRUE,,,,,,,,CLR,,,,,,,,VFR,,,,,,,,,,,,METAR,182
ESPA 141820Z 18006KT CAVOK 19/16 Q1017,ESPA,2025-08-14T18:20:00Z,65.541,22.126,19,16,180,6,,6+,30.03,,,,,,,,,,,CAVOK,,,,,,,,VFR,,,,,,,,,,,,METAR,12
ESOW 141820Z AUTO 17006KT 9999 NCD 22/14 Q1021,ESOW,2025-08-14T18:20:00Z,59.595,16.638,22,14,170,6,,6+,30.15,,,TRUE,,,,,,,,CLR,,,,,,,,VFR,,,,,,,,,,,,METAR,7
ESOK 141820Z 23003KT 9999 -RA NSC 19/16 Q1021,ESOK,2025-08-14T18:20:00Z,59.442,13.342,19,16,230,3,,6+,30.15,,,,,,,,,,-RA,CLR,,,,,,,,VFR,,,,,,,,,,,,METAR,101
ESOH 141820Z AUTO 00000KT 9999 FEW100/// 20/16 Q1020,ESOH,2025-08-14T18:20:00Z,60.02,13.579,20,16,0,0,,6+,30.12,,,TRUE,,,,,,,,FEW,10000,,,,,,,VFR,,,,,,,,,,,,METAR,145
ESOE 141820Z 11004KT 100V170 CAVOK 24/15 Q1020,ESOE,2025-08-14T18:20:00Z,59.229,15.046,24,15,110,4,,6+,30.12,,,,,,,,,,,CAVOK,,,,,,,,VFR,,,,,,,,,,,,METAR,57
ESNZ 141820Z /////KT 9999 VCSH FEW032CB 18/16 Q1017,ESNZ,2025-08-14T18:20:00Z,63.199,14.489,18,16,,,,6+,30.03,,,,,,,,,,VCSH,FEW,3200,,,,,,,VFR,,,,,,,,,,,,METAR,360
ESNX 141820Z AUTO 18004KT 9999 R30///// NCD 18/13 Q1018,ESNX,2025-08-14T18:20:00Z,65.592,19.283,18,13,180,4,,6+,30.06,,,TRUE,,,,,,,,CLR,,,,,,,,VFR,,,,,,,,,,,,METAR,380
ESNV 141820Z 00000KT CAVOK 17/// Q1018,ESNV,2025-08-14T18:20:00Z,64.579,16.839,,,0,0,,6+,30.06,,,,,,,,,,,CAVOK,,,,,,,,VFR,,,,,,,,,,,,METAR,348
ESNU 141820Z 17005KT 9999 FEW010 18/17 Q1018,ESNU,2025-08-14T18:20:00Z,63.789,20.285,18,17,170,5,,6+,30.06,,,,,,,,,,,FEW,1000,,,,,,,VFR,,,,,,,,,,,,METAR,8
ESNS 141820Z 23003KT 200V260 9999 RA BKN092CB 19/19 Q1018,ESNS,2025-08-14T18:20:00Z,64.625,21.077,19,19,230,3,,6+,30.06,,,,,,,,,,RA,BKN,9200,,,,,,,VFR,,,,,,,,,,,,METAR,41
ESNQ 141820Z 21010KT CAVOK 16/11 Q1014,ESNQ,2025-08-14T18:20:00Z,67.823,20.34,16,11,210,10,,6+,29.94,,,,,,,,,,,CAVOK,,,,,,,,VFR,,,,,,,,,,,,METAR,447
ESNO 141820Z AUTO 20003KT 9999 NCD 19/16 Q1018,ESNO,2025-08-14T18:20:00Z,63.412,18.98,19,16,200,3,,6+,30.06,,,TRUE,,,,,,,,CLR,,,,,,,,VFR,,,,,,,,,,,,METAR,100
ESNN 141820Z 14008KT CAVOK 21/16 Q1018,ESNN,2025-08-14T18:20:00Z,62.532,17.436,21,16,140,8,,6+,30.06,,,,,,,,,,,CAVOK,,,,,,,,VFR,,,,,,,,,,,,METAR,4
ESNL 141820Z 14003KT 120V180 CAVOK 21/18 Q1018,ESNL,2025-08-14T18:20:00Z,64.552,18.711,21,18,140,3,,6+,30.06,,,,,,,,,,,CAVOK,,,,,,,,VFR,,,,,,,,,,,,METAR,220
ESNK 141820Z AUTO 17007KT 9999 NCD 21/17 Q1017,ESNK,2025-08-14T18:20:00Z,63.047,17.766,21,17,170,7,,6+,30.03,,,TRUE,,,,,,,,CLR,,,,,,,,VFR,,,,,,,,,,,,METAR,4
ESNG 141820Z 21008KT CAVOK ///// Q1015,ESNG,2025-08-14T18:20:00Z,67.133,20.81,,,210,8,,6+,29.97,,,,,,,,,,,CAVOK,,,,,,,,VFR,,,,,,,,,,,,METAR,300
ESND 141820Z AUTO 20006KT 9999 FEW110/// 24/15 Q1018,ESND,2025-08-14T18:20:00Z,62.047,14.416,24,15,200,6,,6+,30.06,,,TRUE,,,,,,,,FEW,11000,,,,,,,VFR,,,,,,,,,,,,METAR,352
ESMX 141820Z AUTO 16005KT 9999 BKN130/// OVC160/// 23/15 Q1022,ESMX,2025-08-14T18:20:00Z,56.927,14.73,23,15,160,5,,6+,30.18,,,TRUE,,,,,,,,BKN,13000,OVC,16000,,,,,VFR,,,,,,,,,,,,METAR,176
ESMV 141820Z AUTO 19004KT 150V220 9999 SCT130/// 23/15 Q1021,ESMV,2025-08-14T18:20:00Z,57.29,14.134,23,15,190,4,,6+,30.15,,,TRUE,,,,,,,,SCT,13000,,,,,,,VFR,,,,,,,,,,,,METAR,167
ESMT 141820Z 14008KT CAVOK 23/14 Q1020,ESMT,2025-08-14T18:20:00Z,56.691,12.82,23,14,140,8,,6+,30.12,,,,,,,,,,,CAVOK,,,,,,,,VFR,,,,,,,,,,,,METAR,24
ESMS 141820Z 11009KT CAVOK 23/15 Q1020,ESMS,2025-08-14T18:20:00Z,55.539,13.373,23,15,110,9,,6+,30.12,,,,,,,,,,,CAVOK,,,,,,,,VFR,,,,,,,,,,,,METAR,68
ESMQ 141820Z 13005KT CAVOK 19/16 Q1022,ESMQ,2025-08-14T18:20:00Z,56.685,16.284,19,16,130,5,,6+,30.18,,,,,,,,,,,CAVOK,,,,,,,,VFR,,,,,,,,,,,,METAR,3
ESMK 141820Z AUTO 10007KT 9999 BKN150/// 20/18 Q1021,ESMK,2025-08-14T18:20:00Z,55.922,14.085,20,18,100,7,,6+,30.15,,,TRUE,,,,,,,,BKN,15000,,,,,,,VFR,,,,,,,,,,,,METAR,20
ESKS 141820Z AUTO 21009KT 9999 FEW098/// SCT110/// BKN190/// 20/12 Q1020,ESKS,2025-08-14T18:20:00Z,61.165,12.834,20,12,210,9,,6+,30.12,,,TRUE,,,,,,,,FEW,9800,SCT,11000,BKN,19000,,,VFR,,,,,,,,,,,,METAR,503
ESKN 141820Z 15008KT CAVOK 22/07 Q1021,ESKN,2025-08-14T18:20:00Z,58.786,16.918,22,7,150,8,,6+,30.15,,,,,,,,,,,CAVOK,,,,,,,,VFR,,,,,,,,,,,,METAR,41
ESKM 141820Z AUTO 18005KT 9999 SCT220/// 23/15 Q1019,ESKM,2025-08-14T18:20:00Z,60.96,14.507,23,15,180,5,,6+,30.09,,,TRUE,,,,,,,,SCT,22000,,,,,,,VFR,,,,,,,,,,,,METAR,184
ESIB 141820Z AUTO 14003KT 9999 OVC110/// 21/15 Q1019,ESIB,2025-08-14T18:20:00Z,58.431,12.71,21,15,140,3,,6+,30.09,,,TRUE,,,,,,,,OVC,11000,,,,,,,VFR,,,,,,,,,,,,METAR,51
ESIA 141820Z AUTO 08002KT 9999 -RA FEW064/// SCT098/// BKN130/// 21/17 Q1020,ESIA,2025-08-14T18:20:00Z,58.514,14.507,21,17,80,2,,6+,30.12,,,TRUE,,,,,,,-RA,FEW,6400,SCT,9800,BKN,13000,,,VFR,,,,,,,,,,,,METAR,94
ESGT 141820Z AUTO 02002KT 9999 OVC094/// 20/17 Q1019,ESGT,2025-08-14T18:20:00Z,58.314,12.347,20,17,20,2,,6+,30.09,,,TRUE,,,,,,,,OVC,9400,,,,,,,VFR,,,,,,,,,,,,METAR,40
ESGP 141820Z AUTO 13005KT 9999 BKN092/// 24/16 Q1019,ESGP,2025-08-14T18:20:00Z,57.781,11.869,24,16,130,5,,6+,30.09,,,TRUE,,,,,,,,BKN,9200,,,,,,,VFR,,,,,,,,,,,,METAR,15
ESGJ 141820Z 18003KT CAVOK 23/16 Q1021,ESGJ,2025-08-14T18:20:00Z,57.752,14.069,23,16,180,3,,6+,30.15,,,,,,,,,,,CAVOK,,,,,,,,VFR,,,,,,,,,,,,METAR,224
ESGG 141820Z 14004KT CAVOK 22/16 Q1020,ESGG,2025-08-14T18:20:00Z,57.667,12.285,22,16,140,4,,6+,30.12,,,,,,,,,,,CAVOK,,,,,,,,VFR,,,,,,,,,,,,METAR,152
ESDF 141820Z 11007KT CAVOK 22/15 Q1021,ESDF,2025-08-14T18:20:00Z,56.266,15.267,22,15,110,7,,6+,30.15,,,,,,,,,,,CAVOK,,,,,,,,VFR,,,,,,,,,,,,METAR,52
ESCM 141820Z AUTO 19008KT 9999 NCD 23/15 Q1021,ESCM,2025-08-14T18:20:00Z,59.899,17.589,23,15,190,8,,6+,30.15,,,TRUE,,,,,,,,CLR,,,,,,,,VFR,,,,,,,,,,,,METAR,21
ESCF 141820Z AUTO 15004KT 9999 SCT130/// BKN170/// 24/13 Q1021,ESCF,2025-08-14T18:20:00Z,58.398,15.526,24,13,150,4,,6+,30.15,,,TRUE,,,,,,,,SCT,13000,BKN,17000,,,,,VFR,,,,,,,,,,,,METAR,86
ENZV 141820Z 10006KT 9999 VCSH FEW026CB BKN038 18/16 Q1017 RERA TEMPO SHRA,ENZV,2025-08-14T18:20:00Z,58.884,5.637,18,16,100,6,,6+,30.03,,,,,,,,,,VCSH,FEW,2600,BKN,3800,,,,,VFR,,,,,,,,,,,,METAR,7
ENWV 141820Z AUTO 21017KT 9999NDV NCD 17/16 Q1017 W///S3,ENWV,2025-08-14T18:20:00Z,56.278,3.395,17,16,210,17,,,30.03,,,TRUE,,,,,,,,CLR,,,,,,,,,,,,,,,,,,,,METAR,30
ENVD 141820Z 08007KT 9999 VCSH FEW045 15/13 Q1014,ENVD,2025-08-14T18:20:00Z,70.065,29.835,15,13,80,7,,6+,29.94,,,,,,,,,,VCSH,FEW,4500,,,,,,,VFR,,,,,,,,,,,,METAR,39
ENVA 141820Z 25010KT CAVOK 18/16 Q1015 NOSIG RMK WIND 670FT 35003KT,ENVA,2025-08-14T18:20:00Z,63.46,10.931,18,16,250,10,,6+,29.97,,,,,,TRUE,,,,,CAVOK,,,,,,,,VFR,,,,,,,,,,,,METAR,12
ENUN 141820Z AUTO 20018KT 9999 FEW010/// FEW012/// FEW025/// 12/10 Q1012 W13/S5,ENUN,2025-08-14T18:20:00Z,67.069,7.097,12,10,200,18,,6+,29.88,,,TRUE,,,,,,,,FEW,1000,FEW,1200,FEW,2500,,,VFR,,,,,,,,,,,,METAR,40
ENUG 141820Z AUTO 22017KT 9999NDV BKN036/// BKN062/// 13/11 Q1011 W///S6,ENUG,2025-08-14T18:20:00Z,71.305,22.253,13,11,220,17,,,29.85,,,TRUE,,,,,,,,BKN,3600,BKN,6200,,,,,,,,,,,,,,,,,METAR,30
ENTO 141820Z VRB02KT 7000 -RA BKN030 17/17 Q1020 TEMPO RA,ENTO,2025-08-14T18:20:00Z,59.184,10.255,17,17,VRB,2,,4.35,30.12,,,,,,,,,,-RA,BKN,3000,,,,,,,MVFR,,,,,,,,,,,,METAR,84
ENTC 141820Z 19009KT 9999 SCT043 BKN064 15/10 Q1012 NOSIG RMK WIND 2600FT 18013KT,ENTC,2025-08-14T18:20:00Z,69.675,18.916,15,10,190,9,,6+,29.88,,,,,,TRUE,,,,,SCT,4300,BKN,6400,,,,,VFR,,,,,,,,,,,,METAR,9
ENST 141820Z 20006KT 170V230 9999 FEW008 SCT019 BKN028 16/15 Q1015 RMK WIND 0300FT 19014KT,ENST,2025-08-14T18:20:00Z,65.961,12.472,16,15,200,6,,6+,29.97,,,,,,,,,,,FEW,800,SCT,1900,BKN,2800,,,MVFR,,,,,,,,,,,,METAR,17
ENSS 141820Z AUTO 33002KT 9999 OVC082/// 12/11 Q1014 RMK WIND 0500FT 05004KT,ENSS,2025-08-14T18:20:00Z,70.355,31.044,12,11,330,2,,6+,29.94,,,TRUE,,,,,,,,OVC,8200,,,,,,,VFR,,,,,,,,,,,,METAR,13
ENSR 141820Z 34007KT 9999 BKN059 14/12 Q1012 RMK WIND RWY 32 34006KT WIND 1119FT 26006KT,ENSR,2025-08-14T18:20:00Z,69.789,20.955,14,12,340,7,,6+,29.88,,,,,,,,,,,BKN,5900,,,,,,,VFR,,,,,,,,,,,,METAR,5
ENSL 141820Z AUTO 13007KT 3500 SCT003/// BKN073/// 16/16 Q1014 W14/S3,ENSL,2025-08-14T18:20:00Z,58.367,1.907,16,16,130,7,,2.17,29.94,,,TRUE,,,,,,,,SCT,300,BKN,7300,,,,,IFR,,,,,,,,,,,,METAR,50
ENSK 141820Z 21012KT 9999 -RA FEW019 SCT032 BKN038 15/11 Q1012,ENSK,2025-08-14T18:20:00Z,68.58,15.029,15,11,210,12,,6+,29.88,,,,,,,,,,-RA,FEW,1900,SCT,3200,BKN,3800,,,VFR,,,,,,,,,,,,METAR,3
ENSH 141820Z 22013KT 9999 -SHRA SCT013 BKN024 14/12 Q1013 RMK WIND 0150FT 21015KT,ENSH,2025-08-14T18:20:00Z,68.245,14.669,14,12,220,13,,6+,29.91,,,,,,,,,,-SHRA,SCT,1300,BKN,2400,,,,,MVFR,,,-1.5,,,,,,,,,METAR,9
ENSG 141820Z 00000KT 9999 VCSH SCT055 BKN080 20/16 Q1017 RMK WIND 3806FT 28006KT,ENSG,2025-08-14T18:20:00Z,61.158,7.141,20,16,0,0,,6+,30.03,,,,,,,,,,VCSH,SCT,5500,BKN,8000,,,,,VFR,,,,,,,,,,,,METAR,493
ENSF 141820Z AUTO 24010KT 0100 FG VV250 15/14 Q1015 W/////,ENSF,2025-08-14T18:20:00Z,61.25,1.85,15,14,240,10,,0.06,29.97,,,TRUE,,,,,,,FG,OVX,0,,,,,,,LIFR,,,,,,,,,,,25000,METAR,15
ENSE 141820Z AUTO 20010KT 0200 -RA FG VV250 15/14 Q1015 W/////,ENSE,2025-08-14T18:20:00Z,61.45,2.15,15,14,200,10,,0.12,29.97,,,TRUE,,,,,,,-RA FG,OVX,0,,,,,,,LIFR,,,,,,,,,,,25000,METAR,10
ENSD 141820Z 05005KT 010V090 CAVOK 21/15 Q1015 RMK WIND RWY 26 10002KT WIND 1140FT 28005KT,ENSD,2025-08-14T18:20:00Z,61.829,6.104,21,15,50,5,,6+,29.97,,,,,,,,,,,CAVOK,,,,,,,,VFR,,0.2,,,,,,,,,,METAR,61
ENSB 141820Z 13012KT 9999 SCT035 11/06 Q1001 RMK WIND 1400FT 13011KT,ENSB,2025-08-14T18:20:00Z,78.246,15.466,11,6,130,12,,6+,29.56,,,,,,,,,,,SCT,3500,,,,,,,VFR,,,,,,,,,,,,METAR,30
ENRY 141820Z VRB01KT 9999 -RA FEW006 SCT047 17/16 Q1020,ENRY,2025-08-14T18:20:00Z,59.381,10.783,17,16,VRB,1,,6+,30.12,,,,,,,,,,-RA,FEW,600,SCT,4700,,,,,VFR,,,,,,,,,,,,METAR,45
ENRS 141820Z 23012KT 9999 -RA FEW013 SCT036 14/12 Q1013,ENRS,2025-08-14T18:20:00Z,67.527,12.104,14,12,230,12,,6+,29.91,,,,,,,,,,-RA,FEW,1300,SCT,3600,,,,,VFR,,,,,,,,,,,,METAR,4
ENRO 141820Z AUTO 19005KT 140V220 9999 FEW108/// SCT137/// BKN157/// 21/11 Q1017,ENRO,2025-08-14T18:20:00Z,62.578,11.342,21,11,190,5,,6+,30.03,,,TRUE,,,,,,,,FEW,10800,SCT,13700,BKN,15700,,,VFR,,,,,,,,,,,,METAR,624
ENRM 141820Z 11004KT 070V130 CAVOK 19/15 Q1015,ENRM,2025-08-14T18:20:00Z,64.835,11.141,19,15,110,4,,6+,29.97,,,,,,,,,,,CAVOK,,,,,,,,VFR,,,,,,,,,,,,METAR,4
ENRA 141820Z VRB02KT 9999 FEW003 SCT014 BKN032 15/15 Q1015,ENRA,2025-08-14T18:20:00Z,66.364,14.302,15,15,VRB,2,,6+,29.97,,,,,,,,,,,FEW,300,SCT,1400,BKN,3200,,,VFR,,,,,,,,,,,,METAR,66
ENQR 141820Z AUTO 20010KT 0150 FG VV250 15/15 Q1014 W38///,ENQR,2025-08-14T18:20:00Z,61.53,2.22,15,15,200,10,,0.09,29.94,,,TRUE,,,,,,,FG,OVX,0,,,,,,,LIFR,,,,,,,,,,,25000,METAR,10
ENQC 141820Z AUTO 16027KT 0250 -RAFG VV250 16/15 Q1015 W///S3,ENQC,2025-08-14T18:20:00Z,60.886,3.61,16,15,160,27,,0.16,29.97,,,TRUE,,,,,,,-RA FG,OVX,0,,,,,,,LIFR,,,,,,,,,,,25000,METAR,20
ENQA 141820Z AUTO 17025KT 5000 BKN003/// OVC014/// 16/15 Q1016 W13/S3,ENQA,2025-08-14T18:20:00Z,60.645,3.725,16,15,170,25,,3.11,30.00,,,TRUE,,,,,,,,BKN,300,OVC,1400,,,,,LIFR,,,,,,,,,,,,METAR,90
ENOV 141820Z VRB02KT 9999 FEW072 21/15 Q1014 RMK WIND RWY 24 00000KT WIND 2090FT 19008KT,ENOV,2025-08-14T18:20:00Z,62.18,6.078,21,15,VRB,2,,6+,29.94,,,,,,,,,,,FEW,7200,,,,,,,VFR,,,,,,,,,,,,METAR,72
ENOL 141820Z 09005KT CAVOK 18/16 Q1014 NOSIG,ENOL,2025-08-14T18:20:00Z,63.703,9.609,18,16,90,5,,6+,29.94,,,,,,TRUE,,,,,CAVOK,,,,,,,,VFR,,,,,,,,,,,,METAR,9
ENOA 141820Z 17024KT 0050 FG VV003 16/15 Q1015 W///S3,ENOA,2025-08-14T18:20:00Z,60.492,2.827,16,15,170,24,,0.03,29.97,,,,,,,,,,FG,OVX,0,,,,,,,LIFR,,,,,,,,,,,300,METAR,5
ENNM 141820Z 05007KT CAVOK 21/17 Q1015,ENNM,2025-08-14T18:20:00Z,64.471,11.57,21,17,50,7,,6+,29.97,,,,,,,,,,,CAVOK,,,,,,,,VFR,,,,,,,,,,,,METAR,2
ENNE 141820Z AUTO 20008KT 9999 -SHRA OVC036/// 13/12 Q1013 W///S4,ENNE,2025-08-14T18:20:00Z,66.03,8.08,13,12,200,8,,6+,29.91,,,TRUE,,,,,,,-SHRA,OVC,3600,,,,,,,VFR,,,,,,,,,,,,METAR,10
ENNA 141820Z 30004KT CAVOK 13/11 Q1013 RMK WIND 1800FT 23008KT,ENNA,2025-08-14T18:20:00Z,70.059,24.971,13,11,300,4,,6+,29.91,,,,,,,,,,,CAVOK,,,,,,,,VFR,,,,,,,,,,,,METAR,12
ENMS 141820Z VRB01KT 9999 VCSH FEW001 SCT040 BKN050 17/15 Q1015 RMK WIND 412FT VRB02KT,ENMS,2025-08-14T18:20:00Z,65.784,13.218,17,15,VRB,1,,6+,29.97,,,,,,,,,,VCSH,FEW,100,SCT,4000,BKN,5000,,,VFR,,,,,,,,,,,,METAR,44
ENML 141820Z AUTO 00000KT 9999 FEW118/// 20/17 Q1014 RMK WIND 1587FT /////KT,ENML,2025-08-14T18:20:00Z,62.744,7.262,20,17,0,0,,6+,29.94,,,TRUE,,,,,,,,FEW,11800,,,,,,,VFR,,,,,,,,,,,,METAR,3
ENMH 141820Z VRB01KT CAVOK 15/08 Q1013,ENMH,2025-08-14T18:20:00Z,71.029,27.829,15,8,VRB,1,,6+,29.91,,,,,,,,,,,CAVOK,,,,,,,,VFR,,,,,,,,,,,,METAR,10
ENLK 141820Z 17004KT 130V210 9999 VCSH FEW013 BKN036 14/12 Q1013,ENLK,2025-08-14T18:20:00Z,68.155,13.615,14,12,170,4,,6+,29.91,,,,,,,,,,VCSH,FEW,1300,BKN,3600,,,,,VFR,,,,,,,,,,,,METAR,26
ENLE 141820Z 20017KT 9000 NSC 17/16 Q1016 W17/S3,ENLE,2025-08-14T18:20:00Z,56.535,3.205,17,16,200,17,,5.59,30.00,,,,,,,,,,,CLR,,,,,,,,VFR,,,,,,,,,,,,METAR,10
ENLA 141820Z AUTO 18021KT 8000NDV BKN008/// 17/17 Q1014 W///S3,ENLA,2025-08-14T18:20:00Z,57.111,2.846,17,17,180,21,,,29.94,,,TRUE,,,,,,,,BKN,800,,,,,,,,,,,,,,,,,,,METAR,10
ENKR 141820Z 20007KT CAVOK 18/13 Q1014 RMK WIND 731FT 21012KT,ENKR,2025-08-14T18:20:00Z,69.725,29.898,18,13,200,7,,6+,29.94,,,,,,,,,,,CAVOK,,,,,,,,VFR,,,-1.2,,,,,,,,,METAR,86
ENKB 141820Z 32003KT 280V360 CAVOK 21/14 Q1014 RMK WIND 745FT 35004KT,ENKB,2025-08-14T18:20:00Z,63.109,7.816,21,14,320,3,,6+,29.94,,,,,,,,,,,CAVOK,,,,,,,,VFR,,,,,,,,,,,,METAR,62
ENJS 141820Z 14012KT 0100 FG OVC002 16/16 Q1015 W14/S3,ENJS,2025-08-14T18:20:00Z,58.835,2.545,16,16,140,12,,0.06,29.97,,,,,,,,,,FG,OVC,200,,,,,,,LIFR,,,,,,,,,,,,METAR,
ENHV 141820Z AUTO 10002KT 9999 NCD 14/10 Q1013,ENHV,2025-08-14T18:20:00Z,71.009,25.982,14,10,100,2,,6+,29.91,,,TRUE,,,,,,,,CLR,,,,,,,,VFR,,,,,,,,,,,,METAR,13
ENHK 141820Z 32008KT 9999 FEW020 13/11 Q1012,ENHK,2025-08-14T18:20:00Z,70.487,22.14,13,11,320,8,,6+,29.88,,,,,,,,,,,FEW,2000,,,,,,,VFR,,,,,,,,,,,,METAR,6
ENHF 141820Z 05008KT 9999 FEW036 12/11 Q1012 RMK WIND 1253FT 06006KT,ENHF,2025-08-14T18:20:00Z,70.681,23.677,12,11,50,8,,6+,29.88,,,,,,,,,,,FEW,3600,,,,,,,VFR,,,,,,,,,,,,METAR,79
ENHE 141820Z 19006KT 0200 FG VV002 14/14 Q1013 W///S3,ENHE,2025-08-14T18:20:00Z,65.325,2.327,14,14,190,6,,0.12,29.91,,,,,,,,,,FG,OVX,0,,,,,,,LIFR,,,,,,,,,,,200,METAR,10
ENHD 141820Z AUTO 10008KT 3700 RA ///033/// 17/16 Q1017 RESHRA,ENHD,2025-08-14T18:20:00Z,59.341,5.22,17,16,100,8,,2.3,30.03,,,TRUE,,,,,,,RA,,,,,,,,,IFR,,,,,,,,,,,,METAR,22
ENGM 141820Z 21008KT 9999 -RA NSC 19/14 Q1020 TEMPO RA,ENGM,2025-08-14T18:20:00Z,60.201,11.08,19,14,210,8,,6+,30.12,,,,,,,,,,-RA,CLR,,,,,,,,VFR,,,,,,,,,,,,METAR,204
ENGC 141820Z 22014KT 0100 FG VV002 15/15 Q1015 W13/S4,ENGC,2025-08-14T18:20:00Z,61.033,2.033,15,15,220,14,,0.06,29.97,,,,,,,,,,FG,OVX,0,,,,,,,LIFR,,,,,,,,,,,200,METAR,10
ENFL 141820Z 20013KT 9999 -SHRA FEW010 BKN022 18/16 Q1016,ENFL,2025-08-14T18:20:00Z,61.582,5.02,18,16,200,13,,6+,30.00,,,,,,,,,,-SHRA,FEW,1000,BKN,2200,,,,,MVFR,,,,,,,,,,,,METAR,1
ENFB 141820Z AUTO 21010KT 0100 FG VV250 15/15 Q1015 W/////,ENFB,2025-08-14T18:20:00Z,61.206,1.829,15,15,210,10,,0.06,29.97,,,TRUE,,,,,,,FG,OVX,0,,,,,,,LIFR,,,,,,,,,,,25000,METAR,10
ENEV 141820Z 23008KT 190V260 9999 -SHRA FEW001 SCT022 BKN031 14/13 Q1014 TEMPO FM1900 3000 SHRA RMK WIND 1400FT 23021KT,ENEV,2025-08-14T18:20:00Z,68.491,16.683,14,13,230,8,,6+,29.94,,,,,,,,,,-SHRA,FEW,100,SCT,2200,BKN,3100,,,VFR,,,,,,,,,,,,METAR,26
ENDU 141820Z 19004KT 9999 -SHRA OVC050 15/12 Q1013 RMK WIND 1100FT 20012KT WIND 2200FT 20012KT,ENDU,2025-08-14T18:20:00Z,69.058,18.544,15,12,190,4,,6+,29.91,,,,,,,,,,-SHRA,OVC,5000,,,,,,,VFR,,,1.2,,,,,,,,,METAR,65
ENDR 141820Z AUTO 20018KT 9999NDV SCT057/// 17/14 Q1013 W///S4,ENDR,2025-08-14T18:20:00Z,64.349,7.78,17,14,200,18,,,29.91,,,TRUE,,,,,,,,SCT,5700,,,,,,,,,,,,,,,,,,,METAR,10
ENCN 141820Z 04005KT CAVOK 18/16 Q1019,ENCN,2025-08-14T18:20:00Z,58.2,8.077,18,16,40,5,,6+,30.09,,,,,,,,,,,CAVOK,,,,,,,,VFR,,,,,,,,,,,,METAR,17
ENBV 141820Z 11006KT CAVOK 13/10 Q1014,ENBV,2025-08-14T18:20:00Z,70.871,29.032,13,10,110,6,,6+,29.94,,,,,,,,,,,CAVOK,,,,,,,,VFR,,,,,,,,,,,,METAR,13
ENBS 141820Z 04003KT CAVOK 11/10 Q1014,ENBS,2025-08-14T18:20:00Z,70.601,29.698,11,10,40,3,,6+,29.94,,,,,,,,,,,CAVOK,,,,,,,,VFR,,,,,,,,,,,,METAR,144
ENBR 141820Z 15011KT 9999 -RA FEW010 SCT024CB 17/16 Q1017 TEMPO 4000 TSRA RMK WIND 1200FT 16020KT,ENBR,2025-08-14T18:20:00Z,60.29,5.222,17,16,150,11,,6+,30.03,,,,,,,,,,-RA,FEW,1000,SCT,2400,,,,,VFR,,,,,,,,,,,,METAR,49
ENBO 141820Z 25015KT 9999 -RA FEW006 SCT015 BKN029 15/15 Q1014 TEMPO FM1920 4000 SHRA BKN010 FEW040CB,ENBO,2025-08-14T18:20:00Z,67.267,14.359,15,15,250,15,,6+,29.94,,,,,,,,,,-RA,FEW,600,SCT,1500,BKN,2900,,,MVFR,,,,,,,,,,,,METAR,13
ENBN 141820Z VRB01KT 9999 VCSH FEW015CB FEW020 BKN039 17/15 Q1015,ENBN,2025-08-14T18:20:00Z,65.458,12.216,17,15,VRB,1,,6+,29.97,,,,,,,,,,VCSH,FEW,1500,FEW,2000,BKN,3900,,,VFR,,,,,,,,,,,,METAR,3
ENBL 141820Z 23005KT 190V280 9999 VCSH FEW029 BKN050 20/15 Q1017,ENBL,2025-08-14T18:20:00Z,61.391,5.76,20,15,230,5,,6+,30.03,,,,,,,,,,VCSH,FEW,2900,BKN,5000,,,,,VFR,,,,,,,,,,,,METAR,313
ENAT 141820Z 31008KT CAVOK 16/10 Q1012 RMK WIND 700FT 28002KT,ENAT,2025-08-14T18:20:00Z,69.978,23.358,16,10,310,8,,6+,29.88,,,,,,,,,,,CAVOK,,,,,,,,VFR,,,,,,,,,,,,METAR,3
ENAN 141820Z 24006KT 9999 FEW015 SCT037 14/11 Q1012,ENAN,2025-08-14T18:20:00Z,69.307,16.131,14,11,240,6,,6+,29.88,,,,,,,,,,,FEW,1500,SCT,3700,,,,,VFR,,,,,,,,,,,,METAR,13
ENAL 141820Z 28003KT 9999 NSC 20/15 Q1014,ENAL,2025-08-14T18:20:00Z,62.562,6.115,20,15,280,3,,6+,29.94,,,,,,,,,,,CLR,,,,,,,,VFR,,,,,,,,,,,,METAR,21
ELLX 141820Z 34005KT CAVOK 29/18 Q1019 NOSIG,ELLX,2025-08-14T18:20:00Z,49.626,6.204,29,18,340,5,,6+,30.09,,,,,,TRUE,,,,,CAVOK,,,,,,,,VFR,,,,,,,,,,,,METAR,374
EKYT 141820Z AUTO 20002KT 9999 NCD 23/19 Q1018,EKYT,2025-08-14T18:20:00Z,57.093,9.879,23,19,200,2,,6+,30.06,,,TRUE,,,,,,,,CLR,,,,,,,,VFR,,,,,,,,,,,,METAR,2
EKVJ 141820Z AUTO 22003KT 9999 FEW110/// 24/20 Q1018,EKVJ,2025-08-14T18:20:00Z,55.991,8.354,24,20,220,3,,6+,30.06,,,TRUE,,,,,,,,FEW,11000,,,,,,,VFR,,,,,,,,,,,,METAR,5
EKVG 141820Z AUTO 30009KT 9999 OVC004/// 12/12 Q1016 REDZRA RMK BKN001/// OVC016/// WIND SKEID 29019KT,EKVG,2025-08-14T18:20:00Z,62.065,-7.282,12,12,300,9,,6+,30.00,,,TRUE,,,,,,,RA,OVC,400,,,,,,,LIFR,,,,,,,,,,,,METAR,89
EKVD 141820Z AUTO 00000KT //// ///////// 24/17 Q1018,EKVD,2025-08-14T18:20:00Z,55.436,9.329,24,17,0,0,,,30.06,,,TRUE,,,,,,,,,,,,,,,,,,,,,,,,,,,,METAR,41
EKSP 141820Z 11002KT CAVOK 24/19 Q1018 RMK FEW120,EKSP,2025-08-14T18:20:00Z,55.225,9.263,24,19,110,2,,6+,30.06,,,,,,,,,,,CAVOK,,,,,,,,VFR,,,,,,,,,,,,METAR,40
EKSB 141820Z AUTO 13004KT 9999 NCD 24/18 Q1018,EKSB,2025-08-14T18:20:00Z,54.962,9.787,24,18,130,4,,6+,30.06,,,TRUE,,,,,,,,CLR,,,,,,,,VFR,,,,,,,,,,,,METAR,23
EKRS 141820Z AUTO 11006KT 070V210 9999 NCD 22/17 Q1019,EKRS,2025-08-14T18:20:00Z,55.426,11.807,22,17,110,6,,6+,30.09,,,TRUE,,,,,,,,CLR,,,,,,,,VFR,,,,,,,,,,,,METAR,34
EKRN 141820Z AUTO 09009KT 9999 BKN190/// 22/16 Q1020,EKRN,2025-08-14T18:20:00Z,55.068,14.749,22,16,90,9,,6+,30.12,,,TRUE,,,,,,,,BKN,19000,,,,,,,VFR,,,,,,,,,,,,METAR,14
EKRK 141820Z AUTO 13010KT 9999 NCD 20/17 Q1020,EKRK,2025-08-14T18:20:00Z,55.587,12.136,20,17,130,10,,6+,30.12,,,TRUE,,,,,,,,CLR,,,,,,,,VFR,,,,,,,,,,,,METAR,40
EKOD 141820Z AUTO 12006KT 9999 NCD 24/18 Q1018,EKOD,2025-08-14T18:20:00Z,55.475,10.331,24,18,120,6,,6+,30.06,,,TRUE,,,,,,,,CLR,,,,,,,,VFR,,,,,,,,,,,,METAR,13
EKKA 141820Z AUTO 21003KT 9999 NCD 24/19 Q1019,EKKA,2025-08-14T18:20:00Z,56.293,9.114,24,19,210,3,,6+,30.09,,,TRUE,,,,,,,,CLR,,,,,,,,VFR,,,,,,,,,,,,METAR,50
EKEB 141820Z AUTO 18001KT 9999 FEW120/// 24/20 Q1018,EKEB,2025-08-14T18:20:00Z,55.528,8.563,24,20,180,1,,6+,30.06,,,TRUE,,,,,,,,FEW,12000,,,,,,,VFR,,,,,,,,,,,,METAR,29
EKCH 141820Z AUTO 13007KT 9999 SCT140/// 23/15 Q1020 NOSIG,EKCH,2025-08-14T18:20:00Z,55.618,12.656,23,15,130,7,,6+,30.12,,,TRUE,,,TRUE,,,,,SCT,14000,,,,,,,VFR,,,,,,,,,,,,METAR,4
EKBI 141820Z 12002KT 9999 NSC 22/20 Q1018,EKBI,2025-08-14T18:20:00Z,55.74,9.152,22,20,120,2,,6+,30.06,,,,,,,,,,,CLR,,,,,,,,VFR,,,,,,,,,,,,METAR,67
EKAH 141820Z AUTO 16002KT 9999 FEW130/// 23/18 Q1019,EKAH,2025-08-14T18:20:00Z,56.3,10.619,23,18,160,2,,6+,30.09,,,TRUE,,,,,,,,FEW,13000,,,,,,,VFR,,,,,,,,,,,,METAR,25
EGYP 141820Z 23017KT 9999 FEW010 SCT030 05/02 Q1023 TEMPO SCT018,EGYP,2025-08-14T18:20:00Z,-51.82,-58.448,5,2,230,17,,6+,30.21,,,,,,,,,,,FEW,1000,SCT,3000,,,,,VFR,,,,,,,,,,,,METAR,70
EGYM 141820Z 23005KT CAVOK 25/14 Q1018 NOSIG RMK BLU BLU,EGYM,2025-08-14T18:20:00Z,52.648,0.567,25,14,230,5,,6+,30.06,,,,,,TRUE,,,,,CAVOK,,,,,,,,VFR,,,,,,,,,,,,METAR,25
EGYH 141820Z AUTO 27007KT 9999 BKN050/// SCT065/// 26/15 Q1018,EGYH,2025-08-14T18:20:00Z,52.873,0.139,26,15,270,7,,6+,30.06,,,TRUE,,,,,,,,BKN,5000,SCT,6500,,,,,VFR,,,,,,,,,,,,METAR,5
EGYD 141820Z AUTO 25010KT 9999 SCT046/// SCT068/// BKN081/// 24/15 Q1018,EGYD,2025-08-14T18:20:00Z,53.031,-0.503,24,15,250,10,,6+,30.06,,,TRUE,,,,,,,,SCT,4600,SCT,6800,BKN,8100,,,VFR,,,,,,,,,,,,METAR,65
EGXZ 141820Z AUTO 26009KT 9999 NCD 24/14 Q1018,EGXZ,2025-08-14T18:20:00Z,54.205,-1.39,24,14,260,9,,6+,30.06,,,TRUE,,,,,,,,CLR,,,,,,,,VFR,,,,,,,,,,,,METAR,24
EGXW 141820Z AUTO 27005KT 9999 SCT053/// SCT092/// 24/14 Q1018,EGXW,2025-08-14T18:20:00Z,53.175,-0.523,24,14,270,5,,6+,30.06,,,TRUE,,,,,,,,SCT,5300,SCT,9200,,,,,VFR,,,,,,,,,,,,METAR,70
EGXV 141820Z AUTO 27008KT 9999 NCD 25/15 Q1017,EGXV,2025-08-14T18:20:00Z,53.876,-0.435,25,15,270,8,,6+,30.03,,,TRUE,,,,,,,,CLR,,,,,,,,VFR,,,,,,,,,,,,METAR,6
EGXT 141820Z AUTO 25008KT 9999 FEW084/// 24/15 Q1018,EGXT,2025-08-14T18:20:00Z,52.611,-0.461,24,15,250,8,,6+,30.06,,,TRUE,,,,,,,,FEW,8400,,,,,,,VFR,,,,,,,,,,,,METAR,74
EGXS 141820Z AUTO 23009KT 9999 OVC079/// 25/15 Q1017,EGXS,2025-08-14T18:20:00Z,53.475,0.152,25,15,230,9,,6+,30.03,,,TRUE,,,,,,,,OVC,7900,,,,,,,VFR,,,,,,,,,,,,METAR,6
EGXE 141820Z AUTO 28010KT 9999 NCD 23/15 Q1018,EGXE,2025-08-14T18:20:00Z,54.297,-1.533,23,15,280,10,,6+,30.06,,,TRUE,,,,,,,,CLR,,,,,,,,VFR,,,,,,,,,,,,METAR,30
EGWU 141820Z 29008KT CAVOK 25/14 Q1019 NOSIG RMK BLU BLU,EGWU,2025-08-14T18:20:00Z,51.549,-0.417,25,14,290,8,,6+,30.09,,,,,,TRUE,,,,,CAVOK,,,,,,,,VFR,,,,,,,,,,,,METAR,33
EGVP 141820Z AUTO 30010KT 9999 NCD 23/14 Q1020,EGVP,2025-08-14T18:20:00Z,51.139,-1.569,23,14,300,10,,6+,30.12,,,TRUE,,,,,,,,CLR,,,,,,,,VFR,,,,,,,,,,,,METAR,80
EGVO 141820Z 28008KT CAVOK 25/14 Q1020 NOSIG RMK BLU BLU,EGVO,2025-08-14T18:20:00Z,51.239,-0.945,25,14,280,8,,6+,30.12,,,,,,TRUE,,,,,CAVOK,,,,,,,,VFR,,,,,,,,,,,,METAR,118
EGVN 141820Z AUTO 25007KT 9999 NCD 24/15 Q1020,EGVN,2025-08-14T18:20:00Z,51.758,-1.578,24,15,250,7,,6+,30.12,,,TRUE,,,,,,,,CLR,,,,,,,,VFR,,,,,,,,,,,,METAR,83
EGUW 141820Z AUTO 27008KT 9999 FEW053/// BKN067/// 25/13 Q1019,EGUW,2025-08-14T18:20:00Z,52.124,0.957,25,13,270,8,,6+,30.09,,,TRUE,,,,,,,,FEW,5300,BKN,6700,,,,,VFR,,,,,,,,,,,,METAR,86
EGUB 141820Z AUTO 27008KT 9999 FEW054/// 24/14 Q1019,EGUB,2025-08-14T18:20:00Z,51.62,-1.099,24,14,270,8,,6+,30.09,,,TRUE,,,,,,,,FEW,5400,,,,,,,VFR,,,,,,,,,,,,METAR,56
EGTK 141820Z 24010KT CAVOK 24/14 Q1019,EGTK,2025-08-14T18:20:00Z,51.838,-1.317,24,14,240,10,,6+,30.09,,,,,,,,,,,CAVOK,,,,,,,,VFR,,,,,,,,,,,,METAR,78
EGTE 141820Z 30007KT 270V330 9999 FEW030 23/14 Q1021,EGTE,2025-08-14T18:20:00Z,50.737,-3.406,23,14,300,7,,6+,30.15,,,,,,,,,,,FEW,3000,,,,,,,VFR,,,,,,,,,,,,METAR,30
EGSS 141820Z AUTO 27004KT 9999 NCD 26/14 Q1019,EGSS,2025-08-14T18:20:00Z,51.881,0.223,26,14,270,4,,6+,30.09,,,TRUE,,,,,,,,CLR,,,,,,,,VFR,,,,,,,,,,,,METAR,101
EGSH 141820Z 22006KT 200V260 9999 FEW040 25/15 Q1018 NOSIG,EGSH,2025-08-14T18:20:00Z,52.676,1.283,25,15,220,6,,6+,30.06,,,,,,TRUE,,,,,FEW,4000,,,,,,,VFR,,,,,,,,,,,,METAR,21
EGQM 141820Z AUTO 26011KT 9999 NCD 24/17 Q1016,EGQM,2025-08-14T18:20:00Z,55.421,-1.601,24,17,260,11,,6+,30.00,,,TRUE,,,,,,,,CLR,,,,,,,,VFR,,,,,,,,,,,,METAR,24
EGQK 141820Z AUTO 06003KT 9999 OVC055/// 21/15 Q1017,EGQK,2025-08-14T18:20:00Z,57.646,-3.563,21,15,60,3,,6+,30.03,,,TRUE,,,,,,,,OVC,5500,,,,,,,VFR,,,,,,,,,,,,METAR,5
EGQA 141820Z AUTO 30014KT 9999 OVC055/// 21/15 Q1016,EGQA,2025-08-14T18:20:00Z,57.825,-3.955,21,15,300,14,,6+,30.00,,,TRUE,,,,,,,,OVC,5500,,,,,,,VFR,,,,,,,,,,,,METAR,4
EGPU 141820Z AUTO 27008KT 9999 BKN004 15/14 Q////,EGPU,2025-08-14T18:20:00Z,56.499,-6.872,15,14,270,8,,6+,0.00,,,TRUE,,,,,,,,BKN,400,,,,,,,LIFR,,,,,,,,,,,,METAR,12
EGPO 141820Z 19003KT 9999 FEW006 BKN010 15/14 Q1019,EGPO,2025-08-14T18:20:00Z,58.215,-6.329,15,14,190,3,,6+,30.09,,,,,,,,,,,FEW,600,BKN,1000,,,,,MVFR,,,,,,,,,,,,METAR,10
EGPN 141820Z 34005KT 290V010 9999 FEW030 21/17 Q1015,EGPN,2025-08-14T18:20:00Z,56.453,-3.026,21,17,340,5,,6+,29.97,,,,,,,,,,,FEW,3000,,,,,,,VFR,,,,,,,,,,,,METAR,4
EGPL 141820Z AUTO 32005KT 9999 OVC000/// 15/14 Q1019,EGPL,2025-08-14T18:20:00Z,57.475,-7.364,15,14,320,5,,6+,30.09,,,TRUE,,,,,,,,OVC,0,,,,,,,LIFR,,,,,,,,,,,,METAR,3
EGPK 141820Z 31007KT 9999 FEW012 18/15 Q1019,EGPK,2025-08-14T18:20:00Z,55.509,-4.587,18,15,310,7,,6+,30.09,,,,,,,,,,,FEW,1200,,,,,,,VFR,,,,,,,,,,,,METAR,14
EGPI 141820Z AUTO 33006KT 9999 OVC008/// 16/14 Q1020,EGPI,2025-08-14T18:20:00Z,55.681,-6.25,16,14,330,6,,6+,30.12,,,TRUE,,,,,,,,OVC,800,,,,,,,IFR,,,,,,,,,,,,METAR,17
EGPH 141820Z 26010KT 9999 FEW027 22/15 Q1017,EGPH,2025-08-14T18:20:00Z,55.952,-3.36,22,15,260,10,,6+,30.03,,,,,,,,,,,FEW,2700,,,,,,,VFR,,,,,,,,,,,,METAR,29
EGPF 141820Z AUTO 28011KT 9999 NCD 19/15 Q1018,EGPF,2025-08-14T18:20:00Z,55.867,-4.433,19,15,280,11,,6+,30.06,,,TRUE,,,,,,,,CLR,,,,,,,,VFR,,,,,,,,,,,,METAR,8
EGPE 141820Z 21004KT 9999 4000S TS VCSH FEW008 FEW015CB 20/18 Q1017,EGPE,2025-08-14T18:20:00Z,57.538,-4.053,20,18,210,4,,6+,30.03,,,,,,,,,,VCSH TS,FEW,800,FEW,1500,,,,,VFR,,,,,,,,,,,,METAR,7
EGPD 141820Z AUTO 30003KT 230V360 9999 //////CB 20/16 Q1016 RETS TEMPO SHRA,EGPD,2025-08-14T18:20:00Z,57.205,-2.205,20,16,300,3,,6+,30.00,,,TRUE,,,,,,,,,,,,,,,,VFR,,,,,,,,,,,,METAR,65
EGPC 141820Z AUTO 30018KT 7000 OVC001/// 14/13 Q1016,EGPC,2025-08-14T18:20:00Z,58.459,-3.093,14,13,300,18,,4.35,30.00,,,TRUE,,,,,,,,OVC,100,,,,,,,LIFR,,,,,,,,,,,,METAR,38
EGPB 141820Z 29004KT 9999 6000E VCFG FEW003 16/14 Q1015 NOSIG,EGPB,2025-08-14T18:20:00Z,59.88,-1.296,16,14,290,4,,6+,29.97,,,,,,TRUE,,,,VCFG,FEW,300,,,,,,,VFR,,,,,,,,,,,,METAR,2
EGPA 141820Z 33010KT 4000 -RA VCFG BKN004 15/13 Q1016,EGPA,2025-08-14T18:20:00Z,58.958,-2.905,15,13,330,10,,2.49,30.00,,,,,,,,,,-RA VCFG,BKN,400,,,,,,,LIFR,,,,,,,,,,,,METAR,15
EGOV 141820Z AUTO 20008KT 9999 NCD 18/16 Q1020,EGOV,2025-08-14T18:20:00Z,53.252,-4.536,18,16,200,8,,6+,30.12,,,TRUE,,,,,,,,CLR,,,,,,,,VFR,,,,,,,,,,,,METAR,11
EGOS 141820Z AUTO 31008KT 9999 // OVC024/// 19/18 Q1020,EGOS,2025-08-14T18:20:00Z,52.795,-2.665,19,18,310,8,,6+,30.12,,,TRUE,,,,,,,,OVC,2400,,,,,,,MVFR,,,,,,,,,,,,METAR,76
EGOP 141820Z AUTO 25015KT 9999 OVC039/// 19/17 Q1021,EGOP,2025-08-14T18:20:00Z,51.714,-4.367,19,17,250,15,,6+,30.15,,,TRUE,,,,,,,,OVC,3900,,,,,,,VFR,,,,,,,,,,,,METAR,8
EGOM 141820Z AUTO 27009KT 6000 BR OVC004/// 18/16 Q1018,EGOM,2025-08-14T18:20:00Z,55.05,-2.554,18,16,270,9,,3.73,30.06,,,TRUE,,,,,,,BR,OVC,400,,,,,,,LIFR,,,,,,,,,,,,METAR,286
EGNX 141820Z 27010KT 9999 FEW028 23/17 Q1019,EGNX,2025-08-14T18:20:00Z,52.833,-1.333,23,17,270,10,,6+,30.09,,,,,,,,,,,FEW,2800,,,,,,,VFR,,,,,,,,,,,,METAR,91
EGNT 141820Z 28012KT CAVOK 22/17 Q1017,EGNT,2025-08-14T18:20:00Z,55.037,-1.702,22,17,280,12,,6+,30.03,,,,,,,,,,,CAVOK,,,,,,,,VFR,,,,,,,,,,,,METAR,77
EGNS 141820Z 29010KT 4000 BR FEW000 17/16 Q1020 NOSIG,EGNS,2025-08-14T18:20:00Z,54.085,-4.632,17,16,290,10,,2.49,30.12,,,,,,TRUE,,,,BR,FEW,0,,,,,,,IFR,,,,,,,,,,,,METAR,18
EGNR 141820Z 31005KT 270V360 9999 VCSH FEW038 22/17 Q1020,EGNR,2025-08-14T18:20:00Z,53.175,-2.987,22,17,310,5,,6+,30.12,,,,,,,,,,VCSH,FEW,3800,,,,,,,VFR,,,,,,,,,,,,METAR,11
EGNM 141820Z 27011KT 9999 FEW037 22/14 Q1019,EGNM,2025-08-14T18:20:00Z,53.862,-1.665,22,14,270,11,,6+,30.09,,,,,,,,,,,FEW,3700,,,,,,,VFR,,,,,,,,,,,,METAR,221
EGNJ 141820Z 25010KT 9999 FEW048 26/15 Q1018,EGNJ,2025-08-14T18:20:00Z,53.58,-0.341,26,15,250,10,,6+,30.06,,,,,,,,,,,FEW,4800,,,,,,,VFR,,,,,,,,,,,,METAR,23
EGNH 141820Z 30007KT 4000 FEW000 BKN003 18/17 Q1019,EGNH,2025-08-14T18:20:00Z,53.774,-3.039,18,17,300,7,,2.49,30.09,,,,,,,,,,,FEW,0,BKN,300,,,,,LIFR,,,,,,,,,,,,METAR,10
EGMD 141820Z AUTO 23011KT 9999 NCD 20/17 Q1020,EGMD,2025-08-14T18:20:00Z,50.956,0.939,20,17,230,11,,6+,30.12,,,TRUE,,,,,,,,CLR,,,,,,,,VFR,,,,,,,,,,,,METAR,4
EGMC 141820Z 18008KT CAVOK 25/17 Q1019,EGMC,2025-08-14T18:20:00Z,51.571,0.696,25,17,180,8,,6+,30.09,,,,,,,,,,,CAVOK,,,,,,,,VFR,,,,,,,,,,,,METAR,15
EGLL 141820Z AUTO 28006KT 9999 NCD 26/13 Q1019,EGLL,2025-08-14T18:20:00Z,51.477,-0.461,26,13,280,6,,6+,30.09,,,TRUE,,,,,,,,CLR,,,,,,,,VFR,,,,,,,,,,,,METAR,26
EGLF 141820Z 29008KT 250V320 9999 FEW048 26/14 Q1019,EGLF,2025-08-14T18:20:00Z,51.28,-0.773,26,14,290,8,,6+,30.09,,,,,,,,,,,FEW,4800,,,,,,,VFR,,,,,,,,,,,,METAR,65
EGLC 141820Z AUTO 21008KT 170V240 9999 NCD 25/17 Q1019,EGLC,2025-08-14T18:20:00Z,51.505,0.055,25,17,210,8,,6+,30.09,,,TRUE,,,,,,,,CLR,,,,,,,,VFR,,,,,,,,,,,,METAR,10
EGKK 141820Z 19007KT CAVOK 23/17 Q1020,EGKK,2025-08-14T18:20:00Z,51.148,-0.19,23,17,190,7,,6+,30.12,,,,,,,,,,,CAVOK,,,,,,,,VFR,,,,,,,,,,,,METAR,58
EGKB 141820Z 19010KT CAVOK 22/16 Q1020,EGKB,2025-08-14T18:20:00Z,51.33,0.033,22,16,190,10,,6+,30.12,,,,,,,,,,,CAVOK,,,,,,,,VFR,,,,,,,,,,,,METAR,183
EGKA 141820Z 21008KT CAVOK 20/18 Q1020,EGKA,2025-08-14T18:20:00Z,50.836,-0.294,20,18,210,8,,6+,30.12,,,,,,,,,,,CAVOK,,,,,,,,VFR,,,,,,,,,,,,METAR,2
EGJJ 141820Z 36006KT 320V040 CAVOK 20/15 Q1021,EGJJ,2025-08-14T18:20:00Z,49.21,-2.194,20,15,360,6,,6+,30.15,,,,,,,,,,,CAVOK,,,,,,,,VFR,,,,,,,,,,,,METAR,84
EGJB 141820Z 33006KT 9999 FEW010 19/16 Q1022,EGJB,2025-08-14T18:20:00Z,49.433,-2.598,19,16,330,6,,6+,30.18,,,,,,,,,,,FEW,1000,,,,,,,VFR,,,,,,,,,,,,METAR,102
EGHQ 141820Z 29008KT CAVOK 18/15 Q1022,EGHQ,2025-08-14T18:20:00Z,50.438,-4.998,18,15,290,8,,6+,30.18,,,,,,,,,,,CAVOK,,,,,,,,VFR,,,,,,,,,,,,METAR,101
EGHI 141820Z 23007KT 9999 SCT043 23/16 Q1020,EGHI,2025-08-14T18:20:00Z,50.944,-1.358,23,16,230,7,,6+,30.12,,,,,,,,,,,SCT,4300,,,,,,,VFR,,,,,,,,,,,,METAR,13
EGHH 141820Z 25007KT 9999 SCT038 22/16 Q1020,EGHH,2025-08-14T18:20:00Z,50.779,-1.836,22,16,250,7,,6+,30.12,,,,,,,,,,,SCT,3800,,,,,,,VFR,,,,,,,,,,,,METAR,9
EGGW 141820Z AUTO 26010KT 9999 NCD 24/14 Q1020,EGGW,2025-08-14T18:20:00Z,51.875,-0.368,24,14,260,10,,6+,30.12,,,TRUE,,,,,,,,CLR,,,,,,,,VFR,,,,,,,,,,,,METAR,159
EGGP 141820Z 29011KT CAVOK 21/15 Q1020,EGGP,2025-08-14T18:20:00Z,53.334,-2.85,21,15,290,11,,6+,30.12,,,,,,,,,,,CAVOK,,,,,,,,VFR,,,,,,,,,,,,METAR,23
EGGD 141820Z AUTO 27012KT 9999 BKN039 19/14 Q1022,EGGD,2025-08-14T18:20:00Z,51.383,-2.719,19,14,270,12,,6+,30.18,,,TRUE,,,,,,,,BKN,3900,,,,,,,VFR,,,,,,,,,,,,METAR,182
EGFF 141820Z AUTO 30010KT 9999 SCT014 20/16 Q1022,EGFF,2025-08-14T18:20:00Z,51.397,-3.343,20,16,300,10,,6+,30.18,,,TRUE,,,,,,,,SCT,1400,,,,,,,VFR,,,,,,,,,,,,METAR,65
EGDY 141820Z AUTO 32011KT 9999 NCD 21/14 Q1021,EGDY,2025-08-14T18:20:00Z,51.006,-2.643,21,14,320,11,,6+,30.15,,,TRUE,,,,,,,,CLR,,,,,,,,VFR,,,,,,,,,,,,METAR,21
EGDR 141820Z AUTO 25004KT 9999 BKN027/// 19/13 Q1022,EGDR,2025-08-14T18:20:00Z,50.084,-5.257,19,13,250,4,,6+,30.18,,,TRUE,,,,,,,,BKN,2700,,,,,,,MVFR,,,,,,,,,,,,METAR,74
EGDM 141820Z AUTO 30011KT 9999 NCD 22/14 Q1020,EGDM,2025-08-14T18:20:00Z,51.153,-1.75,22,14,300,11,,6+,30.12,,,TRUE,,,,,,,,CLR,,,,,,,,VFR,,,,,,,,,,,,METAR,122
EGCK 141820Z AUTO 24007KT 9999 NCD 20/17 Q1020,EGCK,2025-08-14T18:20:00Z,53.104,-4.34,20,17,240,7,,6+,30.12,,,TRUE,,,,,,,,CLR,,,,,,,,VFR,,,,,,,,,,,,METAR,6
EGCC 141820Z 29007KT 9999 FEW045TCU 22/16 Q1019,EGCC,2025-08-14T18:20:00Z,53.354,-2.275,22,16,290,7,,6+,30.09,,,,,,,,,,,FEW,4500,,,,,,,VFR,,,,,,,,,,,,METAR,78
EGBJ 141820Z 26006KT 9999 FEW040 23/16 Q1020,EGBJ,2025-08-14T18:20:00Z,51.892,-2.161,23,16,260,6,,6+,30.12,,,,,,,,,,,FEW,4000,,,,,,,VFR,,,,,,,,,,,,METAR,27
EGBB 141820Z 26008KT 230V300 9999 SCT041 24/14 Q1019,EGBB,2025-08-14T18:20:00Z,52.46,-1.758,24,14,260,8,,6+,30.09,,,,,,,,,,,SCT,4100,,,,,,,VFR,,,,,,,,,,,,METAR,91
EGAE 141820Z 03007KT 9999 FEW012 BKN043 18/15 Q1020,EGAE,2025-08-14T18:20:00Z,55.043,-7.161,18,15,30,7,,6+,30.12,,,,,,,,,,,FEW,1200,BKN,4300,,,,,VFR,,,,,,,,,,,,METAR,9
EGAC 141820Z AUTO 03004KT 9999 -RA FEW044/// //////CB 19/16 Q1020,EGAC,2025-08-14T18:20:00Z,54.614,-5.873,19,16,30,4,,6+,30.12,,,TRUE,,,,,,,-RA,FEW,4400,,,,,,,VFR,,,,,,,,,,,,METAR,2
EGAA 141820Z AUTO 35005KT 300V020 9999 //////CB 19/17 Q1020,EGAA,2025-08-14T18:20:00Z,54.654,-6.225,19,17,350,5,,6+,30.12,,,TRUE,,,,,,,,,,,,,,,,VFR,,,,,,,,,,,,METAR,65
EFVA 141820Z AUTO 18005KT CAVOK 20/16 Q1020,EFVA,2025-08-14T18:20:00Z,63.051,21.762,20,16,180,5,,6+,30.12,,,TRUE,,,,,,,,CAVOK,,,,,,,,VFR,,,,,,,,,,,,METAR,4
EFUT 141820Z AUTO 22006KT CAVOK 20/13 Q1023,EFUT,2025-08-14T18:20:00Z,60.896,26.938,20,13,220,6,,6+,30.21,,,TRUE,,,,,,,,CAVOK,,,,,,,,VFR,,,,,,,,,,,,METAR,104
EFTU 141820Z AUTO 18004KT CAVOK 20/11 Q1023,EFTU,2025-08-14T18:20:00Z,60.514,22.263,20,11,180,4,,6+,30.21,,,TRUE,,,,,,,,CAVOK,,,,,,,,VFR,,,,,,,,,,,,METAR,47
EFTP 141820Z AUTO 21006KT CAVOK 21/15 Q1022,EFTP,2025-08-14T18:20:00Z,61.419,23.616,21,15,210,6,,6+,30.18,,,TRUE,,,,,,,,CAVOK,,,,,,,,VFR,,,,,,,,,,,,METAR,111
EFSI 141820Z AUTO 21004KT CAVOK 21/15 Q1021,EFSI,2025-08-14T18:20:00Z,62.693,22.83,21,15,210,4,,6+,30.15,,,TRUE,,,,,,,,CAVOK,,,,,,,,VFR,,,,,,,,,,,,METAR,90
EFSA 141820Z AUTO VRB02KT CAVOK 15/12 Q1023,EFSA,2025-08-14T18:20:00Z,61.943,28.945,15,12,VRB,2,,6+,30.21,,,TRUE,,,,,,,,CAVOK,,,,,,,,VFR,,,,,,,,,,,,METAR,90
EFRO 141820Z AUTO 21012KT CAVOK 17/14 Q1017,EFRO,2025-08-14T18:20:00Z,66.562,25.829,17,14,210,12,,6+,30.03,,,TRUE,,,,,,,,CAVOK,,,,,,,,VFR,,,,,,,,,,,,METAR,201
EFPO 141820Z AUTO 19004KT CAVOK 20/16 Q1021,EFPO,2025-08-14T18:20:00Z,61.462,21.8,20,16,190,4,,6+,30.15,,,TRUE,,,,,,,,CAVOK,,,,,,,,VFR,,,,,,,,,,,,METAR,10
EFOU 141820Z AUTO 16005KT CAVOK 19/14 Q1019,EFOU,2025-08-14T18:20:00Z,64.93,25.355,19,14,160,5,,6+,30.09,,,TRUE,,,,,,,,CAVOK,,,,,,,,VFR,,,,,,,,,,,,METAR,15
EFMI 141820Z AUTO 00000KT CAVOK 15/13 Q1023,EFMI,2025-08-14T18:20:00Z,61.687,27.201,15,13,0,0,,6+,30.21,,,TRUE,,,,,,,,CAVOK,,,,,,,,VFR,,,,,,,,,,,,METAR,99
EFMA 141820Z AUTO 19010KT CAVOK 19/16 Q1022,EFMA,2025-08-14T18:20:00Z,60.125,19.903,19,16,190,10,,6+,30.18,,,TRUE,,,,,,,,CAVOK,,,,,,,,VFR,,,,,,,,,,,,METAR,6
EFLP 141820Z AUTO 22003KT CAVOK 19/12 Q1023,EFLP,2025-08-14T18:20:00Z,61.044,28.151,19,12,220,3,,6+,30.21,,,TRUE,,,,,,,,CAVOK,,,,,,,,VFR,,,,,,,,,,,,METAR,102
EFKU 141820Z AUTO 22003KT CAVOK 21/10 Q1022,EFKU,2025-08-14T18:20:00Z,63.008,27.799,21,10,220,3,,6+,30.18,,,TRUE,,,,,,,,CAVOK,,,,,,,,VFR,,,,,,,,,,,,METAR,92
EFKT 141820Z AUTO 19004KT CAVOK 18/14 Q1015,EFKT,2025-08-14T18:20:00Z,67.701,24.847,18,14,190,4,,6+,29.97,,,TRUE,,,,,,,,CAVOK,,,,,,,,VFR,,,,,,,,,,,,METAR,190
EFKS 141820Z AUTO 23007KT CAVOK 18/11 Q1019,EFKS,2025-08-14T18:20:00Z,65.992,29.236,18,11,230,7,,6+,30.09,,,TRUE,,,,,,,,CAVOK,,,,,,,,VFR,,,,,,,,,,,,METAR,270
EFKK 141820Z AUTO VRB02KT CAVOK 19/15 Q1019,EFKK,2025-08-14T18:20:00Z,63.721,23.143,19,15,VRB,2,,6+,30.09,,,TRUE,,,,,,,,CAVOK,,,,,,,,VFR,,,,,,,,,,,,METAR,25
EFKI 141820Z AUTO 16003KT CAVOK 17/13 Q1021,EFKI,2025-08-14T18:20:00Z,64.283,27.673,17,13,160,3,,6+,30.15,,,TRUE,,,,,,,,CAVOK,,,,,,,,VFR,,,,,,,,,,,,METAR,132
EFKE 141820Z AUTO 22010KT CAVOK 19/15 Q1018,EFKE,2025-08-14T18:20:00Z,65.784,24.579,19,15,220,10,,6+,30.06,,,TRUE,,,,,,,,CAVOK,,,,,,,,VFR,,,,,,,,,,,,METAR,15
EFJY 141820Z AUTO 19003KT CAVOK 17/14 Q1022,EFJY,2025-08-14T18:20:00Z,62.404,25.675,17,14,190,3,,6+,30.18,,,TRUE,,,,,,,,CAVOK,,,,,,,,VFR,,,,,,,,,,,,METAR,139
EFJO 141820Z AUTO 15001KT CAVOK 16/10 Q1022,EFJO,2025-08-14T18:20:00Z,62.66,29.611,16,10,150,1,,6+,30.18,,,TRUE,,,,,,,,CAVOK,,,,,,,,VFR,,,,,,,,,,,,METAR,118
EFIV 141820Z AUTO 20006KT CAVOK 19/12 Q1015,EFIV,2025-08-14T18:20:00Z,68.607,27.405,19,12,200,6,,6+,29.97,,,TRUE,,,,,,,,CAVOK,,,,,,,,VFR,,,,,,,,,,,,METAR,145
EFHK 141820Z 20006KT CAVOK 20/12 Q1024 NOSIG,EFHK,2025-08-14T18:20:00Z,60.327,24.957,20,12,200,6,,6+,30.24,,,,,,TRUE,,,,,CAVOK,,,,,,,,VFR,,,,,,,,,,,,METAR,56
EFHA 141820Z AUTO 18003KT CAVOK 21/13 Q1022,EFHA,2025-08-14T18:20:00Z,61.855,24.805,21,13,180,3,,6+,30.18,,,TRUE,,,,,,,,CAVOK,,,,,,,,VFR,,,,,,,,,,,,METAR,144
EFET 141820Z AUTO 17007KT 9999 FEW041 //////CB 14/12 Q1014,EFET,2025-08-14T18:20:00Z,68.363,23.424,14,12,170,7,,6+,29.94,,,TRUE,,,,,,,,FEW,4100,,,,,,,VFR,,,,,,,,,,,,METAR,300
EETU 141820Z AUTO 26002KT 9999 FEW200/// 16/14 Q1024,EETU,2025-08-14T18:20:00Z,58.307,26.691,16,14,260,2,,6+,30.24,,,TRUE,,,,,,,,FEW,20000,,,,,,,VFR,,,,,,,,,,,,METAR,67
EETN 141820Z VRB02KT 9999 SCT048 20/14 Q1024 NOSIG,EETN,2025-08-14T18:20:00Z,59.413,24.801,20,14,VRB,2,,6+,30.24,,,,,,TRUE,,,,,SCT,4800,,,,,,,VFR,,,,,,,,,,,,METAR,41
EEPU 141820Z AUTO 00000KT 9999 NCD 17/16 Q1025,EEPU,2025-08-14T18:20:00Z,58.419,24.473,17,16,0,0,,6+,30.27,,,TRUE,,,,,,,,CLR,,,,,,,,VFR,,,,,,,,,,,,METAR,13
EEKE 141820Z AUTO VRB01KT 9999 NCD 17/16 Q1024,EEKE,2025-08-14T18:20:00Z,58.23,22.509,17,16,VRB,1,,6+,30.24,,,TRUE,,,,,,,,CLR,,,,,,,,VFR,,,,,,,,,,,,METAR,4
EEKA 141820Z AUTO VRB01KT 9999 NCD 18/17 Q1024,EEKA,2025-08-14T18:20:00Z,58.991,22.831,18,17,VRB,1,,6+,30.24,,,TRUE,,,,,,,,CLR,,,,,,,,VFR,,,,,,,,,,,,METAR,6
EDXW 141820Z 20004KT CAVOK 24/20 Q1018,EDXW,2025-08-14T18:20:00Z,54.913,8.341,24,20,200,4,,6+,30.06,,,,,,,,,,,CAVOK,,,,,,,,VFR,,,,,,,,,,,,METAR,8
EDWE 141820Z AUTO 08003KT CAVOK 26/22 Q1018,EDWE,2025-08-14T18:20:00Z,53.388,7.229,26,22,80,3,,6+,30.06,,,TRUE,,,,,,,,CAVOK,,,,,,,,VFR,,,,,,,,,,,,METAR,
EDVK 141820Z VRB01KT CAVOK 29/18 Q1018,EDVK,2025-08-14T18:20:00Z,51.421,9.388,29,18,VRB,1,,6+,30.06,,,,,,,,,,,CAVOK,,,,,,,,VFR,,,,,,,,,,,,METAR,262
EDVE 141820Z AUTO 09002KT CAVOK 28/18 Q1017,EDVE,2025-08-14T18:20:00Z,52.319,10.558,28,18,90,2,,6+,30.03,,,TRUE,,,,,,,,CAVOK,,,,,,,,VFR,,,,,,,,,,,,METAR,83
EDTY 141820Z AUTO 07003KT 030V100 9999 // FEW014/// 28/18 Q1019,EDTY,2025-08-14T18:20:00Z,49.118,9.784,28,18,70,3,,6+,30.09,,,TRUE,,,,,,,,FEW,1400,,,,,,,VFR,,,,,,,,,,,,METAR,398
EDTL 141820Z AUTO 35003KT 9999 // NCD 29/20 Q1017,EDTL,2025-08-14T18:20:00Z,48.369,7.828,29,20,350,3,,6+,30.03,,,TRUE,,,,,,,,CLR,,,,,,,,VFR,,,,,,,,,,,,METAR,152
EDSB 141820Z 33003KT CAVOK 28/21 Q1017,EDSB,2025-08-14T18:20:00Z,48.779,8.081,28,21,330,3,,6+,30.03,,,,,,,,,,,CAVOK,,,,,,,,VFR,,,,,,,,,,,,METAR,122
EDQM 141820Z AUTO 01005KT 340V050 9999 // NCD 24/16 Q1021,EDQM,2025-08-14T18:20:00Z,50.289,11.86,24,16,10,5,,6+,30.15,,,TRUE,,,,,,,,CLR,,,,,,,,VFR,,,,,,,,,,,,METAR,578
EDNY 141820Z 04003KT CAVOK 28/17 Q1019,EDNY,2025-08-14T18:20:00Z,47.671,9.511,28,17,40,3,,6+,30.09,,,,,,,,,,,CAVOK,,,,,,,,VFR,,,,,,,,,,,,METAR,411
EDMO 141820Z AUTO 10003KT CAVOK 27/16 Q1020,EDMO,2025-08-14T18:20:00Z,48.081,11.283,27,16,100,3,,6+,30.12,,,TRUE,,,,,,,,CAVOK,,,,,,,,VFR,,,,,,,,,,,,METAR,587
EDMA 141820Z 08003KT CAVOK 27/19 Q1019,EDMA,2025-08-14T18:20:00Z,48.425,10.932,27,19,80,3,,6+,30.09,,,,,,,,,,,CAVOK,,,,,,,,VFR,,,,,,,,,,,,METAR,462
EDLW 141820Z 29003KT 260V340 CAVOK 30/16 Q1018,EDLW,2025-08-14T18:20:00Z,51.518,7.612,30,16,290,3,,6+,30.06,,,,,,,,,,,CAVOK,,,,,,,,VFR,,,,,,,,,,,,METAR,122
EDLV 141820Z 30008KT CAVOK 27/20 Q1018,EDLV,2025-08-14T18:20:00Z,51.602,6.142,27,20,300,8,,6+,30.06,,,,,,,,,,,CAVOK,,,,,,,,VFR,,,,,,,,,,,,METAR,27
EDLP 141820Z VRB01KT CAVOK 29/18 Q1018,EDLP,2025-08-14T18:20:00Z,51.614,8.616,29,18,VRB,1,,6+,30.06,,,,,,,,,,,CAVOK,,,,,,,,VFR,,,,,,,,,,,,METAR,211
EDLN 141820Z 00000KT CAVOK 27/19 Q1017,EDLN,2025-08-14T18:20:00Z,51.23,6.504,27,19,0,0,,6+,30.03,,,,,,,,,,,CAVOK,,,,,,,,VFR,,,,,,,,,,,,METAR,38
EDJA 141820Z 02003KT CAVOK 27/16 Q1019,EDJA,2025-08-14T18:20:00Z,47.989,10.239,27,16,20,3,,6+,30.09,,,,,,,,,,,CAVOK,,,,,,,,VFR,,,,,,,,,,,,METAR,625
EDHL 141820Z AUTO VRB01KT 9999 // FEW160/// 27/20 Q1017,EDHL,2025-08-14T18:20:00Z,53.805,10.719,27,20,VRB,1,,6+,30.03,,,TRUE,,,,,,,,FEW,16000,,,,,,,VFR,,,,,,,,,,,,METAR,13
EDHK 141820Z AUTO 33003KT 9999 // SCT140/// 24/19 Q1018,EDHK,2025-08-14T18:20:00Z,54.376,10.143,24,19,330,3,,6+,30.06,,,TRUE,,,,,,,,SCT,14000,,,,,,,VFR,,,,,,,,,,,,METAR,24
EDHI 141820Z AUTO 36003KT 320V020 9999 // FEW140/// BKN180/// 26/22 Q1018,EDHI,2025-08-14T18:20:00Z,53.536,9.837,26,22,360,3,,6+,30.06,,,TRUE,,,,,,,,FEW,14000,BKN,18000,,,,,VFR,,,,,,,,,,,,METAR,5
EDGS 141820Z AUTO 32006KT 9999 // SCT066/// 26/17 Q1021,EDGS,2025-08-14T18:20:00Z,50.708,8.083,26,17,320,6,,6+,30.15,,,TRUE,,,,,,,,SCT,6600,,,,,,,VFR,,,,,,,,,,,,METAR,595
EDFM 141820Z 07003KT CAVOK 34/16 Q1017,EDFM,2025-08-14T18:20:00Z,49.474,8.515,34,16,70,3,,6+,30.03,,,,,,,,,,,CAVOK,,,,,,,,VFR,,,,,,,,,,,,METAR,94
EDFH 141820Z 30004KT CAVOK 28/17 Q1020,EDFH,2025-08-14T18:20:00Z,49.946,7.265,28,17,300,4,,6+,30.12,,,,,,,,,,,CAVOK,,,,,,,,VFR,,,,,,,,,,,,METAR,494
EDDW 141820Z AUTO 05003KT 340V130 9999 SHRA FEW///CB 27/21 Q1017 BECMG NSW,EDDW,2025-08-14T18:20:00Z,53.047,8.787,27,21,50,3,,6+,30.03,,,TRUE,,,,,,,SHRA,,,,,,,,,VFR,,,,,,,,,,,,METAR,5
EDDV 141820Z AUTO 34005KT 320V030 CAVOK 29/18 Q1017 NOSIG,EDDV,2025-08-14T18:20:00Z,52.466,9.68,29,18,340,5,,6+,30.03,,,TRUE,,,TRUE,,,,,CAVOK,,,,,,,,VFR,,,,,,,,,,,,METAR,53
EDDS 141820Z AUTO 36006KT 330V030 CAVOK 30/18 Q1018 NOSIG,EDDS,2025-08-14T18:20:00Z,48.69,9.222,30,18,360,6,,6+,30.06,,,TRUE,,,TRUE,,,,,CAVOK,,,,,,,,VFR,,,,,,,,,,,,METAR,374
EDDR 141820Z AUTO 30004KT CAVOK 29/18 Q1019 NOSIG,EDDR,2025-08-14T18:20:00Z,49.213,7.108,29,18,300,4,,6+,30.09,,,TRUE,,,TRUE,,,,,CAVOK,,,,,,,,VFR,,,,,,,,,,,,METAR,317
EDDP 141820Z AUTO 06006KT CAVOK 29/14 Q1018 NOSIG,EDDP,2025-08-14T18:20:00Z,51.435,12.24,29,14,60,6,,6+,30.06,,,TRUE,,,TRUE,,,,,CAVOK,,,,,,,,VFR,,,,,,,,,,,,METAR,129
EDDN 141820Z AUTO 01003KT CAVOK 29/19 Q1018 NOSIG,EDDN,2025-08-14T18:20:00Z,49.503,11.055,29,19,10,3,,6+,30.06,,,TRUE,,,TRUE,,,,,CAVOK,,,,,,,,VFR,,,,,,,,,,,,METAR,312
EDDM 141820Z AUTO VRB01KT CAVOK 25/20 Q1019 NOSIG,EDDM,2025-08-14T18:20:00Z,48.348,11.813,25,20,VRB,1,,6+,30.09,,,TRUE,,,TRUE,,,,,CAVOK,,,,,,,,VFR,,,,,,,,,,,,METAR,445
EDDL 141820Z AUTO 06003KT CAVOK 29/19 Q1018 NOSIG,EDDL,2025-08-14T18:20:00Z,51.296,6.769,29,19,60,3,,6+,30.06,,,TRUE,,,TRUE,,,,,CAVOK,,,,,,,,VFR,,,,,,,,,,,,METAR,37
EDDK 141820Z AUTO 02003KT CAVOK 28/20 Q1018 NOSIG,EDDK,2025-08-14T18:20:00Z,50.865,7.157,28,20,20,3,,6+,30.06,,,TRUE,,,TRUE,,,,,CAVOK,,,,,,,,VFR,,,,,,,,,,,,METAR,92
EDDH 141820Z AUTO 32004KT CAVOK 26/22 Q1017 TEMPO SHRA SCT035CB,EDDH,2025-08-14T18:20:00Z,53.633,9.988,26,22,320,4,,6+,30.03,,,TRUE,,,,,,,,CAVOK,,,,,,,,VFR,,,,,,,,,,,,METAR,8
EDDG 141820Z AUTO VRB02KT CAVOK 28/20 Q1018 NOSIG,EDDG,2025-08-14T18:20:00Z,52.135,7.697,28,20,VRB,2,,6+,30.06,,,TRUE,,,TRUE,,,,,CAVOK,,,,,,,,VFR,,,,,,,,,,,,METAR,46
EDDF 141820Z AUTO 31004KT 260V350 CAVOK 29/18 Q1017 NOSIG,EDDF,2025-08-14T18:20:00Z,50.045,8.598,29,18,310,4,,6+,30.03,,,TRUE,,,TRUE,,,,,CAVOK,,,,,,,,VFR,,,,,,,,,,,,METAR,113
EDDE 141820Z AUTO 05003KT CAVOK 30/12 Q1019 NOSIG,EDDE,2025-08-14T18:20:00Z,50.983,10.961,30,12,50,3,,6+,30.09,,,TRUE,,,TRUE,,,,,CAVOK,,,,,,,,VFR,,,,,,,,,,,,METAR,314
EDDC 141820Z AUTO VRB02KT CAVOK 29/14 Q1019 NOSIG,EDDC,2025-08-14T18:20:00Z,51.128,13.7543,29,14,VRB,2,,6+,30.09,,,TRUE,,,TRUE,,,,,CAVOK,,,,,,,,VFR,,,,,,,,,,,,METAR,227
EDDB 141820Z AUTO 05004KT CAVOK 28/18 Q1018 NOSIG,EDDB,2025-08-14T18:20:00Z,52.3807,13.5306,28,18,50,4,,6+,30.06,,,TRUE,,,TRUE,,,,,CAVOK,,,,,,,,VFR,,,,,,,,,,,,METAR,48
EDBC 141820Z AUTO 10006KT CAVOK 29/12 Q1018,EDBC,2025-08-14T18:20:00Z,51.856,11.42,29,12,100,6,,6+,30.06,,,TRUE,,,,,,,,CAVOK,,,,,,,,VFR,,,,,,,,,,,,METAR,178
EDAH 141820Z AUTO 05004KT 9999 // NCD 24/17 Q1019,EDAH,2025-08-14T18:20:00Z,53.879,14.152,24,17,50,4,,6+,30.09,,,TRUE,,,,,,,,CLR,,,,,,,,VFR,,,,,,,,,,,,METAR,22
EDAC 141820Z AUTO VRB02KT 9999 // NCD 26/17 Q1018,EDAC,2025-08-14T18:20:00Z,50.982,12.506,26,17,VRB,2,,6+,30.06,,,TRUE,,,,,,,,CLR,,,,,,,,VFR,,,,,,,,,,,,METAR,193
EBOS 141820Z 28011KT CAVOK 20/17 Q1021 NOSIG,EBOS,2025-08-14T18:20:00Z,51.199,2.862,20,17,280,11,,6+,30.15,,,,,,TRUE,,,,,CAVOK,,,,,,,,VFR,,,,,,,,,,,,METAR,5
EBLG 141820Z 32005KT 210V350 CAVOK 28/20 Q1019 NOSIG,EBLG,2025-08-14T18:20:00Z,50.637,5.443,28,20,320,5,,6+,30.09,,,,,,TRUE,,,,,CAVOK,,,,,,,,VFR,,,,,,,,,,,,METAR,187
EBCI 141820Z 32004KT 280V030 CAVOK 27/18 Q1020 NOSIG,EBCI,2025-08-14T18:20:00Z,50.459,4.454,27,18,320,4,,6+,30.12,,,,,,TRUE,,,,,CAVOK,,,,,,,,VFR,,,,,,,,,,,,METAR,176
EBBR 141820Z 33008KT CAVOK 24/17 Q1020 NOSIG,EBBR,2025-08-14T18:20:00Z,50.896,4.526,24,17,330,8,,6+,30.12,,,,,,TRUE,,,,,CAVOK,,,,,,,,VFR,,,,,,,,,,,,METAR,49
EBAW 141820Z 32010KT CAVOK 24/16 Q1020 NOSIG,EBAW,2025-08-14T18:20:00Z,51.189,4.46,24,16,320,10,,6+,30.12,,,,,,TRUE,,,,,CAVOK,,,,,,,,VFR,,,,,,,,,,,,METAR,7
DAAJ 141820Z 02020KT 0800 BLSA NSC 33/10 Q1017,DAAJ,2025-08-14T18:20:00Z,24.286,9.464,33,10,20,20,,0.5,30.03,,,,,,,,,,BLSA,CLR,,,,,,,,LIFR,,,,,,,,,,,,SPECI,962
CYZP 141820Z AUTO 15017G22KT 3SM -RA BR BKN009 BKN025 OVC038 14/13 A2976 RMK SLP081,CYZP,2025-08-14T18:20:00Z,53.254,-131.814,14,13,150,17,22,3,29.76,1008.1,,TRUE,,,,,,,-RA BR,BKN,900,BKN,2500,OVC,3800,,,IFR,,,,,,,,,,,,SPECI,7
BGSF 141820Z AUTO 04003KT 9999NDV DZ BKN015/// OVC019/// 05/04 Q0995,BGSF,2025-08-14T18:20:00Z,67.013,-50.718,5,4,40,3,,,29.38,,,TRUE,,,,,,,DZ,BKN,1500,OVC,1900,,,,,,,,,,,,,,,,,METAR,75
BGGH 141820Z 18050G74KT 4000 -DZ SCT002 OVC004 10/10 Q0994 REDZ RMK W/V THR22 16045G62KT,BGGH,2025-08-14T18:20:00Z,64.191,-51.677,10,10,180,50,74,2.49,29.35,,,,,,,,,,-DZ,SCT,200,OVC,400,,,,,LIFR,,,,,,,,,,,,METAR,76
BGBW 141820Z AUTO 11001KT 7000NDV -SHRA FEW006/// BKN008/// OVC011/// 11/10 Q1009,BGBW,2025-08-14T18:20:00Z,61.164,-45.42,11,10,110,1,,,29.79,,,TRUE,,,,,,,-SHRA,FEW,600,BKN,800,OVC,1100,,,,,,,,,,,,,,,METAR,49
KTAZ 141819Z AUTO 00000KT 10SM SCT037 BKN050 BKN060 28/21 A3003 RMK AO2,KTAZ,2025-08-14T18:19:00Z,39.535,-89.3294,28,21,0,0,,10+,30.03,,,TRUE,TRUE,,,,,,,SCT,3700,BKN,5000,BKN,6000,,,VFR,,,,,,,,,,,,METAR,188
KCFS 141819Z AUTO 01005KT 10SM SCT050 SCT065 26/17 A3008 RMK AO2,KCFS,2025-08-14T18:19:00Z,43.4624,-83.4428,26,17,10,5,,10+,30.08,,,TRUE,TRUE,,,,,,,SCT,5000,SCT,6500,,,,,VFR,,,,,,,,,,,,METAR,214
CYTH 141819Z 08006KT 050V140 2 1/2SM -RA BR OVC004 10/10 A2954 RMK SC8 SLP014,CYTH,2025-08-14T18:19:00Z,55.803,-97.846,10,10,80,6,,2.5,29.54,1001.4,,,,,,,,,-RA BR,OVC,400,,,,,,,LIFR,,,,,,,,,,,,SPECI,212
PAKN 141818Z 26003KT 2 1/2SM BR OVC005 13/13 A2985 RMK AO2 CIG 004V011 T01330128 $,PAKN,2025-08-14T18:18:00Z,58.683,-156.656,13.3,12.8,260,3,,2.5,29.85,,,,TRUE,TRUE,,,,,BR,OVC,500,,,,,,,IFR,,,,,,,,,,,,SPECI,20
KGGP 141818Z AUTO 31004KT 10SM CLR 28/18 A3007 RMK AO2,KGGP,2025-08-14T18:18:00Z,40.7127,-86.3673,28,18,310,4,,10+,30.07,,,TRUE,TRUE,,,,,,,CLR,,,,,,,,VFR,,,,,,,,,,,,METAR,224
K1GN 141818Z AUTO 30010KT 10SM FEW039 FEW060 SCT120 BKN150 BKN170 21/15 A2981 RMK AO2 RAE18 PRESRR SLP092 $,K1GN,2025-08-14T18:18:00Z,48.12,-101.96,21,15,300,10,,10+,29.81,1009.2,,TRUE,TRUE,TRUE,,,,,,FEW,3900,FEW,6000,SCT,12000,BKN,15000,VFR,,,,,,,,,,,,SPECI,644
CYNE 141818Z AUTO 18007KT 6SM BR OVC008 16/15 A2953 RMK SLP008 DENSITY ALT 1500FT,CYNE,2025-08-14T18:18:00Z,53.958,-97.845,16,15,180,7,,6,29.53,1000.8,,TRUE,,,,,,,BR,OVC,800,,,,,,,IFR,,,,,,,,,,,,SPECI,220
CYCX 141818Z CCA 14003KT 130V220 15SM FEW007 BKN048TCU 23/21 A2988 RMK SF1TCU6 DENSITY ALT 1501FT FRQ LTGCCCG DIST SE MOV E TCU DIST NW-NE LAST OBS /NEXT 142200 UTC SLP119,CYCX,2025-08-14T18:18:00Z,45.839,-66.45,23,21,140,3,,15,29.88,1011.9,,,,,,,,,,FEW,700,BKN,4800,,,,,VFR,,,,,,,,,,,,SPECI,46
CWND M01/M02 RMK 5002 T10061015,CWND,2025-08-14T18:18:00Z,69.632,-135.445,-0.6,-1.5,,,,,0.00,,,,,,,,,,,,,,,,,,,,,,,,,,,,,,,METAR,14
KUDG 141817Z AUTO 02003KT 10SM BKN014 BKN060 OVC080 27/24 A3000 RMK AO2 $,KUDG,2025-08-14T18:17:00Z,34.4474,-79.8902,27,24,20,3,,10+,30.00,,,TRUE,TRUE,TRUE,,,,,,BKN,1400,BKN,6000,OVC,8000,,,MVFR,,,,,,,,,,,,SPECI,57
KSSC 141817Z 04007KT 7SM FEW005 BKN007 BKN020 OVC020 26/25 A2997 RMK AO2A RAE08DZB08E17 SLP148 $,KSSC,2025-08-14T18:17:00Z,33.978,-80.466,26,25,40,7,,7,29.97,1014.8,,,TRUE,TRUE,,,,,,FEW,500,BKN,700,BKN,2000,OVC,2000,IFR,,,,,,,,,,,,SPECI,71
KAPC 141817Z VRB03KT 10SM FEW013 18/13 A2996 RMK AO2 T01830133,KAPC,2025-08-14T18:17:00Z,38.2075,-122.28,18.3,13.3,VRB,3,,10+,29.96,,,,TRUE,,,,,,,FEW,1300,,,,,,,VFR,,,,,,,,,,,,SPECI,5
PAIL 141816Z 00000KT 10SM FEW008 BKN014 12/11 A2989 RMK RAE1759,PAIL,2025-08-14T18:16:00Z,59.7492,-154.909,12,11,0,0,,10+,29.89,,,,,,,,,,,FEW,800,BKN,1400,,,,,MVFR,,,,,,,,,,,,SPECI,44
PAGA 141816Z AUTO 32007KT 10SM SCT018 SCT034 OVC080 07/04 A2987 RMK AO2 TSNO $,PAGA,2025-08-14T18:16:00Z,64.738,-156.92,7,4,320,7,,10+,29.87,,,TRUE,TRUE,TRUE,,TRUE,,,,SCT,1800,SCT,3400,OVC,8000,,,VFR,,,,,,,,,,,,SPECI,39
KORB 141816Z AUTO 15006KT 22/17 A2991 RMK AO2 LTG DSNT S PWINO,KORB,2025-08-14T18:16:00Z,48.0171,-92.8538,22,17,150,6,,,29.91,,,TRUE,TRUE,,,,,TRUE,,,,,,,,,,,,,,,,,,,,,,METAR,407
KNRA 141816Z AUTO VRB03KT 10SM BKN014 OVC019 14/13 A3004 RMK AO2 T01440128 TSNO $,KNRA,2025-08-14T18:16:00Z,48.1892,-122.633,14.4,12.8,VRB,3,,10+,30.04,,,TRUE,TRUE,TRUE,,TRUE,,,,BKN,1400,OVC,1900,,,,,MVFR,,,,,,,,,,,,SPECI,61
KMJX 141816Z AUTO 00000KT 10SM SCT032 BKN041 32/23 A2993 RMK AO2 LTG DSNT S TSE10 $,KMJX,2025-08-14T18:16:00Z,39.9235,-74.297,32,23,0,0,,10+,29.93,,,TRUE,TRUE,TRUE,,,,,,SCT,3200,BKN,4100,,,,,VFR,,,,,,,,,,,,SPECI,22
KIKK 141816Z AUTO 00000KT 10SM BKN044 BKN050 27/18 A3007 RMK AO2,KIKK,2025-08-14T18:16:00Z,41.0687,-87.8537,27,18,0,0,,10+,30.07,,,TRUE,TRUE,,,,,,,BKN,4400,BKN,5000,,,,,VFR,,,,,,,,,,,,METAR,188
KGSB 141816Z 27007KT 10SM -RA SCT025 BKN130 OVC180 SCT200 29/26 A2993 RMK AO2A RAB16 SLP138 $,KGSB,2025-08-14T18:16:00Z,35.3446,-77.9458,29,26,270,7,,10+,29.93,1013.8,,,TRUE,TRUE,,,,,-RA,SCT,2500,BKN,13000,OVC,18000,SCT,20000,VFR,,,,,,,,,,,,SPECI,33
KDUB 141816Z AUTO 02005KT 10SM CLR 26/M01 A3017 RMK AO2,KDUB,2025-08-14T18:16:00Z,43.5485,-109.684,26,-1,20,5,,10+,30.17,,,TRUE,TRUE,,,,,,,CLR,,,,,,,,VFR,,,,,,,,,,,,METAR,2205
KAXS 141816Z AUTO 16011G18KT 8SM CLR 35/21 A2995 RMK AO2,KAXS,2025-08-14T18:16:00Z,34.6963,-99.3402,35,21,160,11,18,8,29.95,,,TRUE,TRUE,,,,,,,CLR,,,,,,,,VFR,,,,,,,,,,,,METAR,433
TJPS 141815Z AUTO 15016KT 10SM CLR 33/25 A2993 RMK AO2,TJPS,2025-08-14T18:15:00Z,18.011,-66.567,33,25,150,16,,10+,29.93,,,TRUE,TRUE,,,,,,,CLR,,,,,,,,VFR,,,,,,,,,,,,METAR,12
PAMR 141815Z 36004KT 10SM BKN006 BKN050 OVC070 12/11 A2981 RMK AO2 RAE10 P0000 T01220111,PAMR,2025-08-14T18:15:00Z,61.215,-149.85,12.2,11.1,360,4,,10+,29.81,,,,TRUE,,,,,,,BKN,600,BKN,5000,OVC,7000,,,IFR,,,,,,0.005,,,,,,SPECI,43
LMML 141815Z 31004KT CAVOK 28/15 Q1014 NOSIG,LMML,2025-08-14T18:15:00Z,35.858,14.477,28,15,310,4,,6+,29.94,,,,,,TRUE,,,,,CAVOK,,,,,,,,VFR,,,,,,,,,,,,METAR,78
LIRP 141815Z 18001KT 9999 SCT080 30/23 Q1015 NOSIG,LIRP,2025-08-14T18:15:00Z,43.684,10.393,30,23,180,1,,6+,29.97,,,,,,TRUE,,,,,SCT,8000,,,,,,,VFR,,,,,,,,,,,,METAR,1
LIMY 141815Z AUTO 26011KT 230V350 //// // ///////// 23/14 Q1020 RMK ///,LIMY,2025-08-14T18:15:00Z,44.258,7.794,23,14,260,11,,,30.12,,,TRUE,,,,,,,,,,,,,,,,,,,,,,,,,,,,SPECI,1742
LHSN 141815Z 09004KT CAVOK 30/13 Q1017 NOSIG RMK BLU,LHSN,2025-08-14T18:15:00Z,47.123,20.235,30,13,90,4,,6+,30.03,,,,,,TRUE,,,,,CAVOK,,,,,,,,VFR,,,,,,,,,,,,METAR,89
LHSM 141815Z AUTO 31001KT CAVOK 28/17 Q1017,LHSM,2025-08-14T18:15:00Z,46.689,17.161,28,17,310,1,,6+,30.03,,,TRUE,,,,,,,,CAVOK,,,,,,,,VFR,,,,,,,,,,,,METAR,119
LHPR 141815Z AUTO 36003KT CAVOK 27/13 Q1017,LHPR,2025-08-14T18:15:00Z,47.627,17.808,27,13,360,3,,6+,30.03,,,TRUE,,,,,,,,CAVOK,,,,,,,,VFR,,,,,,,,,,,,METAR,127
LHPP 141815Z AUTO 18005KT CAVOK 28/12 Q1017,LHPP,2025-08-14T18:15:00Z,45.991,18.241,28,12,180,5,,6+,30.03,,,TRUE,,,,,,,,CAVOK,,,,,,,,VFR,,,,,,,,,,,,METAR,193
LHPA 141815Z 03003KT CAVOK 28/13 Q1017 NOSIG RMK BLU,LHPA,2025-08-14T18:15:00Z,47.362,17.494,28,13,30,3,,6+,30.03,,,,,,TRUE,,,,,CAVOK,,,,,,,,VFR,,,,,,,,,,,,METAR,143
LHNY 141815Z AUTO VRB01KT 4800 HZ NCD 23/16 Q1018,LHNY,2025-08-14T18:15:00Z,47.984,21.6916,23,16,VRB,1,,2.98,30.06,,,TRUE,,,,,,,HZ,CLR,,,,,,,,IFR,,,,,,,,,,,,METAR,99
LHKE 141815Z 06003KT CAVOK 28/12 Q1017 NOSIG RMK BLU,LHKE,2025-08-14T18:15:00Z,46.917,19.749,28,12,60,3,,6+,30.03,,,,,,TRUE,,,,,CAVOK,,,,,,,,VFR,,,,,,,,,,,,METAR,113
LHDC 141815Z AUTO 03006KT CAVOK 27/14 Q1018 NOSIG,LHDC,2025-08-14T18:15:00Z,47.489,21.615,27,14,30,6,,6+,30.06,,,TRUE,,,TRUE,,,,,CAVOK,,,,,,,,VFR,,,,,,,,,,,,METAR,105
KZPH 141815Z AUTO 23008KT 10SM -RA SCT031 BKN050 OVC065 27/24 A3008 RMK A02 LTG DSNT W T02750243,KZPH,2025-08-14T18:15:00Z,28.2268,-82.1564,27.5,24.3,230,8,,10+,30.08,,,TRUE,TRUE,,,,,,-RA,SCT,3100,BKN,5000,OVC,6500,,,VFR,,,,,,,,,,,,METAR,26
KZER 141815Z AUTO 03005KT 10SM SCT034 SCT046 OVC110 26/18 A3004 RMK AO2 LTG DSNT S,KZER,2025-08-14T18:15:00Z,40.7072,-76.371,26,18,30,5,,10+,30.04,,,TRUE,TRUE,,,,,,,SCT,3400,SCT,4600,OVC,11000,,,VFR,,,,,,,,,,,,METAR,518
KY23 141815Z AUTO 17008G16KT 10SM CLR 28/17 A3002 RMK AO2 T02760173,KY23,2025-08-14T18:15:00Z,45.311,-91.638,27.6,17.3,170,8,16,10+,30.02,,,TRUE,TRUE,,,,,,,CLR,,,,,,,,VFR,,,,,,,,,,,,METAR,322
KXNX 141815Z AUTO 00000KT 10SM FEW065 FEW080 32/24 A3003 RMK A01,KXNX,2025-08-14T18:15:00Z,36.3745,-86.41,32,24,0,0,,10+,30.03,,,TRUE,TRUE,,,,,,,FEW,6500,FEW,8000,,,,,VFR,,,,,,,,,,,,METAR,178
KXNI 141815Z AUTO 24005G17KT 10SM CLR 30/04 A3023 RMK AO2,KXNI,2025-08-14T18:15:00Z,35.058,-108.941,30,4,240,5,17,10+,30.23,,,TRUE,TRUE,,,,,,,CLR,,,,,,,,VFR,,,,,,,,,,,,METAR,1921
KXBP 141815Z AUTO 16004KT 10SM SCT050 34/20 A2997 RMK AO2 T03350200 PNO,KXBP,2025-08-14T18:15:00Z,33.1729,-97.8268,33.5,20,160,4,,10+,29.97,,,TRUE,TRUE,,,,,,,SCT,5000,,,,,,,VFR,,,,,,,,,,,,METAR,256
KX26 141815Z AUTO 09008KT 060V120 10SM CLR 34/26 A3005 RMK AO2,KX26,2025-08-14T18:15:00Z,27.813,-80.497,34,26,90,8,,10+,30.05,,,TRUE,TRUE,,,,,,,CLR,,,,,,,,VFR,,,,,,,,,,,,METAR,5
KX21 141815Z AUTO 05005KT 10SM BKN043 BKN050 34/27 A3004 RMK AO2,KX21,2025-08-14T18:15:00Z,28.6195,-80.835,34,27,50,5,,10+,30.04,,,TRUE,TRUE,,,,,,,BKN,4300,BKN,5000,,,,,VFR,,,,,,,,,,,,METAR,9
KWYS 141815Z AUTO 21011KT 10SM 26/02 A3013 RMK AO2,KWYS,2025-08-14T18:15:00Z,44.6811,-111.124,26,2,210,11,,10+,30.13,,,TRUE,TRUE,,,,,,,,,,,,,,,VFR,,,,,,,,,,,,METAR,2025
KWWR 141815Z AUTO 19014G19KT 10SM CLR 34/17 A2999 RMK AO2,KWWR,2025-08-14T18:15:00Z,36.4374,-99.5234,34,17,190,14,19,10+,29.99,,,TRUE,TRUE,,,,,,,CLR,,,,,,,,VFR,,,,,,,,,,,,METAR,664
KWRI 141815Z 08003KT 10SM BKN027 31/23 A2993 RMK AO2A LTG DSNT SE CIG 027V200 SLP134 $,KWRI,2025-08-14T18:15:00Z,40.016,-74.591,31,23,80,3,,10+,29.93,1013.4,,,TRUE,TRUE,,,,,,BKN,2700,,,,,,,MVFR,,,,,,,,,,,,SPECI,35
KWDR 141815Z AUTO 00000KT 10SM SCT034 30/22 A3004 RMK AO2 LTG DSNT E AND SE,KWDR,2025-08-14T18:15:00Z,33.981,-83.667,30,22,0,0,,10+,30.04,,,TRUE,TRUE,,,,,,,SCT,3400,,,,,,,VFR,,,,,,,,,,,,METAR,280
KWBF 141815Z AUTO 13004KT 9SM FEW023 30/30 A3006 RMK A01,KWBF,2025-08-14T18:15:00Z,26.9305,-90.5069,30,30,130,4,,9,30.06,,,TRUE,TRUE,,,,,,,FEW,2300,,,,,,,VFR,,,,,,,,,,,,METAR,40
KW22 141815Z AUTO 00000KT 10SM SCT024 SCT028 BKN037 30/21 A3007 RMK AO2,KW22,2025-08-14T18:15:00Z,39.001,-80.2712,30,21,0,0,,10+,30.07,,,TRUE,TRUE,,,,,,,SCT,2400,SCT,2800,BKN,3700,,,VFR,,,,,,,,,,,,METAR,497
KVPC 141815Z AUTO 30005KT 10SM 30/21 A3004 RMK AO2,KVPC,2025-08-14T18:15:00Z,34.1158,-84.8507,30,21,300,5,,10+,30.04,,,TRUE,TRUE,,,,,,,,,,,,,,,VFR,,,,,,,,,,,,METAR,234
KVMR 141815Z AUTO 19014G23KT 160V220 10SM SCT085 A2983 RMK AO2,KVMR,2025-08-14T18:15:00Z,42.7656,-96.9339,,,190,14,23,10+,29.83,,,TRUE,TRUE,,,,,,,SCT,8500,,,,,,,VFR,,,,,,,,,,,,METAR,349
KVKS 141815Z AUTO 00000KT 10SM CLR 32/27 A2996 RMK A01,KVKS,2025-08-14T18:15:00Z,32.2359,-90.9269,32,27,0,0,,10+,29.96,,,TRUE,TRUE,,,,,,,CLR,,,,,,,,VFR,,,,,,,,,,,,METAR,31
KVBW 141815Z AUTO 00000KT 10SM SCT030 SCT060 SCT080 28/21 A3000 RMK AO1 T02770206,KVBW,2025-08-14T18:15:00Z,38.366,-78.968,27.7,20.6,0,0,,10+,30.00,,,TRUE,TRUE,,,,,,,SCT,3000,SCT,6000,SCT,8000,,,VFR,,,,,,,,,,,,METAR,362
KVAF 141815Z 13008KT 10SM CLR 31/25 A3001 RMK A01 WINDS UN-RELIABLE 350 TO 45 DEGREES,KVAF,2025-08-14T18:15:00Z,27.3536,-94.6253,31,25,130,8,,10+,30.01,,,,TRUE,,,,,,,CLR,,,,,,,,VFR,,,,,,,,,,,,METAR,38
KUWL 141815Z AUTO 02003KT 10SM BKN050 BKN055 28/18 A3005 RMK A01,KUWL,2025-08-14T18:15:00Z,39.8752,-85.3313,28,18,20,3,,10+,30.05,,,TRUE,TRUE,,,,,,,BKN,5000,BKN,5500,,,,,VFR,,,,,,,,,,,,METAR,332
KUUV 141815Z AUTO 26003KT 10SM SCT055 SCT080 31/19 A3004 RMK AO2,KUUV,2025-08-14T18:15:00Z,38.2335,-91.1609,31,19,260,3,,10+,30.04,,,TRUE,TRUE,,,,,,,SCT,5500,SCT,8000,,,,,VFR,,,,,,,,,,,,METAR,284
KUSE 141815Z AUTO 08008KT 050V120 9SM CLR 28/18 A3005 RMK AO2,KUSE,2025-08-14T18:15:00Z,41.6118,-84.1275,28,18,80,8,,9,30.05,,,TRUE,TRUE,,,,,,,CLR,,,,,,,,VFR,,,,,,,,,,,,METAR,237
KULS 141815Z AUTO 16017KT 10SM CLR 34/17 A2992 RMK AO2,KULS,2025-08-14T18:15:00Z,37.6037,-101.377,34,17,160,17,,10+,29.92,,,TRUE,TRUE,,,,,,,CLR,,,,,,,,VFR,,,,,,,,,,,,METAR,934
KUBE 141815Z AUTO 18009KT 10SM BKN085 25/17 A3001 RMK AO2,KUBE,2025-08-14T18:15:00Z,45.5046,-91.978,25,17,180,9,,10+,30.01,,,TRUE,TRUE,,,,,,,BKN,8500,,,,,,,VFR,,,,,,,,,,,,METAR,376
KU69 141815Z AUTO 04007KT 10SM FEW100 SCT120 28/M01 A3016 RMK A01,KU69,2025-08-14T18:15:00Z,40.198,-110.387,28,-1,40,7,,10+,30.16,,,TRUE,TRUE,,,,,,,FEW,10000,SCT,12000,,,,,VFR,,,,,,,,,,,,METAR,1776
KU55 141815Z AUTO 21016G25KT 10SM CLR 29/00 A3025 RMK A01,KU55,2025-08-14T18:15:00Z,37.8511,-112.391,29,0,210,16,25,10+,30.25,,,TRUE,TRUE,,,,,,,CLR,,,,,,,,VFR,,,,,,,,,,,,METAR,2060
KU52 141815Z AUTO 23009G14KT 10SM RA CLR 30/03 A3016 RMK AO2,KU52,2025-08-14T18:15:00Z,38.232,-112.672,30,3,230,9,14,10+,30.16,,,TRUE,TRUE,,,,,,RA,CLR,,,,,,,,VFR,,,,,,,,,,,,METAR,1787
KU14 141815Z AUTO 20004KT 10SM CLR 31/04 A3008 RMK AO2,KU14,2025-08-14T18:15:00Z,39.7381,-111.873,31,4,200,4,,10+,30.08,,,TRUE,TRUE,,,,,,,CLR,,,,,,,,VFR,,,,,,,,,,,,METAR,1531
KTYQ 141815Z AUTO 00000KT 10SM SCT048 28/17 A3005 RMK AO2 T02800166,KTYQ,2025-08-14T18:15:00Z,40.0345,-86.2488,28,16.6,0,0,,10+,30.05,,,TRUE,TRUE,,,,,,,SCT,4800,,,,,,,VFR,,,,,,,,,,,,METAR,279
KTVY 141815Z AUTO VRB05KT 10SM CLR 34/04 A2999 RMK AO2,KTVY,2025-08-14T18:15:00Z,40.6127,-112.354,34,4,VRB,5,,10+,29.99,,,TRUE,TRUE,,,,,,,CLR,,,,,,,,VFR,,,,,,,,,,,,METAR,1310
KTVK 141815Z AUTO 00000KT 10SM 26/19 A3004 RMK AO2,KTVK,2025-08-14T18:15:00Z,40.6832,-92.8984,26,19,0,0,,10+,30.04,,,TRUE,TRUE,,,,,,,,,,,,,,,VFR,,,,,,,,,,,,METAR,311
KTVI 141815Z AUTO 30003KT 10SM SCT036 SCT048 SCT060 32/24 A3004 RMK AO2,KTVI,2025-08-14T18:15:00Z,30.9026,-83.8826,32,24,300,3,,10+,30.04,,,TRUE,TRUE,,,,,,,SCT,3600,SCT,4800,SCT,6000,,,VFR,,,,,,,,,,,,METAR,74
KTQK 141815Z AUTO 18019KT 10SM CLR 31/19 A2993 RMK AO2 T03110194,KTQK,2025-08-14T18:15:00Z,38.4782,-100.882,31.1,19.4,180,19,,10+,29.93,,,TRUE,TRUE,,,,,,,CLR,,,,,,,,VFR,,,,,,,,,,,,METAR,906
KTNU 141815Z AUTO 19009KT 9SM CLR 26/20 A3002 RMK A01,KTNU,2025-08-14T18:15:00Z,41.6701,-93.019,26,20,190,9,,9,30.02,,,TRUE,TRUE,,,,,,,CLR,,,,,,,,VFR,,,,,,,,,,,,METAR,287
KTNB 141815Z AUTO 28005KT 10SM CLR 25/19 A3013 RMK AO2 T02480185,KTNB,2025-08-14T18:15:00Z,36.1988,-81.6515,24.8,18.5,280,5,,10+,30.13,,,TRUE,TRUE,,,,,,,CLR,,,,,,,,VFR,,,,,,,,,,,,METAR,958
KTMT 141815Z AUTO 00000KT 10SM CLR 28/00 A3012 RMK AO2 T02810004,KTMT,2025-08-14T18:15:00Z,39.4643,-117.197,28.1,0.4,0,0,,10+,30.12,,,TRUE,TRUE,,,,,,,CLR,,,,,,,,VFR,,,,,,,,,,,,METAR,1748
KTMK 141815Z AUTO 00000KT 10SM OVC030 20/14 A3008 RMK AO2,KTMK,2025-08-14T18:15:00Z,45.421,-123.814,20,14,0,0,,10+,30.08,,,TRUE,TRUE,,,,,,,OVC,3000,,,,,,,MVFR,,,,,,,,,,,,METAR,8
KTKV 141815Z 10SM SCT035 25/13 A3007 RMK AO2 T02460133 PWINO,KTKV,2025-08-14T18:15:00Z,45.469,-89.805,24.6,13.3,,,,10+,30.07,,,,TRUE,,,,,TRUE,,SCT,3500,,,,,,,VFR,,,,,,,,,,,,METAR,449
KTIW 141815Z 19009KT 10SM SCT027 SCT043 18/11 A3005 RMK AO2 T01830106,KTIW,2025-08-14T18:15:00Z,47.2674,-122.576,18.3,10.6,190,9,,10+,30.05,,,,TRUE,,,,,,,SCT,2700,SCT,4300,,,,,VFR,,,,,,,,,,,,SPECI,89
KTHA 141815Z AUTO 00000KT 10SM BKN032 30/22 A3003 RMK A01,KTHA,2025-08-14T18:15:00Z,35.3804,-86.2419,30,22,0,0,,10+,30.03,,,TRUE,TRUE,,,,,,,BKN,3200,,,,,,,VFR,,,,,,,,,,,,METAR,333
KTFP 141815Z AUTO 17012G16KT 10SM SCT029 36/24 A2996 RMK AO1 T03640241,KTFP,2025-08-14T18:15:00Z,27.9132,-97.2132,36.4,24.1,170,12,16,10+,29.96,,,TRUE,TRUE,,,,,,,SCT,2900,,,,,,,VFR,,,,,,,,,,,,METAR,5
KTEX 141815Z AUTO 00000KT 10SM SCT090 SCT120 23/00 A3042 RMK AO2,KTEX,2025-08-14T18:15:00Z,37.954,-107.909,23,0,0,0,,10+,30.42,,,TRUE,TRUE,,,,,,,SCT,9000,SCT,12000,,,,,VFR,,,,,,,,,,,,METAR,2760
KTCY 141815Z AUTO VRB06KT 10SM CLR 24/13 A2993 RMK A01,KTCY,2025-08-14T18:15:00Z,37.6919,-121.444,24,13,VRB,6,,10+,29.93,,,TRUE,TRUE,,,,,,,CLR,,,,,,,,VFR,,,,,,,,,,,,METAR,51
KTBR 141815Z AUTO 26008KT 10SM SCT031 SCT042 BKN050 31/24 A2998 RMK AO2,KTBR,2025-08-14T18:15:00Z,32.48,-81.738,31,24,260,8,,10+,29.98,,,TRUE,TRUE,,,,,,,SCT,3100,SCT,4200,BKN,5000,,,VFR,,,,,,,,,,,,METAR,54
KTAH 141815Z AUTO VRB05KT 10SM CLR 33/25 A3005 RMK A01,KTAH,2025-08-14T18:15:00Z,27.3259,-90.7142,33,25,VRB,5,,10+,30.05,,,TRUE,TRUE,,,,,,,CLR,,,,,,,,VFR,,,,,,,,,,,,METAR,65
KT89 141815Z AUTO VRB05KT 10SM CLR 35/14 A3001 RMK A01,KT89,2025-08-14T18:15:00Z,29.2774,-103.691,35,14,VRB,5,,10+,30.01,,,TRUE,TRUE,,,,,,,CLR,,,,,,,,VFR,,,,,,,,,,,,METAR,801
KT35 141815Z AUTO 18006KT 10SM CLR 35/21 A2997 RMK AO2 T03490211 PWINO,KT35,2025-08-14T18:15:00Z,30.8789,-96.9704,34.9,21.1,180,6,,10+,29.97,,,TRUE,TRUE,,,,,TRUE,,CLR,,,,,,,,VFR,,,,,,,,,,,,METAR,122
KSYI 141815Z AUTO 00000KT 10SM SCT037 SCT043 31/22 A3002 RMK A01,KSYI,2025-08-14T18:15:00Z,35.5594,-86.4406,31,22,0,0,,10+,30.02,,,TRUE,TRUE,,,,,,,SCT,3700,SCT,4300,,,,,VFR,,,,,,,,,,,,METAR,244
KSYF 141815Z AUTO 22011G16KT 10SM CLR 33/16 A2990 RMK AO2,KSYF,2025-08-14T18:15:00Z,39.7583,-101.793,33,16,220,11,16,10+,29.90,,,TRUE,TRUE,,,,,,,CLR,,,,,,,,VFR,,,,,,,,,,,,METAR,1041
KSXU 141815Z AUTO 26008KT 10SM CLR 35/07 A3005 RMK AO2,KSXU,2025-08-14T18:15:00Z,34.9355,-104.637,35,7,260,8,,10+,30.05,,,TRUE,TRUE,,,,,,,CLR,,,,,,,,VFR,,,,,,,,,,,,METAR,1465
KSXT 141815Z AUTO 35004KT 10SM SCT002 14/12 A3013 RMK AO2 T01390122,KSXT,2025-08-14T18:15:00Z,42.6,-123.366,13.9,12.2,350,4,,10+,30.13,,,TRUE,TRUE,,,,,,,SCT,200,,,,,,,VFR,,,,,,,,,,,,SPECI,1151
KSWW 141815Z AUTO 20008KT 10SM 37/14 A3003 RMK AO2 T03740144,KSWW,2025-08-14T18:15:00Z,32.4688,-100.467,37.4,14.4,200,8,,10+,30.03,,,TRUE,TRUE,,,,,,,,,,,,,,,VFR,,,,,,,,,,,,METAR,718
KSVR 141815Z AUTO 17013KT 10SM CLR 33/05 A3002 RMK AO2,KSVR,2025-08-14T18:15:00Z,40.6196,-111.99,33,5,170,13,,10+,30.02,,,TRUE,TRUE,,,,,,,CLR,,,,,,,,VFR,,,,,,,,,,,,METAR,1399
KSTE 141815Z AUTO 19004KT 10SM SCT046 27/15 A3006 RMK AO2 T02730148,KSTE,2025-08-14T18:15:00Z,44.5437,-89.5347,27.3,14.8,190,4,,10+,30.06,,,TRUE,TRUE,,,,,,,SCT,4600,,,,,,,VFR,,,,,,,,,,,,METAR,335
KSSI 141815Z AUTO 26008KT 230V290 10SM FEW042 FEW050 34/26 A3000 RMK AO2,KSSI,2025-08-14T18:15:00Z,31.1527,-81.3905,34,26,260,8,,10+,30.00,,,TRUE,TRUE,,,,,,,FEW,4200,FEW,5000,,,,,VFR,,,,,,,,,,,,METAR,6
KSRR 141815Z AUTO 22007G20KT 10SM FEW100 28/04 A3031 RMK AO2,KSRR,2025-08-14T18:15:00Z,33.4667,-105.528,28,4,220,7,20,10+,30.31,,,TRUE,TRUE,,,,,,,FEW,10000,,,,,,,VFR,,,,,,,,,,,,METAR,2063
KSRB 141815Z AUTO VRB03KT 10SM CLR 31/25 A3004 RMK A01,KSRB,2025-08-14T18:15:00Z,36.0529,-85.536,31,25,VRB,3,,10+,30.04,,,TRUE,TRUE,,,,,,,CLR,,,,,,,,VFR,,,,,,,,,,,,METAR,303
KSPA 141815Z AUTO 15003KT 10SM SCT031 SCT036 BKN043 30/21 A3000 RMK AO2 LTG DSNT E,KSPA,2025-08-14T18:15:00Z,34.9106,-81.9589,30,21,150,3,,10+,30.00,,,TRUE,TRUE,,,,,,,SCT,3100,SCT,3600,BKN,4300,,,VFR,,,,,,,,,,,,METAR,242
KSOA 141815Z AUTO 15008KT 120V180 10SM CLR 35/18 A3005 RMK AO2,KSOA,2025-08-14T18:15:00Z,30.5853,-100.651,35,18,150,8,,10+,30.05,,,TRUE,TRUE,,,,,,,CLR,,,,,,,,VFR,,,,,,,,,,,,METAR,654
KSNL 141815Z AUTO 22005KT 10SM SCT050 35/18 A2998 RMK AO2 T03450184,KSNL,2025-08-14T18:15:00Z,35.3611,-96.9445,34.5,18.4,220,5,,10+,29.98,,,TRUE,TRUE,,,,,,,SCT,5000,,,,,,,VFR,,,,,,,,,,,,METAR,327
KSMS 141815Z AUTO 00000KT 1 3/4SM -RA BKN004 BKN014 OVC025 24/24 A2999 RMK AO2 LTG DSNT E-S,KSMS,2025-08-14T18:15:00Z,34.0003,-80.3582,24,24,0,0,,1.75,29.99,,,TRUE,TRUE,,,,,,-RA,BKN,400,BKN,1400,OVC,2500,,,LIFR,,,,,,,,,,,,METAR,53
KSME 141815Z AUTO 03017G24KT 10SM SCT044 SCT070 33/22 A3001 RMK AO2 LTG DSNT N AND SW,KSME,2025-08-14T18:15:00Z,37.0529,-84.6141,33,22,30,17,24,10+,30.01,,,TRUE,TRUE,,,,,,,SCT,4400,SCT,7000,,,,,VFR,,,,,,,,,,,,METAR,279
KSMD 141815Z AUTO 00000KT 10SM FEW065 32/13 A3005 RMK A01,KSMD,2025-08-14T18:15:00Z,41.144,-85.1492,32,13,0,0,,10+,30.05,,,TRUE,TRUE,,,,,,,FEW,6500,,,,,,,VFR,,,,,,,,,,,,METAR,252
KSLB 141815Z AUTO 18014G20KT 10SM CLR 27/22 A2994 RMK AO2,KSLB,2025-08-14T18:15:00Z,42.5972,-95.2399,27,22,180,14,20,10+,29.94,,,TRUE,TRUE,,,,,,,CLR,,,,,,,,VFR,,,,,,,,,,,,METAR,450
KSHL 141815Z AUTO 18013G18KT 10SM CLR 28/22 A2988 RMK AO2,KSHL,2025-08-14T18:15:00Z,43.2082,-95.8354,28,22,180,13,18,10+,29.88,,,TRUE,TRUE,,,,,,,CLR,,,,,,,,VFR,,,,,,,,,,,,METAR,430
KSEZ 141815Z AUTO 14004KT 9SM CLR 29/10 A3018 RMK AO2,KSEZ,2025-08-14T18:15:00Z,34.8467,-111.788,29,10,140,4,,9,30.18,,,TRUE,TRUE,,,,,,,CLR,,,,,,,,VFR,,,,,,,,,,,,METAR,1455
KSEM 141815Z AUTO VRB03KT 10SM FEW028 32/26 A3002 RMK AO2,KSEM,2025-08-14T18:15:00Z,32.3367,-86.9836,32,26,VRB,3,,10+,30.02,,,TRUE,TRUE,,,,,,,FEW,2800,,,,,,,VFR,,,,,,,,,,,,METAR,48
KSDA 141815Z AUTO 17013G21KT 10SM CLR 29/21 A2993 RMK AO2,KSDA,2025-08-14T18:15:00Z,40.7533,-95.4112,29,21,170,13,21,10+,29.93,,,TRUE,TRUE,,,,,,,CLR,,,,,,,,VFR,,,,,,,,,,,,METAR,293
KSCX 141815Z AUTO 22004KT 10SM FEW029 SCT039 28/22 A3006 RMK A01,KSCX,2025-08-14T18:15:00Z,36.4553,-84.584,28,22,220,4,,10+,30.06,,,TRUE,TRUE,,,,,,,FEW,2900,SCT,3900,,,,,VFR,,,,,,,,,,,,METAR,462
KSBX 141815Z AUTO 00000KT 10SM BKN034 18/11 A3001 RMK AO2,KSBX,2025-08-14T18:15:00Z,48.541,-111.871,18,11,0,0,,10+,30.01,,,TRUE,TRUE,,,,,,,BKN,3400,,,,,,,VFR,,,,,,,,,,,,METAR,1049
KSAR 141815Z AUTO 35003KT 10SM BKN085 32/20 A3002 RMK AO2 T03230202,KSAR,2025-08-14T18:15:00Z,38.1463,-89.7025,32.3,20.2,350,3,,10+,30.02,,,TRUE,TRUE,,,,,,,BKN,8500,,,,,,,VFR,,,,,,,,,,,,METAR,162
KS52 141815Z AUTO 15005KT 10SM SCT070 SCT100 BKN120 27/08 A2990 RMK AO2 T02650076,KS52,2025-08-14T18:15:00Z,48.4282,-120.15,26.5,7.6,150,5,,10+,29.90,,,TRUE,TRUE,,,,,,,SCT,7000,SCT,10000,BKN,12000,,,VFR,,,,,,,,,,,,METAR,517
KS39 141815Z AUTO VRB06G12KT 10SM CLR 22/09 A3004 RMK AO2,KS39,2025-08-14T18:15:00Z,44.2858,-120.901,22,9,VRB,6,12,10+,30.04,,,TRUE,TRUE,,,,,,,CLR,,,,,,,,VFR,,,,,,,,,,,,METAR,987
KS34 141815Z AUTO 27008G20KT 10SM SCT075 26/09 A2990 RMK AO2,KS34,2025-08-14T18:15:00Z,47.4718,-114.901,26,9,270,8,20,10+,29.90,,,TRUE,TRUE,,,,,,,SCT,7500,,,,,,,VFR,,,,,,,,,,,,METAR,750
KS21 141815Z AUTO 20007KT 170V230 9SM CLR 21/07 A3012 RMK AO2,KS21,2025-08-14T18:15:00Z,43.8801,-121.454,21,7,200,7,,9,30.12,,,TRUE,TRUE,,,,,,,CLR,,,,,,,,VFR,,,,,,,,,,,,METAR,1269
KS12 141815Z AUTO 30003KT 10SM FEW022 OVC032 21/15 A3006 RMK AO2,KS12,2025-08-14T18:15:00Z,44.6394,-123.058,21,15,300,3,,10+,30.06,,,TRUE,TRUE,,,,,,,FEW,2200,OVC,3200,,,,,VFR,,,,,,,,,,,,METAR,69
KRZT 141815Z AUTO 00000KT 10SM SCT041 30/17 A3004 RMK AO2 PWINO,KRZT,2025-08-14T18:15:00Z,39.4402,-83.0209,30,17,0,0,,10+,30.04,,,TRUE,TRUE,,,,,TRUE,,SCT,4100,,,,,,,VFR,,,,,,,,,,,,METAR,217
KRZR 141815Z AUTO VRB04KT 10SM FEW037 30/22 A3001 RMK A01,KRZR,2025-08-14T18:15:00Z,35.207,-84.8005,30,22,VRB,4,,10+,30.01,,,TRUE,TRUE,,,,,,,FEW,3700,,,,,,,VFR,,,,,,,,,,,,METAR,259
KRZN 141815Z AUTO 16011KT 10SM SCT046 SCT060 26/15 A2997 RMK AO2 T02620151,KRZN,2025-08-14T18:15:00Z,45.8229,-92.3706,26.2,15.1,160,11,,10+,29.97,,,TRUE,TRUE,,,,,,,SCT,4600,SCT,6000,,,,,VFR,,,,,,,,,,,,METAR,301
KRYW 141815Z AUTO 19003KT 10SM CLR 34/21 A3003 RMK AO2 T03380206,KRYW,2025-08-14T18:15:00Z,30.498,-97.969,33.8,20.6,190,3,,10+,30.03,,,TRUE,TRUE,,,,,,,CLR,,,,,,,,VFR,,,,,,,,,,,,METAR,370
KRWV 141815Z AUTO 15007KT 130V190 10SM CLR A2999 RMK AO2 PWINO,KRWV,2025-08-14T18:15:00Z,30.5161,-96.7051,,,150,7,,10+,29.99,,,TRUE,TRUE,,,,,TRUE,,CLR,,,,,,,,VFR,,,,,,,,,,,,METAR,116
KRVF 141815Z AUTO 17008KT 10SM CLR 29/03 A2998 RMK AO2,KRVF,2025-08-14T18:15:00Z,45.534,-112.303,29,3,170,8,,10+,29.98,,,TRUE,TRUE,,,,,,,CLR,,,,,,,,VFR,,,,,,,,,,,,METAR,1445
KRTS 141815Z AUTO 00000G12KT 10SM CLR 26/M04 A3012 RMK AO2,KRTS,2025-08-14T18:15:00Z,39.6658,-119.873,26,-4,0,0,12,10+,30.12,,,TRUE,TRUE,,,,,,,CLR,,,,,,,,VFR,,,,,,,,,,,,METAR,1537
KRSP 141815Z AUTO 03005KT 3SM BR SCT028 BKN040 OVC065 22/22 A3004 RMK AO2 T02220217 PWINO $,KRSP,2025-08-14T18:15:00Z,39.646,-77.468,22.2,21.7,30,5,,3,30.04,,,TRUE,TRUE,TRUE,,,,TRUE,BR,SCT,2800,BKN,4000,OVC,6500,,,MVFR,,,,,,,,,,,,SPECI,555
KRQO 141815Z AUTO 17012G17KT 10SM BKN048 BKN060 33/20 A2998 RMK AO2,KRQO,2025-08-14T18:15:00Z,35.4709,-98.0061,33,20,170,12,17,10+,29.98,,,TRUE,TRUE,,,,,,,BKN,4800,BKN,6000,,,,,VFR,,,,,,,,,,,,METAR,431
KRPJ 141815Z AUTO 10005KT 10SM 27/16 RMK AO2 T02650160,KRPJ,2025-08-14T18:15:00Z,41.8906,-89.0817,26.5,16,100,5,,10+,0.00,,,TRUE,TRUE,,,,,,,,,,,,,,,VFR,,,,,,,,,,,,METAR,234
KRNV 141815Z AUTO 00000KT 10SM CLR 34/23 A2996 RMK AO2 T03440233 $,KRNV,2025-08-14T18:15:00Z,33.762,-90.759,34.4,23.3,0,0,,10+,29.96,,,TRUE,TRUE,TRUE,,,,,,CLR,,,,,,,,VFR,,,,,,,,,,,,METAR,42
KRNC 141815Z AUTO 00000KT 10SM FEW030 SCT038 30/22 A3003 RMK A01,KRNC,2025-08-14T18:15:00Z,35.6991,-85.8402,30,22,0,0,,10+,30.03,,,TRUE,TRUE,,,,,,,FEW,3000,SCT,3800,,,,,VFR,,,,,,,,,,,,METAR,310
KRLD 141815Z AUTO 24006KT 10SM CLR 29/09 A2990 RMK AO2 T02870092,KRLD,2025-08-14T18:15:00Z,46.3086,-119.306,28.7,9.2,240,6,,10+,29.90,,,TRUE,TRUE,,,,,,,CLR,,,,,,,,VFR,,,,,,,,,,,,METAR,118
KRKW 141815Z AUTO 00000KT 10SM BKN036 BKN043 29/22 A3006 RMK A01,KRKW,2025-08-14T18:15:00Z,35.922,-84.689,29,22,0,0,,10+,30.06,,,TRUE,TRUE,,,,,,,BKN,3600,BKN,4300,,,,,VFR,,,,,,,,,,,,METAR,505
KRKR 141815Z AUTO 00000KT 10SM CLR 34/20 A2997 RMK AO2,KRKR,2025-08-14T18:15:00Z,35.0187,-94.6202,34,20,0,0,,10+,29.97,,,TRUE,TRUE,,,,,,,CLR,,,,,,,,VFR,,,,,,,,,,,,METAR,136
KRGA 141815Z AUTO 06004KT 7SM SCT040 SCT060 BKN110 31/22 A3005 RMK AO2,KRGA,2025-08-14T18:15:00Z,37.6305,-84.329,31,22,60,4,,7,30.05,,,TRUE,TRUE,,,,,,,SCT,4000,SCT,6000,BKN,11000,,,VFR,,,,,,,,,,,,METAR,301
KRFI 141815Z AUTO 16003KT 10SM BKN041 BKN048 36/23 A3000 RMK AO2 T03560231,KRFI,2025-08-14T18:15:00Z,32.1441,-94.8539,35.6,23.1,160,3,,10+,30.00,,,TRUE,TRUE,,,,,,,BKN,4100,BKN,4800,,,,,VFR,,,,,,,,,,,,METAR,133
KRCV 141815Z AUTO 00000KT 10SM CLR 25/03 A3032 RMK AO2 T02510030,KRCV,2025-08-14T18:15:00Z,37.7092,-106.355,25.1,3,0,0,,10+,30.32,,,TRUE,TRUE,,,,,,,CLR,,,,,,,,VFR,,,,,,,,,,,,METAR,2418
KRBW 141815Z AUTO 28008KT 10SM SCT036 SCT047 OVC060 31/25 A2998 RMK AO2 LTG DSNT NE,KRBW,2025-08-14T18:15:00Z,32.921,-80.64,31,25,280,8,,10+,29.98,,,TRUE,TRUE,,,,,,,SCT,3600,SCT,4700,OVC,6000,,,VFR,,,,,,,,,,,,METAR,30
KPZZ 141815Z AUTO 22004KT 10SM FEW026 30/24 A3005 RMK A01,KPZZ,2025-08-14T18:15:00Z,28.4344,-91.0344,30,24,220,4,,10+,30.05,,,TRUE,TRUE,,,,,,,FEW,2600,,,,,,,VFR,,,,,,,,,,,,METAR,25
KPWD 141815Z AUTO 33016KT 10SM CLR 22/11 A2986 RMK AO2,KPWD,2025-08-14T18:15:00Z,48.7912,-104.525,22,11,330,16,,10+,29.86,,,TRUE,TRUE,,,,,,,CLR,,,,,,,,VFR,,,,,,,,,,,,METAR,690
KPVW 141815Z AUTO 22011G16KT 10SM 33/14 A3002 RMK AO2 T03340138,KPVW,2025-08-14T18:15:00Z,34.169,-101.723,33.4,13.8,220,11,16,10+,30.02,,,TRUE,TRUE,,,,,,,,,,,,,,,VFR,,,,,,,,,,,,METAR,1029
KPVJ 141815Z AUTO 00000KT 10SM CLR 33/21 A3000 RMK AO2 T03250205,KPVJ,2025-08-14T18:15:00Z,34.7041,-97.2211,32.5,20.5,0,0,,10+,30.00,,,TRUE,TRUE,,,,,,,CLR,,,,,,,,VFR,,,,,,,,,,,,METAR,287
KPVB 141815Z AUTO 18008KT 10SM CLR 26/18 A3005 RMK AO1 T02640175,KPVB,2025-08-14T18:15:00Z,42.6909,-90.4413,26.4,17.5,180,8,,10+,30.05,,,TRUE,TRUE,,,,,,,CLR,,,,,,,,VFR,,,,,,,,,,,,METAR,311
KPUJ 141815Z AUTO 00000KT 10SM SCT027 BKN035 28/21 A3007 RMK AO2,KPUJ,2025-08-14T18:15:00Z,33.9085,-84.9369,28,21,0,0,,10+,30.07,,,TRUE,TRUE,,,,,,,SCT,2700,BKN,3500,,,,,VFR,,,,,,,,,,,,METAR,385
KPTS 141815Z AUTO VRB03KT 10SM CLR 33/22 A2998 RMK AO2,KPTS,2025-08-14T18:15:00Z,37.4512,-94.7322,33,22,VRB,3,,10+,29.98,,,TRUE,TRUE,,,,,,,CLR,,,,,,,,VFR,,,,,,,,,,,,METAR,286
KPSO 141815Z AUTO 18007KT 10SM CLR 26/01 A3033 RMK AO2,KPSO,2025-08-14T18:15:00Z,37.291,-107.056,26,1,180,7,,10+,30.33,,,TRUE,TRUE,,,,,,,CLR,,,,,,,,VFR,,,,,,,,,,,,METAR,2332
KPSN 141815Z AUTO 9SM 34/23 A2999 RMK AO2,KPSN,2025-08-14T18:15:00Z,31.7784,-95.7048,34,23,,,,9,29.99,,,TRUE,TRUE,,,,,,,,,,,,,,,VFR,,,,,,,,,,,,METAR,124
KPRO 141815Z AUTO 16008KT 10SM CLR 27/22 A2998 RMK AO2 T02710217,KPRO,2025-08-14T18:15:00Z,41.8278,-94.1637,27.1,21.7,160,8,,10+,29.98,,,TRUE,TRUE,,,,,,,CLR,,,,,,,,VFR,,,,,,,,,,,,METAR,308
KPRG 141815Z AUTO 00000KT 10SM BKN039 OVC046 30/20 A3003 RMK AO2 T02960196,KPRG,2025-08-14T18:15:00Z,39.6982,-87.6669,29.6,19.6,0,0,,10+,30.03,,,TRUE,TRUE,,,,,,,BKN,3900,OVC,4600,,,,,VFR,,,,,,,,,,,,METAR,197
KPPQ 141815Z AUTO 10003KT 10SM SCT039 SCT046 29/20 A3004 RMK AO2 T02850196,KPPQ,2025-08-14T18:15:00Z,39.6391,-90.7818,28.5,19.6,100,3,,10+,30.04,,,TRUE,TRUE,,,,,,,SCT,3900,SCT,4600,,,,,VFR,,,,,,,,,,,,METAR,215
KPPO 141815Z AUTO 30005KT 10SM FEW041 27/18 A3006 RMK AO2,KPPO,2025-08-14T18:15:00Z,41.5705,-86.7333,27,18,300,5,,10+,30.06,,,TRUE,TRUE,,,,,,,FEW,4100,,,,,,,VFR,,,,,,,,,,,,METAR,242
KPOY 141815Z AUTO 17004KT 10SM CLR 30/M02 A2999 RMK AO2,KPOY,2025-08-14T18:15:00Z,44.8641,-108.79,30,-2,170,4,,10+,29.99,,,TRUE,TRUE,,,,,,,CLR,,,,,,,,VFR,,,,,,,,,,,,METAR,1547
KPNT 141815Z AUTO 00000KT 10SM SCT040 BKN046 28/17 A3006 RMK AO2 T02760174,KPNT,2025-08-14T18:15:00Z,40.9233,-88.6213,27.6,17.4,0,0,,10+,30.06,,,TRUE,TRUE,,,,,,,SCT,4000,BKN,4600,,,,,VFR,,,,,,,,,,,,METAR,199
KPNA 141815Z AUTO 15003KT 10SM CLR 26/00 A3021 RMK AO2,KPNA,2025-08-14T18:15:00Z,42.7929,-109.805,26,0,150,3,,10+,30.21,,,TRUE,TRUE,,,,,,,CLR,,,,,,,,VFR,,,,,,,,,,,,METAR,2158
KPMU 141815Z AUTO 00000KT 10SM FEW043 34/24 A2998 RMK AO2,KPMU,2025-08-14T18:15:00Z,34.3656,-89.8904,34,24,0,0,,10+,29.98,,,TRUE,TRUE,,,,,,,FEW,4300,,,,,,,VFR,,,,,,,,,,,,METAR,67
KPIM 141815Z AUTO 34007KT 10SM FEW026 SCT036 31/26 A3006 RMK AO2,KPIM,2025-08-14T18:15:00Z,32.8421,-84.8766,31,26,340,7,,10+,30.06,,,TRUE,TRUE,,,,,,,FEW,2600,SCT,3600,,,,,VFR,,,,,,,,,,,,METAR,274
KPHG 141815Z AUTO 19021G27KT 10SM CLR 34/19 A2986 RMK AO2 PK WND 19029/40,KPHG,2025-08-14T18:15:00Z,39.7343,-99.3179,34,19,190,21,27,10+,29.86,,,TRUE,TRUE,,,,,,,CLR,,,,,,,,VFR,,,,,,,,,,,,METAR,579
KPEQ 141815Z AUTO 08007KT 10SM CLR 37/10 A3000 RMK AO2 T03650104 PWINO,KPEQ,2025-08-14T18:15:00Z,31.382,-103.512,36.5,10.4,80,7,,10+,30.00,,,TRUE,TRUE,,,,,TRUE,,CLR,,,,,,,,VFR,,,,,,,,,,,,METAR,794
KPCW 141815Z AUTO 07010KT 030V090 10SM CLR 27/21 A3005 RMK AO2,KPCW,2025-08-14T18:15:00Z,41.5188,-82.8692,27,21,70,10,,10+,30.05,,,TRUE,TRUE,,,,,,,CLR,,,,,,,,VFR,,,,,,,,,,,,METAR,179
KPAN 141815Z AUTO 27009KT 10SM CLR 29/10 A3020 RMK AO2,KPAN,2025-08-14T18:15:00Z,34.2551,-111.338,29,10,270,9,,10+,30.20,,,TRUE,TRUE,,,,,,,CLR,,,,,,,,VFR,,,,,,,,,,,,METAR,1575
KP52 141815Z AUTO 12007KT 10SM CLR 31/11 A3008 RMK AO2,KP52,2025-08-14T18:15:00Z,34.7263,-112.034,31,11,120,7,,10+,30.08,,,TRUE,TRUE,,,,,,,CLR,,,,,,,,VFR,,,,,,,,,,,,METAR,1085
KP08 141815Z AUTO VRB03KT 10SM CLR 35/12 A2995 RMK AO2,KP08,2025-08-14T18:15:00Z,32.9359,-111.427,35,12,VRB,3,,10+,29.95,,,TRUE,TRUE,,,,,,,CLR,,,,,,,,VFR,,,,,,,,,,,,METAR,477
KOZA 141815Z AUTO 18004G16KT 10SM CLR 35/15 A3004 RMK AO2,KOZA,2025-08-14T18:15:00Z,30.7312,-101.203,35,15,180,4,16,10+,30.04,,,TRUE,TRUE,,,,,,,CLR,,,,,,,,VFR,,,,,,,,,,,,METAR,721
KOWI 141815Z AUTO 16009KT 10SM CLR 32/24 A2998 RMK AO2 PWINO,KOWI,2025-08-14T18:15:00Z,38.5409,-95.2542,32,24,160,9,,10+,29.98,,,TRUE,TRUE,,,,,TRUE,,CLR,,,,,,,,VFR,,,,,,,,,,,,METAR,292
KOQN 141815Z AUTO 36003KT 10SM BKN031 BKN037 30/21 A2995 RMK AO2 LTG DSNT NW,KOQN,2025-08-14T18:15:00Z,39.9889,-75.5803,30,21,360,3,,10+,29.95,,,TRUE,TRUE,,,,,,,BKN,3100,BKN,3700,,,,,VFR,,,,,,,,,,,,METAR,141
KOPN 141815Z AUTO 33006KT 10SM SCT032 SCT038 SCT046 30/22 A3006 RMK AO2,KOPN,2025-08-14T18:15:00Z,32.954,-84.2595,30,22,330,6,,10+,30.06,,,TRUE,TRUE,,,,,,,SCT,3200,SCT,3800,SCT,4600,,,VFR,,,,,,,,,,,,METAR,241
KONL 141815Z AUTO 19017G23KT 10SM SCT038 29/21 A2984 RMK AO2 T02930205,KONL,2025-08-14T18:15:00Z,42.4691,-98.6903,29.3,20.5,190,17,23,10+,29.84,,,TRUE,TRUE,,,,,,,SCT,3800,,,,,,,VFR,,,,,,,,,,,,METAR,619
KOLZ 141815Z AUTO 17006KT 10SM CLR 24/18 A3005 RMK A01,KOLZ,2025-08-14T18:15:00Z,42.6831,-91.976,24,18,170,6,,10+,30.05,,,TRUE,TRUE,,,,,,,CLR,,,,,,,,VFR,,,,,,,,,,,,METAR,328
KOKM 141815Z AUTO 00000KT 10SM CLR 33/22 A2997 RMK AO2 T03290220,KOKM,2025-08-14T18:15:00Z,35.6713,-95.9514,32.9,22,0,0,,10+,29.97,,,TRUE,TRUE,,,,,,,CLR,,,,,,,,VFR,,,,,,,,,,,,METAR,215
KOIN 141815Z AUTO 19016G23KT 10SM CLR 33/19 A2986 RMK AO2,KOIN,2025-08-14T18:15:00Z,39.8298,-100.538,33,19,190,16,23,10+,29.86,,,TRUE,TRUE,,,,,,,CLR,,,,,,,,VFR,,,,,,,,,,,,METAR,810
KOGS 141815Z AUTO VRB04G12KT 9SM FEW070 FEW085 28/13 A3001 RMK AO2,KOGS,2025-08-14T18:15:00Z,44.68,-75.4641,28,13,VRB,4,12,9,30.01,,,TRUE,TRUE,,,,,,,FEW,7000,FEW,8500,,,,,VFR,,,,,,,,,,,,METAR,88
KOGA 141815Z AUTO 00000KT 10SM CLR 32/19 A2989 RMK AO2 T03150187,KOGA,2025-08-14T18:15:00Z,41.1164,-101.768,31.5,18.7,0,0,,10+,29.89,,,TRUE,TRUE,,,,,,,CLR,,,,,,,,VFR,,,,,,,,,,,,METAR,991
KOEO 141815Z AUTO 15006KT 10SM SCT048 SCT110 25/17 A3000 RMK AO2 T02530168 PWINO,KOEO,2025-08-14T18:15:00Z,45.3108,-92.6948,25.3,16.8,150,6,,10+,30.00,,,TRUE,TRUE,,,,,TRUE,,SCT,4800,SCT,11000,,,,,VFR,,,,,,,,,,,,METAR,269
KOCW 141815Z AUTO 24008KT 10SM -RA SCT032 SCT070 SCT120 31/23 A2996 RMK AO2 T03070234,KOCW,2025-08-14T18:15:00Z,35.5703,-77.05,30.7,23.4,240,8,,10+,29.96,,,TRUE,TRUE,,,,,,-RA,SCT,3200,SCT,7000,SCT,12000,,,VFR,,,,,,,,,,,,METAR,10
KOCQ 141815Z AUTO 10007KT 060V130 10SM SCT023 25/19 A3006 RMK AO1 T02540185,KOCQ,2025-08-14T18:15:00Z,44.8749,-87.9084,25.4,18.5,100,7,,10+,30.06,,,TRUE,TRUE,,,,,,,SCT,2300,,,,,,,VFR,,,,,,,,,,,,METAR,181
KOCF 141815Z 27008KT 10SM FEW041 33/24 A3006 RMK AO2 LTG DSNT NE AND S TSB1754E09,KOCF,2025-08-14T18:15:00Z,29.1636,-82.221,33,24,270,8,,10+,30.06,,,,TRUE,,,,,,,FEW,4100,,,,,,,VFR,,,,,,,,,,,,SPECI,24
KOBE 141815Z AUTO VRB04G12KT 1 3/4SM -RA HZ FEW002 FEW027 BKN033 29/24 A3005 RMK AO2 VIS 1V3,KOBE,2025-08-14T18:15:00Z,27.2663,-80.8487,29,24,VRB,4,12,1.75,30.05,,,TRUE,TRUE,,,,,,-RA HZ,FEW,200,FEW,2700,BKN,3300,,,IFR,,,,,,,,,,,,METAR,11
KO86 141815Z AUTO VRB03KT 10SM CLR 26/12 A2999 RMK A01,KO86,2025-08-14T18:15:00Z,40.9845,-122.693,26,12,VRB,3,,10+,29.99,,,TRUE,TRUE,,,,,,,CLR,,,,,,,,VFR,,,,,,,,,,,,METAR,729
KO69 141815Z AUTO VRB06KT 10SM CLR 19/13 A2997 RMK A01,KO69,2025-08-14T18:15:00Z,38.2601,-122.607,19,13,VRB,6,,10+,29.97,,,TRUE,TRUE,,,,,,,CLR,,,,,,,,VFR,,,,,,,,,,,,METAR,26
KO54 141815Z AUTO 20005KT 10SM CLR 28/10 A3000 RMK A01,KO54,2025-08-14T18:15:00Z,40.746,-122.922,28,10,200,5,,10+,30.00,,,TRUE,TRUE,,,,,,,CLR,,,,,,,,VFR,,,,,,,,,,,,METAR,693
KO05 141815Z AUTO VRB05KT 10SM CLR 24/07 A3010 RMK A01,KO05,2025-08-14T18:15:00Z,40.2865,-121.243,24,7,VRB,5,,10+,30.10,,,TRUE,TRUE,,,,,,,CLR,,,,,,,,VFR,,,,,,,,,,,,METAR,1380
KNUQ 141815Z AUTO VRB04KT 10SM FEW018 20/15 A2996 RMK AO2,KNUQ,2025-08-14T18:15:00Z,37.4059,-122.049,20,15,VRB,4,,10+,29.96,,,TRUE,TRUE,,,,,,,FEW,1800,,,,,,,VFR,,,,,,,,,,,,METAR,9
KN24 141815Z AUTO 23005KT 10SM CLR 29/M01 A3031 RMK AO2 T02851008,KN24,2025-08-14T18:15:00Z,36.8001,-105.598,28.5,-0.8,230,5,,10+,30.31,,,TRUE,TRUE,,,,,,,CLR,,,,,,,,VFR,,,,,,,,,,,,METAR,2347
KMZZ 141815Z AUTO 00000KT 10SM CLR 27/16 A3007 RMK AO2 T02710157,KMZZ,2025-08-14T18:15:00Z,40.4863,-85.6859,27.1,15.7,0,0,,10+,30.07,,,TRUE,TRUE,,,,,,,CLR,,,,,,,,VFR,,,,,,,,,,,,METAR,260
KMZJ 141815Z AUTO VRB03KT 10SM CLR 35/12 A2998 RMK AO2,KMZJ,2025-08-14T18:15:00Z,32.5147,-111.335,35,12,VRB,3,,10+,29.98,,,TRUE,TRUE,,,,,,,CLR,,,,,,,,VFR,,,,,,,,,,,,METAR,574
KMYZ 141815Z AUTO 18011KT 10SM CLR 31/20 A2995 RMK AO2,KMYZ,2025-08-14T18:15:00Z,39.8544,-96.6279,31,20,180,11,,10+,29.95,,,TRUE,TRUE,,,,,,,CLR,,,,,,,,VFR,,,,,,,,,,,,METAR,388
KMXO 141815Z AUTO 15009KT 10SM CLR 27/18 A3002 RMK AO2,KMXO,2025-08-14T18:15:00Z,42.2203,-91.1604,27,18,150,9,,10+,30.02,,,TRUE,TRUE,,,,,,,CLR,,,,,,,,VFR,,,,,,,,,,,,METAR,251
KMVH 141815Z AUTO 08009KT 10SM CLR 22/13 A3000 RMK AO2,KMVH,2025-08-14T18:15:00Z,46.838,-108.936,22,13,80,9,,10+,30.00,,,TRUE,TRUE,,,,,,,CLR,,,,,,,,VFR,,,,,,,,,,,,METAR,1352
KMUT 141815Z AUTO 13010KT 10SM CLR 28/18 A3002 RMK AO2,KMUT,2025-08-14T18:15:00Z,41.367,-91.1406,28,18,130,10,,10+,30.02,,,TRUE,TRUE,,,,,,,CLR,,,,,,,,VFR,,,,,,,,,,,,METAR,166
KMTK 141815Z AUTO 16013KT CLR 28/25 A3005 RMK A01,KMTK,2025-08-14T18:15:00Z,28.6967,-89.3958,28,25,160,13,,,30.05,,,TRUE,TRUE,,,,,,,CLR,,,,,,,,,,,,,,,,,,,,METAR,50
KMPZ 141815Z AUTO 13008KT 10SM CLR 26/19 A3003 RMK AO2,KMPZ,2025-08-14T18:15:00Z,40.9453,-91.5122,26,19,130,8,,10+,30.03,,,TRUE,TRUE,,,,,,,CLR,,,,,,,,VFR,,,,,,,,,,,,METAR,222
KMNZ 141815Z AUTO VRB06KT 9SM CLR 34/24 A2999 RMK AO2,KMNZ,2025-08-14T18:15:00Z,31.6697,-98.1462,34,24,VRB,6,,9,29.99,,,TRUE,TRUE,,,,,,,CLR,,,,,,,,VFR,,,,,,,,,,,,METAR,397
KMNV 141815Z AUTO 00000KT 10SM FEW034 30/24 A3003 RMK A01,KMNV,2025-08-14T18:15:00Z,35.5429,-84.3808,30,24,0,0,,10+,30.03,,,TRUE,TRUE,,,,,,,FEW,3400,,,,,,,VFR,,,,,,,,,,,,METAR,306
KMNI 141815Z AUTO 29004KT 10SM VCTS SCT020 BKN029 OVC050 27/24 A2997 RMK AO2 LTG DSNT E AND SE,KMNI,2025-08-14T18:15:00Z,33.5882,-80.2059,27,24,290,4,,10+,29.97,,,TRUE,TRUE,,,,,,VCTS,SCT,2000,BKN,2900,OVC,5000,,,MVFR,,,,,,,,,,,,METAR,29
KMNE 141815Z AUTO 00000KT 10SM SCT039 SCT045 SCT060 33/21 A2998 RMK AO2 LTG DSNT E AND SE,KMNE,2025-08-14T18:15:00Z,32.6433,-93.2972,33,21,0,0,,10+,29.98,,,TRUE,TRUE,,,,,,,SCT,3900,SCT,4500,SCT,6000,,,VFR,,,,,,,,,,,,METAR,84
KMMI 141815Z AUTO 00000KT 10SM SCT039 SCT046 31/21 A3004 RMK A01,KMMI,2025-08-14T18:15:00Z,35.3952,-84.5612,31,21,0,0,,10+,30.04,,,TRUE,TRUE,,,,,,,SCT,3900,SCT,4600,,,,,VFR,,,,,,,,,,,,METAR,252
KMLJ 141815Z AUTO 00000KT 10SM FEW070 31/26 A3000 RMK AO2,KMLJ,2025-08-14T18:15:00Z,33.153,-83.242,31,26,0,0,,10+,30.00,,,TRUE,TRUE,,,,,,,FEW,7000,,,,,,,VFR,,,,,,,,,,,,METAR,115
KMLE 141815Z AUTO 15012G19KT 10SM CLR 29/21 A2992 RMK AO2 T02880212,KMLE,2025-08-14T18:15:00Z,41.1981,-96.1131,28.8,21.2,150,12,19,10+,29.92,,,TRUE,TRUE,,,,,,,CLR,,,,,,,,VFR,,,,,,,,,,,,METAR,318
KMKS 141815Z AUTO 24009KT 10SM BKN035 OVC047 30/24 A2995 RMK AO2 LTG DSNT N THRU E,KMKS,2025-08-14T18:15:00Z,33.1874,-80.0363,30,24,240,9,,10+,29.95,,,TRUE,TRUE,,,,,,,BKN,3500,OVC,4700,,,,,VFR,,,,,,,,,,,,METAR,22
KMKQ 141815Z AUTO 19006KT 10SM FEW024 SCT034 32/24 A3005 RMK A01,KMKQ,2025-08-14T18:15:00Z,27.5197,-90.0981,32,24,190,6,,10+,30.05,,,TRUE,TRUE,,,,,,,FEW,2400,SCT,3400,,,,,VFR,,,,,,,,,,,,METAR,40
KMIO 141815Z AUTO 23006KT 10SM CLR A2998 RMK A01,KMIO,2025-08-14T18:15:00Z,36.9128,-94.8893,,,230,6,,10+,29.98,,,TRUE,TRUE,,,,,,,CLR,,,,,,,,VFR,,,,,,,,,,,,METAR,245
KMHR 141815Z AUTO 20006G13KT 10SM CLR 23/14 A2991 RMK AO2,KMHR,2025-08-14T18:15:00Z,38.56,-121.284,23,14,200,6,13,10+,29.91,,,TRUE,TRUE,,,,,,,CLR,,,,,,,,VFR,,,,,,,,,,,,METAR,30
KMHP 141815Z AUTO 26009KT 10SM SCT032 SCT055 32/24 A3000 RMK AO2 T03230244,KMHP,2025-08-14T18:15:00Z,32.374,-82.079,32.3,24.4,260,9,,10+,30.00,,,TRUE,TRUE,,,,,,,SCT,3200,SCT,5500,,,,,VFR,,,,,,,,,,,,METAR,60
KMCC 141815Z AUTO 23004KT 10SM CLR 23/14 A2993 RMK AO2,KMCC,2025-08-14T18:15:00Z,38.678,-121.403,23,14,230,4,,10+,29.93,,,TRUE,TRUE,,,,,,,CLR,,,,,,,,VFR,,,,,,,,,,,,METAR,21
KMBT 141815Z AUTO 00000KT 9SM CLR 32/22 A3000 RMK A01,KMBT,2025-08-14T18:15:00Z,35.8767,-86.3793,32,22,0,0,,9,30.00,,,TRUE,TRUE,,,,,,,CLR,,,,,,,,VFR,,,,,,,,,,,,METAR,187
KMAO 141815Z AUTO 00000KT 3SM VCTSRA SCT011 SCT047 BKN070 26/26 A2998 RMK AO2 LTG DSNT SE THRU SW P0001,KMAO,2025-08-14T18:15:00Z,34.1852,-79.3341,26,26,0,0,,3,29.98,,,TRUE,TRUE,,,,,,VCTSRA,SCT,1100,SCT,4700,BKN,7000,,,MVFR,,,,,,0.01,,,,,,METAR,27
KM91 141815Z AUTO 00000KT 10SM FEW035 SCT041 BKN048 31/23 A3000 RMK A01,KM91,2025-08-14T18:15:00Z,36.5363,-86.919,31,23,0,0,,10+,30.00,,,TRUE,TRUE,,,,,,,FEW,3500,SCT,4100,BKN,4800,,,VFR,,,,,,,,,,,,METAR,214
KM75 141815Z AUTO 33012KT 10SM CLR 23/11 A2990 RMK A01,KM75,2025-08-14T18:15:00Z,48.3686,-107.919,23,11,330,12,,10+,29.90,,,TRUE,TRUE,,,,,,,CLR,,,,,,,,VFR,,,,,,,,,,,,METAR,687
KM25 141815Z AUTO 22006KT 10SM BKN043 OVC065 32/24 A2999 RMK AO2 T03230236,KM25,2025-08-14T18:15:00Z,36.764,-88.5829,32.3,23.6,220,6,,10+,29.99,,,TRUE,TRUE,,,,,,,BKN,4300,OVC,6500,,,,,VFR,,,,,,,,,,,,METAR,157
KM02 141815Z AUTO 15003KT 10SM BKN037 BKN044 OVC070 30/21 A3001 RMK A01,KM02,2025-08-14T18:15:00Z,36.1289,-87.4283,30,21,150,3,,10+,30.01,,,TRUE,TRUE,,,,,,,BKN,3700,BKN,4400,OVC,7000,,,VFR,,,,,,,,,,,,METAR,268
KLXY 141815Z AUTO 21005KT 10SM CLR 33/21 A2999 RMK AO2 T03270212 TSNO,KLXY,2025-08-14T18:15:00Z,31.6446,-96.5122,32.7,21.2,210,5,,10+,29.99,,,TRUE,TRUE,,,TRUE,,,,CLR,,,,,,,,VFR,,,,,,,,,,,,METAR,164
KLUX 141815Z AUTO 28003KT 10SM BKN060 30/23 A3000 RMK AO2 LTG DSNT SE,KLUX,2025-08-14T18:15:00Z,34.508,-81.949,30,23,280,3,,10+,30.00,,,TRUE,TRUE,,,,,,,BKN,6000,,,,,,,VFR,,,,,,,,,,,,METAR,213
KLUV 141815Z AUTO 22010KT 10SM SCT065 SCT075 35/14 A3003 RMK AO2,KLUV,2025-08-14T18:15:00Z,32.7481,-101.913,35,14,220,10,,10+,30.03,,,TRUE,TRUE,,,,,,,SCT,6500,SCT,7500,,,,,VFR,,,,,,,,,,,,METAR,910
KLUG 141815Z AUTO 36006KT 10SM CLR 32/21 A3001 RMK A01,KLUG,2025-08-14T18:15:00Z,35.5082,-86.8055,32,21,360,6,,10+,30.01,,,TRUE,TRUE,,,,,,,CLR,,,,,,,,VFR,,,,,,,,,,,,METAR,218
KLSB 141815Z AUTO 28008G18KT 10SM CLR 31/08 A3012 RMK AO2,KLSB,2025-08-14T18:15:00Z,32.334,-108.696,31,8,280,8,18,10+,30.12,,,TRUE,TRUE,,,,,,,CLR,,,,,,,,VFR,,,,,,,,,,,,METAR,1308
KLRO 141815Z AUTO 18009G16KT 8SM VCTS SCT024 BKN032 BKN042 30/26 A2996 RMK AO2 LTG DSNT N AND NE,KLRO,2025-08-14T18:15:00Z,32.8982,-79.7796,30,26,180,9,16,8,29.96,,,TRUE,TRUE,,,,,,VCTS,SCT,2400,BKN,3200,BKN,4200,,,VFR,,,,,,,,,,,,METAR,3
KLOM 141815Z AUTO 09003KT 10SM CLR 30/22 A2994 RMK AO2 T03030217,KLOM,2025-08-14T18:15:00Z,40.1376,-75.2684,30.3,21.7,90,3,,10+,29.94,,,TRUE,TRUE,,,,,,,CLR,,,,,,,,VFR,,,,,,,,,,,,METAR,87
KLNN 141815Z AUTO 02006KT 10SM CLR 27/12 A3007 RMK AO1 T02690116,KLNN,2025-08-14T18:15:00Z,41.6839,-81.3896,26.9,11.6,20,6,,10+,30.07,,,TRUE,TRUE,,,,,,,CLR,,,,,,,,VFR,,,,,,,,,,,,METAR,190
KLMS 141815Z AUTO VRB04KT 10SM BKN025 BKN032 31/25 A3005 RMK AO2,KLMS,2025-08-14T18:15:00Z,33.15,-89.063,31,25,VRB,4,,10+,30.05,,,TRUE,TRUE,,,,,,,BKN,2500,BKN,3200,,,,,MVFR,,,,,,,,,,,,METAR,169
KLLN 141815Z AUTO 21007G15KT 10SM FEW120 34/13 A3004 RMK AO2,KLLN,2025-08-14T18:15:00Z,33.556,-102.375,34,13,210,7,15,10+,30.04,,,TRUE,TRUE,,,,,,,FEW,12000,,,,,,,VFR,,,,,,,,,,,,METAR,1071
KLKR 141815Z AUTO 18005KT 10SM SCT046 SCT055 30/23 A2999 RMK AO2 LTG DSNT E AND SE,KLKR,2025-08-14T18:15:00Z,34.7266,-80.8532,30,23,180,5,,10+,29.99,,,TRUE,TRUE,,,,,,,SCT,4600,SCT,5500,,,,,VFR,,,,,,,,,,,,METAR,166
KLKP 141815Z AUTO 36008KT 320V040 10SM BKN047 BKN060 27/15 A3005 RMK AO2,KLKP,2025-08-14T18:15:00Z,44.2641,-73.9642,27,15,360,8,,10+,30.05,,,TRUE,TRUE,,,,,,,BKN,4700,BKN,6000,,,,,VFR,,,,,,,,,,,,METAR,533
KLHM 141815Z AUTO 20004KT 10SM CLR 23/13 A2992 RMK AO1,KLHM,2025-08-14T18:15:00Z,38.9148,-121.352,23,13,200,4,,10+,29.92,,,TRUE,TRUE,,,,,,,CLR,,,,,,,,VFR,,,,,,,,,,,,METAR,36
KLHB 141815Z AUTO VRB03KT 10SM CLR 35/22 A2997 RMK AO2,KLHB,2025-08-14T18:15:00Z,30.8693,-96.6207,35,22,VRB,3,,10+,29.97,,,TRUE,TRUE,,,,,,,CLR,,,,,,,,VFR,,,,,,,,,,,,METAR,83
KLCQ 141815Z AUTO 24007KT 10SM SCT035 SCT048 32/23 A3004 RMK AO2 LTG DSNT SW,KLCQ,2025-08-14T18:15:00Z,30.1838,-82.5684,32,23,240,7,,10+,30.04,,,TRUE,TRUE,,,,,,,SCT,3500,SCT,4800,,,,,VFR,,,,,,,,,,,,METAR,59
KLCG 141815Z AUTO 18014G22KT 10SM CLR 28/23 A2986 RMK AO2 T02800232,KLCG,2025-08-14T18:15:00Z,42.2423,-96.983,28,23.2,180,14,22,10+,29.86,,,TRUE,TRUE,,,,,,,CLR,,,,,,,,VFR,,,,,,,,,,,,METAR,434
KLAM 141815Z AUTO 17006G16KT 140V240 5SM HZ SCT180 29/03 A3026 RMK AO2 T02870026 $,KLAM,2025-08-14T18:15:00Z,35.8789,-106.262,28.7,2.6,170,6,16,5,30.26,,,TRUE,TRUE,TRUE,,,,,HZ,SCT,18000,,,,,,,MVFR,,,,,,,,,,,,METAR,2166
KK88 141815Z AUTO 16006KT 9SM CLR 31/24 A2998 RMK AO2,KK88,2025-08-14T18:15:00Z,37.8692,-95.384,31,24,160,6,,9,29.98,,,TRUE,TRUE,,,,,,,CLR,,,,,,,,VFR,,,,,,,,,,,,METAR,308
KK83 141815Z AUTO 17012G15KT 10SM CLR 30/21 A2999 RMK AO2 T02960207,KK83,2025-08-14T18:15:00Z,39.9053,-95.7747,29.6,20.7,170,12,15,10+,29.99,,,TRUE,TRUE,,,,,,,CLR,,,,,,,,VFR,,,,,,,,,,,,METAR,405
KK70 141815Z AUTO 09007KT 10SM CLR 32/26 A3006 RMK AO2,KK70,2025-08-14T18:15:00Z,25.322,-80.277,32,26,90,7,,10+,30.06,,,TRUE,TRUE,,,,,,,CLR,,,,,,,,VFR,,,,,,,,,,,,METAR,20
KK62 141815Z AUTO 00000KT 10SM SCT042 28/20 A3003 RMK AO2,KK62,2025-08-14T18:15:00Z,38.7018,-84.3964,28,20,0,0,,10+,30.03,,,TRUE,TRUE,,,,,,,SCT,4200,,,,,,,VFR,,,,,,,,,,,,METAR,274
KJZI 141815Z AUTO 21013KT 10SM FEW024 FEW031 SCT055 31/26 A2998 RMK AO2 LTG DSNT NE,KJZI,2025-08-14T18:15:00Z,32.7025,-80.0058,31,26,210,13,,10+,29.98,,,TRUE,TRUE,,,,,,,FEW,2400,FEW,3100,SCT,5500,,,VFR,,,,,,,,,,,,METAR,5
KJYR 141815Z AUTO 17015G23KT 10SM CLR 30/23 A2989 RMK AO2,KJYR,2025-08-14T18:15:00Z,40.8942,-97.6258,30,23,170,15,23,10+,29.89,,,TRUE,TRUE,,,,,,,CLR,,,,,,,,VFR,,,,,,,,,,,,METAR,508
KJVY 141815Z AUTO VRB04KT 10SM CLR 32/22 A2998 RMK AO2,KJVY,2025-08-14T18:15:00Z,38.3692,-85.7366,32,22,VRB,4,,10+,29.98,,,TRUE,TRUE,,,,,,,CLR,,,,,,,,VFR,,,,,,,,,,,,METAR,141
KJSY 141815Z AUTO 00000KT 10SM CLR 23/06 A3005 RMK AO2 T02250058,KJSY,2025-08-14T18:15:00Z,45.3556,-117.254,22.5,5.8,0,0,,10+,30.05,,,TRUE,TRUE,,,,,,,CLR,,,,,,,,VFR,,,,,,,,,,,,METAR,1256
KJSV 141815Z AUTO 15004KT 1 3/4SM -DZ HZ CLR 33/28 A2997 RMK AO2 VIS 3/4V5,KJSV,2025-08-14T18:15:00Z,35.4381,-94.8012,33,28,150,4,,1.75,29.97,,,TRUE,TRUE,,,,,,-DZ HZ,CLR,,,,,,,,IFR,,,,,,,,,,,,METAR,158
KJOT 141815Z AUTO 00000KT 10SM SCT060 29/14 A3005 RMK AO2 T02880142,KJOT,2025-08-14T18:15:00Z,41.5176,-88.179,28.8,14.2,0,0,,10+,30.05,,,TRUE,TRUE,,,,,,,SCT,6000,,,,,,,VFR,,,,,,,,,,,,METAR,175
KJHN 141815Z AUTO 17017KT 10SM CLR 35/15 A2993 RMK AO2,KJHN,2025-08-14T18:15:00Z,37.5782,-101.73,35,15,170,17,,10+,29.93,,,TRUE,TRUE,,,,,,,CLR,,,,,,,,VFR,,,,,,,,,,,,METAR,1013
KJES 141815Z AUTO 28004KT 10SM SCT036 SCT047 SCT065 33/24 A3003 RMK AO2,KJES,2025-08-14T18:15:00Z,31.5521,-81.8896,33,24,280,4,,10+,30.03,,,TRUE,TRUE,,,,,,,SCT,3600,SCT,4700,SCT,6500,,,VFR,,,,,,,,,,,,METAR,26
KJCA 141815Z AUTO 31008KT 250V330 10SM BKN034 BKN049 30/24 A3002 RMK AO2 T02970237,KJCA,2025-08-14T18:15:00Z,34.1739,-83.5583,29.7,23.7,310,8,,10+,30.02,,,TRUE,TRUE,,,,,,,BKN,3400,BKN,4900,,,,,VFR,,,,,,,,,,,,METAR,287
KJAS 141815Z AUTO 19008KT 10SM CLR 34/24 A2999 RMK AO2,KJAS,2025-08-14T18:15:00Z,30.8904,-94.0332,34,24,190,8,,10+,29.99,,,TRUE,TRUE,,,,,,,CLR,,,,,,,,VFR,,,,,,,,,,,,METAR,60
KIZA 141815Z AUTO 00000KT 10SM CLR 20/14 A2997 RMK AO2,KIZA,2025-08-14T18:15:00Z,34.6059,-120.076,20,14,0,0,,10+,29.97,,,TRUE,TRUE,,,,,,,CLR,,,,,,,,VFR,,,,,,,,,,,,METAR,200
KIMM 141815Z AUTO VRB06KT 10SM CLR 34/25 A3004 RMK AO2,KIMM,2025-08-14T18:15:00Z,26.4321,-81.4073,34,25,VRB,6,,10+,30.04,,,TRUE,TRUE,,,,,,,CLR,,,,,,,,VFR,,,,,,,,,,,,METAR,11
KIKV 141815Z AUTO 16009G15KT 10SM CLR 27/20 A3001 RMK AO2,KIKV,2025-08-14T18:15:00Z,41.6878,-93.5695,27,20,160,9,15,10+,30.01,,,TRUE,TRUE,,,,,,,CLR,,,,,,,,VFR,,,,,,,,,,,,METAR,270
KIDP 141815Z AUTO 21005KT 10SM SCT049 SCT055 32/21 A2997 RMK AO2,KIDP,2025-08-14T18:15:00Z,37.1566,-95.7792,32,21,210,5,,10+,29.97,,,TRUE,TRUE,,,,,,,SCT,4900,SCT,5500,,,,,VFR,,,,,,,,,,,,METAR,252
KIBM 141815Z AUTO 36006KT 10SM CLR 34/07 A3001 RMK AO2 T03400074,KIBM,2025-08-14T18:15:00Z,41.1894,-103.671,34,7.4,360,6,,10+,30.01,,,TRUE,TRUE,,,,,,,CLR,,,,,,,,VFR,,,,,,,,,,,,METAR,1494
KI95 141815Z AUTO 12006KT 9SM BKN038 SCT046 BKN060 29/20 A3004 RMK A01,KI95,2025-08-14T18:15:00Z,40.6142,-83.6374,29,20,120,6,,9,30.04,,,TRUE,TRUE,,,,,,,BKN,3800,SCT,4600,BKN,6000,,,VFR,,,,,,,,,,,,METAR,312
KI35 141815Z AUTO 00000KT 7SM SCT036 SCT042 31/22 A3006 RMK AO2 T03050224,KI35,2025-08-14T18:15:00Z,36.8577,-83.3586,30.5,22.4,0,0,,7,30.06,,,TRUE,TRUE,,,,,,,SCT,3600,SCT,4200,,,,,VFR,,,,,,,,,,,,METAR,467
KHZD 141815Z AUTO 27004KT 10SM FEW090 33/23 A2999 RMK A01,KHZD,2025-08-14T18:15:00Z,36.089,-88.4654,33,23,270,4,,10+,29.99,,,TRUE,TRUE,,,,,,,FEW,9000,,,,,,,VFR,,,,,,,,,,,,METAR,147
KHVS 141815Z AUTO 11004KT 10SM VCTS SCT027 BKN034 BKN047 27/23 A2999 RMK AO2 LTG DSNT E,KHVS,2025-08-14T18:15:00Z,34.4065,-80.1198,27,23,110,4,,10+,29.99,,,TRUE,TRUE,,,,,,VCTS,SCT,2700,BKN,3400,BKN,4700,,,VFR,,,,,,,,,,,,METAR,110
KHVC 141815Z AUTO 17004KT 10SM FEW048 FEW065 SCT075 33/22 A2999 RMK AO2,KHVC,2025-08-14T18:15:00Z,36.8603,-87.4478,33,22,170,4,,10+,29.99,,,TRUE,TRUE,,,,,,,FEW,4800,FEW,6500,SCT,7500,,,VFR,,,,,,,,,,,,METAR,171
KHSG 141815Z AUTO 10005KT 10SM CLR 31/02 A2999 RMK AO2 T03080023,KHSG,2025-08-14T18:15:00Z,43.7178,-108.385,30.8,2.3,100,5,,10+,29.99,,,TRUE,TRUE,,,,,,,CLR,,,,,,,,VFR,,,,,,,,,,,,METAR,1497
KHRF 141815Z AUTO 01011KT 10SM CLR 25/08 A2993 RMK AO2,KHRF,2025-08-14T18:15:00Z,46.2575,-114.127,25,8,10,11,,10+,29.93,,,TRUE,TRUE,,,,,,,CLR,,,,,,,,VFR,,,,,,,,,,,,METAR,1112
KHQU 141815Z AUTO 00000KT 10SM SCT025 BKN030 BKN045 30/24 A3005 RMK AO2,KHQU,2025-08-14T18:15:00Z,33.5279,-82.518,30,24,0,0,,10+,30.05,,,TRUE,TRUE,,,,,,,SCT,2500,BKN,3000,BKN,4500,,,MVFR,,,,,,,,,,,,METAR,141
KHQG 141815Z AUTO 16016G20KT 10SM CLR 34/17 A2994 RMK AO2 TSNO,KHQG,2025-08-14T18:15:00Z,37.1647,-101.371,34,17,160,16,20,10+,29.94,,,TRUE,TRUE,,,TRUE,,,,CLR,,,,,,,,VFR,,,,,,,,,,,,METAR,956
KHNR 141815Z AUTO 16013G19KT 4SM HZ CLR 27/21 A2995 RMK A01,KHNR,2025-08-14T18:15:00Z,41.5841,-95.3358,27,21,160,13,19,4,29.95,,,TRUE,TRUE,,,,,,HZ,CLR,,,,,,,,MVFR,,,,,,,,,,,,METAR,364
KHMZ 141815Z AUTO 01005KT 10SM SCT039 SCT045 29/19 A3000 RMK AO2 T02890193,KHMZ,2025-08-14T18:15:00Z,40.0863,-78.5167,28.9,19.3,10,5,,10+,30.00,,,TRUE,TRUE,,,,,,,SCT,3900,SCT,4500,,,,,VFR,,,,,,,,,,,,METAR,351
KHMP 141815Z AUTO 28005KT 10SM SCT033 BKN045 30/23 A3008 RMK AO2 T03050229,KHMP,2025-08-14T18:15:00Z,33.3916,-84.3312,30.5,22.9,280,5,,10+,30.08,,,TRUE,TRUE,,,,,,,SCT,3300,BKN,4500,,,,,VFR,,,,,,,,,,,,METAR,263
KHLB 141815Z AUTO VRB04KT 10SM FEW043 FEW050 SCT075 30/19 A3005 RMK A01,KHLB,2025-08-14T18:15:00Z,39.3463,-85.2602,30,19,VRB,4,,10+,30.05,,,TRUE,TRUE,,,,,,,FEW,4300,FEW,5000,SCT,7500,,,VFR,,,,,,,,,,,,METAR,297
KHJH 141815Z AUTO 18009G19KT 10SM CLR 31/21 A2991 RMK AO2 T03110208,KHJH,2025-08-14T18:15:00Z,40.1493,-97.5872,31.1,20.8,180,9,19,10+,29.91,,,TRUE,TRUE,,,,,,,CLR,,,,,,,,VFR,,,,,,,,,,,,METAR,449
KHII 141815Z AUTO 15013G20KT 10SM CLR 39/09 A2982 RMK AO2,KHII,2025-08-14T18:15:00Z,34.5659,-114.352,39,9,150,13,20,10+,29.82,,,TRUE,TRUE,,,,,,,CLR,,,,,,,,VFR,,,,,,,,,,,,METAR,241
KHHW 141815Z AUTO 00000KT 10SM CLR 32/21 A2998 RMK AO2,KHHW,2025-08-14T18:15:00Z,34.0308,-95.5401,32,21,0,0,,10+,29.98,,,TRUE,TRUE,,,,,,,CLR,,,,,,,,VFR,,,,,,,,,,,,METAR,178
KHHV 141815Z AUTO 9SM CLR A2998 RMK A01,KHHV,2025-08-14T18:15:00Z,26.9392,-94.6886,,,,,,9,29.98,,,TRUE,TRUE,,,,,,,CLR,,,,,,,,VFR,,,,,,,,,,,,METAR,25
KHEQ 141815Z AUTO 21003KT 10SM CLR 31/18 A2992 RMK AO2,KHEQ,2025-08-14T18:15:00Z,40.5715,-102.277,31,18,210,3,,10+,29.92,,,TRUE,TRUE,,,,,,,CLR,,,,,,,,VFR,,,,,,,,,,,,METAR,1136
KHDE 141815Z AUTO 19017G22KT 10SM CLR 32/21 A2986 RMK AO2 T03180206,KHDE,2025-08-14T18:15:00Z,40.4496,-99.3363,31.8,20.6,190,17,22,10+,29.86,,,TRUE,TRUE,,,,,,,CLR,,,,,,,,VFR,,,,,,,,,,,,METAR,703
KGZS 141815Z AUTO 00000KT 10SM BKN037 30/24 A3002 RMK A01,KGZS,2025-08-14T18:15:00Z,35.1533,-87.0543,30,24,0,0,,10+,30.02,,,TRUE,TRUE,,,,,,,BKN,3700,,,,,,,VFR,,,,,,,,,,,,METAR,198
KGYF 141815Z AUTO 14012G23KT 10SM CLR 33/25 A2999 RMK AO2 PWINO T03280249,KGYF,2025-08-14T18:15:00Z,26.1292,-94.8981,32.8,24.9,140,12,23,10+,29.99,,,TRUE,TRUE,,,,,TRUE,,CLR,,,,,,,,VFR,,,,,,,,,,,,METAR,65
KGYB 141815Z AUTO 16006KT 10SM CLR 35/20 A3001 RMK AO2 T03470200,KGYB,2025-08-14T18:15:00Z,30.1714,-96.9785,34.7,20,160,6,,10+,30.01,,,TRUE,TRUE,,,,,,,CLR,,,,,,,,VFR,,,,,,,,,,,,METAR,140
KGWB 141815Z AUTO VRB03KT 10SM CLR 29/15 A3004 RMK AO2,KGWB,2025-08-14T18:15:00Z,41.3061,-85.0585,29,15,VRB,3,,10+,30.04,,,TRUE,TRUE,,,,,,,CLR,,,,,,,,VFR,,,,,,,,,,,,METAR,268
KGVW 141815Z AUTO 14005KT 10SM CLR 32/22 A3002 RMK A01,KGVW,2025-08-14T18:15:00Z,29.1303,-94.5466,32,22,140,5,,10+,30.02,,,TRUE,TRUE,,,,,,,CLR,,,,,,,,VFR,,,,,,,,,,,,METAR,37
KGVT 141815Z AUTO 17008KT 10SM BKN037 BKN043 34/24 A2997 RMK AO2,KGVT,2025-08-14T18:15:00Z,33.0669,-96.0614,34,24,170,8,,10+,29.97,,,TRUE,TRUE,,,,,,,BKN,3700,BKN,4300,,,,,VFR,,,,,,,,,,,,METAR,165
KGRN 141815Z AUTO 00000KT 10SM CLR 31/15 A2989 RMK AO2 T03140149,KGRN,2025-08-14T18:15:00Z,42.8039,-102.181,31.4,14.9,0,0,,10+,29.89,,,TRUE,TRUE,,,,,,,CLR,,,,,,,,VFR,,,,,,,,,,,,METAR,1080
KGPH 141815Z AUTO 15005KT 10SM CLR 29/18 A3001 RMK AO2,KGPH,2025-08-14T18:15:00Z,39.3248,-94.3082,29,18,150,5,,10+,30.01,,,TRUE,TRUE,,,,,,,CLR,,,,,,,,VFR,,,,,,,,,,,,METAR,233
KGOO 141815Z AUTO 00000KT 10SM CLR 28/06 A3002 RMK A01,KGOO,2025-08-14T18:15:00Z,39.224,-121.003,28,6,0,0,,10+,30.02,,,TRUE,TRUE,,,,,,,CLR,,,,,,,,VFR,,,,,,,,,,,,METAR,950
KGNG 141815Z AUTO 10SM CLR 26/09 A3000 RMK AO2,KGNG,2025-08-14T18:15:00Z,42.9155,-114.765,26,9,,,,10+,30.00,,,TRUE,TRUE,,,,,,,CLR,,,,,,,,VFR,,,,,,,,,,,,METAR,1128
KGNC 141815Z AUTO 21012G17KT 10SM CLR 35/12 A3008 RMK AO2 T03530116,KGNC,2025-08-14T18:15:00Z,32.678,-102.65,35.3,11.6,210,12,17,10+,30.08,,,TRUE,TRUE,,,,,,,CLR,,,,,,,,VFR,,,,,,,,,,,,METAR,1002
KGNB 141815Z AUTO 24006KT CLR 27/M02 A3034 RMK AO2 T02731019 PWINO,KGNB,2025-08-14T18:15:00Z,40.0904,-105.911,27.3,-1.9,240,6,,,30.34,,,TRUE,TRUE,,,,,TRUE,,CLR,,,,,,,,,,,,,,,,,,,,METAR,2500
KGMJ 141815Z AUTO 21010KT 10SM SCT049 35/21 A2998 RMK AO2 TSNO,KGMJ,2025-08-14T18:15:00Z,36.607,-94.7369,35,21,210,10,,10+,29.98,,,TRUE,TRUE,,,TRUE,,,,SCT,4900,,,,,,,VFR,,,,,,,,,,,,METAR,251
KGLY 141815Z AUTO VRB06KT 10SM CLR 32/22 A3000 RMK AO2,KGLY,2025-08-14T18:15:00Z,38.3572,-93.6774,32,22,VRB,6,,10+,30.00,,,TRUE,TRUE,,,,,,,CLR,,,,,,,,VFR,,,,,,,,,,,,METAR,247
KGLX 141815Z AUTO 21004KT 10SM FEW021 32/25 A3007 RMK A01,KGLX,2025-08-14T18:15:00Z,28.2347,-88.9843,32,25,210,4,,10+,30.07,,,TRUE,TRUE,,,,,,,FEW,2100,,,,,,,VFR,,,,,,,,,,,,METAR,32
KGLW 141815Z AUTO 00000KT 10SM SCT060 31/23 A3001 RMK AO2 T03090229,KGLW,2025-08-14T18:15:00Z,37.0337,-85.9523,30.9,22.9,0,0,,10+,30.01,,,TRUE,TRUE,,,,,,,SCT,6000,,,,,,,VFR,,,,,,,,,,,,METAR,216
KGKT 141815Z AUTO 00000KT 9SM FEW047 SCT055 SCT065 31/23 A3003 RMK A01,KGKT,2025-08-14T18:15:00Z,35.8568,-83.5333,31,23,0,0,,9,30.03,,,TRUE,TRUE,,,,,,,FEW,4700,SCT,5500,SCT,6500,,,VFR,,,,,,,,,,,,METAR,305
KGIC 141815Z AUTO 00000KT 10SM CLR 23/07 A2999 RMK AO1,KGIC,2025-08-14T18:15:00Z,45.9411,-116.133,23,7,0,0,,10+,29.99,,,TRUE,TRUE,,,,,,,CLR,,,,,,,,VFR,,,,,,,,,,,,METAR,1002
KGCY 141815Z AUTO VRB04G10KT 10SM SCT028 SCT045 29/21 A3005 RMK A01,KGCY,2025-08-14T18:15:00Z,36.1924,-82.8135,29,21,VRB,4,10,10+,30.05,,,TRUE,TRUE,,,,,,,SCT,2800,SCT,4500,,,,,VFR,,,,,,,,,,,,METAR,488
KGCM 141815Z AUTO VRB05KT 10SM FEW041 32/26 A2997 RMK AO2,KGCM,2025-08-14T18:15:00Z,36.2918,-95.4825,32,26,VRB,5,,10+,29.97,,,TRUE,TRUE,,,,,,,FEW,4100,,,,,,,VFR,,,,,,,,,,,,METAR,215
KGCD 141815Z AUTO 29006KT 10SM CLR 24/09 A3003 RMK AO2 T02350090,KGCD,2025-08-14T18:15:00Z,44.4029,-118.967,23.5,9,290,6,,10+,30.03,,,TRUE,TRUE,,,,,,,CLR,,,,,,,,VFR,,,,,,,,,,,,METAR,1122
KGAO 141815Z AUTO 00000KT 10SM BKN044 33/24 A3004 RMK AO2 LTG DSNT SE W AND NW T03300237,KGAO,2025-08-14T18:15:00Z,29.4352,-90.2599,33,23.7,0,0,,10+,30.04,,,TRUE,TRUE,,,,,,,BKN,4400,,,,,,,VFR,,,,,,,,,,,,METAR,
KFYM 141815Z AUTO 00000KT 10SM FEW031 BKN038 30/24 A3006 RMK A01,KFYM,2025-08-14T18:15:00Z,35.0603,-86.5656,30,24,0,0,,10+,30.06,,,TRUE,TRUE,,,,,,,FEW,3100,BKN,3800,,,,,VFR,,,,,,,,,,,,METAR,297
KFYE 141815Z AUTO VRB04KT 10SM FEW041 33/22 A2998 RMK A01,KFYE,2025-08-14T18:15:00Z,35.2061,-89.3929,33,22,VRB,4,,10+,29.98,,,TRUE,TRUE,,,,,,,FEW,4100,,,,,,,VFR,,,,,,,,,,,,METAR,133
KFXY 141815Z AUTO 15008KT 10SM SCT065 SCT100 BKN120 21/18 A3001 RMK AO2,KFXY,2025-08-14T18:15:00Z,43.2323,-93.6237,21,18,150,8,,10+,30.01,,,TRUE,TRUE,,,,,,,SCT,6500,SCT,10000,BKN,12000,,,VFR,,,,,,,,,,,,METAR,366
KFSW 141815Z AUTO VRB06KT 10SM CLR 27/19 A3003 RMK AO2,KFSW,2025-08-14T18:15:00Z,40.6615,-91.3267,27,19,VRB,6,,10+,30.03,,,TRUE,TRUE,,,,,,,CLR,,,,,,,,VFR,,,,,,,,,,,,METAR,219
KFRR 141815Z AUTO 29003KT 10SM SCT044 30/21 A2996 RMK AO1,KFRR,2025-08-14T18:15:00Z,38.9169,-78.2487,30,21,290,3,,10+,29.96,,,TRUE,TRUE,,,,,,,SCT,4400,,,,,,,VFR,,,,,,,,,,,,METAR,213
KFOM 141815Z AUTO 24007KT 200V280 10SM CLR 32/03 A3007 RMK AO2,KFOM,2025-08-14T18:15:00Z,38.9618,-112.36,32,3,240,7,,10+,30.07,,,TRUE,TRUE,,,,,,,CLR,,,,,,,,VFR,,,,,,,,,,,,METAR,1519
KFOA 141815Z AUTO 10003KT 10SM SCT037 30/22 A3002 RMK AO2,KFOA,2025-08-14T18:15:00Z,38.6673,-88.4527,30,22,100,3,,10+,30.02,,,TRUE,TRUE,,,,,,,SCT,3700,,,,,,,VFR,,,,,,,,,,,,METAR,141
KFMM 141815Z AUTO 30009KT 10SM CLR 37/03 A2995 RMK AO2,KFMM,2025-08-14T18:15:00Z,40.3315,-103.807,37,3,300,9,,10+,29.95,,,TRUE,TRUE,,,,,,,CLR,,,,,,,,VFR,,,,,,,,,,,,METAR,1376
KFKR 141815Z AUTO 23004KT 10SM SCT047 28/20 A3005 RMK AO2,KFKR,2025-08-14T18:15:00Z,40.2748,-86.5644,28,20,230,4,,10+,30.05,,,TRUE,TRUE,,,,,,,SCT,4700,,,,,,,VFR,,,,,,,,,,,,METAR,260
KFGX 141815Z AUTO 36004KT 10SM SCT043 SCT050 BKN100 29/20 A3004 RMK AO2 T02940201,KFGX,2025-08-14T18:15:00Z,38.5383,-83.7467,29.4,20.1,360,4,,10+,30.04,,,TRUE,TRUE,,,,,,,SCT,4300,SCT,5000,BKN,10000,,,VFR,,,,,,,,,,,,METAR,279
KFFL 141815Z AUTO 17007KT 3SM HZ CLR 26/18 A3003 RMK A01,KFFL,2025-08-14T18:15:00Z,41.0521,-91.9834,26,18,170,7,,3,30.03,,,TRUE,TRUE,,,,,,HZ,CLR,,,,,,,,MVFR,,,,,,,,,,,,METAR,240
KFET 141815Z AUTO 15010G19KT 10SM CLR 28/21 A2991 RMK AO2 T02830213,KFET,2025-08-14T18:15:00Z,41.4489,-96.5237,28.3,21.3,150,10,19,10+,29.91,,,TRUE,TRUE,,,,,,,CLR,,,,,,,,VFR,,,,,,,,,,,,METAR,366
KFCH 141815Z AUTO VRB04G10KT 10SM CLR 29/12 A2992 RMK A01,KFCH,2025-08-14T18:15:00Z,36.7338,-119.82,29,12,VRB,4,10,10+,29.92,,,TRUE,TRUE,,,,,,,CLR,,,,,,,,VFR,,,,,,,,,,,,METAR,85
KFBR 141815Z AUTO 24010G14KT 10SM CLR 30/M02 A3024 RMK AO2 T03011016,KFBR,2025-08-14T18:15:00Z,41.3941,-110.406,30.1,-1.6,240,10,14,10+,30.24,,,TRUE,TRUE,,,,,,,CLR,,,,,,,,VFR,,,,,,,,,,,,METAR,2140
KF70 141815Z AUTO 22006KT 10SM CLR 27/16 A2996 RMK AO2,KF70,2025-08-14T18:15:00Z,33.577,-117.126,27,16,220,6,,10+,29.96,,,TRUE,TRUE,,,,,,,CLR,,,,,,,,VFR,,,,,,,,,,,,METAR,406
KF45 141815Z AUTO 14006KT 10SM SCT042 BKN085 33/24 A3005 RMK AO2,KF45,2025-08-14T18:15:00Z,26.8419,-80.224,33,24,140,6,,10+,30.05,,,TRUE,TRUE,,,,,,,SCT,4200,BKN,8500,,,,,VFR,,,,,,,,,,,,METAR,6
KF17 141815Z AUTO 00000KT 10SM SCT080 31/22 A3000 RMK AO2,KF17,2025-08-14T18:15:00Z,31.8277,-94.154,31,22,0,0,,10+,30.00,,,TRUE,TRUE,,,,,,,SCT,8000,,,,,,,VFR,,,,,,,,,,,,METAR,93
KF00 141815Z AUTO 11004KT 10SM SCT047 SCT055 33/22 A2996 RMK AO2,KF00,2025-08-14T18:15:00Z,33.6158,-96.1809,33,22,110,4,,10+,29.96,,,TRUE,TRUE,,,,,,,SCT,4700,SCT,5500,,,,,VFR,,,,,,,,,,,,METAR,189
KEZS 141815Z AUTO 11004KT 10SM 27/16 A3005 RMK AO2 T02740158,KEZS,2025-08-14T18:15:00Z,44.787,-88.5639,27.4,15.8,110,4,,10+,30.05,,,TRUE,TRUE,,,,,,,,,,,,,,,VFR,,,,,,,,,,,,METAR,247
KEZM 141815Z AUTO 28008KT 10SM SCT050 31/23 A3005 RMK AO2,KEZM,2025-08-14T18:15:00Z,32.2136,-83.1321,31,23,280,8,,10+,30.05,,,TRUE,TRUE,,,,,,,SCT,5000,,,,,,,VFR,,,,,,,,,,,,METAR,86
KETO 141815Z AUTO 28005KT 10SM CLR 37/25 A3006 RMK A01,KETO,2025-08-14T18:15:00Z,28.0336,-89.1008,37,25,280,5,,10+,30.06,,,TRUE,TRUE,,,,,,,CLR,,,,,,,,VFR,,,,,,,,,,,,METAR,42
KETN 141815Z AUTO 20004KT 10SM SCT120 35/18 A2997 RMK AO2 T03540183,KETN,2025-08-14T18:15:00Z,32.4164,-98.8113,35.4,18.3,200,4,,10+,29.97,,,TRUE,TRUE,,,,,,,SCT,12000,,,,,,,VFR,,,,,,,,,,,,METAR,445
KEOK 141815Z AUTO 09007KT 10SM CLR 27/18 A3002 RMK A01,KEOK,2025-08-14T18:15:00Z,40.4615,-91.4274,27,18,90,7,,10+,30.02,,,TRUE,TRUE,,,,,,,CLR,,,,,,,,VFR,,,,,,,,,,,,METAR,206
KEMM 141815Z AUTO 31010G19KT 10SM 27/M03 A3022 RMK AO2,KEMM,2025-08-14T18:15:00Z,41.8224,-110.555,27,-3,310,10,19,10+,30.22,,,TRUE,TRUE,,,,,,,,,,,,,,,VFR,,,,,,,,,,,,METAR,2219
KELA 141815Z AUTO 11004KT 10SM SCT047 33/22 A2998 RMK AO2 T03310217,KELA,2025-08-14T18:15:00Z,29.602,-96.3239,33.1,21.7,110,4,,10+,29.98,,,TRUE,TRUE,,,,,,,SCT,4700,,,,,,,VFR,,,,,,,,,,,,METAR,56
KEKS 141815Z AUTO 24011G20KT 9SM CLR 30/M02 A3005 RMK AO2,KEKS,2025-08-14T18:15:00Z,45.276,-111.65,30,-2,240,11,20,9,30.05,,,TRUE,TRUE,,,,,,,CLR,,,,,,,,VFR,,,,,,,,,,,,METAR,1636
KEIK 141815Z AUTO 07009KT 8SM SCT180 36/02 A3000 RMK AO2 T03590020,KEIK,2025-08-14T18:15:00Z,40.0117,-105.05,35.9,2,70,9,,8,30.00,,,TRUE,TRUE,,,,,,,SCT,18000,,,,,,,VFR,,,,,,,,,,,,METAR,1551
KEHY 141815Z AUTO 30010G14KT 10SM CLR 29/M35 A3020 RMK AO2 PWINO,KEHY,2025-08-14T18:15:00Z,41.725,-106.459,29,-35,300,10,14,10+,30.20,,,TRUE,TRUE,,,,,TRUE,,CLR,,,,,,,,VFR,,,,,,,,,,,,METAR,2239
KEHA 141815Z AUTO 18013KT 10SM CLR 34/16 A2999 RMK AO2 T03410156,KEHA,2025-08-14T18:15:00Z,37.0011,-101.88,34.1,15.6,180,13,,10+,29.99,,,TRUE,TRUE,,,,,,,CLR,,,,,,,,VFR,,,,,,,,,,,,METAR,1103
KEGT 141815Z AUTO 16006KT 10SM CLR 32/21 A2997 RMK AO2 T03220209,KEGT,2025-08-14T18:15:00Z,37.3251,-97.3901,32.2,20.9,160,6,,10+,29.97,,,TRUE,TRUE,,,,,,,CLR,,,,,,,,VFR,,,,,,,,,,,,METAR,387
KEDU 141815Z AUTO 00000KT 10SM CLR 22/14 A2994 RMK AO1,KEDU,2025-08-14T18:15:00Z,38.53,-121.788,22,14,0,0,,10+,29.94,,,TRUE,TRUE,,,,,,,CLR,,,,,,,,VFR,,,,,,,,,,,,METAR,20
KECU 141815Z AUTO 16008G14KT 10SM 33/20 A3008 RMK AO2,KECU,2025-08-14T18:15:00Z,29.948,-100.174,33,20,160,8,14,10+,30.08,,,TRUE,TRUE,,,,,,,,,,,,,,,VFR,,,,,,,,,,,,METAR,725
KEBS 141815Z AUTO 16011KT 10SM CLR 25/20 A2998 RMK AO2,KEBS,2025-08-14T18:15:00Z,42.4372,-93.8725,25,20,160,11,,10+,29.98,,,TRUE,TRUE,,,,,,,CLR,,,,,,,,VFR,,,,,,,,,,,,METAR,340
KEBG 141815Z AUTO 15013G19KT 10SM CLR 36/21 A2992 RMK AO2 TSNO,KEBG,2025-08-14T18:15:00Z,26.4433,-98.1255,36,21,150,13,19,10+,29.92,,,TRUE,TRUE,,,TRUE,,,,CLR,,,,,,,,VFR,,,,,,,,,,,,METAR,21
KE77 141815Z AUTO 00000KT 10SM BKN120 28/15 A3014 RMK AO2,KE77,2025-08-14T18:15:00Z,32.634,-110.647,28,15,0,0,,10+,30.14,,,TRUE,TRUE,,,,,,,BKN,12000,,,,,,,VFR,,,,,,,,,,,,METAR,989
KE16 141815Z AUTO 14009KT 10SM SCT016 18/13 A3000 RMK AO2,KE16,2025-08-14T18:15:00Z,37.0797,-121.598,18,13,140,9,,10+,30.00,,,TRUE,TRUE,,,,,,,SCT,1600,,,,,,,VFR,,,,,,,,,,,,METAR,84
KE11 141815Z AUTO 19008G16KT 10SM BKN095 37/10 A3004 RMK AO2 T03650098,KE11,2025-08-14T18:15:00Z,32.3281,-102.528,36.5,9.8,190,8,16,10+,30.04,,,TRUE,TRUE,,,,,,,BKN,9500,,,,,,,VFR,,,,,,,,,,,,METAR,966
KE01 141815Z AUTO 00000KT 10SM CLR 36/13 A3000 RMK AO2,KE01,2025-08-14T18:15:00Z,31.5804,-102.908,36,13,0,0,,10+,30.00,,,TRUE,TRUE,,,,,,,CLR,,,,,,,,VFR,,,,,,,,,,,,METAR,796
KDZB 141815Z AUTO 00000KT CLR 37/18 A2998 RMK AO2 T03650182 PWINO,KDZB,2025-08-14T18:15:00Z,30.521,-98.3574,36.5,18.2,0,0,,,29.98,,,TRUE,TRUE,,,,,TRUE,,CLR,,,,,,,,,,,,,,,,,,,,METAR,329
KDYB 141815Z AUTO 22012G18KT 190V250 10SM SCT034 BKN055 OVC070 30/27 A2995 RMK AO2 LTG DSNT N AND NE,KDYB,2025-08-14T18:15:00Z,33.062,-80.28,30,27,220,12,18,10+,29.95,,,TRUE,TRUE,,,,,,,SCT,3400,BKN,5500,OVC,7000,,,VFR,,,,,,,,,,,,METAR,15
KDWX 141815Z AUTO 15003KT 10SM CLR 30/00 A3019 RMK AO2 T03041005,KDWX,2025-08-14T18:15:00Z,41.037,-107.5,30.4,-0.5,150,3,,10+,30.19,,,TRUE,TRUE,,,,,,,CLR,,,,,,,,VFR,,,,,,,,,,,,METAR,1974
KDWA 141815Z AUTO VRB03KT 10SM CLR 22/15 A2994 RMK AO2,KDWA,2025-08-14T18:15:00Z,38.5803,-121.854,22,15,VRB,3,,10+,29.94,,,TRUE,TRUE,,,,,,,CLR,,,,,,,,VFR,,,,,,,,,,,,METAR,28
KDVO 141815Z AUTO 00000KT 10SM CLR 22/14 A2995 RMK AO2,KDVO,2025-08-14T18:15:00Z,38.1417,-122.555,22,14,0,0,,10+,29.95,,,TRUE,TRUE,,,,,,,CLR,,,,,,,,VFR,,,,,,,,,,,,METAR,1
KDVK 141815Z AUTO 22005KT 10SM SCT042 SCT050 29/22 A3005 RMK AO2,KDVK,2025-08-14T18:15:00Z,37.5764,-84.7641,29,22,220,5,,10+,30.05,,,TRUE,TRUE,,,,,,,SCT,4200,SCT,5000,,,,,VFR,,,,,,,,,,,,METAR,309
KDUC 141815Z AUTO 15011KT 10SM CLR 34/19 A2997 RMK AO2,KDUC,2025-08-14T18:15:00Z,34.4778,-97.9616,34,19,150,11,,10+,29.97,,,TRUE,TRUE,,,,,,,CLR,,,,,,,,VFR,,,,,,,,,,,,METAR,339
KDUA 141815Z AUTO 00000KT 10SM FEW044 FEW050 34/25 A2999 RMK AO2,KDUA,2025-08-14T18:15:00Z,33.9427,-96.3967,34,25,0,0,,10+,29.99,,,TRUE,TRUE,,,,,,,FEW,4400,FEW,5000,,,,,VFR,,,,,,,,,,,,METAR,209
KDRP 141815Z AUTO VRB05KT 10SM SCT044 BKN050 BKN060 33/23 A2998 RMK AO2,KDRP,2025-08-14T18:15:00Z,35.1213,-90.8246,33,23,VRB,5,,10+,29.98,,,TRUE,TRUE,,,,,,,SCT,4400,BKN,5000,BKN,6000,,,VFR,,,,,,,,,,,,METAR,73
KDNS 141815Z AUTO 18012G20KT 9SM CLR 27/21 A2995 RMK AO2,KDNS,2025-08-14T18:15:00Z,41.9842,-95.38,27,21,180,12,20,9,29.95,,,TRUE,TRUE,,,,,,,CLR,,,,,,,,VFR,,,,,,,,,,,,METAR,382
KDKX 141815Z AUTO 00000KT 10SM FEW041 SCT050 SCT060 31/24 A3002 RMK A01,KDKX,2025-08-14T18:15:00Z,35.9658,-83.8717,31,24,0,0,,10+,30.02,,,TRUE,TRUE,,,,,,,FEW,4100,SCT,5000,SCT,6000,,,VFR,,,,,,,,,,,,METAR,253
KDKR 141815Z AUTO 00000KT 10SM CLR 35/25 A2998 RMK AO2,KDKR,2025-08-14T18:15:00Z,31.3097,-95.4039,35,25,0,0,,10+,29.98,,,TRUE,TRUE,,,,,,,CLR,,,,,,,,VFR,,,,,,,,,,,,METAR,105
KDKB 141815Z AUTO 13007KT 10SM SCT049 28/15 A3007 RMK AO2 T02760154,KDKB,2025-08-14T18:15:00Z,41.9338,-88.7066,27.6,15.4,130,7,,10+,30.07,,,TRUE,TRUE,,,,,,,SCT,4900,,,,,,,VFR,,,,,,,,,,,,METAR,277
KDEH 141815Z AUTO 19004KT 10SM CLR 24/18 A3003 RMK AO2,KDEH,2025-08-14T18:15:00Z,43.2755,-91.7433,24,18,190,4,,10+,30.03,,,TRUE,TRUE,,,,,,,CLR,,,,,,,,VFR,,,,,,,,,,,,METAR,348
KDED 141815Z AUTO 14005KT 10SM SCT050 35/23 A3004 RMK AO2 T03480227,KDED,2025-08-14T18:15:00Z,29.075,-81.286,34.8,22.7,140,5,,10+,30.04,,,TRUE,TRUE,,,,,,,SCT,5000,,,,,,,VFR,,,,,,,,,,,,METAR,21
KDCY 141815Z AUTO 00000KT 10SM SCT037 30/21 A3001 RMK AO2 T03040206,KDCY,2025-08-14T18:15:00Z,38.6953,-87.1314,30.4,20.6,0,0,,10+,30.01,,,TRUE,TRUE,,,,,,,SCT,3700,,,,,,,VFR,,,,,,,,,,,,METAR,143
KDCM 141815Z AUTO 00000KT 10SM VCTS SCT027 SCT040 BKN048 28/23 A3000 RMK AO2 LTG DSNT E AND SE,KDCM,2025-08-14T18:15:00Z,34.7908,-81.1987,28,23,0,0,,10+,30.00,,,TRUE,TRUE,,,,,,VCTS,SCT,2700,SCT,4000,BKN,4800,,,VFR,,,,,,,,,,,,METAR,191
KD73 141815Z AUTO 10SM SCT034 31/22 A3003 RMK AO2 T03060223,KD73,2025-08-14T18:15:00Z,33.7826,-83.6948,30.6,22.3,,,,10+,30.03,,,TRUE,TRUE,,,,,,,SCT,3400,,,,,,,VFR,,,,,,,,,,,,METAR,254
KD25 141815Z AUTO 18008KT 10SM BKN033 23/15 A3006 RMK AO2 T02340152,KD25,2025-08-14T18:15:00Z,46.1203,-89.88,23.4,15.2,180,8,,10+,30.06,,,TRUE,TRUE,,,,,,,BKN,3300,,,,,,,VFR,,,,,,,,,,,,METAR,490
KCZL 141815Z AUTO 35004KT 10SM SCT036 BKN044 31/24 A3003 RMK AO2,KCZL,2025-08-14T18:15:00Z,34.45,-84.936,31,24,350,4,,10+,30.03,,,TRUE,TRUE,,,,,,,SCT,3600,BKN,4400,,,,,VFR,,,,,,,,,,,,METAR,197
KCXY 141815Z 32009KT 10SM VCTS FEW080 29/21 A2996 RMK AO2 LTG DSNT SE-SW TS DSNT SE MOV E T02890211,KCXY,2025-08-14T18:15:00Z,40.2184,-76.8552,28.9,21.1,320,9,,10+,29.96,,,,TRUE,,,,,,VCTS,FEW,8000,,,,,,,VFR,,,,,,,,,,,,SPECI,102
KCXW 141815Z AUTO 23007KT 10SM FEW100 34/25 A2997 RMK A01,KCXW,2025-08-14T18:15:00Z,35.0217,-92.5506,34,25,230,7,,10+,29.97,,,TRUE,TRUE,,,,,,,FEW,10000,,,,,,,VFR,,,,,,,,,,,,METAR,84
KCXU 141815Z AUTO VRB03KT 10SM FEW037 SCT044 SCT050 33/26 A3001 RMK AO2,KCXU,2025-08-14T18:15:00Z,31.2141,-84.2358,33,26,VRB,3,,10+,30.01,,,TRUE,TRUE,,,,,,,FEW,3700,SCT,4400,SCT,5000,,,VFR,,,,,,,,,,,,METAR,48
KCXP 141815Z AUTO 33007G14KT 10SM CLR 29/M09 A3009 RMK AO2,KCXP,2025-08-14T18:15:00Z,39.1905,-119.732,29,-9,330,7,14,10+,30.09,,,TRUE,TRUE,,,,,,,CLR,,,,,,,,VFR,,,,,,,,,,,,METAR,1431
KCVC 141815Z AUTO 30008KT 220V330 10SM 31/24 A3002 RMK AO2,KCVC,2025-08-14T18:15:00Z,33.6312,-83.8482,31,24,300,8,,10+,30.02,,,TRUE,TRUE,,,,,,,,,,,,,,,VFR,,,,,,,,,,,,METAR,240
KCVB 141815Z AUTO 14006KT 10SM CLR 36/21 A2996 RMK AO2,KCVB,2025-08-14T18:15:00Z,29.343,-98.8497,36,21,140,6,,10+,29.96,,,TRUE,TRUE,,,,,,,CLR,,,,,,,,VFR,,,,,,,,,,,,METAR,234
KCUH 141815Z AUTO 19006KT 10SM SCT045 32/20 A2996 RMK AO2 T03240204,KCUH,2025-08-14T18:15:00Z,35.949,-96.768,32.4,20.4,190,6,,10+,29.96,,,TRUE,TRUE,,,,,,,SCT,4500,,,,,,,VFR,,,,,,,,,,,,METAR,274
KCSQ 141815Z AUTO 16010G16KT 130V190 10SM CLR 26/21 A3000 RMK AO2,KCSQ,2025-08-14T18:15:00Z,41.0188,-94.361,26,21,160,10,16,10+,30.00,,,TRUE,TRUE,,,,,,,CLR,,,,,,,,VFR,,,,,,,,,,,,METAR,394
KCSB 141815Z AUTO 19019G25KT 10SM 33/19 A2983 RMK AO2,KCSB,2025-08-14T18:15:00Z,40.307,-100.162,33,19,190,19,25,10+,29.83,,,TRUE,TRUE,,,,,,,,,,,,,,,VFR,,,,,,,,,,,,METAR,736
KCRX 141815Z AUTO 14003KT 10SM CLR 31/25 A3001 RMK AO2,KCRX,2025-08-14T18:15:00Z,34.9209,-88.6071,31,25,140,3,,10+,30.01,,,TRUE,TRUE,,,,,,,CLR,,,,,,,,VFR,,,,,,,,,,,,METAR,128
KCQB 141815Z AUTO 19011G16KT 10SM SCT047 33/21 A2998 RMK AO2 T03290208,KCQB,2025-08-14T18:15:00Z,35.7223,-96.8187,32.9,20.8,190,11,16,10+,29.98,,,TRUE,TRUE,,,,,,,SCT,4700,,,,,,,VFR,,,,,,,,,,,,METAR,298
KCPP 141815Z AUTO VRB04KT 10SM FEW024 FEW028 SCT046 30/26 A2999 RMK AO2,KCPP,2025-08-14T18:15:00Z,33.5991,-83.1401,30,26,VRB,4,,10+,29.99,,,TRUE,TRUE,,,,,,,FEW,2400,FEW,2800,SCT,4600,,,VFR,,,,,,,,,,,,METAR,207
KCOM 141815Z AUTO 24006KT 10SM CLR 36/18 A2999 RMK AO2 T03550179 PWINO,KCOM,2025-08-14T18:15:00Z,31.8415,-99.4058,35.5,17.9,240,6,,10+,29.99,,,TRUE,TRUE,,,,,TRUE,,CLR,,,,,,,,VFR,,,,,,,,,,,,METAR,516
KCNI 141815Z AUTO 28006KT 10SM SCT027 SCT032 29/22 A3006 RMK AO2 T02890219,KCNI,2025-08-14T18:15:00Z,34.31,-84.424,28.9,21.9,280,6,,10+,30.06,,,TRUE,TRUE,,,,,,,SCT,2700,SCT,3200,,,,,VFR,,,,,,,,,,,,METAR,371
KCMD 141815Z AUTO VRB04KT 10SM SCT030 SCT034 SCT044 30/24 A3005 RMK AO2,KCMD,2025-08-14T18:15:00Z,34.2722,-86.8583,30,24,VRB,4,,10+,30.05,,,TRUE,TRUE,,,,,,,SCT,3000,SCT,3400,SCT,4400,,,VFR,,,,,,,,,,,,METAR,294
KCLK 141815Z AUTO 17010G15KT 10SM CLR 33/18 A2996 RMK AO2,KCLK,2025-08-14T18:15:00Z,35.5381,-98.9336,33,18,170,10,15,10+,29.96,,,TRUE,TRUE,,,,,,,CLR,,,,,,,,VFR,,,,,,,,,,,,METAR,489
KCKP 141815Z AUTO 19012G23KT 10SM FEW120 28/22 A2991 RMK AO2,KCKP,2025-08-14T18:15:00Z,42.7304,-95.5538,28,22,190,12,23,10+,29.91,,,TRUE,TRUE,,,,,,,FEW,12000,,,,,,,VFR,,,,,,,,,,,,METAR,369
KCKI 141815Z AUTO 35003KT 10SM VCTS SCT011 BKN016 OVC060 27/24 A2996 RMK AO2 LTG DSNT NE THRU S,KCKI,2025-08-14T18:15:00Z,33.7187,-79.8567,27,24,350,3,,10+,29.96,,,TRUE,TRUE,,,,,,VCTS,SCT,1100,BKN,1600,OVC,6000,,,MVFR,,,,,,,,,,,,METAR,19
KCKF 141815Z AUTO 30006KT 10SM BKN030 BKN035 OVC055 31/24 A3004 RMK AO2 T03090244,KCKF,2025-08-14T18:15:00Z,31.9889,-83.7739,30.9,24.4,300,6,,10+,30.04,,,TRUE,TRUE,,,,,,,BKN,3000,BKN,3500,OVC,5500,,,MVFR,,,,,,,,,,,,METAR,92
KCIR 141815Z AUTO 00000KT 10SM CLR 32/24 A3000 RMK AO2 T03190238,KCIR,2025-08-14T18:15:00Z,37.0639,-89.2232,31.9,23.8,0,0,,10+,30.00,,,TRUE,TRUE,,,,,,,CLR,,,,,,,,VFR,,,,,,,,,,,,METAR,96
KCIN 141815Z AUTO 18011G18KT 10SM CLR 26/21 A2996 RMK AO2,KCIN,2025-08-14T18:15:00Z,42.0444,-94.7888,26,21,180,11,18,10+,29.96,,,TRUE,TRUE,,,,,,,CLR,,,,,,,,VFR,,,,,,,,,,,,METAR,365
KCHK 141815Z AUTO 19009KT 10SM CLR 35/20 A2994 RMK AO2 T03490200,KCHK,2025-08-14T18:15:00Z,35.0927,-97.9709,34.9,20,190,9,,10+,29.94,,,TRUE,TRUE,,,,,,,CLR,,,,,,,,VFR,,,,,,,,,,,,METAR,346
KCEY 141815Z AUTO VRB03KT 10SM SCT040 SCT050 SCT100 33/24 A3000 RMK A01,KCEY,2025-08-14T18:15:00Z,36.664,-88.372,33,24,VRB,3,,10+,30.00,,,TRUE,TRUE,,,,,,,SCT,4000,SCT,5000,SCT,10000,,,VFR,,,,,,,,,,,,METAR,172
KCDN 141815Z AUTO 08005KT 10SM FEW016 SCT035 BKN060 28/26 A2999 RMK AO2 LTG DSNT E AND SE,KCDN,2025-08-14T18:15:00Z,34.2815,-80.5636,28,26,80,5,,10+,29.99,,,TRUE,TRUE,,,,,,,FEW,1600,SCT,3500,BKN,6000,,,VFR,,,,,,,,,,,,METAR,90
KCCY 141815Z AUTO 17007KT 9SM CLR 22/19 A3003 RMK AO2,KCCY,2025-08-14T18:15:00Z,43.073,-92.6132,22,19,170,7,,9,30.03,,,TRUE,TRUE,,,,,,,CLR,,,,,,,,VFR,,,,,,,,,,,,METAR,340
KCCU 141815Z AUTO 00000KT 10SM SCT090 SCT120 19/M07 A3067 RMK AO2,KCCU,2025-08-14T18:15:00Z,39.475,-106.152,19,-7,0,0,,10+,30.67,,,TRUE,TRUE,,,,,,,SCT,9000,SCT,12000,,,,,VFR,,,,,,,,,,,,METAR,3672
KCCB 141815Z AUTO 00000KT 5SM HZ CLR 24/17 A2996 RMK AO2,KCCB,2025-08-14T18:15:00Z,34.1118,-117.685,24,17,0,0,,5,29.96,,,TRUE,TRUE,,,,,,HZ,CLR,,,,,,,,MVFR,,,,,,,,,,,,METAR,440
KCBF 141815Z AUTO 15011KT 10SM CLR 28/21 A2993 RMK AO2,KCBF,2025-08-14T18:15:00Z,41.2611,-95.7604,28,21,150,11,,10+,29.93,,,TRUE,TRUE,,,,,,,CLR,,,,,,,,VFR,,,,,,,,,,,,METAR,379
KCAV 141815Z AUTO 17011KT CLR 24/20 A3000 RMK A01,KCAV,2025-08-14T18:15:00Z,42.743,-93.7592,24,20,170,11,,,30.00,,,TRUE,TRUE,,,,,,,CLR,,,,,,,,,,,,,,,,,,,,METAR,352
KC83 141815Z AUTO 02004KT 10SM CLR 25/14 A2993 RMK AO2,KC83,2025-08-14T18:15:00Z,37.8276,-121.624,25,14,20,4,,10+,29.93,,,TRUE,TRUE,,,,,,,CLR,,,,,,,,VFR,,,,,,,,,,,,METAR,16
KC75 141815Z AUTO 11005KT 10SM CLR 27/16 A3003 RMK AO2 T02730162,KC75,2025-08-14T18:15:00Z,41.0231,-89.3886,27.3,16.2,110,5,,10+,30.03,,,TRUE,TRUE,,,,,,,CLR,,,,,,,,VFR,,,,,,,,,,,,METAR,166
KC65 141815Z AUTO 00000KT 10SM FEW047 27/16 A3005 RMK A01,KC65,2025-08-14T18:15:00Z,41.3636,-86.2998,27,16,0,0,,10+,30.05,,,TRUE,TRUE,,,,,,,FEW,4700,,,,,,,VFR,,,,,,,,,,,,METAR,241
KC29 141815Z AUTO 22005KT 10SM BKN049 27/16 A3005 RMK AO1 T02690160,KC29,2025-08-14T18:15:00Z,43.1153,-89.5312,26.9,16,220,5,,10+,30.05,,,TRUE,TRUE,,,,,,,BKN,4900,,,,,,,VFR,,,,,,,,,,,,METAR,282
KC08 141815Z AUTO 29008KT 10SM CLR 27/M03 A3032 RMK AO2,KC08,2025-08-14T18:15:00Z,38.0138,-105.373,27,-3,290,8,,10+,30.32,,,TRUE,TRUE,,,,,,,CLR,,,,,,,,VFR,,,,,,,,,,,,METAR,2527
KBXM 141815Z AUTO 18007KT 10SM SCT044 BKN055 OVC070 29/21 A2990 RMK AO2,KBXM,2025-08-14T18:15:00Z,43.8848,-69.9354,29,21,180,7,,10+,29.90,,,TRUE,TRUE,,,,,,,SCT,4400,BKN,5500,OVC,7000,,,VFR,,,,,,,,,,,,METAR,16
KBVS 141815Z AUTO VRB05KT 10SM OVC021 16/13 A3004 RMK A01,KBVS,2025-08-14T18:15:00Z,48.4696,-122.419,16,13,VRB,5,,10+,30.04,,,TRUE,TRUE,,,,,,,OVC,2100,,,,,,,MVFR,,,,,,,,,,,,METAR,31
KBTN 141815Z AUTO 20012G18KT 10SM CLR 28/20 A2975 RMK AO2,KBTN,2025-08-14T18:15:00Z,45.8186,-97.7457,28,20,200,12,18,10+,29.75,,,TRUE,TRUE,,,,,,,CLR,,,,,,,,VFR,,,,,,,,,,,,METAR,400
KBTA 141815Z AUTO 16014G20KT 10SM CLR 28/21 A2993 RMK AO2 T02750213,KBTA,2025-08-14T18:15:00Z,41.415,-96.109,27.5,21.3,160,14,20,10+,29.93,,,TRUE,TRUE,,,,,,,CLR,,,,,,,,VFR,,,,,,,,,,,,METAR,400
KBQX 141815Z AUTO 17008KT 10SM SCT025 31/26 A3004 RMK A01,KBQX,2025-08-14T18:15:00Z,28.314,-95.62,31,26,170,8,,10+,30.04,,,TRUE,TRUE,,,,,,,SCT,2500,,,,,,,VFR,,,,,,,,,,,,METAR,34
KBOW 141815Z AUTO 00000KT CLR 35/23 A3006 RMK AO2 PWINO,KBOW,2025-08-14T18:15:00Z,27.9471,-81.7811,35,23,0,0,,,30.06,,,TRUE,TRUE,,,,,TRUE,,CLR,,,,,,,,,,,,,,,,,,,,METAR,38
KBNW 141815Z AUTO 17010G17KT 10SM CLR 26/22 A2999 RMK AO2,KBNW,2025-08-14T18:15:00Z,42.0486,-93.8486,26,22,170,10,17,10+,29.99,,,TRUE,TRUE,,,,,,,CLR,,,,,,,,VFR,,,,,,,,,,,,METAR,350
KBNL 141815Z AUTO 24010KT 9SM BKN021 BKN028 OVC050 30/25 A2999 RMK AO2 LTG DSNT E,KBNL,2025-08-14T18:15:00Z,33.2601,-81.387,30,25,240,10,,9,29.99,,,TRUE,TRUE,,,,,,,BKN,2100,BKN,2800,OVC,5000,,,MVFR,,,,,,,,,,,,METAR,76
KBMT 141815Z AUTO 19007KT 10SM SCT039 SCT050 SCT075 32/24 A2999 RMK AO2 T03180239,KBMT,2025-08-14T18:15:00Z,30.0686,-94.2155,31.8,23.9,190,7,,10+,29.99,,,TRUE,TRUE,,,,,,,SCT,3900,SCT,5000,SCT,7500,,,VFR,,,,,,,,,,,,METAR,8
KBMC 141815Z AUTO VRB04KT 10SM CLR 32/07 A3000 RMK AO2,KBMC,2025-08-14T18:15:00Z,41.5463,-112.06,32,7,VRB,4,,10+,30.00,,,TRUE,TRUE,,,,,,,CLR,,,,,,,,VFR,,,,,,,,,,,,METAR,1289
KBGF 141815Z AUTO 10SM FEW037 30/23 A3004 RMK A01,KBGF,2025-08-14T18:15:00Z,35.174,-86.0678,30,23,,,,10+,30.04,,,TRUE,TRUE,,,,,,,FEW,3700,,,,,,,VFR,,,,,,,,,,,,METAR,295
KBFR 141815Z AUTO 35005KT 10SM 30/22 A3002 RMK AO2,KBFR,2025-08-14T18:15:00Z,38.8383,-86.446,30,22,350,5,,10+,30.02,,,TRUE,TRUE,,,,,,,,,,,,,,,VFR,,,,,,,,,,,,METAR,223
KBFA 141815Z AUTO VRB03KT 8SM FEW060 26/14 A3008 RMK AO2,KBFA,2025-08-14T18:15:00Z,45.166,-84.924,26,14,VRB,3,,8,30.08,,,TRUE,TRUE,,,,,,,FEW,6000,,,,,,,VFR,,,,,,,,,,,,METAR,219
KBDN 141815Z AUTO VRB04KT 10SM CLR 23/09 A3004 RMK AO2,KBDN,2025-08-14T18:15:00Z,44.1006,-121.198,23,9,VRB,4,,10+,30.04,,,TRUE,TRUE,,,,,,,CLR,,,,,,,,VFR,,,,,,,,,,,,METAR,1044
KBCK 141815Z AUTO 19005KT 10SM CLR 28/16 A3002 RMK AO2 T02760161,KBCK,2025-08-14T18:15:00Z,44.2499,-90.85,27.6,16.1,190,5,,10+,30.02,,,TRUE,TRUE,,,,,,,CLR,,,,,,,,VFR,,,,,,,,,,,,METAR,256
KBBD 141815Z AUTO 18010KT 10SM CLR 34/19 A3000 RMK AO2,KBBD,2025-08-14T18:15:00Z,31.1766,-99.3229,34,19,180,10,,10+,30.00,,,TRUE,TRUE,,,,,,,CLR,,,,,,,,VFR,,,,,,,,,,,,METAR,554
KAZC 141815Z AUTO 19008KT 10SM CLR 33/03 A3014 RMK AO2,KAZC,2025-08-14T18:15:00Z,36.959,-113.013,33,3,190,8,,10+,30.14,,,TRUE,TRUE,,,,,,,CLR,,,,,,,,VFR,,,,,,,,,,,,METAR,1476
KAXA 141815Z AUTO 16015G20KT 10SM CLR 25/20 A2995 RMK A01,KAXA,2025-08-14T18:15:00Z,43.0796,-94.2723,25,20,160,15,20,10+,29.95,,,TRUE,TRUE,,,,,,,CLR,,,,,,,,VFR,,,,,,,,,,,,METAR,371
KAWG 141815Z AUTO VRB05KT 10SM CLR 26/19 A3002 RMK AO2,KAWG,2025-08-14T18:15:00Z,41.2749,-91.6746,26,19,VRB,5,,10+,30.02,,,TRUE,TRUE,,,,,,,CLR,,,,,,,,VFR,,,,,,,,,,,,METAR,229
KAVQ 141815Z AUTO 15007KT 10SM CLR 35/12 A2997 RMK AO2,KAVQ,2025-08-14T18:15:00Z,32.4112,-111.216,35,12,150,7,,10+,29.97,,,TRUE,TRUE,,,,,,,CLR,,,,,,,,VFR,,,,,,,,,,,,METAR,618
KAVK 141815Z AUTO 18014KT 10SM CLR A2992 RMK A01,KAVK,2025-08-14T18:15:00Z,36.7765,-98.6724,,,180,14,,10+,29.92,,,TRUE,TRUE,,,,,,,CLR,,,,,,,,VFR,,,,,,,,,,,,METAR,450
KAUN 141815Z AUTO 00000KT 10SM CLR 26/13 A2996 RMK A01,KAUN,2025-08-14T18:15:00Z,38.9553,-121.087,26,13,0,0,,10+,29.96,,,TRUE,TRUE,,,,,,,CLR,,,,,,,,VFR,,,,,,,,,,,,METAR,453
KATP 141815Z AUTO VRB06KT 8SM CLR 30/24 A3006 RMK A01,KATP,2025-08-14T18:15:00Z,27.1956,-90.0269,30,24,VRB,6,,8,30.06,,,TRUE,TRUE,,,,,,,CLR,,,,,,,,VFR,,,,,,,,,,,,METAR,50
KASW 141815Z AUTO 30004KT 10SM SCT043 SCT049 27/16 A3006 RMK AO2 T02710166,KASW,2025-08-14T18:15:00Z,41.274,-85.842,27.1,16.6,300,4,,10+,30.06,,,TRUE,TRUE,,,,,,,SCT,4300,SCT,4900,,,,,VFR,,,,,,,,,,,,METAR,253
KASN 141815Z AUTO VRB03KT 10SM FEW032 SCT045 31/24 A3002 RMK AO2,KASN,2025-08-14T18:15:00Z,33.569,-86.0519,31,24,VRB,3,,10+,30.02,,,TRUE,TRUE,,,,,,,FEW,3200,SCT,4500,,,,,VFR,,,,,,,,,,,,METAR,159
KARW 141815Z AUTO 24006KT 10SM 31/25 A2998 RMK AO2 LTG DSNT NE,KARW,2025-08-14T18:15:00Z,32.4104,-80.6335,31,25,240,6,,10+,29.98,,,TRUE,TRUE,,,,,,,,,,,,,,,VFR,,,,,,,,,,,,METAR,2
KARM 141815Z AUTO 19005KT 10SM SCT050 SCT070 34/22 A2999 RMK AO2 T03400220 TSNO,KARM,2025-08-14T18:15:00Z,29.2515,-96.1508,34,22,190,5,,10+,29.99,,,TRUE,TRUE,,,TRUE,,,,SCT,5000,SCT,7000,,,,,VFR,,,,,,,,,,,,METAR,29
KAQX 141815Z AUTO VRB04G10KT 10SM OVC040 29/24 A2998 RMK AO2 LTG DSNT NE AND E,KAQX,2025-08-14T18:15:00Z,32.9941,-81.271,29,24,VRB,4,10,10+,29.98,,,TRUE,TRUE,,,,,,,OVC,4000,,,,,,,VFR,,,,,,,,,,,,METAR,48
KAQO 141815Z AUTO 20009KT 170V230 10SM CLR 36/18 A2998 RMK AO2,KAQO,2025-08-14T18:15:00Z,30.7873,-98.6608,36,18,200,9,,10+,29.98,,,TRUE,TRUE,,,,,,,CLR,,,,,,,,VFR,,,,,,,,,,,,METAR,334
KAPY 141815Z AUTO 19006G09KT 10SM CLR 38/17 A2993 RMK AO2 T03750171,KAPY,2025-08-14T18:15:00Z,26.969,-99.249,37.5,17.1,190,6,9,10+,29.93,,,TRUE,TRUE,,,,,,,CLR,,,,,,,,VFR,,,,,,,,,,,,METAR,129
KAPS 141815Z AUTO 32004KT 10SM SCT044 SCT050 37/23 A3002 RMK AO2 LTG DSNT SE AND S T03660226,KAPS,2025-08-14T18:15:00Z,30.086,-90.584,36.6,22.6,320,4,,10+,30.02,,,TRUE,TRUE,,,,,,,SCT,4400,SCT,5000,,,,,VFR,,,,,,,,,,,,METAR,1
KANW 141815Z AUTO 00000KT 10SM CLR 30/18 A2985 RMK AO2 T03010181,KANW,2025-08-14T18:15:00Z,42.5748,-99.9984,30.1,18.1,0,0,,10+,29.85,,,TRUE,TRUE,,,,,,,CLR,,,,,,,,VFR,,,,,,,,,,,,METAR,788
KANK 141815Z AUTO VRB04KT 10SM FEW160 SCT180 28/00 A3023 RMK AO2 T02810001 $,KANK,2025-08-14T18:15:00Z,38.538,-106.049,28.1,0.1,VRB,4,,10+,30.23,,,TRUE,TRUE,TRUE,,,,,,FEW,16000,SCT,18000,,,,,VFR,,,,,,,,,,,,METAR,2293
KALX 141815Z AUTO 36005KT 10SM CLR 30/23 A3004 RMK AO2 T03020225,KALX,2025-08-14T18:15:00Z,32.916,-85.964,30.2,22.5,360,5,,10+,30.04,,,TRUE,TRUE,,,,,,,CLR,,,,,,,,VFR,,,,,,,,,,,,METAR,198
KAJZ 141815Z AUTO 14003KT 7SM CLR 33/04 A3008 RMK AO2 T03300038,KAJZ,2025-08-14T18:15:00Z,38.7869,-108.066,33,3.8,140,3,,7,30.08,,,TRUE,TRUE,,,,,,,CLR,,,,,,,,VFR,,,,,,,,,,,,METAR,1583
KAJR 141815Z AUTO 27005KT 10SM SCT035 SCT046 A3004 RMK AO2,KAJR,2025-08-14T18:15:00Z,34.5006,-83.5519,,,270,5,,10+,30.04,,,TRUE,TRUE,,,,,,,SCT,3500,SCT,4600,,,,,VFR,,,,,,,,,,,,METAR,441
KAJG 141815Z AUTO 00000KT 10SM CLR 32/22 A3001 RMK AO2 T03210216,KAJG,2025-08-14T18:15:00Z,38.6093,-87.7251,32.1,21.6,0,0,,10+,30.01,,,TRUE,TRUE,,,,,,,CLR,,,,,,,,VFR,,,,,,,,,,,,METAR,130
KAIO 141815Z AUTO 18013KT 10SM SCT055 27/21 A2996 RMK AO2,KAIO,2025-08-14T18:15:00Z,41.4059,-95.0465,27,21,180,13,,10+,29.96,,,TRUE,TRUE,,,,,,,SCT,5500,,,,,,,VFR,,,,,,,,,,,,METAR,349
KAIK 141815Z AUTO 24005KT 10SM SCT021 SCT027 BKN044 29/25 A3001 RMK AO2 LTG DSNT NE AND E T02940246,KAIK,2025-08-14T18:15:00Z,33.651,-81.6821,29.4,24.6,240,5,,10+,30.01,,,TRUE,TRUE,,,,,,,SCT,2100,SCT,2700,BKN,4400,,,VFR,,,,,,,,,,,,METAR,155
KAIG 141815Z AUTO 13010KT 10SM SCT032 SCT038 23/16 A3008 RMK AO2 T02280164,KAIG,2025-08-14T18:15:00Z,45.1566,-89.1115,22.8,16.4,130,10,,10+,30.08,,,TRUE,TRUE,,,,,,,SCT,3200,SCT,3800,,,,,VFR,,,,,,,,,,,,METAR,462
KAHQ 141815Z AUTO 16015G18KT 10SM CLR 29/23 A2991 RMK AO2 T02870230,KAHQ,2025-08-14T18:15:00Z,41.241,-96.594,28.7,23,160,15,18,10+,29.91,,,TRUE,TRUE,,,,,,,CLR,,,,,,,,VFR,,,,,,,,,,,,METAR,372
KAFK 141815Z AUTO 19014G20KT 10SM CLR 29/22 A2996 RMK AO2 T02910218,KAFK,2025-08-14T18:15:00Z,40.6065,-95.8635,29.1,21.8,190,14,20,10+,29.96,,,TRUE,TRUE,,,,,,,CLR,,,,,,,,VFR,,,,,,,,,,,,METAR,353
KADH 141815Z AUTO 14006KT 10SM CLR 34/24 A2998 RMK AO2,KADH,2025-08-14T18:15:00Z,34.8021,-96.6701,34,24,140,6,,10+,29.98,,,TRUE,TRUE,,,,,,,CLR,,,,,,,,VFR,,,,,,,,,,,,METAR,301
KAAA 141815Z AUTO 02004KT 10SM SCT043 BKN050 29/20 A3004 RMK AO2 T02910204,KAAA,2025-08-14T18:15:00Z,40.1584,-89.339,29.1,20.4,20,4,,10+,30.04,,,TRUE,TRUE,,,,,,,SCT,4300,BKN,5000,,,,,VFR,,,,,,,,,,,,METAR,179
K9S9 141815Z AUTO 27011KT 10SM CLR 24/12 A3000 RMK AO2,K9S9,2025-08-14T18:15:00Z,45.4551,-119.686,24,12,270,11,,10+,30.00,,,TRUE,TRUE,,,,,,,CLR,,,,,,,,VFR,,,,,,,,,,,,METAR,498
K9S2 141815Z AUTO 32016G21KT 10SM CLR 22/12 A2987 RMK AO2,K9S2,2025-08-14T18:15:00Z,48.808,-105.436,22,12,320,16,21,10+,29.87,,,TRUE,TRUE,,,,,,,CLR,,,,,,,,VFR,,,,,,,,,,,,METAR,741
K8T6 141815Z AUTO 17008G15KT 10SM FEW055 38/20 A2993 RMK AO2,K8T6,2025-08-14T18:15:00Z,28.3656,-98.1174,38,20,170,8,15,10+,29.93,,,TRUE,TRUE,,,,,,,FEW,5500,,,,,,,VFR,,,,,,,,,,,,METAR,39
K8A3 141815Z AUTO 00000KT 10SM FEW035 SCT042 SCT048 29/21 A3004 RMK A01,K8A3,2025-08-14T18:15:00Z,36.4164,-85.3061,29,21,0,0,,10+,30.04,,,TRUE,TRUE,,,,,,,FEW,3500,SCT,4200,SCT,4800,,,VFR,,,,,,,,,,,,METAR,413
K82C 141815Z AUTO 16005KT BKN044 27/18 A3003 RMK AO2 T02710176 PWINO,K82C,2025-08-14T18:15:00Z,43.8385,-90.1345,27.1,17.6,160,5,,,30.03,,,TRUE,TRUE,,,,,TRUE,,BKN,4400,,,,,,,,,,,,,,,,,,,METAR,273
K7S0 141815Z AUTO 26012KT 10SM FEW075 25/07 A2992 RMK A01,K7S0,2025-08-14T18:15:00Z,47.5676,-114.1,25,7,260,12,,10+,29.92,,,TRUE,TRUE,,,,,,,FEW,7500,,,,,,,VFR,,,,,,,,,,,,METAR,941
K74V 141815Z AUTO 01005KT 10SM CLR 28/03 A3009 RMK AO2,K74V,2025-08-14T18:15:00Z,40.2799,-110.05,28,3,10,5,,10+,30.09,,,TRUE,TRUE,,,,,,,CLR,,,,,,,,VFR,,,,,,,,,,,,METAR,1567
K6S0 141815Z AUTO 11008G13KT 10SM CLR 28/04 A2997 RMK A01,K6S0,2025-08-14T18:15:00Z,45.8063,-109.974,28,4,110,8,13,10+,29.97,,,TRUE,TRUE,,,,,,,CLR,,,,,,,,VFR,,,,,,,,,,,,METAR,1364
K6R3 141815Z AUTO 00000KT 10SM BKN040 BKN050 BKN060 33/23 A3000 RMK AO2 T03280225,K6R3,2025-08-14T18:15:00Z,30.358,-95.007,32.8,22.5,0,0,,10+,30.00,,,TRUE,TRUE,,,,,,,BKN,4000,BKN,5000,BKN,6000,,,VFR,,,,,,,,,,,,METAR,44
K6P9 141815Z AUTO 13006KT 10SM CLR 35/21 A2998 RMK AO2 T03470210,K6P9,2025-08-14T18:15:00Z,32.4294,-98.5959,34.7,21,130,6,,10+,29.98,,,TRUE,TRUE,,,,,,,CLR,,,,,,,,VFR,,,,,,,,,,,,METAR,451
K6E5 141815Z AUTO 20016KT 10SM CLR 27/24 A2982 RMK AO2,K6E5,2025-08-14T18:15:00Z,44.4324,-97.5598,27,24,200,16,,10+,29.82,,,TRUE,TRUE,,,,,,,CLR,,,,,,,,VFR,,,,,,,,,,,,METAR,525
K6A1 141815Z AUTO 03005KT 10SM SCT033 SCT041 BKN050 31/24 A3005 RMK AO2 T03060235,K6A1,2025-08-14T18:15:00Z,32.5733,-84.247,30.6,23.5,30,5,,10+,30.05,,,TRUE,TRUE,,,,,,,SCT,3300,SCT,4100,BKN,5000,,,VFR,,,,,,,,,,,,METAR,198
K65S 141815Z AUTO 00000KT 10SM CLR 23/09 A2991 RMK AO2,K65S,2025-08-14T18:15:00Z,48.7255,-116.293,23,9,0,0,,10+,29.91,,,TRUE,TRUE,,,,,,,CLR,,,,,,,,VFR,,,,,,,,,,,,METAR,708
K63S 141815Z AUTO 20006KT 10SM CLR 24/04 A2990 RMK A01,K63S,2025-08-14T18:15:00Z,48.544,-117.884,24,4,200,6,,10+,29.90,,,TRUE,TRUE,,,,,,,CLR,,,,,,,,VFR,,,,,,,,,,,,METAR,571
K5T9 141815Z AUTO 12007G13KT 10SM CLR 36/22 A2992 RMK A01,K5T9,2025-08-14T18:15:00Z,28.8568,-100.516,36,22,120,7,13,10+,29.92,,,TRUE,TRUE,,,,,,,CLR,,,,,,,,VFR,,,,,,,,,,,,METAR,269
K5C1 141815Z AUTO 17008KT 10SM CLR 33/18 A3001 RMK AO1,K5C1,2025-08-14T18:15:00Z,29.7267,-98.6964,33,18,170,8,,10+,30.01,,,TRUE,TRUE,,,,,,,CLR,,,,,,,,VFR,,,,,,,,,,,,METAR,422
K57C 141815Z AUTO 00000KT 10SM SCT047 25/16 A3006 RMK AO2 T02500156,K57C,2025-08-14T18:15:00Z,42.7971,-88.3655,25,15.6,0,0,,10+,30.06,,,TRUE,TRUE,,,,,,,SCT,4700,,,,,,,VFR,,,,,,,,,,,,METAR,454
K54A 141815Z AUTO 21008KT 10SM CLR 32/26 A3004 RMK AO2 LTG DSNT N,K54A,2025-08-14T18:15:00Z,26.8601,-82.2468,32,26,210,8,,10+,30.04,,,TRUE,TRUE,,,,,,,CLR,,,,,,,,VFR,,,,,,,,,,,,METAR,2
K4V9 141815Z AUTO 17020KT 10SM FEW029 30/23 A2984 RMK AO2,K4V9,2025-08-14T18:15:00Z,42.1109,-98.041,30,23,170,20,,10+,29.84,,,TRUE,TRUE,,,,,,,FEW,2900,,,,,,,VFR,,,,,,,,,,,,METAR,530
K4V1 141815Z AUTO 00000KT 10SM CLR 34/M00 A3011 RMK AO2,K4V1,2025-08-14T18:15:00Z,37.6941,-104.788,34,0,0,0,,10+,30.11,,,TRUE,TRUE,,,,,,,CLR,,,,,,,,VFR,,,,,,,,,,,,METAR,1847
K49B 141815Z AUTO VRB06KT 10SM CLR 34/13 A2984 RMK AO2,K49B,2025-08-14T18:15:00Z,44.4284,-103.38,34,13,VRB,6,,10+,29.84,,,TRUE,TRUE,,,,,,,CLR,,,,,,,,VFR,,,,,,,,,,,,METAR,986
K49A 141815Z AUTO VRB04KT 10SM FEW025 SCT030 BKN035 29/26 A3007 RMK AO2,K49A,2025-08-14T18:15:00Z,34.6301,-84.5271,29,26,VRB,4,,10+,30.07,,,TRUE,TRUE,,,,,,,FEW,2500,SCT,3000,BKN,3500,,,VFR,,,,,,,,,,,,METAR,449
K48I 141815Z AUTO 00000KT 10SM SCT021 27/21 A3006 RMK AO2 T02680208,K48I,2025-08-14T18:15:00Z,38.684,-80.649,26.8,20.8,0,0,,10+,30.06,,,TRUE,TRUE,,,,,,,SCT,2100,,,,,,,VFR,,,,,,,,,,,,METAR,386
K48A 141815Z AUTO 28007KT 10SM SCT031 SCT040 BKN050 30/24 A3003 RMK AO2 T03040242,K48A,2025-08-14T18:15:00Z,32.3993,-83.2785,30.4,24.2,280,7,,10+,30.03,,,TRUE,TRUE,,,,,,,SCT,3100,SCT,4000,BKN,5000,,,VFR,,,,,,,,,,,,METAR,115
K46U 141815Z AUTO 34006KT 7SM CLR 28/05 A3008 RMK A01,K46U,2025-08-14T18:15:00Z,43.181,-111.037,28,5,340,6,,7,30.08,,,TRUE,TRUE,,,,,,,CLR,,,,,,,,VFR,,,,,,,,,,,,METAR,1718
K42A 141815Z AUTO 00000G10KT 10SM SCT047 A2999 RMK AO2,K42A,2025-08-14T18:15:00Z,36.0713,-91.8287,,,0,0,10,10+,29.99,,,TRUE,TRUE,,,,,,,SCT,4700,,,,,,,VFR,,,,,,,,,,,,METAR,224
K3W7 141815Z AUTO 30005KT 10SM UP CLR 27/08 A2989 RMK AO2,K3W7,2025-08-14T18:15:00Z,47.9219,-119.077,27,8,300,5,,10+,29.89,,,TRUE,TRUE,,,,,,UP,CLR,,,,,,,,VFR,,,,,,,,,,,,METAR,492
K3S8 141815Z AUTO VRB04G10KT 10SM CLR 23/13 A3007 RMK AO2,K3S8,2025-08-14T18:15:00Z,42.51,-123.388,23,13,VRB,4,10,10+,30.07,,,TRUE,TRUE,,,,,,,CLR,,,,,,,,VFR,,,,,,,,,,,,METAR,339
K3L4 141815Z AUTO 00000KT 10SM FEW032 29/24 A3002 RMK A01,K3L4,2025-08-14T18:15:00Z,29.8,-92.804,29,24,0,0,,10+,30.02,,,TRUE,TRUE,,,,,,,FEW,3200,,,,,,,VFR,,,,,,,,,,,,METAR,1
K3K3 141815Z AUTO 16015G22KT 10SM CLR 35/16 A2992 RMK AO2,K3K3,2025-08-14T18:15:00Z,37.9988,-101.75,35,16,160,15,22,10+,29.92,,,TRUE,TRUE,,,,,,,CLR,,,,,,,,VFR,,,,,,,,,,,,METAR,1010
K3J1 141815Z AUTO VRB05G13KT 10SM FEW030 SCT037 SCT048 32/26 A2998 RMK AO2,K3J1,2025-08-14T18:15:00Z,32.4969,-80.9947,32,26,VRB,5,13,10+,29.98,,,TRUE,TRUE,,,,,,,FEW,3000,SCT,3700,SCT,4800,,,VFR,,,,,,,,,,,,METAR,24
K3D2 141815Z AUTO 15006KT 10SM SCT022 24/16 A3008 RMK AO2 T02350162,K3D2,2025-08-14T18:15:00Z,45.1348,-87.1881,23.5,16.2,150,6,,10+,30.08,,,TRUE,TRUE,,,,,,,SCT,2200,,,,,,,VFR,,,,,,,,,,,,METAR,233
K36K 141815Z AUTO 16017KT 10SM CLR 32/19 A2996 RMK AO2,K36K,2025-08-14T18:15:00Z,37.9707,-101.255,32,19,160,17,,10+,29.96,,,TRUE,TRUE,,,,,,,CLR,,,,,,,,VFR,,,,,,,,,,,,METAR,938
K2V5 141815Z AUTO 00000KT 10SM CLR 32/13 A2993 RMK AO2,K2V5,2025-08-14T18:15:00Z,40.1,-102.241,32,13,0,0,,10+,29.93,,,TRUE,TRUE,,,,,,,CLR,,,,,,,,VFR,,,,,,,,,,,,METAR,1117
K2P2 141815Z AUTO 10005KT 10SM BKN021 BKN025 OVC100 22/21 A3008 RMK AO2 T02220210,K2P2,2025-08-14T18:15:00Z,45.388,-86.924,22.2,21,100,5,,10+,30.08,,,TRUE,TRUE,,,,,,,BKN,2100,BKN,2500,OVC,10000,,,MVFR,,,,,,,,,,,,METAR,182
K2J5 141815Z AUTO 21005KT 10SM BKN025 BKN033 BKN041 A3001 RMK AO2,K2J5,2025-08-14T18:15:00Z,32.8913,-81.9664,,,210,5,,10+,30.01,,,TRUE,TRUE,,,,,,,BKN,2500,BKN,3300,BKN,4100,,,MVFR,,,,,,,,,,,,METAR,72
K2I0 141815Z AUTO 00000KT 10SM BKN035 BKN047 BKN120 31/21 A3000 RMK AO2 T03070214,K2I0,2025-08-14T18:15:00Z,37.3582,-87.3977,30.7,21.4,0,0,,10+,30.00,,,TRUE,TRUE,,,,,,,BKN,3500,BKN,4700,BKN,12000,,,VFR,,,,,,,,,,,,METAR,127
K2G2 141815Z AUTO 01004KT 10SM SCT043 BKN070 OVC090 28/17 A3004 RMK A01,K2G2,2025-08-14T18:15:00Z,40.359,-80.7,28,17,10,4,,10+,30.04,,,TRUE,TRUE,,,,,,,SCT,4300,BKN,7000,OVC,9000,,,VFR,,,,,,,,,,,,METAR,365
K1V6 141815Z AUTO 18004KT 7SM CLR 36/02 A3004 RMK AO2,K1V6,2025-08-14T18:15:00Z,38.4256,-105.105,36,2,180,4,,7,30.04,,,TRUE,TRUE,,,,,,,CLR,,,,,,,,VFR,,,,,,,,,,,,METAR,1658
K1U7 141815Z AUTO 08003G10KT 10SM CLR 29/07 A3011 RMK A01,K1U7,2025-08-14T18:15:00Z,42.252,-111.337,29,7,80,3,10,10+,30.11,,,TRUE,TRUE,,,,,,,CLR,,,,,,,,VFR,,,,,,,,,,,,METAR,1808
K1M5 141815Z AUTO VRB04KT 10SM BKN039 BKN060 BKN065 32/23 A3000 RMK A01,K1M5,2025-08-14T18:15:00Z,36.5956,-86.478,32,23,VRB,4,,10+,30.00,,,TRUE,TRUE,,,,,,,BKN,3900,BKN,6000,BKN,6500,,,VFR,,,,,,,,,,,,METAR,239
K1K8 141815Z AUTO 18007KT FEW046 33/23 A2998 RMK AO2 PWINO,K1K8,2025-08-14T18:15:00Z,36.543,-95.012,33,23,180,7,,,29.98,,,TRUE,TRUE,,,,,TRUE,,FEW,4600,,,,,,,,,,,,,,,,,,,METAR,234
K1D1 141815Z AUTO 13010KT 10SM FEW070 FEW080 M11/M15 A2982 RMK AO2,K1D1,2025-08-14T18:15:00Z,45.231,-96.566,-11,-15,130,10,,10+,29.82,,,TRUE,TRUE,,,,,,,FEW,7000,FEW,8000,,,,,VFR,,,,,,,,,,,,METAR,340
K19S 141815Z AUTO 17015G19KT 10SM CLR A2994 RMK AO2,K19S,2025-08-14T18:15:00Z,37.496,-100.834,,,170,15,19,10+,29.94,,,TRUE,TRUE,,,,,,,CLR,,,,,,,,VFR,,,,,,,,,,,,METAR,886
K18H 141815Z AUTO 00000KT 10SM CLR 35/24 A3001 RMK A01,K18H,2025-08-14T18:15:00Z,26.1283,-92.0333,35,24,0,0,,10+,30.01,,,TRUE,TRUE,,,,,,,CLR,,,,,,,,VFR,,,,,,,,,,,,METAR,30
K17J 141815Z AUTO 30005KT 10SM SCT034 SCT039 BKN050 32/23 A3004 RMK AO2,K17J,2025-08-14T18:15:00Z,31.0038,-84.8794,32,23,300,5,,10+,30.04,,,TRUE,TRUE,,,,,,,SCT,3400,SCT,3900,BKN,5000,,,VFR,,,,,,,,,,,,METAR,42
K0R4 141815Z AUTO 15008KT SCT041 SCT046 SCT055 35/26 A3000 RMK AO2 LTG DSNT W THRU NE T03530257 PWINO,K0R4,2025-08-14T18:15:00Z,31.5637,-91.5098,35.3,25.7,150,8,,,30.00,,,TRUE,TRUE,,,,,TRUE,,SCT,4100,SCT,4600,SCT,5500,,,,,,,,,,,,,,,METAR,16
K0R0 141815Z AUTO 00000KT VCTS FEW030 36/26 A3003 RMK AO2 LTG DSNT N AND SE,K0R0,2025-08-14T18:15:00Z,31.2969,-89.8159,36,26,0,0,,,30.03,,,TRUE,TRUE,,,,,,VCTS,FEW,3000,,,,,,,,,,,,,,,,,,,METAR,76
K0D8 141815Z AUTO 19007G13KT 10SM CLR 29/21 A2979 RMK A01,K0D8,2025-08-14T18:15:00Z,44.989,-99.954,29,21,190,7,13,10+,29.79,,,TRUE,TRUE,,,,,,,CLR,,,,,,,,VFR,,,,,,,,,,,,METAR,628
K0A9 141815Z AUTO 30004KT 10SM FEW036 29/21 A3004 RMK AO2,K0A9,2025-08-14T18:15:00Z,36.3711,-82.1768,29,21,300,4,,10+,30.04,,,TRUE,TRUE,,,,,,,FEW,3600,,,,,,,VFR,,,,,,,,,,,,METAR,479
K0A0 141815Z AUTO 17006G13KT 10SM CLR 33/08 A3011 RMK AO2,K0A0,2025-08-14T18:15:00Z,32.99,-106.967,33,8,170,6,13,10+,30.11,,,TRUE,TRUE,,,,,,,CLR,,,,,,,,VFR,,,,,,,,,,,,METAR,1401
K05U 141815Z AUTO 18006KT 10SM CLR 30/02 A3012 RMK A01,K05U,2025-08-14T18:15:00Z,39.6015,-116.006,30,2,180,6,,10+,30.12,,,TRUE,TRUE,,,,,,,CLR,,,,,,,,VFR,,,,,,,,,,,,METAR,1813
K00U 141815Z AUTO 36008KT 340V040 10SM CLR 25/13 A2993 RMK A01,K00U,2025-08-14T18:15:00Z,45.7453,-107.661,25,13,360,8,,10+,29.93,,,TRUE,TRUE,,,,,,,CLR,,,,,,,,VFR,,,,,,,,,,,,METAR,922
CYGR 141815Z 25013KT 15SM FEW018 BKN063 BKN075 23/20 A2986 RMK SC2SC3AC2 SLP114 DENSITY ALT 1100FT,CYGR,2025-08-14T18:15:00Z,47.425,-61.775,23,20,250,13,,15,29.86,1011.4,,,,,,,,,,FEW,1800,BKN,6300,BKN,7500,,,VFR,,,,,,,,,,,,SPECI,4
PASC 141814Z 28015KT 10SM OVC005 09/08 A2976 RMK AO2 T00940083,PASC,2025-08-14T18:14:00Z,70.191,-148.48,9.4,8.3,280,15,,10+,29.76,,,,TRUE,,,,,,,OVC,500,,,,,,,IFR,,,,,,,,,,,,SPECI,17
PALG 141814Z AUTO 27006KT 10SM OVC015 10/07 A2998 RMK AO2,PALG,2025-08-14T18:14:00Z,61.538,-160.34,10,7,270,6,,10+,29.98,,,TRUE,TRUE,,,,,,,OVC,1500,,,,,,,MVFR,,,,,,,,,,,,SPECI,13
KRBG 141814Z AUTO 36004KT 10SM OVC031 21/13 A3007 RMK AO2 T02110133,KRBG,2025-08-14T18:14:00Z,43.2337,-123.358,21.1,13.3,360,4,,10+,30.07,,,TRUE,TRUE,,,,,,,OVC,3100,,,,,,,VFR,,,,,,,,,,,,SPECI,152
KEUF 141814Z AUTO VRB03KT 10SM SCT029 31/23 A3003 RMK AO1 T03110233,KEUF,2025-08-14T18:14:00Z,31.9516,-85.1312,31.1,23.3,VRB,3,,10+,30.03,,,TRUE,TRUE,,,,,,,SCT,2900,,,,,,,VFR,,,,,,,,,,,,SPECI,87
KEAN 141814Z AUTO 07006KT 10SM CLR 35/00 A2997 RMK AO2,KEAN,2025-08-14T18:14:00Z,42.0563,-104.939,35,0,70,6,,10+,29.97,,,TRUE,TRUE,,,,,,,CLR,,,,,,,,VFR,,,,,,,,,,,,METAR,1452
KC99 141814Z AUTO 29004KT 10SM BKN110 19/M06 A3056 RMK AO2,KC99,2025-08-14T18:14:00Z,39.869,-105.553,19,-6,290,4,,10+,30.56,,,TRUE,TRUE,,,,,,,BKN,11000,,,,,,,VFR,,,,,,,,,,,,METAR,3334
K5SM 141814Z AUTO 10SM SCT110 18/M05 A3057 RMK AO2,K5SM,2025-08-14T18:14:00Z,39.426,-107.38,18,-5,,,,10+,30.57,,,TRUE,TRUE,,,,,,,SCT,11000,,,,,,,VFR,,,,,,,,,,,,METAR,3229
K4S1 141814Z AUTO 35014G21KT 10SM CLR 19/15 A3004 RMK AO2,K4S1,2025-08-14T18:14:00Z,42.4161,-124.426,19,15,350,14,21,10+,30.04,,,TRUE,TRUE,,,,,,,CLR,,,,,,,,VFR,,,,,,,,,,,,METAR,7
K2V6 141814Z AUTO 10005KT 10SM CLR 33/M05 A2995 RMK AO2,K2V6,2025-08-14T18:14:00Z,40.1047,-102.713,33,-5,100,5,,10+,29.95,,,TRUE,TRUE,,,,,,,CLR,,,,,,,,VFR,,,,,,,,,,,,METAR,1257
PHLI 141813Z 01008KT 10SM BKN025 BKN060 27/21 A3006 RMK AO2 T02720211,PHLI,2025-08-14T18:13:00Z,21.9805,-159.339,27.2,21.1,10,8,,10+,30.06,,,,TRUE,,,,,,,BKN,2500,BKN,6000,,,,,MVFR,,,,,,,,,,,,SPECI,32
KFHR 141813Z AUTO 19010G15KT 10SM BKN024 BKN030 19/11 A3002 RMK AO2 T01890106,KFHR,2025-08-14T18:13:00Z,48.52,-123.026,18.9,10.6,190,10,15,10+,30.02,,,TRUE,TRUE,,,,,,,BKN,2400,BKN,3000,,,,,MVFR,,,,,,,,,,,,SPECI,34
KDTN 141813Z 31006KT 10SM BKN050 33/22 A2998 RMK AO2 T03280222,KDTN,2025-08-14T18:13:00Z,32.5429,-93.745,32.8,22.2,310,6,,10+,29.98,,,,TRUE,,,,,,,BKN,5000,,,,,,,VFR,,,,,,,,,,,,SPECI,53
KLBX 141812Z AUTO 11012KT 9SM VCTS RA FEW050 SCT070 BKN110 28/25 A3000 RMK AO2 WSHFT 1758 LTG DSNT NE AND E RAB01 TSE1755 P0001 T02830250,KLBX,2025-08-14T18:12:00Z,29.1154,-95.4632,28.3,25,110,12,,9,30.00,,,TRUE,TRUE,,,,,,VCTS RA,FEW,5000,SCT,7000,BKN,11000,,,VFR,,,,,,0.01,,,,,,SPECI,4
K7BM 141812Z AUTO 11003KT 10SM SCT120 23/M07 A3047 RMK AO2,K7BM,2025-08-14T18:12:00Z,38.799,-106.219,23,-7,110,3,,10+,30.47,,,TRUE,TRUE,,,,,,,SCT,12000,,,,,,,VFR,,,,,,,,,,,,METAR,2996
CYBW 141812Z AUTO 09004KT 060V170 9SM SCT023 SCT036 OVC043 13/08 A2999 RMK SLP171 DENSITY ALT 4600FT,CYBW,2025-08-14T18:12:00Z,51.108,-114.382,13,8,90,4,,9,29.99,1017.1,,TRUE,,,,,,,,SCT,2300,SCT,3600,OVC,4300,,,VFR,,,,,,,,,,,,SPECI,1197
MDJB 141811Z 141810Z 03006KT 8000 -TSRA FEW020CB BKN022 34/25 Q1015 CB/NE/N,MDJB,2025-08-14T18:11:00Z,18.577,-69.984,34,25,30,6,,4.97,29.97,,,,,,,,,,-TSRA,FEW,2000,BKN,2200,,,,,MVFR,,,,,,,,,,,,SPECI,24
KJAX 141811Z 02006G22KT 3SM -TSRA FEW025 BKN044CB BKN250 27/24 A3003 RMK AO2 OCNL LTGICCG OHD TS OHD MOV E P0011 T02720244 $,KJAX,2025-08-14T18:11:00Z,30.4953,-81.6937,27.2,24.4,20,6,22,3,30.03,,,,TRUE,TRUE,,,,,-TSRA,FEW,2500,BKN,4400,BKN,25000,,,MVFR,,,,,,0.11,,,,,,SPECI,8
KACV 141811Z AUTO 23004KT 10SM BKN005 OVC011 16/14 A3006 RMK AO2 T01560144,KACV,2025-08-14T18:11:00Z,40.9784,-124.105,15.6,14.4,230,4,,10+,30.06,,,TRUE,TRUE,,,,,,,BKN,500,OVC,1100,,,,,IFR,,,,,,,,,,,,SPECI,63
CYXN 141811Z 20014KT 15SM SCT050 BKN210 11/06 A3004 RMK SC3CI2 SLP175,CYXN,2025-08-14T18:11:00Z,62.238,-92.597,11,6,200,14,,15,30.04,1017.5,,,,,,,,,,SCT,5000,BKN,21000,,,,,VFR,,,,,,,,,,,,SPECI,9
VCRI 141810Z 24008KT CAVOK 26/24 Q1009,VCRI,2025-08-14T18:10:00Z,6.287,81.125,26,24,240,8,,6+,29.79,,,,,,,,,,,CAVOK,,,,,,,,VFR,,,,,,,,,,,,METAR,50
VCBI 141810Z 24006KT 9999 SCT017 27/26 Q1009 NOSIG,VCBI,2025-08-14T18:10:00Z,7.181,79.884,27,26,240,6,,6+,29.79,,,,,,TRUE,,,,,SCT,1700,,,,,,,VFR,,,,,,,,,,,,METAR,10
PHHI 141810Z AUTO 00000KT 10SM SCT027 BKN037 OVC048 25/20 A3006 RMK AO2 SLP169 $,PHHI,2025-08-14T18:10:00Z,21.478,-158.044,25,20,0,0,,10+,30.06,1016.9,,TRUE,TRUE,TRUE,,,,,,SCT,2700,BKN,3700,OVC,4800,,,VFR,,,,,,,,,,,,SPECI,246
PFCB 141810Z AUTO 02005KT 10SM OVC085 16/13 A2980 RMK AO2 T01610128,PFCB,2025-08-14T18:10:00Z,60.0785,-147.995,16.1,12.8,20,5,,10+,29.80,,,TRUE,TRUE,,,,,,,OVC,8500,,,,,,,VFR,,,,,,,,,,,,METAR,22
KVYS 141810Z AUTO 13005KT 10SM BKN048 28/18 A3005 RMK AO2 T02820176 TSNO,KVYS,2025-08-14T18:10:00Z,41.3517,-89.1496,28.2,17.6,130,5,,10+,30.05,,,TRUE,TRUE,,,TRUE,,,,BKN,4800,,,,,,,VFR,,,,,,,,,,,,METAR,198
KVVS 141810Z AUTO 33007KT 10SM SCT034 29/18 A3005 RMK AO2 T02860185,KVVS,2025-08-14T18:10:00Z,39.9581,-79.6575,28.6,18.5,330,7,,10+,30.05,,,TRUE,TRUE,,,,,,,SCT,3400,,,,,,,VFR,,,,,,,,,,,,METAR,386
KVOA 141810Z AUTO 26006KT 10SM FEW019 FEW025 31/25 A3006 RMK A01,KVOA,2025-08-14T18:10:00Z,29.2289,-87.7808,31,25,260,6,,10+,30.06,,,TRUE,TRUE,,,,,,,FEW,1900,FEW,2500,,,,,VFR,,,,,,,,,,,,METAR,53
KUKL 141810Z AUTO 16008KT 10SM CLR 30/22 A3000 RMK AO2 T03040216,KUKL,2025-08-14T18:10:00Z,38.3041,-95.7217,30.4,21.6,160,8,,10+,30.00,,,TRUE,TRUE,,,,,,,CLR,,,,,,,,VFR,,,,,,,,,,,,METAR,357
KUCY 141810Z AUTO 25006KT 10SM SCT039 33/23 A2997 RMK A01,KUCY,2025-08-14T18:10:00Z,36.3778,-88.9878,33,23,250,6,,10+,29.97,,,TRUE,TRUE,,,,,,,SCT,3900,,,,,,,VFR,,,,,,,,,,,,METAR,97
KTQV 141810Z AUTO 22006KT 10SM SCT021 SCT027 28/23 A2999 RMK A01,KTQV,2025-08-14T18:10:00Z,36.007,-78.937,28,23,220,6,,10+,29.99,,,TRUE,TRUE,,,,,,,SCT,2100,SCT,2700,,,,,VFR,,,,,,,,,,,,METAR,230
KT41 141810Z AUTO 08007KT 10SM SCT065 34/25 A2999 RMK AO2 TSNO T03450246,KT41,2025-08-14T18:10:00Z,29.6709,-95.0644,34.5,24.6,80,7,,10+,29.99,,,TRUE,TRUE,,,TRUE,,,,SCT,6500,,,,,,,VFR,,,,,,,,,,,,METAR,8
KSZT 141810Z AUTO 26008KT 10SM CLR 24/07 A2992 RMK AO2,KSZT,2025-08-14T18:10:00Z,48.2945,-116.567,24,7,260,8,,10+,29.92,,,TRUE,TRUE,,,,,,,CLR,,,,,,,,VFR,,,,,,,,,,,,METAR,649
KSTK 141810Z AUTO 07004KT 10SM CLR 31/16 A2993 RMK AO2,KSTK,2025-08-14T18:10:00Z,40.6133,-103.261,31,16,70,4,,10+,29.93,,,TRUE,TRUE,,,,,,,CLR,,,,,,,,VFR,,,,,,,,,,,,METAR,1228
KSPK 141810Z AUTO VRB03KT 10SM CLR 30/05 A3004 RMK AO2,KSPK,2025-08-14T18:10:00Z,40.1497,-111.677,30,5,VRB,3,,10+,30.04,,,TRUE,TRUE,,,,,,,CLR,,,,,,,,VFR,,,,,,,,,,,,METAR,1381
KSNH 141810Z AUTO VRB04KT 10SM FEW033 32/28 A2999 RMK A01,KSNH,2025-08-14T18:10:00Z,35.1731,-88.2146,32,28,VRB,4,,10+,29.99,,,TRUE,TRUE,,,,,,,FEW,3300,,,,,,,VFR,,,,,,,,,,,,METAR,142
KRNH 141810Z AUTO 16009G17KT 10SM -RA SCT036 SCT050 BKN100 24/18 A2999 RMK AO2 T02390176,KRNH,2025-08-14T18:10:00Z,45.1476,-92.5335,23.9,17.6,160,9,17,10+,29.99,,,TRUE,TRUE,,,,,,-RA,SCT,3600,SCT,5000,BKN,10000,,,VFR,,,,,,,,,,,,METAR,302
KPPA 141810Z AUTO 18013KT 10SM CLR 35/18 A3001 RMK AO2 T03460176,KPPA,2025-08-14T18:10:00Z,35.6139,-100.997,34.6,17.6,180,13,,10+,30.01,,,TRUE,TRUE,,,,,,,CLR,,,,,,,,VFR,,,,,,,,,,,,METAR,989
KOLY 141810Z AUTO 00000KT 10SM SCT050 SCT075 31/21 A3002 RMK AO2 T03070207,KOLY,2025-08-14T18:10:00Z,38.7213,-88.1799,30.7,20.7,0,0,,10+,30.02,,,TRUE,TRUE,,,,,,,SCT,5000,SCT,7500,,,,,VFR,,,,,,,,,,,,METAR,144
KOJA 141810Z AUTO 17013G19KT 10SM CLR 34/20 A2997 RMK AO2 T03350199,KOJA,2025-08-14T18:10:00Z,35.5484,-98.6702,33.5,19.9,170,13,19,10+,29.97,,,TRUE,TRUE,,,,,,,CLR,,,,,,,,VFR,,,,,,,,,,,,METAR,490
KNOW 141810Z AUTO 27006KT 10SM OVC024 A3003 RMK AO2,KNOW,2025-08-14T18:10:00Z,48.1394,-123.403,,,270,6,,10+,30.03,,,TRUE,TRUE,,,,,,,OVC,2400,,,,,,,MVFR,,,,,,,,,,,,METAR,3
KMRC 141810Z AUTO VRB04KT 10SM CLR 32/21 A3000 RMK A01,KMRC,2025-08-14T18:10:00Z,35.5579,-87.1778,32,21,VRB,4,,10+,30.00,,,TRUE,TRUE,,,,,,,CLR,,,,,,,,VFR,,,,,,,,,,,,METAR,205
KM54 141810Z AUTO 00000KT 10SM CLR 32/22 A2999 RMK A01,KM54,2025-08-14T18:10:00Z,36.1932,-86.3139,32,22,0,0,,10+,29.99,,,TRUE,TRUE,,,,,,,CLR,,,,,,,,VFR,,,,,,,,,,,,METAR,168
KM04 141810Z AUTO 00000KT 10SM CLR 33/23 A2999 RMK A01,KM04,2025-08-14T18:10:00Z,35.5819,-89.5858,33,23,0,0,,10+,29.99,,,TRUE,TRUE,,,,,,,CLR,,,,,,,,VFR,,,,,,,,,,,,METAR,83
KJTC 141810Z AUTO 02008G14KT 360V080 10SM FEW047 FEW070 FEW090 29/00 A3030 RMK AO2,KJTC,2025-08-14T18:10:00Z,34.1292,-109.309,29,0,20,8,14,10+,30.30,,,TRUE,TRUE,,,,,,,FEW,4700,FEW,7000,FEW,9000,,,VFR,,,,,,,,,,,,METAR,2148
KIJX 141810Z AUTO 00000KT 10SM SCT037 SCT044 SCT050 28/19 A3003 RMK AO2 T02760191,KIJX,2025-08-14T18:10:00Z,39.774,-90.2419,27.6,19.1,0,0,,10+,30.03,,,TRUE,TRUE,,,,,,,SCT,3700,SCT,4400,SCT,5000,,,VFR,,,,,,,,,,,,METAR,187
KHVE 141810Z AUTO 19004KT 10SM CLR 36/00 A3002 RMK AO2,KHVE,2025-08-14T18:10:00Z,38.418,-110.704,36,0,190,4,,10+,30.02,,,TRUE,TRUE,,,,,,,CLR,,,,,,,,VFR,,,,,,,,,,,,METAR,1351
KGRY 141810Z AUTO 20007KT 10SM FEW022 30/24 A3006 RMK A01,KGRY,2025-08-14T18:10:00Z,27.6247,-90.4411,30,24,200,7,,10+,30.06,,,TRUE,TRUE,,,,,,,FEW,2200,,,,,,,VFR,,,,,,,,,,,,METAR,58
KFOT 141810Z AUTO 28007KT 1 3/4SM OVC004 15/15 A3007 RMK AO1,KFOT,2025-08-14T18:10:00Z,40.5529,-124.134,15,15,280,7,,1.75,30.07,,,TRUE,TRUE,,,,,,,OVC,400,,,,,,,LIFR,,,,,,,,,,,,METAR,118
KEZP 141810Z AUTO 10SM 33/25 A3004 RMK A01,KEZP,2025-08-14T18:10:00Z,28.2198,-92.7944,33,25,,,,10+,30.04,,,TRUE,TRUE,,,,,,,,,,,,,,,VFR,,,,,,,,,,,,METAR,30
KEKE 141810Z AUTO 22013KT 10SM CLR A2998 RMK A01,KEKE,2025-08-14T18:10:00Z,28.4971,-91.5702,,,220,13,,10+,29.98,,,TRUE,TRUE,,,,,,,CLR,,,,,,,,VFR,,,,,,,,,,,,METAR,31
KCLI 141810Z AUTO 17007KT 7SM SCT042 SCT050 27/17 A3006 RMK AO2 T02670166,KCLI,2025-08-14T18:10:00Z,44.6152,-88.7313,26.7,16.6,170,7,,7,30.06,,,TRUE,TRUE,,,,,,,SCT,4200,SCT,5000,,,,,VFR,,,,,,,,,,,,METAR,248
KBUU 141810Z AUTO 17003KT 10SM BKN050 26/16 A3007 RMK AO2 T02570161 PWINO,KBUU,2025-08-14T18:10:00Z,42.6908,-88.308,25.7,16.1,170,3,,10+,30.07,,,TRUE,TRUE,,,,,TRUE,,BKN,5000,,,,,,,VFR,,,,,,,,,,,,METAR,238
KBQP 141810Z AUTO 00000KT 10SM BKN041 34/23 A2998 RMK AO2 T03430226 PWINO,KBQP,2025-08-14T18:10:00Z,32.7583,-91.8793,34.3,22.6,0,0,,10+,29.98,,,TRUE,TRUE,,,,,TRUE,,BKN,4100,,,,,,,VFR,,,,,,,,,,,,METAR,50
KADT 141810Z AUTO 20009KT 10SM CLR 32/17 A2994 RMK AO2 T03170174,KADT,2025-08-14T18:10:00Z,39.8401,-101.045,31.7,17.4,200,9,,10+,29.94,,,TRUE,TRUE,,,,,,,CLR,,,,,,,,VFR,,,,,,,,,,,,METAR,899
K8V7 141810Z AUTO 16014KT 10SM CLR 36/06 A2998 RMK AO2,K8V7,2025-08-14T18:10:00Z,37.4547,-102.619,36,6,160,14,,10+,29.98,,,TRUE,TRUE,,,,,,,CLR,,,,,,,,VFR,,,,,,,,,,,,METAR,1338
K2M2 141810Z AUTO VRB03KT 10SM SCT039 31/22 A3003 RMK A01,K2M2,2025-08-14T18:10:00Z,35.2372,-87.2611,31,22,VRB,3,,10+,30.03,,,TRUE,TRUE,,,,,,,SCT,3900,,,,,,,VFR,,,,,,,,,,,,METAR,286
PMDY 141809Z AUTO 15013KT 3SM -RA BR SCT023 BKN065 OVC095 23/22 A3008 RMK AO2 P0003,PMDY,2025-08-14T18:09:00Z,28.206,-177.382,23,22,150,13,,3,30.08,,,TRUE,TRUE,,,,,,-RA BR,SCT,2300,BKN,6500,OVC,9500,,,MVFR,,,,,,0.03,,,,,,SPECI,6
PAVA 141809Z AUTO 00000KT 10SM SCT018 07/04 A3012 RMK AO2,PAVA,2025-08-14T18:09:00Z,61.537,-165.604,7,4,0,0,,10+,30.12,,,TRUE,TRUE,,,,,,,SCT,1800,,,,,,,VFR,,,,,,,,,,,,SPECI,14
PABR 141809Z 33010KT 10SM OVC012 02/02 A2989 RMK AO2 T00170017 $,PABR,2025-08-14T18:09:00Z,71.2837,-156.784,1.7,1.7,330,10,,10+,29.89,,,,TRUE,TRUE,,,,,,OVC,1200,,,,,,,MVFR,,,,,,,,,,,,SPECI,6
KHTS 141809Z 36006KT 5SM RA FEW038 BKN070 OVC100 26/22 A3002 RMK AO2 RAB02 P0002 T02610222,KHTS,2025-08-14T18:09:00Z,38.3653,-82.5548,26.1,22.2,360,6,,5,30.02,,,,TRUE,,,,,,RA,FEW,3800,BKN,7000,OVC,10000,,,MVFR,,,,,,0.02,,,,,,SPECI,252
KHIB 141809Z AUTO 12007KT 4SM -RA BR SCT034 SCT060 OVC100 18/18 A2994 RMK AO2 LTG DSNT SE TSE03 P0002 T01830178,KHIB,2025-08-14T18:09:00Z,47.3804,-92.8325,18.3,17.8,120,7,,4,29.94,,,TRUE,TRUE,,,,,,-RA BR,SCT,3400,SCT,6000,OVC,10000,,,MVFR,,,,,,0.02,,,,,,SPECI,409
PAFA 141808Z 21006KT 6SM -RA BR BKN016 OVC060 12/11 A2978 RMK AO2 P0000 T01220111,PAFA,2025-08-14T18:08:00Z,64.8031,-147.876,12.2,11.1,210,6,,6,29.78,,,,TRUE,,,,,,-RA BR,BKN,1600,OVC,6000,,,,,MVFR,,,,,,0.005,,,,,,SPECI,130
KSHV 141808Z 26005KT 10SM SCT045TCU BKN090 BKN270 36/23 A2997 RMK TSE08 TS MOV NE CB DSNT N-NE MOV NE TCU AND MDT CU ALQDS,KSHV,2025-08-14T18:08:00Z,32.4473,-93.8244,36,23,260,5,,10+,29.97,,,,,,,,,,,SCT,4500,BKN,9000,BKN,27000,,,VFR,,,,,,,,,,,,SPECI,70
KPDX 141808Z VRB04KT 10SM SCT028 OVC034 20/12 A3006 RMK AO2 T02000122,KPDX,2025-08-14T18:08:00Z,45.5958,-122.609,20,12.2,VRB,4,,10+,30.06,,,,TRUE,,,,,,,SCT,2800,OVC,3400,,,,,VFR,,,,,,,,,,,,SPECI,7
KLPC 141808Z AUTO 26009KT 10SM SCT014 19/15 A2999 RMK AO2 $,KLPC,2025-08-14T18:08:00Z,34.6646,-120.464,19,15,260,9,,10+,29.99,,,TRUE,TRUE,TRUE,,,,,,SCT,1400,,,,,,,VFR,,,,,,,,,,,,SPECI,26
CYAY 141808Z AUTO 11004KT 9SM FEW028 BKN036 BKN046 OVC055 22/21 A2977 RMK SLP083 DENSITY ALT 1100FT,CYAY,2025-08-14T18:08:00Z,51.39,-56.081,22,21,110,4,,9,29.77,1008.3,,TRUE,,,,,,,,FEW,2800,BKN,3600,BKN,4600,OVC,5500,VFR,,,,,,,,,,,,SPECI,23
BIHN 141808Z VRB03KT CAVOK 14/05 Q1013,BIHN,2025-08-14T18:08:00Z,64.301,-15.227,14,5,VRB,3,,6+,29.91,,,,,,,,,,,CAVOK,,,,,,,,VFR,,,,,,,,,,,,METAR,8
SKBQ 141807Z 23007KT 190V300 2000 RA VV/// 23/23 Q1011,SKBQ,2025-08-14T18:07:00Z,10.883,-74.78,23,23,230,7,,1.24,29.85,,,,,,,,,,RA,OVX,0,,,,,,,IFR,,,,,,,,,,,,SPECI,23
PAWS 141806Z AUTO 00000KT 10SM FEW006 BKN085 OVC100 A2984 RMK AO2 FZRANO $,PAWS,2025-08-14T18:06:00Z,61.571,-149.538,,,0,0,,10+,29.84,,,TRUE,TRUE,TRUE,,,TRUE,,,FEW,600,BKN,8500,OVC,10000,,,VFR,,,,,,,,,,,,SPECI,102
KNEL 141806Z AUTO 35004KT FEW029 SCT041 BKN070 29/23 A2991 RMK AO2 SLP125 6//// T02940228 10300 20256 55000 PNO $,KNEL,2025-08-14T18:06:00Z,40.037,-74.326,29.4,22.8,350,4,,,29.91,1012.5,,TRUE,TRUE,TRUE,,,,,,FEW,2900,SCT,4100,BKN,7000,,,,,30,25.6,,,,,,,,,METAR,26
KEND 141806Z AUTO 21011G18KT 10SM CLR 34/20 A2991 RMK AO2 WSHFT 1756 SLP112 $,KEND,2025-08-14T18:06:00Z,36.338,-97.919,34,20,210,11,18,10+,29.91,1011.2,,TRUE,TRUE,TRUE,,,,,,CLR,,,,,,,,VFR,,,,,,,,,,,,SPECI,392
CYVM 141806Z AUTO 01019KT 9SM FEW009 SCT037 03/01 A2977 RMK SLP082,CYVM,2025-08-14T18:06:00Z,67.552,-64.026,3,1,10,19,,9,29.77,1008.2,,TRUE,,,,,,,,FEW,900,SCT,3700,,,,,VFR,,,,,,,,,,,,SPECI,3
SBTF 141805Z 09010KT 8000 -TSRA FEW013 SCT020 FEW030CB 27/22 Q1011,SBTF,2025-08-14T18:05:00Z,-3.383,-64.724,27,22,90,10,,4.97,29.85,,,,,,,,,,-TSRA,FEW,1300,SCT,2000,FEW,3000,,,MVFR,,,,,,,,,,,,SPECI,55
PASN 141805Z AUTO 13003KT 10SM OVC011 09/07 A3022 RMK AO2 T00940072 TSNO $,PASN,2025-08-14T18:05:00Z,57.155,-170.223,9.4,7.2,130,3,,10+,30.22,,,TRUE,TRUE,TRUE,,TRUE,,,,OVC,1100,,,,,,,MVFR,,,,,,,,,,,,SPECI,8
KNZY 141805Z 24006KT 10SM BKN015 21/17 A2995 RMK AO2 T02060167,KNZY,2025-08-14T18:05:00Z,32.6922,-117.21,20.6,16.7,240,6,,10+,29.95,,,,TRUE,,,,,,,BKN,1500,,,,,,,MVFR,,,,,,,,,,,,SPECI,4
KMEV 141805Z AUTO 30004KT 10SM CLR 27/M02 A3008 RMK AO2,KMEV,2025-08-14T18:05:00Z,38.9963,-119.75,27,-2,300,4,,10+,30.08,,,TRUE,TRUE,,,,,,,CLR,,,,,,,,VFR,,,,,,,,,,,,METAR,1437
KGZN 141805Z AUTO 14007KT 110V170 10SM CLR 35/20 A2997 RMK AO2,KGZN,2025-08-14T18:05:00Z,32.3682,-99.026,35,20,140,7,,10+,29.97,,,TRUE,TRUE,,,,,,,CLR,,,,,,,,VFR,,,,,,,,,,,,METAR,522
K1ON 141805Z AUTO 30013KT 10SM FEW029 25/18 A2975 RMK AO2 WSHFT 01 SLP073 PWINO TSNO $,K1ON,2025-08-14T18:05:00Z,48.82,-101.28,25,18,300,13,,10+,29.75,1007.3,,TRUE,TRUE,TRUE,,TRUE,,TRUE,,FEW,2900,,,,,,,VFR,,,,,,,,,,,,SPECI,466
PADG 141804Z 33013G21KT 10SM SKC 03/00 A2987,PADG,2025-08-14T18:04:00Z,68.028,-162.911,3,0,330,13,21,10+,29.87,,,,,,,,,,,SKC,,,,,,,,VFR,,,,,,,,,,,,METAR,296
KCUB 141803Z AUTO 00000KT 10SM FEW013 SCT023 OVC036 27/24 A2998 RMK AO2 T02720244,KCUB,2025-08-14T18:03:00Z,33.972,-80.9939,27.2,24.4,0,0,,10+,29.98,,,TRUE,TRUE,,,,,,,FEW,1300,SCT,2300,OVC,3600,,,VFR,,,,,,,,,,,,SPECI,55
KCEU 141803Z AUTO VRB04KT 10SM SCT031 29/24 A3001 RMK AO2 T02940239,KCEU,2025-08-14T18:03:00Z,34.6722,-82.8814,29.4,23.9,VRB,4,,10+,30.01,,,TRUE,TRUE,,,,,,,SCT,3100,,,,,,,VFR,,,,,,,,,,,,SPECI,270
CYVT 141803Z AUTO 33012G18KT 9SM -RA BKN009 BKN014 OVC041 10/09 A2966 RMK SLP058,CYVT,2025-08-14T18:03:00Z,55.842,-108.418,10,9,330,12,18,9,29.66,1005.8,,TRUE,,,,,,,-RA,BKN,900,BKN,1400,OVC,4100,,,IFR,,,,,,,,,,,,SPECI,438
PAHX 141802Z AUTO 32010G16KT 10SM SCT050 OVC080 10/06 A2992 RMK AO2 SLP132 T01000061 10100 20083 53017,PAHX,2025-08-14T18:02:00Z,62.688,-159.566,10,6.1,320,10,16,10+,29.92,1013.2,,TRUE,TRUE,,,,,,,SCT,5000,OVC,8000,,,,,VFR,0.17,10,8.3,,,,,,,,,METAR,20
KMIA 141802Z 10008KT 10SM TS SCT030CB BKN040 BKN250 32/24 A3006 RMK AO2 TSB1756 OCNL LTGICCG VC W-NW TSB1755 TS VC W-NW MOV W T03220244 $,KMIA,2025-08-14T18:02:00Z,25.7881,-80.3169,32.2,24.4,100,8,,10+,30.06,,,,TRUE,TRUE,,,,,TS,SCT,3000,BKN,4000,BKN,25000,,,VFR,,,,,,,,,,,,SPECI,1
PAFS 141801Z AUTO 22006KT 3SM -RA BR OVC006 11/11 A2979 RMK AO2 CIG 004V009 P0002,PAFS,2025-08-14T18:01:00Z,63.015,-154.367,11,11,220,6,,3,29.79,,,TRUE,TRUE,,,,,,-RA BR,OVC,600,,,,,,,IFR,,,,,,0.02,,,,,,SPECI,131
KXNO 141801Z AUTO 28008KT 10SM SCT016 OVC049 27/24 A2996 RMK AO2 RAE01 SLP145 $,KXNO,2025-08-14T18:01:00Z,33.612,-81.07,27,24,280,8,,10+,29.96,1014.5,,TRUE,TRUE,TRUE,,,,,,SCT,1600,OVC,4900,,,,,VFR,,,,,,,,,,,,SPECI,94
KWAL 141801Z 18009KT 8SM FEW027 SCT037 30/25 A2993 RMK AO2 T03000250,KWAL,2025-08-14T18:01:00Z,37.9372,-75.4662,30,25,180,9,,8,29.93,,,,TRUE,,,,,,,FEW,2700,SCT,3700,,,,,VFR,,,,,,,,,,,,SPECI,10
KMRF 141801Z AUTO VRB05KT 10SM CLR 31/11 A3020 RMK AO2 SLP152 T03060111 10306 20144 50000 $,KMRF,2025-08-14T18:01:00Z,30.3706,-104.012,30.6,11.1,VRB,5,,10+,30.20,1015.2,,TRUE,TRUE,TRUE,,,,,,CLR,,,,,,,,VFR,,30.6,14.4,,,,,,,,,METAR,1476
KGJT 141801Z 00000KT 5SM HZ FEW003 31/M02 A3005 RMK AO2 T03061022 $,KGJT,2025-08-14T18:01:00Z,39.1344,-108.541,30.6,-2.2,0,0,,5,30.05,,,,TRUE,TRUE,,,,,HZ,FEW,300,,,,,,,MVFR,,,,,,,,,,,,SPECI,1475
KBAD 141801Z VRB04KT 10SM BKN055 36/22 A2996 RMK AO2A SLP147 T03590220,KBAD,2025-08-14T18:01:00Z,32.488,-93.658,35.9,22,VRB,4,,10+,29.96,1014.7,,,TRUE,,,,,,,BKN,5500,,,,,,,VFR,,,,,,,,,,,,METAR,49
ZYHB 141800Z 20003MPS CAVOK 19/17 Q1010 NOSIG,ZYHB,2025-08-14T18:00:00Z,45.628,126.259,19,17,200,6,,6+,29.82,,,,,,TRUE,,,,,CAVOK,,,,,,,,VFR,,,,,,,,,,,,METAR,134
ZYCC 141800Z 20003MPS CAVOK 21/18 Q1013 NOSIG,ZYCC,2025-08-14T18:00:00Z,43.993,125.682,21,18,200,6,,6+,29.91,,,,,,TRUE,,,,,CAVOK,,,,,,,,VFR,,,,,,,,,,,,METAR,211
ZWSH 141800Z 32007MPS 9999 SCT040 32/01 Q1008 NOSIG,ZWSH,2025-08-14T18:00:00Z,39.542,76.019,32,1,320,14,,6+,29.76,,,,,,TRUE,,,,,SCT,4000,,,,,,,VFR,,,,,,,,,,,,METAR,1374
ZUUU 141800Z 29001MPS 9999 FEW040TCU FEW040 27/20 Q1008 RETS NOSIG,ZUUU,2025-08-14T18:00:00Z,30.576,103.95,27,20,290,2,,6+,29.76,,,,,,TRUE,,,,,FEW,4000,FEW,4000,,,,,VFR,,,,,,,,,,,,METAR,494
ZUTF 141800Z 21001MPS CAVOK 26/24 Q1007 NOSIG,ZUTF,2025-08-14T18:00:00Z,30.304,104.436,26,24,210,2,,6+,29.73,,,,,,TRUE,,,,,CAVOK,,,,,,,,VFR,,,,,,,,,,,,METAR,443
ZUGY 141800Z VRB01MPS 9999 FEW026 SCT040 22/21 Q1012 BECMG TL1850 -TSRA FEW023CB,ZUGY,2025-08-14T18:00:00Z,26.538,106.801,22,21,VRB,2,,6+,29.88,,,,,,,,,,,FEW,2600,SCT,4000,,,,,VFR,,,,,,,,,,,,METAR,1130
ZUCK 141800Z 03002MPS CAVOK 29/22 Q1006 NOSIG,ZUCK,2025-08-14T18:00:00Z,29.718,106.639,29,22,30,4,,6+,29.70,,,,,,TRUE,,,,,CAVOK,,,,,,,,VFR,,,,,,,,,,,,METAR,416
ZSQD 141800Z 06002MPS 9999 BKN020 25/25 Q1013 NOSIG,ZSQD,2025-08-14T18:00:00Z,36.362,120.087,25,25,60,4,,6+,29.91,,,,,,TRUE,,,,,BKN,2000,,,,,,,MVFR,,,,,,,,,,,,METAR,2
ZSOF 141800Z 06002MPS 040V100 CAVOK 27/26 Q1010 NOSIG,ZSOF,2025-08-14T18:00:00Z,31.99,116.965,27,26,60,4,,6+,29.82,,,,,,TRUE,,,,,CAVOK,,,,,,,,VFR,,,,,,,,,,,,METAR,64
ZSNJ 141800Z 13003MPS CAVOK 29/26 Q1010 NOSIG,ZSNJ,2025-08-14T18:00:00Z,31.739,118.863,29,26,130,6,,6+,29.82,,,,,,TRUE,,,,,CAVOK,,,,,,,,VFR,,,,,,,,,,,,METAR,27
ZSNB 141800Z 15003MPS CAVOK 28/25 Q1013 NOSIG,ZSNB,2025-08-14T18:00:00Z,29.827,121.462,28,25,150,6,,6+,29.91,,,,,,TRUE,,,,,CAVOK,,,,,,,,VFR,,,,,,,,,,,,METAR,5
ZSFZ 141800Z 03006MPS 9999 FEW013 27/26 Q1011 NOSIG,ZSFZ,2025-08-14T18:00:00Z,25.936,119.666,27,26,30,12,,6+,29.85,,,,,,TRUE,,,,,FEW,1300,,,,,,,VFR,,,,,,,,,,,,METAR,14
ZSAM 141800Z VRB01MPS 9999 FEW060 28/25 Q1010 NOSIG,ZSAM,2025-08-14T18:00:00Z,24.546,118.131,28,25,VRB,2,,6+,29.82,,,,,,TRUE,,,,,FEW,6000,,,,,,,VFR,,,,,,,,,,,,METAR,13
ZPPP 141800Z 00000MPS 9999 SCT023 BKN040 18/16 Q1020 NOSIG,ZPPP,2025-08-14T18:00:00Z,25.107,102.934,18,16,0,0,,6+,30.12,,,,,,TRUE,,,,,SCT,2300,BKN,4000,,,,,VFR,,,,,,,,,,,,METAR,2104
ZMUB 141800Z VRB01MPS CAVOK 08/05 Q1011 NOSIG RMK QFE651.9 78,ZMUB,2025-08-14T18:00:00Z,47.843,106.766,8,5,VRB,2,,6+,29.85,,,,,,TRUE,,,,,CAVOK,,,,,,,,VFR,,,,,,,,,,,,METAR,1300
ZLXY 141800Z 04005MPS CAVOK 27/21 Q1009 NOSIG,ZLXY,2025-08-14T18:00:00Z,34.449,108.752,27,21,40,10,,6+,29.79,,,,,,TRUE,,,,,CAVOK,,,,,,,,VFR,,,,,,,,,,,,METAR,478
ZLLL 141800Z VRB01MPS CAVOK 14/09 Q1017 NOSIG,ZLLL,2025-08-14T18:00:00Z,36.513,103.623,14,9,VRB,2,,6+,30.03,,,,,,TRUE,,,,,CAVOK,,,,,,,,VFR,,,,,,,,,,,,METAR,1939
ZJSY 141800Z 08002MPS 9999 VCTS -SHRA FEW016 FEW026CB BKN066 24/23 Q1005 RETS BECMG AT2000 SCT020 BKN040,ZJSY,2025-08-14T18:00:00Z,18.303,109.412,24,23,80,4,,6+,29.68,,,,,,,,,,VCTS -SHRA,FEW,1600,FEW,2600,BKN,6600,,,VFR,,,,,,,,,,,,METAR,27
ZJHK 141800Z 15002MPS 120V190 CAVOK 27/26 Q1005 BECMG TL1920 SCT020 FEW026CB,ZJHK,2025-08-14T18:00:00Z,19.934,110.445,27,26,150,4,,6+,29.68,,,,,,,,,,,CAVOK,,,,,,,,VFR,,,,,,,,,,,,METAR,21
ZHHH 141800Z 06003MPS CAVOK 29/27 Q1007 NOSIG,ZHHH,2025-08-14T18:00:00Z,30.783,114.205,29,27,60,6,,6+,29.73,,,,,,TRUE,,,,,CAVOK,,,,,,,,VFR,,,,,,,,,,,,METAR,33
ZHEC 141800Z 11002MPS 070V170 CAVOK 30/25 Q1008 NOSIG,ZHEC,2025-08-14T18:00:00Z,30.3424,115.039,30,25,110,4,,6+,29.76,,,,,,TRUE,,,,,CAVOK,,,,,,,,VFR,,,,,,,,,,,,METAR,21
ZHCC 141800Z 05003MPS 9999 SCT016 BKN040 27/22 Q1011 NOSIG,ZHCC,2025-08-14T18:00:00Z,34.52,113.834,27,22,50,6,,6+,29.85,,,,,,TRUE,,,,,SCT,1600,BKN,4000,,,,,VFR,,,,,,,,,,,,METAR,149
ZGSZ 141800Z 02004MPS 9999 SCT020 25/24 Q1008 NOSIG,ZGSZ,2025-08-14T18:00:00Z,22.639,113.803,25,24,20,8,,6+,29.76,,,,,,TRUE,,,,,SCT,2000,,,,,,,VFR,,,,,,,,,,,,METAR,18
ZGOW 141800Z 08002MPS 060V120 9999 FEW017 BKN050 26/26 Q1010 NOSIG,ZGOW,2025-08-14T18:00:00Z,23.55,116.505,26,26,80,4,,6+,29.82,,,,,,TRUE,,,,,FEW,1700,BKN,5000,,,,,VFR,,,,,,,,,,,,METAR,4
ZGNN 141800Z VRB01MPS 9999 SCT010 25/24 Q1005 NOSIG,ZGNN,2025-08-14T18:00:00Z,22.609,108.173,25,24,VRB,2,,6+,29.68,,,,,,TRUE,,,,,SCT,1000,,,,,,,VFR,,,,,,,,,,,,METAR,128
ZGKL 141800Z 20003MPS 8000 -SHRA FEW008 FEW030CB SCT030 BKN046 24/24 Q1004 RESHRA BECMG FM1930 SHRA,ZGKL,2025-08-14T18:00:00Z,25.22,110.04,24,24,200,6,,4.97,29.65,,,,,,,,,,-SHRA,FEW,800,FEW,3000,SCT,3000,BKN,4600,MVFR,,,,,,,,,,,,METAR,151
ZGHA 141800Z 10005MPS CAVOK 29/21 Q1007 NOSIG,ZGHA,2025-08-14T18:00:00Z,28.18,113.219,29,21,100,10,,6+,29.73,,,,,,TRUE,,,,,CAVOK,,,,,,,,VFR,,,,,,,,,,,,METAR,61
ZBSJ 141800Z 11002MPS 6000 NSC 26/26 Q1011 NOSIG,ZBSJ,2025-08-14T18:00:00Z,38.281,114.697,26,26,110,4,,3.73,29.85,,,,,,TRUE,,,,,CLR,,,,,,,,MVFR,,,,,,,,,,,,METAR,70
ZBHH 141800Z VRB01MPS 9999 -TSRA SCT040 FEW040CB 19/16 Q1013 RESHRA BECMG TL1900 NSW,ZBHH,2025-08-14T18:00:00Z,40.854,111.827,19,16,VRB,2,,6+,29.91,,,,,,,,,,-TSRA,SCT,4000,FEW,4000,,,,,VFR,,,,,,,,,,,,METAR,1081
WSSL 141800Z VRB01KT 9999 FEW016 FEW018CB BKN150 27/25 Q1009,WSSL,2025-08-14T18:00:00Z,1.417,103.866,27,25,VRB,1,,6+,29.79,,,,,,,,,,,FEW,1600,FEW,1800,BKN,15000,,,VFR,,,,,,,,,,,,METAR,11
WSAP 141800Z 04002KT 9999 FEW016 BKN150 27/23 Q1010,WSAP,2025-08-14T18:00:00Z,1.36,103.909,27,23,40,2,,6+,29.82,,,,,,,,,,,FEW,1600,BKN,15000,,,,,VFR,,,,,,,,,,,,METAR,20
WMSA 141800Z 15005KT 9999 FEW017CB 26/23 Q1010,WMSA,2025-08-14T18:00:00Z,3.13,101.552,26,23,150,5,,6+,29.82,,,,,,,,,,,FEW,1700,,,,,,,VFR,,,,,,,,,,,,METAR,19
WMKN 141800Z 19006KT 140V240 9999 -RA FEW010 SCT020 24/22 Q1008,WMKN,2025-08-14T18:00:00Z,5.383,103.103,24,22,190,6,,6+,29.76,,,,,,,,,,-RA,FEW,1000,SCT,2000,,,,,VFR,,,,,,,,,,,,METAR,12
WMKM 141800Z 27004KT 210V020 5000 -TSRA FEW008 FEW017CB SCT027 24/23 Q1010,WMKM,2025-08-14T18:00:00Z,2.263,102.252,24,23,270,4,,3.11,29.82,,,,,,,,,,-TSRA,FEW,800,FEW,1700,SCT,2700,,,MVFR,,,,,,,,,,,,METAR,9
WMKL 141800Z 36004KT 260V060 8000 -RA FEW010 SCT025 25/23 Q1008,WMKL,2025-08-14T18:00:00Z,6.33,99.729,25,23,360,4,,4.97,29.76,,,,,,,,,,-RA,FEW,1000,SCT,2500,,,,,MVFR,,,,,,,,,,,,METAR,4
WMKJ 141800Z VRB01KT 9999 FEW022 25/23 Q1009,WMKJ,2025-08-14T18:00:00Z,1.641,103.67,25,23,VRB,1,,6+,29.79,,,,,,,,,,,FEW,2200,,,,,,,VFR,,,,,,,,,,,,METAR,38
WMKI 141800Z 00000KT 8000 FEW017CB SCT026 25/24 Q1009,WMKI,2025-08-14T18:00:00Z,4.568,101.092,25,24,0,0,,4.97,29.79,,,,,,,,,,,FEW,1700,SCT,2600,,,,,MVFR,,,,,,,,,,,,METAR,37
WMKE 141800Z AUTO VRB02KT //// // ////// 23/22 Q1009,WMKE,2025-08-14T18:00:00Z,4.537,103.427,23,22,VRB,2,,,29.79,,,TRUE,,,,,,,,,,,,,,,,,,,,,,,,,,,,METAR,5
WMKD 141800Z VRB02KT 9999 -RA SCT024 24/23 Q1009 NOSIG,WMKD,2025-08-14T18:00:00Z,3.775,103.209,24,23,VRB,2,,6+,29.79,,,,,,TRUE,,,,-RA,SCT,2400,,,,,,,VFR,,,,,,,,,,,,METAR,18
WMKC 141800Z 20005KT 150V240 9999 FEW020 24/22 Q1008,WMKC,2025-08-14T18:00:00Z,6.167,102.293,24,22,200,5,,6+,29.76,,,,,,,,,,,FEW,2000,,,,,,,VFR,,,,,,,,,,,,METAR,7
WMKB 141800Z VRB02KT 8000 FEW024 26/24 Q1008 NOSIG,WMKB,2025-08-14T18:00:00Z,5.466,100.391,26,24,VRB,2,,4.97,29.76,,,,,,TRUE,,,,,FEW,2400,,,,,,,MVFR,,,,,,,,,,,,METAR,4
WMKA 141800Z 00000KT 9000 TS FEW017CB SCT028 26/24 Q1008,WMKA,2025-08-14T18:00:00Z,6.19,100.398,26,24,0,0,,5.59,29.76,,,,,,,,,,TS,FEW,1700,SCT,2800,,,,,VFR,,,,,,,,,,,,METAR,5
WMBA 141800Z 23003KT 160V300 8000 TS FEW017CB SCT030 26/24 Q1009,WMBA,2025-08-14T18:00:00Z,4.221,100.701,26,24,230,3,,4.97,29.79,,,,,,,,,,TS,FEW,1700,SCT,3000,,,,,MVFR,,,,,,,,,,,,METAR,9
WMAU 141800Z 24003KT 8000 FEW025 26/23 Q1009,WMAU,2025-08-14T18:00:00Z,2.387,103.876,26,23,240,3,,4.97,29.79,,,,,,,,,,,FEW,2500,,,,,,,MVFR,,,,,,,,,,,,METAR,5
WIEE 141800Z 33006KT 9999 BKN020 25/24 Q1010 NOSIG,WIEE,2025-08-14T18:00:00Z,-0.783,100.283,25,24,330,6,,6+,29.82,,,,,,TRUE,,,,,BKN,2000,,,,,,,MVFR,,,,,,,,,,,,METAR,5
WBKW 141800Z 33003KT 250V020 5000 -TSRA FEW014CB SCT027 24/23 Q1008,WBKW,2025-08-14T18:00:00Z,4.316,118.119,24,23,330,3,,3.11,29.76,,,,,,,,,,-TSRA,FEW,1400,SCT,2700,,,,,MVFR,,,,,,,,,,,,METAR,17
WBKT 141800Z VRB02KT 9999 FEW014 25/23 Q1006,WBKT,2025-08-14T18:00:00Z,6.922,116.837,25,23,VRB,2,,6+,29.70,,,,,,,,,,,FEW,1400,,,,,,,VFR,,,,,,,,,,,,METAR,11
WBKS 141800Z VRB02KT 9999 FEW015 SCT045 25/24 Q1007,WBKS,2025-08-14T18:00:00Z,5.901,118.059,25,24,VRB,2,,6+,29.73,,,,,,,,,,,FEW,1500,SCT,4500,,,,,VFR,,,,,,,,,,,,METAR,13
WBKL 141800Z VRB02KT 9999 FEW017CB 26/24 Q1008,WBKL,2025-08-14T18:00:00Z,5.301,115.25,26,24,VRB,2,,6+,29.76,,,,,,,,,,,FEW,1700,,,,,,,VFR,,,,,,,,,,,,METAR,29
WBGY 141800Z AUTO VRB03KT //// // ////// 24/23 Q1010,WBGY,2025-08-14T18:00:00Z,1.222,111.466,24,23,VRB,3,,,29.82,,,TRUE,,,,,,,,,,,,,,,,,,,,,,,,,,,,METAR,13
WBGS 141800Z 22005KT 150V250 9999 SCT018 26/23 Q1008,WBGS,2025-08-14T18:00:00Z,2.264,111.983,26,23,220,5,,6+,29.76,,,,,,,,,,,SCT,1800,,,,,,,VFR,,,,,,,,,,,,METAR,26
WBGR 141800Z VRB03KT 9999 SCT016 26/24 Q1008,WBGR,2025-08-14T18:00:00Z,4.322,113.987,26,24,VRB,3,,6+,29.76,,,,,,,,,,,SCT,1600,,,,,,,VFR,,,,,,,,,,,,METAR,18
WBGB 141800Z VRB02KT 9999 FEW016 25/24 Q1008,WBGB,2025-08-14T18:00:00Z,3.12,113.025,25,24,VRB,2,,6+,29.76,,,,,,,,,,,FEW,1600,,,,,,,VFR,,,,,,,,,,,,METAR,34
VTUU 141800Z VRB01KT 9999 FEW040 25/25 Q1006 NOSIG,VTUU,2025-08-14T18:00:00Z,15.251,104.87,25,25,VRB,1,,6+,29.70,,,,,,TRUE,,,,,FEW,4000,,,,,,,VFR,,,,,,,,,,,,METAR,119
VTUK 141800Z 16003KT 9999 FEW030 BKN070 BKN100 24/24 Q1006 NOSIG,VTUK,2025-08-14T18:00:00Z,16.462,102.786,24,24,160,3,,6+,29.70,,,,,,TRUE,,,,,FEW,3000,BKN,7000,BKN,10000,,,VFR,,,,,,,,,,,,METAR,190
VTSG 141800Z 00000KT 9999 VCSH SCT030 BKN100 24/23 Q1009 TEMPO FM1815 3000 RA,VTSG,2025-08-14T18:00:00Z,8.099,98.986,24,23,0,0,,6+,29.79,,,,,,,,,,VCSH,SCT,3000,BKN,10000,,,,,VFR,,,,,,,,,,,,METAR,32
VTCT 141800Z 27003KT 240V300 9999 BKN045 25/23 Q1006 NOSIG,VTCT,2025-08-14T18:00:00Z,19.961,99.881,25,23,270,3,,6+,29.70,,,,,,TRUE,,,,,BKN,4500,,,,,,,VFR,,,,,,,,,,,,METAR,389
VRMM 141800Z 27013KT 9999 FEW018 SCT280 29/25 Q1011 NOSIG,VRMM,2025-08-14T18:00:00Z,4.192,73.529,29,25,270,13,,6+,29.85,,,,,,TRUE,,,,,FEW,1800,SCT,28000,,,,,VFR,,,,,,,,,,,,METAR,2
VRMH 141800Z 26008KT 9999 FEW018 SCT270 28/24 Q1010,VRMH,2025-08-14T18:00:00Z,6.744,73.171,28,24,260,8,,6+,29.82,,,,,,,,,,,FEW,1800,SCT,27000,,,,,VFR,,,,,,,,,,,,METAR,1
VRMG 141800Z 28003KT 9999 FEW018TCU BKN260 27/24 Q1011 NOSIG,VRMG,2025-08-14T18:00:00Z,-0.693,73.156,27,24,280,3,,6+,29.85,,,,,,TRUE,,,,,FEW,1800,BKN,26000,,,,,VFR,,,,,,,,,,,,METAR,2
VOVZ 141800Z 21012KT 4000 BR SCT016 SCT090 28/25 Q1001 NOSIG,VOVZ,2025-08-14T18:00:00Z,17.722,83.228,28,25,210,12,,2.49,29.56,,,,,,TRUE,,,,BR,SCT,1600,SCT,9000,,,,,IFR,,,,,,,,,,,,METAR,4
VOPB 141800Z VRB02KT 5000 DZ SCT010 OVC080 24/24 Q1007 TEMPO 4000 -RA,VOPB,2025-08-14T18:00:00Z,11.641,92.73,24,24,VRB,2,,3.11,29.73,,,,,,,,,,DZ,SCT,1000,OVC,8000,,,,,MVFR,,,,,,,,,,,,METAR,1
VOGO 141800Z 26007KT 6000 FEW010 SCT030 OVC090 25/24 Q1006 NOSIG,VOGO,2025-08-14T18:00:00Z,15.378,73.828,25,24,260,7,,3.73,29.70,,,,,,TRUE,,,,,FEW,1000,SCT,3000,OVC,9000,,,MVFR,,,,,,,,,,,,METAR,56
VLVT 141800Z 27008KT 5000 TSRA SCT016 FEW030CB BKN083 23/19 Q1006 CB OVER AD NOSIG,VLVT,2025-08-14T18:00:00Z,17.987,102.564,23,19,270,8,,3.11,29.70,,,,,,TRUE,,,,TSRA,SCT,1600,FEW,3000,BKN,8300,,,MVFR,,,,,,,,,,,,METAR,171
VGEG 141800Z 13005KT 8000 NSW SCT018 FEW028CB OVC100 27/26 Q1005 TEMPO RA,VGEG,2025-08-14T18:00:00Z,22.249,91.814,27,26,130,5,,4.97,29.68,,,,,,,,,,,SCT,1800,FEW,2800,OVC,10000,,,MVFR,,,,,,,,,,,,METAR,7
VERP 141800Z 00000KT 3000 BR FEW020 SCT100 27/25 Q1003 NOSIG,VERP,2025-08-14T18:00:00Z,21.182,81.738,27,25,0,0,,1.86,29.62,,,,,,TRUE,,,,BR,FEW,2000,SCT,10000,,,,,IFR,,,,,,,,,,,,METAR,318
VEMN 141800Z 00000KT 3000 BR FEW020 SCT100 27/26 Q1006 NOSIG,VEMN,2025-08-14T18:00:00Z,27.481,95.014,27,26,0,0,,1.86,29.70,,,,,,TRUE,,,,BR,FEW,2000,SCT,10000,,,,,IFR,,,,,,,,,,,,METAR,111
VEGY 141800Z 07003KT 3000 BR FEW018 SCT100 26/25 Q1004,VEGY,2025-08-14T18:00:00Z,24.744,84.951,26,25,70,3,,1.86,29.65,,,,,,,,,,BR,FEW,1800,SCT,10000,,,,,IFR,,,,,,,,,,,,METAR,115
VAID 141800Z 00000KT 1500 BR FEW010 SCT018 BKN100 24/23 Q1007 NOSIG,VAID,2025-08-14T18:00:00Z,22.722,75.801,24,23,0,0,,0.93,29.73,,,,,,TRUE,,,,BR,FEW,1000,SCT,1800,BKN,10000,,,LIFR,,,,,,,,,,,,METAR,564
VAAU 141800Z 27004KT 4000 HZ SCT012 SCT020 BKN080 24/22 Q1007 NOSIG,VAAU,2025-08-14T18:00:00Z,19.863,75.398,24,22,270,4,,2.49,29.73,,,,,,TRUE,,,,HZ,SCT,1200,SCT,2000,BKN,8000,,,IFR,,,,,,,,,,,,METAR,578
UWOR 141800Z 28005MPS CAVOK 17/12 Q1004 R25/CLRD65 NOSIG RMK QFE729/0973,UWOR,2025-08-14T18:00:00Z,51.07,58.597,17,12,280,10,,6+,29.65,,,,,,TRUE,,,,,CAVOK,,,,,,,,VFR,,,,,,,,,,,,METAR,270
UWLW 141800Z 30005MPS CAVOK 19/14 Q1007 R02/CLRD60 NOSIG RMK QFE749/0998,UWLW,2025-08-14T18:00:00Z,54.402,48.8,19,14,300,10,,6+,29.73,,,,,,TRUE,,,,,CAVOK,,,,,,,,VFR,,,,,,,,,,,,METAR,67
UTFA 141800Z 00000KT 9999 NSC 27/13 Q1010,UTFA,2025-08-14T18:00:00Z,40.727,72.294,27,13,0,0,,6+,29.82,,,,,,,,,,,CLR,,,,,,,,VFR,,,,,,,,,,,,METAR,474
UTAV 141800Z 35008KT CAVOK 29/09 Q1011 R31/CLRD70 NOSIG,UTAV,2025-08-14T18:00:00Z,39.083,63.613,29,9,350,8,,6+,29.85,,,,,,TRUE,,,,,CAVOK,,,,,,,,VFR,,,,,,,,,,,,METAR,187
UTAT 141800Z 25006KT CAVOK 23/10 Q1012 R26/CLRD70 NOSIG,UTAT,2025-08-14T18:00:00Z,41.761,59.827,23,10,250,6,,6+,29.88,,,,,,TRUE,,,,,CAVOK,,,,,,,,VFR,,,,,,,,,,,,METAR,84
UTAM 141800Z 34006KT 6000 NSC 29/10 Q1011 R88/CLRD70 NOSIG,UTAM,2025-08-14T18:00:00Z,37.619,61.897,29,10,340,6,,3.73,29.85,,,,,,TRUE,,,,,CLR,,,,,,,,MVFR,,,,,,,,,,,,METAR,218
UTAK 141800Z 36010KT CAVOK 24/16 Q1016 R34L/CLRD70 NOSIG,UTAK,2025-08-14T18:00:00Z,40.054,53.007,24,16,360,10,,6+,30.00,,,,,,TRUE,,,,,CAVOK,,,,,,,,VFR,,,,,,,,,,,,METAR,83
UTAE 141800Z 36010KT CAVOK 30/08 Q1009 R34/CLRD70 NOSIG,UTAE,2025-08-14T18:00:00Z,37.8223,65.1354,30,8,360,10,,6+,29.79,,,,,,TRUE,,,,,CAVOK,,,,,,,,VFR,,,,,,,,,,,,METAR,243
UTAA 141800Z 26006KT 9999 SCT100 30/11 Q1013 R88/70D NOSIG,UTAA,2025-08-14T18:00:00Z,37.975,58.371,30,11,260,6,,6+,29.91,,,,,,TRUE,,,,,SCT,10000,,,,,,,VFR,,,,,,,,,,,,METAR,207
USDD 141800Z 04007MPS 9999 SCT025CB 16/13 Q1005 NOSIG RMK QFE748/0997,USDD,2025-08-14T18:00:00Z,66.591,66.611,16,13,40,14,,6+,29.68,,,,,,TRUE,,,,,SCT,2500,,,,,,,VFR,,,,,,,,,,,,METAR,53
URMN 141800Z 22002MPS 9999 BKN102 24/12 Q1016 R24/010070 NOSIG RMK QFE725,URMN,2025-08-14T18:00:00Z,43.514,43.646,24,12,220,4,,6+,30.00,,,,,,TRUE,,,,,BKN,10200,,,,,,,VFR,,,,,,,,,,,,METAR,424
UOOO 141800Z 09003MPS CAVOK 16/10 Q1012 R19/CLRD60 NOSIG RMK QFE743/0990,UOOO,2025-08-14T18:00:00Z,69.308,87.322,16,10,90,6,,6+,29.88,,,,,,TRUE,,,,,CAVOK,,,,,,,,VFR,,,,,,,,,,,,METAR,177
UMGG 141800Z 32004MPS CAVOK 17/10 Q1024 NOSIG,UMGG,2025-08-14T18:00:00Z,52.525,31.015,17,10,320,8,,6+,30.24,,,,,,TRUE,,,,,CAVOK,,,,,,,,VFR,,,,,,,,,,,,METAR,135
ULPB 141800Z AUTO VRB01MPS 9999 // NCD 15/11 Q1022 RMK QFE762/1016,ULPB,2025-08-14T18:00:00Z,61.885,34.155,15,11,VRB,2,,6+,30.18,,,TRUE,,,,,,,,CLR,,,,,,,,VFR,,,,,,,,,,,,METAR,41
UERR 141800Z 00000MPS CAVOK 08/05 Q1016 R07/CLRD60 NOSIG RMK QFE732/0976,UERR,2025-08-14T18:00:00Z,62.538,114.056,8,5,0,0,,6+,30.00,,,,,,TRUE,,,,,CAVOK,,,,,,,,VFR,,,,,,,,,,,,METAR,352
UCFL 141800Z 04006MPS 020V080 9999 -TSRA BKN026CB 18/12 Q1018,UCFL,2025-08-14T18:00:00Z,42.585,76.702,18,12,40,12,,6+,30.06,,,,,,,,,,-TSRA,BKN,2600,,,,,,,MVFR,,,,,,,,,,,,METAR,1654
UBEE 141800Z 15010KT CAVOK 28/16 Q1015 NOSIG,UBEE,2025-08-14T18:00:00Z,40.632,47.142,28,16,150,10,,6+,29.97,,,,,,TRUE,,,,,CAVOK,,,,,,,,VFR,,,,,,,,,,,,METAR,14
UBBY 141800Z 09010KT 9999 SCT060 23/17 Q1020 NOSIG,UBBY,2025-08-14T18:00:00Z,41.561,46.667,23,17,90,10,,6+,30.12,,,,,,TRUE,,,,,SCT,6000,,,,,,,VFR,,,,,,,,,,,,METAR,383
UBBQ 141800Z 15010KT 9999 SCT100 25/14 Q1018 NOSIG RMK MT OBSC,UBBQ,2025-08-14T18:00:00Z,40.809,47.729,25,14,150,10,,6+,30.06,,,,,,TRUE,,,,,SCT,10000,,,,,,,VFR,,,,,,,,,,,,METAR,339
UAUU 141800Z 32004MPS CAVOK 14/13 Q1000 NOSIG RMK QFE734/0979,UAUU,2025-08-14T18:00:00Z,53.215,63.553,14,13,320,8,,6+,29.53,,,,,,TRUE,,,,,CAVOK,,,,,,,,VFR,,,,,,,,,,,,METAR,177
TVSA 141800Z 05005KT 9999 FEW022 31/25 Q1013 NOSIG ,TVSA,2025-08-14T18:00:00Z,13.156,-61.15,31,25,50,5,,6+,29.91,,,,,,TRUE,,,,,FEW,2200,,,,,,,VFR,,,,,,,,,,,,METAR,3
TUPJ 141800Z 07011KT 10SM BKN021 32/24 A2997 RMK Q1015 VIS16KM,TUPJ,2025-08-14T18:00:00Z,18.445,-64.543,32,24,70,11,,10+,29.97,,,,,,,,,,,BKN,2100,,,,,,,MVFR,,,,,,,,,,,,METAR,6
TTPP 141800Z 10005KT 9999 VCSH FEW010CB 30/26 Q1012 NOSIG RMK CB NE/ SE,TTPP,2025-08-14T18:00:00Z,10.593,-61.348,30,26,100,5,,6+,29.88,,,,,,TRUE,,,,VCSH,FEW,1000,,,,,,,VFR,,,,,,,,,,,,METAR,11
TTCP 141800Z 13006KT 9999 VCSH FEW016TCU 31/26 Q1012 NOSIG RMK TCU S,TTCP,2025-08-14T18:00:00Z,11.149,-60.836,31,26,130,6,,6+,29.88,,,,,,TRUE,,,,VCSH,FEW,1600,,,,,,,VFR,,,,,,,,,,,,METAR,13
TRPG 141800Z 11013KT 9999 FEW019 28/25 Q1015,TRPG,2025-08-14T18:00:00Z,16.792,-62.194,28,25,110,13,,6+,29.97,,,,,,,,,,,FEW,1900,,,,,,,VFR,,,,,,,,,,,,METAR,170
TQPF 141800Z 11016KT 9999 FEW019 30/26 Q1014,TQPF,2025-08-14T18:00:00Z,18.205,-63.055,30,26,110,16,,6+,29.94,,,,,,,,,,,FEW,1900,,,,,,,VFR,,,,,,,,,,,,METAR,33
TNCM 141800Z 08010KT 040V120 9999 VCSH FEW///CB FEW016 BKN030 30/26 Q1015 NOSIG RMK VCSH NW CB SE,TNCM,2025-08-14T18:00:00Z,18.041,-63.109,30,26,80,10,,6+,29.97,,,,,,TRUE,,,,VCSH,FEW,1600,BKN,3000,,,,,MVFR,,,,,,,,,,,,METAR,9
TNCC 141800Z 08010KT 9999 SCT020 33/25 Q1013 NOSIG,TNCC,2025-08-14T18:00:00Z,12.189,-68.96,33,25,80,10,,6+,29.91,,,,,,TRUE,,,,,SCT,2000,,,,,,,VFR,,,,,,,,,,,,METAR,10
TNCA 141800Z 08015KT 9999 SCT026 32/23 Q1012 NOSIG,TNCA,2025-08-14T18:00:00Z,12.501,-70.015,32,23,80,15,,6+,29.88,,,,,,TRUE,,,,,SCT,2600,,,,,,,VFR,,,,,,,,,,,,METAR,7
TLPL 141800Z 06012KT 9999 VCSH SCT025 30/25 Q1013 NOSIG,TLPL,2025-08-14T18:00:00Z,13.743,-60.948,30,25,60,12,,6+,29.91,,,,,,TRUE,,,,VCSH,SCT,2500,,,,,,,VFR,,,,,,,,,,,,METAR,13
TLPC 141800Z 09008KT 9999 SCT025 31/25 Q1013 NOSIG,TLPC,2025-08-14T18:00:00Z,14.021,-60.993,31,25,90,8,,6+,29.91,,,,,,TRUE,,,,,SCT,2500,,,,,,,VFR,,,,,,,,,,,,METAR,8
TKPN 141800Z 08011KT 9999 -SHRA BKN016 SCT040 29/27 Q1014,TKPN,2025-08-14T18:00:00Z,17.205,-62.591,29,27,80,11,,6+,29.94,,,,,,,,,,-SHRA,BKN,1600,SCT,4000,,,,,MVFR,,,,,,,,,,,,METAR,12
TKPK 141800Z COR 06011KT 9999 SHRA BKN016 BKN036 29/25 Q1015,TKPK,2025-08-14T18:00:00Z,17.312,-62.72,29,25,60,11,,6+,29.97,,TRUE,,,,,,,,SHRA,BKN,1600,BKN,3600,,,,,MVFR,,,,,,,,,,,,METAR,62
TGPY 141800Z 14012KT 9999 FEW013CB 31/25 Q1012 NOSIG RMK CB-E/ SE/ S/ SW/ NW/ VCSH-NW,TGPY,2025-08-14T18:00:00Z,12.006,-61.797,31,25,140,12,,6+,29.88,,,,,,TRUE,,,,,FEW,1300,,,,,,,VFR,,,,,,,,,,,,METAR,12
TDPD 141800Z 11008KT 9999 FEW023 30/24 Q1015,TDPD,2025-08-14T18:00:00Z,15.547,-61.299,30,24,110,8,,6+,29.97,,,,,,,,,,,FEW,2300,,,,,,,VFR,,,,,,,,,,,,METAR,13
TDCF 141800Z 32003KT 9999 SCT023 31/26 Q1013,TDCF,2025-08-14T18:00:00Z,15.339,-61.392,31,26,320,3,,6+,29.91,,,,,,,,,,,SCT,2300,,,,,,,VFR,,,,,,,,,,,,METAR,4
TBPB 141800Z 14010KT 9999 FEW014CB 31/22 Q1012 NOSIG,TBPB,2025-08-14T18:00:00Z,13.075,-59.492,31,22,140,10,,6+,29.88,,,,,,TRUE,,,,,FEW,1400,,,,,,,VFR,,,,,,,,,,,,METAR,55
TAPA 141800Z 08015KT 050V120 9999 FEW018 28/24 Q1015 NOSIG,TAPA,2025-08-14T18:00:00Z,17.135,-61.797,28,24,80,15,,6+,29.97,,,,,,TRUE,,,,,FEW,1800,,,,,,,VFR,,,,,,,,,,,,METAR,15
SYEC 141800Z 06006KT 9999 FEW018CB SCT020 31/25 Q1011 RETS NOSIG RMK CB S-NW,SYEC,2025-08-14T18:00:00Z,6.809,-58.104,31,25,60,6,,6+,29.85,,,,,,TRUE,,,,,FEW,1800,SCT,2000,,,,,VFR,,,,,,,,,,,,METAR,2
SYCJ 141800Z 00000KT 9999 TS FEW017CB SCT019 28/23 Q1011 RERA NOSIG RMK CB ALQDS,SYCJ,2025-08-14T18:00:00Z,6.499,-58.254,28,23,0,0,,6+,29.85,,,,,,TRUE,,,,TS,FEW,1700,SCT,1900,,,,,VFR,,,,,,,,,,,,METAR,30
SVMI 141800Z 07008KT 9999 FEW016 31/26 Q1012 ,SVMI,2025-08-14T18:00:00Z,10.603,-66.991,31,26,70,8,,6+,29.88,,,,,,,,,,,FEW,1600,,,,,,,VFR,,,,,,,,,,,,METAR,48
SVJC 141800Z 09015KT 9999 SCT020 ///// Q1012,SVJC,2025-08-14T18:00:00Z,11.781,-70.151,,,90,15,,6+,29.88,,,,,,,,,,,SCT,2000,,,,,,,VFR,,,,,,,,,,,,METAR,21
SVBM 141800Z /////KT 9999 BKN016 30/19 Q1014,SVBM,2025-08-14T18:00:00Z,10.043,-69.358,30,19,,,,6+,29.94,,,,,,,,,,,BKN,1600,,,,,,,MVFR,,,,,,,,,,,,METAR,624
SVBC 141800Z 00000KT 9000 -TSDZ FEW010 CB/W BNK060 30/XX Q1012,SVBC,2025-08-14T18:00:00Z,10.107,-64.689,30,,0,0,,5.59,29.88,,,,,,,,,,-TSDZ,FEW,1000,,,,,,,VFR,,,,,,,,,,,,METAR,7
SUSO 141800Z 16006KT 9999 BKN023 15/05 Q1028,SUSO,2025-08-14T18:00:00Z,-31.438,-57.982,15,5,160,6,,6+,30.35,,,,,,,,,,,BKN,2300,,,,,,,MVFR,,,,,,,,,,,,METAR,37
SURV 141800Z 18005KT 9999 SCT020 SCT070 BKN200 10/05 Q1028,SURV,2025-08-14T18:00:00Z,-30.97,-55.474,10,5,180,5,,6+,30.35,,,,,,,,,,,SCT,2000,SCT,7000,BKN,20000,,,VFR,,,,,,,,,,,,METAR,201
SUPU 141800Z AUTO 13010KT //// ////// 14/04 Q1029,SUPU,2025-08-14T18:00:00Z,-32.362,-58.067,14,4,130,10,,,30.38,,,TRUE,,,,,,,,,,,,,,,,,,,,,,,,,,,,METAR,23
SUMU 141800Z 18010KT 140V250 9999 BKN024 09/03 Q1032 NOSIG,SUMU,2025-08-14T18:00:00Z,-34.838,-56.031,9,3,180,10,,6+,30.47,,,,,,TRUE,,,,,BKN,2400,,,,,,,MVFR,,,,,,,,,,,,METAR,32
SUMO 141800Z AUTO 14011KT //// ////// 14/06 Q1029,SUMO,2025-08-14T18:00:00Z,-32.34,-54.224,14,6,140,11,,,30.38,,,TRUE,,,,,,,,,,,,,,,,,,,,,,,,,,,,METAR,113
SULS 141800Z 20006KT 160V250 9999 OVC023 09/01 Q1031,SULS,2025-08-14T18:00:00Z,-34.855,-55.094,9,1,200,6,,6+,30.44,,,,,,,,,,,OVC,2300,,,,,,,MVFR,,,,,,,,,,,,METAR,22
SUDU 141800Z 13008KT 9999 FEW026 13/03 Q1029,SUDU,2025-08-14T18:00:00Z,-33.359,-56.499,13,3,130,8,,6+,30.38,,,,,,,,,,,FEW,2600,,,,,,,VFR,,,,,,,,,,,,METAR,91
SUCM 141800Z AUTO 17014KT 9999 FEW029/// 11/11 Q1031,SUCM,2025-08-14T18:00:00Z,-33.967,-58.325,11,11,170,14,,6+,30.44,,,TRUE,,,,,,,,FEW,2900,,,,,,,VFR,,,,,,,,,,,,METAR,13
SUCA 141800Z 18007KT 140V210 9999 FEW015 BKN023 09/02 Q1031,SUCA,2025-08-14T18:00:00Z,-34.452,-57.768,9,2,180,7,,6+,30.44,,,,,,,,,,,FEW,1500,BKN,2300,,,,,MVFR,,,,,,,,,,,,METAR,26
SUAA 141800Z 15008KT 9999 SCT030 09/002 Q1031,SUAA,2025-08-14T18:00:00Z,-34.788,-56.263,,,150,8,,6+,30.44,,,,,,,,,,,SCT,3000,,,,,,,VFR,,,,,,,,,,,,METAR,48
SPYL 141800Z 17019KT CAVOK 24/16 Q1013 RMK BIRD HAZARD RWY 17/35 PP000,SPYL,2025-08-14T18:00:00Z,-4.577,-81.254,24,16,170,19,,6+,29.91,,,,,,,,,,,CAVOK,,,,,,,,VFR,,,,,,,,,,,,METAR,89
SPUR 141800Z 16007KT CAVOK 25/16 Q1014 RMK BIRD HAZARD RWY 19/01 PP000,SPUR,2025-08-14T18:00:00Z,-5.206,-80.616,25,16,160,7,,6+,29.94,,,,,,,,,,,CAVOK,,,,,,,,VFR,,,,,,,,,,,,METAR,30
SPTU 141800Z 13006KT 060V180 9999 FEW030 31/21 Q1014 RMK BIRD HAZARD RWY 01/19 PP000,SPTU,2025-08-14T18:00:00Z,-12.603,-69.228,31,21,130,6,,6+,29.94,,,,,,,,,,,FEW,3000,,,,,,,VFR,,,,,,,,,,,,METAR,213
SPTN 141800Z 23008KT 180V260 CAVOK 21/07 Q1016 RMK PP000,SPTN,2025-08-14T18:00:00Z,-18.049,-70.277,21,7,230,8,,6+,30.00,,,,,,,,,,,CAVOK,,,,,,,,VFR,,,,,,,,,,,,METAR,459
SPSO 141800Z 31008KT 9999 BKN023 19/13 Q1017 RMK BIRD HAZARD RWY 22/04 PP000,SPSO,2025-08-14T18:00:00Z,-13.744,-76.221,19,13,310,8,,6+,30.03,,,,,,,,,,,BKN,2300,,,,,,,MVFR,,,,,,,,,,,,METAR,8
SPRU 141800Z 20008KT 8000 NSC 20/15 Q1015 RMK HZ PP000,SPRU,2025-08-14T18:00:00Z,-8.087,-79.109,20,15,200,8,,4.97,29.97,,,,,,,,,,,CLR,,,,,,,,MVFR,,,,,,,,,,,,METAR,23
SPQU 141800Z 24009KT 210V280 CAVOK 19/M09 Q1028 NOSIG RMK PP000,SPQU,2025-08-14T18:00:00Z,-16.341,-71.583,19,-9,240,9,,6+,30.35,,,,,,TRUE,,,,,CAVOK,,,,,,,,VFR,,,,,,,,,,,,METAR,2527
SPQT 141800Z VRB02KT 9999 VCSH FEW006 SCT030TCU BKN100 27/24 Q1013 RETSRA TEMPO 4000 TSRA RMK BIRD HAZARD RWY 06/24 PP027,SPQT,2025-08-14T18:00:00Z,-3.786,-73.306,27,24,VRB,2,,6+,29.91,,,,,,,,,,VCSH,FEW,600,SCT,3000,BKN,10000,,,VFR,,,,,,,,,,,,METAR,92
SPPY 141800Z 08011KT 9999 SCT020 19/08 Q1027 RMK PP000,SPPY,2025-08-14T18:00:00Z,-6.207,-77.853,19,8,80,11,,6+,30.32,,,,,,,,,,,SCT,2000,,,,,,,VFR,,,,,,,,,,,,METAR,2536
SPNC 141800Z 06015KT 9999 FEW040 BKN100 25/11 Q1023 RMK PP000,SPNC,2025-08-14T18:00:00Z,-9.879,-76.207,25,11,60,15,,6+,30.21,,,,,,,,,,,FEW,4000,BKN,10000,,,,,VFR,,,,,,,,,,,,METAR,1856
SPMS 141800Z 36006KT 9999 SCT020 28/25 Q1014 RMK BIRD HAZARD RWY 09/27 PP100,SPMS,2025-08-14T18:00:00Z,-5.895,-76.111,28,25,360,6,,6+,29.94,,,,,,,,,,,SCT,2000,,,,,,,VFR,,,,,,,,,,,,METAR,149
SPME 141800Z 32006KT 9999 BKN020 28/20 Q1012 RMK BIRD HAZARD RWY 32/14 PP000,SPME,2025-08-14T18:00:00Z,-3.551,-80.385,28,20,320,6,,6+,29.88,,,,,,,,,,,BKN,2000,,,,,,,MVFR,,,,,,,,,,,,METAR,26
SPLO 141800Z 22007KT CAVOK 18/11 Q1016 RMK PP000,SPLO,2025-08-14T18:00:00Z,-17.692,-71.343,18,11,220,7,,6+,30.00,,,,,,,,,,,CAVOK,,,,,,,,VFR,,,,,,,,,,,,METAR,25
SPJL 141800Z 05007KT 9999 FEW025 16/M16 Q1035 RMK BIRD HAZARD RWY 12/30 PP000,SPJL,2025-08-14T18:00:00Z,-15.467,-70.158,16,-16,50,7,,6+,30.56,,,,,,,,,,,FEW,2500,,,,,,,VFR,,,,,,,,,,,,METAR,3837
SPJJ 141800Z VRB03KT 9999 SCT040 17/01 Q1032 RMK PP000,SPJJ,2025-08-14T18:00:00Z,-11.783,-75.473,17,1,VRB,3,,6+,30.47,,,,,,,,,,,SCT,4000,,,,,,,VFR,,,,,,,,,,,,METAR,3363
SPJI 141800Z 17009KT 9999 FEW020 BKN090 31/23 Q1015 RMK PP000,SPJI,2025-08-14T18:00:00Z,-7.169,-76.729,31,23,170,9,,6+,29.97,,,,,,,,,,,FEW,2000,BKN,9000,,,,,VFR,,,,,,,,,,,,METAR,363
SPJE 141800Z VRB02KT 9999 FEW040 30/18 Q1015 RMK BIRD HAZARD RWY 16/34 PP000,SPJE,2025-08-14T18:00:00Z,-5.593,-78.774,30,18,VRB,2,,6+,29.97,,,,,,,,,,,FEW,4000,,,,,,,VFR,,,,,,,,,,,,METAR,755
SPJC 141800Z 17006KT 140V200 9999 OVC018 18/14 Q1016 NOSIG RMK BIRD HAZARD RWY 16 PP000,SPJC,2025-08-14T18:00:00Z,-12.024,-77.113,18,14,170,6,,6+,30.00,,,,,,TRUE,,,,,OVC,1800,,,,,,,MVFR,,,,,,,,,,,,METAR,26
SPHZ 141800Z 35014KT 9999 SCT040 BKN100 22/03 Q1026 RMK PP000,SPHZ,2025-08-14T18:00:00Z,-9.347,-77.598,22,3,350,14,,6+,30.30,,,,,,,,,,,SCT,4000,BKN,10000,,,,,VFR,,,,,,,,,,,,METAR,2760
SPHY 141800Z 05004KT CAVOK 14/02 Q1034 RMK BIRD HAZARD RWY03/21 PP000,SPHY,2025-08-14T18:00:00Z,-13.713,-73.352,14,2,50,4,,6+,30.53,,,,,,,,,,,CAVOK,,,,,,,,VFR,,,,,,,,,,,,METAR,3553
SPHO 141800Z 03007KT 9999 SCT030 22/02 Q1028 RMK BIRD HAZARD RWY 02/20 PP000,SPHO,2025-08-14T18:00:00Z,-13.155,-74.204,22,2,30,7,,6+,30.35,,,,,,,,,,,SCT,3000,,,,,,,VFR,,,,,,,,,,,,METAR,2743
SPHI 141800Z 19012KT 160V220 CAVOK 23/16 Q1014 RMK BIRD HAZARD RWY 19/01 PP000,SPHI,2025-08-14T18:00:00Z,-6.787,-79.828,23,16,190,12,,6+,29.94,,,,,,,,,,,CAVOK,,,,,,,,VFR,,,,,,,,,,,,METAR,33
SPGM 141800Z 35004KT 9999 FEW030 BKN120 26/22 Q1018 RMK PP000,SPGM,2025-08-14T18:00:00Z,-9.291,-76.005,26,22,350,4,,6+,30.06,,,,,,,,,,,FEW,3000,BKN,12000,,,,,VFR,,,,,,,,,,,,METAR,643
SPEO 141800Z 20012KT CAVOK 20/15 Q1015 RMK PP000,SPEO,2025-08-14T18:00:00Z,-9.15,-78.526,20,15,200,12,,6+,29.97,,,,,,,,,,,CAVOK,,,,,,,,VFR,,,,,,,,,,,,METAR,13
SPCL 141800Z 27011KT 9999 BKN020 27/21 Q1015 RMK BIRD HAZARD RWY 02/20 PP000,SPCL,2025-08-14T18:00:00Z,-8.378,-74.574,27,21,270,11,,6+,29.97,,,,,,,,,,,BKN,2000,,,,,,,MVFR,,,,,,,,,,,,METAR,154
SMZO 141800Z 11005KT 9999 TS VCSH FEW015 FEW020CB SCT030 34/24 Q1011,SMZO,2025-08-14T18:00:00Z,5.811,-55.191,34,24,110,5,,6+,29.85,,,,,,,,,,TS VCSH,FEW,1500,FEW,2000,SCT,3000,,,VFR,,,,,,,,,,,,METAR,7
SMJP 141800Z 14005KT 9999 FEW018CB SCT025 33/24 Q1010,SMJP,2025-08-14T18:00:00Z,5.453,-55.188,33,24,140,5,,6+,29.82,,,,,,,,,,,FEW,1800,SCT,2500,,,,,VFR,,,,,,,,,,,,METAR,14
SLYA 141800Z 21004KT 9999 SCT070 24/12 Q1024,SLYA,2025-08-14T18:00:00Z,-21.966,-63.654,24,12,210,4,,6+,30.24,,,,,,,,,,,SCT,7000,,,,,,,VFR,,,,,,,,,,,,METAR,646
SLVR 141800Z 15010KT 9999 NSC 31/10 Q1019,SLVR,2025-08-14T18:00:00Z,-17.645,-63.135,31,10,150,10,,6+,30.09,,,,,,,,,,,CLR,,,,,,,,VFR,,,,,,,,,,,,METAR,377
SLVM 141800Z 00000KT 9999 SCT080 26/09 Q1021,SLVM,2025-08-14T18:00:00Z,-21.254,-63.407,26,9,0,0,,6+,30.15,,,,,,,,,,,SCT,8000,,,,,,,VFR,,,,,,,,,,,,METAR,396
SLUY 141800Z 31014KT 9999 FEW015 10/M09 Q1034,SLUY,2025-08-14T18:00:00Z,-20.446,-66.848,10,-9,310,14,,6+,30.53,,,,,,,,,,,FEW,1500,,,,,,,VFR,,,,,,,,,,,,METAR,3673
SLTR 141800Z 14006KT 9999 FEW023 34/17 Q1015,SLTR,2025-08-14T18:00:00Z,-14.819,-64.918,34,17,140,6,,6+,29.97,,,,,,,,,,,FEW,2300,,,,,,,VFR,,,,,,,,,,,,METAR,157
SLTJ 141800Z 16015KT 9999 SCT036 18/06 Q1023,SLTJ,2025-08-14T18:00:00Z,-21.556,-64.701,18,6,160,15,,6+,30.21,,,,,,,,,,,SCT,3600,,,,,,,VFR,,,,,,,,,,,,METAR,1850
SLSV 141800Z 16006KT 9999 NSC 33/16 Q1016,SLSV,2025-08-14T18:00:00Z,-16.401,-61.046,33,16,160,6,,6+,30.00,,,,,,,,,,,CLR,,,,,,,,VFR,,,,,,,,,,,,METAR,450
SLSA 141800Z 10007KT 9999 SCT030 34/17 Q1015,SLSA,2025-08-14T18:00:00Z,-13.762,-65.435,34,17,100,7,,6+,29.97,,,,,,,,,,,SCT,3000,,,,,,,VFR,,,,,,,,,,,,METAR,144
SLRY 141800Z 12006KT 9999 FEW025 34/20 Q1016,SLRY,2025-08-14T18:00:00Z,-14.303,-67.353,34,20,120,6,,6+,30.00,,,,,,,,,,,FEW,2500,,,,,,,VFR,,,,,,,,,,,,METAR,187
SLRQ 141800Z 12010KT 9999 FEW030 32/20 Q1016,SLRQ,2025-08-14T18:00:00Z,-14.429,-67.503,32,20,120,10,,6+,30.00,,,,,,,,,,,FEW,3000,,,,,,,VFR,,,,,,,,,,,,METAR,209
SLRI 141800Z 17016KT 8000 SCT020 34/19 Q1014,SLRI,2025-08-14T18:00:00Z,-11.007,-66.076,34,19,170,16,,4.97,29.94,,,,,,,,,,,SCT,2000,,,,,,,MVFR,,,,,,,,,,,,METAR,136
SLRB 141800Z 00000KT 9999 NSC 32/14 Q1020,SLRB,2025-08-14T18:00:00Z,-18.33,-59.763,32,14,0,0,,6+,30.12,,,,,,,,,,,CLR,,,,,,,,VFR,,,,,,,,,,,,METAR,266
SLPS 141800Z VRB02KT 9000 NSC 35/13 Q1017,SLPS,2025-08-14T18:00:00Z,-18.981,-57.821,35,13,VRB,2,,5.59,30.03,,,,,,,,,,,CLR,,,,,,,,VFR,,,,,,,,,,,,METAR,136
SLPO 141800Z 32008KT 9999 NSC 15/M07 Q1039,SLPO,2025-08-14T18:00:00Z,-19.543,-65.724,15,-7,320,8,,6+,30.68,,,,,,,,,,,CLR,,,,,,,,VFR,,,,,,,,,,,,METAR,3915
SLOR 141800Z 34006KT 9999 FEW020 17/00 Q1034,SLOR,2025-08-14T18:00:00Z,-17.962,-67.077,17,0,340,6,,6+,30.53,,,,,,,,,,,FEW,2000,,,,,,,VFR,,,,,,,,,,,,METAR,3720
SLMG 141800Z 12008KT 9999 SCT020 35/16 Q1016,SLMG,2025-08-14T18:00:00Z,-13.262,-64.059,35,16,120,8,,6+,30.00,,,,,,,,,,,SCT,2000,,,,,,,VFR,,,,,,,,,,,,METAR,146
SLLP 141800Z 15006KT 9999 FEW020 12/M05 Q1038,SLLP,2025-08-14T18:00:00Z,-16.511,-68.182,12,-5,150,6,,6+,30.65,,,,,,,,,,,FEW,2000,,,,,,,VFR,,,,,,,,,,,,METAR,4061
SLJE 141800Z 00000KT 9999 NSC 34/18 Q1020,SLJE,2025-08-14T18:00:00Z,-17.832,-60.744,34,18,0,0,,6+,30.12,,,,,,,,,,,CLR,,,,,,,,VFR,,,,,,,,,,,,METAR,286
SLET 141800Z 16014KT 9999 NSC 31/12 Q1019,SLET,2025-08-14T18:00:00Z,-17.812,-63.172,31,12,160,14,,6+,30.09,,,,,,,,,,,CLR,,,,,,,,VFR,,,,,,,,,,,,METAR,421
SLCP 141800Z 00000KT 9999 NSC 32/15 Q1020,SLCP,2025-08-14T18:00:00Z,-16.138,-62.028,32,15,0,0,,6+,30.12,,,,,,,,,,,CLR,,,,,,,,VFR,,,,,,,,,,,,METAR,502
SLCO 141800Z 12014KT 9999 SCT033 33/21 Q1014,SLCO,2025-08-14T18:00:00Z,-11.04,-68.782,33,21,120,14,,6+,29.94,,,,,,,,,,,SCT,3300,,,,,,,VFR,,,,,,,,,,,,METAR,238
SLCB 141800Z 23004KT 9999 FEW030 22/01 Q1027,SLCB,2025-08-14T18:00:00Z,-17.421,-66.179,22,1,230,4,,6+,30.32,,,,,,,,,,,FEW,3000,,,,,,,VFR,,,,,,,,,,,,METAR,2560
SLCA 141800Z 00000KT 9999 SCT033 26/10 Q1023,SLCA,2025-08-14T18:00:00Z,-20.006,-63.528,26,10,0,0,,6+,30.21,,,,,,,,,,,SCT,3300,,,,,,,VFR,,,,,,,,,,,,METAR,796
SLAL 141800Z 01012KT 9999 FEW017 15/02 Q1032,SLAL,2025-08-14T18:00:00Z,-19.247,-65.15,15,2,10,12,,6+,30.47,,,,,,,,,,,FEW,1700,,,,,,,VFR,,,,,,,,,,,,METAR,3109
SKYP 141800Z 09006KT 9999 BKN030 29/22 Q1014,SKYP,2025-08-14T18:00:00Z,5.319,-72.384,29,22,90,6,,6+,29.94,,,,,,,,,,,BKN,3000,,,,,,,MVFR,,,,,,,,,,,,METAR,312
SKVV 141800Z VRB03KT 9999 SCT060 30/21 Q1015,SKVV,2025-08-14T18:00:00Z,4.162,-73.618,30,21,VRB,3,,6+,29.97,,,,,,,,,,,SCT,6000,,,,,,,VFR,,,,,,,,,,,,METAR,421
SKVP 141800Z 06009KT 9999 FEW030 36/17 Q1011,SKVP,2025-08-14T18:00:00Z,10.436,-73.248,36,17,60,9,,6+,29.85,,,,,,,,,,,FEW,3000,,,,,,,VFR,,,,,,,,,,,,METAR,137
SKUI 141800Z 15004KT 100V240 9999 BKN030 29/23 Q1011,SKUI,2025-08-14T18:00:00Z,5.691,-76.644,29,23,150,4,,6+,29.85,,,,,,,,,,,BKN,3000,,,,,,,MVFR,,,,,,,,,,,,METAR,55
SKUC 141800Z VRB03KT 9999 VCSH BKN015 30/24 Q1013 RMK VCSH/NE,SKUC,2025-08-14T18:00:00Z,7.066,-70.735,30,24,VRB,3,,6+,29.91,,,,,,,,,,VCSH,BKN,1500,,,,,,,MVFR,,,,,,,,,,,,METAR,127
SKSP 141800Z 06015KT 9999 FEW030 31/26 Q1013,SKSP,2025-08-14T18:00:00Z,12.587,-81.704,31,26,60,15,,6+,29.91,,,,,,,,,,,FEW,3000,,,,,,,VFR,,,,,,,,,,,,METAR,6
SKSM 141800Z 32006KT 290V350 9999 SCT040 35/26 Q1011,SKSM,2025-08-14T18:00:00Z,11.12,-74.231,35,26,320,6,,6+,29.85,,,,,,,,,,,SCT,4000,,,,,,,VFR,,,,,,,,,,,,METAR,5
SKSJ 141800Z 07005KT 040V110 9999 BKN020 30/24 Q1014,SKSJ,2025-08-14T18:00:00Z,2.574,-72.64,30,24,70,5,,6+,29.94,,,,,,,,,,,BKN,2000,,,,,,,MVFR,,,,,,,,,,,,METAR,185
SKSA 141800Z AUTO VRB02KT 9999 FEW044/// SCT070/// BKN110/// 31/22 Q1012,SKSA,2025-08-14T18:00:00Z,6.955,-71.86,31,22,VRB,2,,6+,29.88,,,TRUE,,,,,,,,FEW,4400,SCT,7000,BKN,11000,,,VFR,,,,,,,,,,,,METAR,207
SKRH 141800Z /////KT 9999 SCT018 36/19 Q1010,SKRH,2025-08-14T18:00:00Z,11.528,-72.918,36,19,,,,6+,29.82,,,,,,,,,,,SCT,1800,,,,,,,VFR,,,,,,,,,,,,METAR,11
SKRG 141800Z VRB05KT 9999 SCT020 22/12 Q1026,SKRG,2025-08-14T18:00:00Z,6.169,-75.426,22,12,VRB,5,,6+,30.30,,,,,,,,,,,SCT,2000,,,,,,,VFR,,,,,,,,,,,,METAR,2132
SKQU 141800Z VRB04KT 9999 FEW015 31/20 Q1011,SKQU,2025-08-14T18:00:00Z,5.213,-74.884,31,20,VRB,4,,6+,29.85,,,,,,,,,,,FEW,1500,,,,,,,VFR,,,,,,,,,,,,METAR,467
SKPV 141800Z AUTO 09009KT 060V130 9999NDV // SCT019/// BKN021/// BKN026/// 32/29 Q1014,SKPV,2025-08-14T18:00:00Z,13.358,-81.358,32,29,90,9,,,29.94,,,TRUE,,,,,,,,SCT,1900,BKN,2100,BKN,2600,,,,,,,,,,,,,,,METAR,7
SKPS 141800Z 08009KT 020V160 9999 SCT060 26/11 Q1020,SKPS,2025-08-14T18:00:00Z,1.394,-77.291,26,11,80,9,,6+,30.12,,,,,,,,,,,SCT,6000,,,,,,,VFR,,,,,,,,,,,,METAR,1798
SKPP 141800Z VRB04KT 9999 BKN030 26/16 Q1020,SKPP,2025-08-14T18:00:00Z,2.453,-76.609,26,16,VRB,4,,6+,30.12,,,,,,,,,,,BKN,3000,,,,,,,MVFR,,,,,,,,,,,,METAR,1726
SKPE 141800Z 31006KT 250V350 9999 SCT020 BKN060 26/16 Q1017,SKPE,2025-08-14T18:00:00Z,4.814,-75.735,26,16,310,6,,6+,30.03,,,,,,,,,,,SCT,2000,BKN,6000,,,,,VFR,,,,,,,,,,,,METAR,1341
SKPD 141800Z 17004KT 090V210 9999 SCT020 31/23 Q1012,SKPD,2025-08-14T18:00:00Z,3.854,-67.906,31,23,170,4,,6+,29.88,,,,,,,,,,,SCT,2000,,,,,,,VFR,,,,,,,,,,,,METAR,140
SKPC 141800Z 03006KT 9999 VCSH SCT013 28/24 Q1011 RERA RMK VCSH/NW,SKPC,2025-08-14T18:00:00Z,6.184,-67.491,28,24,30,6,,6+,29.85,,,,,,,,,,VCSH,SCT,1300,,,,,,,VFR,,,,,,,,,,,,METAR,51
SKNV 141800Z VRB05KT CAVOK 32/18 Q1013,SKNV,2025-08-14T18:00:00Z,2.949,-75.294,32,18,VRB,5,,6+,29.91,,,,,,,,,,,CAVOK,,,,,,,,VFR,,,,,,,,,,,,METAR,449
SKMZ 141800Z 14003KT 050V200 8000 DZ SCT008 BKN015TCU 19/15 Q1026,SKMZ,2025-08-14T18:00:00Z,5.03,-75.47,19,15,140,3,,4.97,30.30,,,,,,,,,,DZ,SCT,800,BKN,1500,,,,,MVFR,,,,,,,,,,,,METAR,2075
SKMU 141800Z 22004KT 160V260 9999 SCT030 30/24 Q1012,SKMU,2025-08-14T18:00:00Z,1.117,-70.083,30,24,220,4,,6+,29.88,,,,,,,,,,,SCT,3000,,,,,,,VFR,,,,,,,,,,,,METAR,207
SKMR 141800Z VRB02KT 9999 BKN030 33/24 Q1010,SKMR,2025-08-14T18:00:00Z,8.826,-75.825,33,24,VRB,2,,6+,29.82,,,,,,,,,,,BKN,3000,,,,,,,MVFR,,,,,,,,,,,,METAR,12
SKMD 141800Z VRB04KT 9999 BKN060 26/14 Q1020,SKMD,2025-08-14T18:00:00Z,6.221,-75.59,26,14,VRB,4,,6+,30.12,,,,,,,,,,,BKN,6000,,,,,,,VFR,,,,,,,,,,,,METAR,1491
SKLT 141800Z VRB03KT 9999 SCT013 33/24 Q1012,SKLT,2025-08-14T18:00:00Z,-4.196,-69.943,33,24,VRB,3,,6+,29.88,,,,,,,,,,,SCT,1300,,,,,,,VFR,,,,,,,,,,,,METAR,78
SKLC 141800Z VRB05KT 9999 SCT040 31/24 Q1011,SKLC,2025-08-14T18:00:00Z,7.817,-76.718,31,24,VRB,5,,6+,29.85,,,,,,,,,,,SCT,4000,,,,,,,VFR,,,,,,,,,,,,METAR,20
SKIP 141800Z 10010KT 9999 VCSH BKN020 14/10 Q1031 RMK VCSH/E/S,SKIP,2025-08-14T18:00:00Z,0.858,-77.677,14,10,100,10,,6+,30.44,,,,,,,,,,VCSH,BKN,2000,,,,,,,MVFR,,,,,,,,,,,,METAR,2964
SKIB 141800Z 18005KT 120V240 9999 FEW030 SCT080 28/20 Q1015,SKIB,2025-08-14T18:00:00Z,4.418,-75.13,28,20,180,5,,6+,29.97,,,,,,,,,,,FEW,3000,SCT,8000,,,,,VFR,,,,,,,,,,,,METAR,899
SKGY 141800Z 18003KT 120V240 9000 BKN057 17/09 Q1028,SKGY,2025-08-14T18:00:00Z,4.812,-74.065,17,9,180,3,,5.59,30.35,,,,,,,,,,,BKN,5700,,,,,,,VFR,,,,,,,,,,,,METAR,2557
SKGP 141800Z 27006KT 9999 SCT020 BKN060 28/24 Q1012,SKGP,2025-08-14T18:00:00Z,2.57,-77.899,28,24,270,6,,6+,29.88,,,,,,,,,,,SCT,2000,BKN,6000,,,,,VFR,,,,,,,,,,,,METAR,2
SKGO 141800Z VRB03KT 9999 SCT035 30/18 Q1015,SKGO,2025-08-14T18:00:00Z,4.758,-75.956,30,18,VRB,3,,6+,29.97,,,,,,,,,,,SCT,3500,,,,,,,VFR,,,,,,,,,,,,METAR,908
SKFL 141800Z 24005KT 200V290 9999 BKN050 28/23 Q1015,SKFL,2025-08-14T18:00:00Z,1.589,-75.564,28,23,240,5,,6+,29.97,,,,,,,,,,,BKN,5000,,,,,,,VFR,,,,,,,,,,,,METAR,244
SKEJ 141800Z VRB04KT CAVOK 31/23 Q1010,SKEJ,2025-08-14T18:00:00Z,7.026,-73.809,31,23,VRB,4,,6+,29.82,,,,,,,,,,,CAVOK,,,,,,,,VFR,,,,,,,,,,,,METAR,123
SKCZ 141800Z 22003KT 170V330 9999 SCT030 32/25 Q1010,SKCZ,2025-08-14T18:00:00Z,9.334,-75.283,32,25,220,3,,6+,29.82,,,,,,,,,,,SCT,3000,,,,,,,VFR,,,,,,,,,,,,METAR,81
SKCO 141800Z 23004KT 180V290 9999 BKN035 26/24 Q1012,SKCO,2025-08-14T18:00:00Z,1.814,-78.749,26,24,230,4,,6+,29.88,,,,,,,,,,,BKN,3500,,,,,,,VFR,,,,,,,,,,,,METAR,6
SKCL 141800Z 16004KT 130V220 9999 SCT080 28/19 Q1015,SKCL,2025-08-14T18:00:00Z,3.543,-76.382,28,19,160,4,,6+,29.97,,,,,,,,,,,SCT,8000,,,,,,,VFR,,,,,,,,,,,,METAR,967
SKCG 141800Z 27009KT 230V310 9999 SCT020 31/26 Q1010,SKCG,2025-08-14T18:00:00Z,10.447,-75.516,31,26,270,9,,6+,29.82,,,,,,,,,,,SCT,2000,,,,,,,VFR,,,,,,,,,,,,METAR,6
SKCC 141800Z 35010KT 300V040 9999 SCT040 33/21 Q1013,SKCC,2025-08-14T18:00:00Z,7.93,-72.509,33,21,350,10,,6+,29.91,,,,,,,,,,,SCT,4000,,,,,,,VFR,,,,,,,,,,,,METAR,308
SKBU 141800Z VRB02KT 9999 BKN025 30/23 Q1011,SKBU,2025-08-14T18:00:00Z,3.82,-76.992,30,23,VRB,2,,6+,29.85,,,,,,,,,,,BKN,2500,,,,,,,MVFR,,,,,,,,,,,,METAR,14
SKBS 141800Z 17008KT 9999 FEW032 31/// Q1011,SKBS,2025-08-14T18:00:00Z,6.203,-77.395,,,170,8,,6+,29.85,,,,,,,,,,,FEW,3200,,,,,,,VFR,,,,,,,,,,,,METAR,24
SKBO 141800Z 12008KT 050V160 9999 FEW035 BKN060 18/09 Q1028 NOSIG,SKBO,2025-08-14T18:00:00Z,4.706,-74.151,18,9,120,8,,6+,30.35,,,,,,TRUE,,,,,FEW,3500,BKN,6000,,,,,VFR,,,,,,,,,,,,METAR,2547
SKBG 141800Z VRB04KT 9999 SCT020 SCT050 26/20 Q1016,SKBG,2025-08-14T18:00:00Z,7.127,-73.185,26,20,VRB,4,,6+,30.00,,,,,,,,,,,SCT,2000,SCT,5000,,,,,VFR,,,,,,,,,,,,METAR,1187
SKAS 141800Z VRB02KT 9999 SCT015 BKN040 24/23 Q1015,SKAS,2025-08-14T18:00:00Z,0.505,-76.501,24,23,VRB,2,,6+,29.97,,,,,,,,,,,SCT,1500,BKN,4000,,,,,VFR,,,,,,,,,,,,METAR,251
SKAR 141800Z VRB02KT 9999 SCT025 BKN050 25/17 Q1017,SKAR,2025-08-14T18:00:00Z,4.455,-75.766,25,17,VRB,2,,6+,30.03,,,,,,,,,,,SCT,2500,BKN,5000,,,,,VFR,,,,,,,,,,,,METAR,1214
SGSP 141800Z 09002KT CAVOK 25/13 Q1021,SGSP,2025-08-14T18:00:00Z,-24.028,-57.023,25,13,90,2,,6+,30.15,,,,,,,,,,,CAVOK,,,,,,,,VFR,,,,,,,,,,,,METAR,81
SGPJ 141800Z 18003KT CAVOK 26/04 Q1020,SGPJ,2025-08-14T18:00:00Z,-22.641,-55.83,26,4,180,3,,6+,30.12,,,,,,,,,,,CAVOK,,,,,,,,VFR,,,,,,,,,,,,METAR,571
SGPC 141800Z 20005KT CAVOK 26/12 Q1018,SGPC,2025-08-14T18:00:00Z,-23.499,-58.786,26,12,200,5,,6+,30.06,,,,,,,,,,,CAVOK,,,,,,,,VFR,,,,,,,,,,,,METAR,98
SGME 141800Z 18005KT CAVOK 28/18 Q1029,SGME,2025-08-14T18:00:00Z,-22.034,-60.622,28,18,180,5,,6+,30.38,,,,,,,,,,,CAVOK,,,,,,,,VFR,,,,,,,,,,,,METAR,166
SGLV 141800Z 18003KT CAVOK 29/14 Q1018,SGLV,2025-08-14T18:00:00Z,-22.283,-57.933,29,14,180,3,,6+,30.06,,,,,,,,,,,CAVOK,,,,,,,,VFR,,,,,,,,,,,,METAR,78
SGGR 141800Z 32004KT CAVOK 26/17 Q1017,SGGR,2025-08-14T18:00:00Z,-24.032,-54.351,26,17,320,4,,6+,30.03,,,,,,,,,,,CAVOK,,,,,,,,VFR,,,,,,,,,,,,METAR,297
SGES 141800Z 18007KT CAVOK 23/10 Q1020,SGES,2025-08-14T18:00:00Z,-25.461,-54.849,23,10,180,7,,6+,30.12,,,,,,,,,,,CAVOK,,,,,,,,VFR,,,,,,,,,,,,METAR,256
SGEN 141800Z 07006KT CAVOK 23/10 Q1021,SGEN,2025-08-14T18:00:00Z,-27.221,-55.834,23,10,70,6,,6+,30.15,,,,,,,,,,,CAVOK,,,,,,,,VFR,,,,,,,,,,,,METAR,202
SGCO 141800Z 14005KT CAVOK 26/13 Q1020,SGCO,2025-08-14T18:00:00Z,-23.438,-57.43,26,13,140,5,,6+,30.12,,,,,,,,,,,CAVOK,,,,,,,,VFR,,,,,,,,,,,,METAR,74
SGAS 141800Z 23015KT 130V280 CAVOK 25/12 Q1021,SGAS,2025-08-14T18:00:00Z,-25.248,-57.519,25,12,230,15,,6+,30.15,,,,,,,,,,,CAVOK,,,,,,,,VFR,,,,,,,,,,,,METAR,83
SETU 141800Z 08010KT 9999 BKN020 BKN100 15/09 Q1032,SETU,2025-08-14T18:00:00Z,0.809,-77.708,15,9,80,10,,6+,30.47,,,,,,,,,,,BKN,2000,BKN,10000,,,,,MVFR,,,,,,,,,,,,METAR,2936
SETN 141800Z 19007KT 9999 SCT026 30/23 Q1012 RMK A2998,SETN,2025-08-14T18:00:00Z,0.979,-79.627,30,23,190,7,,6+,29.88,,,,,,,,,,,SCT,2600,,,,,,,VFR,,,,,,,,,,,,METAR,10
SEST 141800Z 16012KT 9999 SCT023 BKN070 25/20 Q1013 RMK A2992,SEST,2025-08-14T18:00:00Z,-0.906,-89.619,25,20,160,12,,6+,29.91,,,,,,,,,,,SCT,2300,BKN,7000,,,,,VFR,,,,,,,,,,,,METAR,13
SESM 141800Z 21002KT 9999 SCT023 BKN100 23/20 Q1020 RMK A3013,SESM,2025-08-14T18:00:00Z,-1.505,-78.063,23,20,210,2,,6+,30.12,,,,,,,,,,,SCT,2300,BKN,10000,,,,,VFR,,,,,,,,,,,,METAR,1056
SESA 141800Z 21010KT 9999 SCT006 OVC013 23/21 Q1014 RMK A2994,SESA,2025-08-14T18:00:00Z,-2.205,-80.989,23,21,210,10,,6+,29.94,,,,,,,,,,,SCT,600,OVC,1300,,,,,MVFR,,,,,,,,,,,,METAR,6
SERO 141800Z 32006KT 9999 SCT010 SCT080 26/21 Q1013 RMK A2992,SERO,2025-08-14T18:00:00Z,-3.435,-79.978,26,21,320,6,,6+,29.91,,,,,,,,,,,SCT,1000,SCT,8000,,,,,VFR,,,,,,,,,,,,METAR,6
SERB 141800Z 07004KT 9999 VCSH BKN040 19/11 Q1030,SERB,2025-08-14T18:00:00Z,-1.655,-78.656,19,11,70,4,,6+,30.41,,,,,,,,,,VCSH,BKN,4000,,,,,,,VFR,,,,,,,,,,,,METAR,2788
SEQM 141800Z 27006KT 210V330 9999 BKN033 23/06 Q1025 NOSIG RMK A3028,SEQM,2025-08-14T18:00:00Z,-0.124,-78.354,23,6,270,6,,6+,30.27,,,,,,TRUE,,,,,BKN,3300,,,,,,,VFR,,,,,,,,,,,,METAR,2386
SENL 141800Z 01001KT 9999 SCT020 OVC100 26/22 Q1018 RMK A3007,SENL,2025-08-14T18:00:00Z,0.092,-76.869,26,22,10,1,,6+,30.06,,,,,,,,,,,SCT,2000,OVC,10000,,,,,VFR,,,,,,,,,,,,METAR,293
SEMT 141800Z 27013KT 9999 BKN020 24/20 Q1011 RMK A2988,SEMT,2025-08-14T18:00:00Z,-0.946,-80.679,24,20,270,13,,6+,29.85,,,,,,,,,,,BKN,2000,,,,,,,MVFR,,,,,,,,,,,,METAR,13
SEMC 141800Z 04005KT 9999 SCT030 BKN100 23/17 Q1020 RMK A3012,SEMC,2025-08-14T18:00:00Z,-2.299,-78.121,23,17,40,5,,6+,30.12,,,,,,,,,,,SCT,3000,BKN,10000,,,,,VFR,,,,,,,,,,,,METAR,1036
SELT 141800Z 17015KT 9999 BKN030 16/08 Q1031,SELT,2025-08-14T18:00:00Z,-0.921,-78.619,16,8,170,15,,6+,30.44,,,,,,,,,,,BKN,3000,,,,,,,MVFR,,,,,,,,,,,,METAR,2779
SEJD 141800Z /////KT 9999 FEW030 BKN100 28/21 Q1016 RMK A3001,SEJD,2025-08-14T18:00:00Z,-1.06,-77.58,28,21,,,,6+,30.00,,,,,,,,,,,FEW,3000,BKN,10000,,,,,VFR,,,,,,,,,,,,METAR,376
SEGZ 141800Z 15003KT 8000 -RA SCT010 BKN040 OVC100 23/21 Q1020,SEGZ,2025-08-14T18:00:00Z,-3.423,-78.567,23,21,150,3,,4.97,30.12,,,,,,,,,,-RA,SCT,1000,BKN,4000,OVC,10000,,,MVFR,,,,,,,,,,,,METAR,805
SEGU 141800Z 15009KT 9999 SCT026 SCT100 27/20 Q1012 NOSIG RMK A2989,SEGU,2025-08-14T18:00:00Z,-2.158,-79.884,27,20,150,9,,6+,29.88,,,,,,TRUE,,,,,SCT,2600,SCT,10000,,,,,VFR,,,,,,,,,,,,METAR,6
SEGS 141800Z 15013KT 9999 SCT020 28/19 Q1015 RMK A2998,SEGS,2025-08-14T18:00:00Z,-0.445,-90.269,28,19,150,13,,6+,29.97,,,,,,,,,,,SCT,2000,,,,,,,VFR,,,,,,,,,,,,METAR,51
SECU 141800Z 04012KT 9999 VCSH BKN040 BKN090 18/09 Q1027,SECU,2025-08-14T18:00:00Z,-2.889,-78.984,18,9,40,12,,6+,30.32,,,,,,,,,,VCSH,BKN,4000,BKN,9000,,,,,VFR,,,,,,,,,,,,METAR,2516
SECO 141800Z 07003KT 9999 BKN030 OVC100 26/23 Q1017 RMK A3005,SECO,2025-08-14T18:00:00Z,-0.461,-76.988,26,23,70,3,,6+,30.03,,,,,,,,,,,BKN,3000,OVC,10000,,,,,MVFR,,,,,,,,,,,,METAR,256
SECA 141800Z 04013KT 9999 VCSH BKN040 BKN090 26/14 Q1019 RMK A3010,SECA,2025-08-14T18:00:00Z,-3.995,-79.372,26,14,40,13,,6+,30.09,,,,,,,,,,VCSH,BKN,4000,BKN,9000,,,,,VFR,,,,,,,,,,,,METAR,1237
SEAM 141800Z 14003KT 9999 SCT030 BKN100 16/11 Q1032,SEAM,2025-08-14T18:00:00Z,-1.212,-78.575,16,11,140,3,,6+,30.47,,,,,,,,,,,SCT,3000,BKN,10000,,,,,VFR,,,,,,,,,,,,METAR,2520
SCVM 141800Z 36008KT 6000 BKN006 OVC018 13/12 Q1017,SCVM,2025-08-14T18:00:00Z,-32.947,-71.479,13,12,360,8,,3.73,30.03,,,,,,,,,,,BKN,600,OVC,1800,,,,,IFR,,,,,,,,,,,,METAR,136
SCTE 141800Z 14004KT 060V200 CAVOK 16/05 Q1016 NOSIG,SCTE,2025-08-14T18:00:00Z,-41.439,-73.094,16,5,140,4,,6+,30.00,,,,,,TRUE,,,,,CAVOK,,,,,,,,VFR,,,,,,,,,,,,METAR,85
SCSE 141800Z 25006KT 3000 DZ OVC005 13/12 Q1017,SCSE,2025-08-14T18:00:00Z,-29.918,-71.201,13,12,250,6,,1.86,30.03,,,,,,,,,,DZ,OVC,500,,,,,,,IFR,,,,,,,,,,,,METAR,141
SCRM 141800Z 25019KT 9999 SCT010 BKN015 M01/M02 Q1004 NOSIG,SCRM,2025-08-14T18:00:00Z,-62.191,-58.987,-1,-2,250,19,,6+,29.65,,,,,,TRUE,,,,,SCT,1000,BKN,1500,,,,,MVFR,,,,,,,,,,,,METAR,45
SCIP 141800Z 31011KT 9999 FEW020 22/16 Q1023 NOSIG,SCIP,2025-08-14T18:00:00Z,-27.161,-109.427,22,16,310,11,,6+,30.21,,,,,,TRUE,,,,,FEW,2000,,,,,,,VFR,,,,,,,,,,,,METAR,48
SCIE 141800Z 02012KT CAVOK 16/09 Q1013,SCIE,2025-08-14T18:00:00Z,-36.773,-73.063,16,9,20,12,,6+,29.91,,,,,,,,,,,CAVOK,,,,,,,,VFR,,,,,,,,,,,,METAR,8
SCFA 141800Z 27008KT 190V310 9999 FEW023 18/11 Q1016 NOSIG,SCFA,2025-08-14T18:00:00Z,-23.45,-70.441,18,11,270,8,,6+,30.00,,,,,,TRUE,,,,,FEW,2300,,,,,,,VFR,,,,,,,,,,,,METAR,113
SCEL 141800Z 17013KT 8000 NSC 16/11 Q1014 NOSIG,SCEL,2025-08-14T18:00:00Z,-33.393,-70.786,16,11,170,13,,4.97,29.94,,,,,,TRUE,,,,,CLR,,,,,,,,MVFR,,,,,,,,,,,,METAR,478
SCDA 141800Z 28008KT 9999 FEW030 18/10 Q1016,SCDA,2025-08-14T18:00:00Z,-20.535,-70.181,18,10,280,8,,6+,30.00,,,,,,,,,,,FEW,3000,,,,,,,VFR,,,,,,,,,,,,METAR,41
SCCI 141800Z 08006KT CAVOK 05/01 Q1024 NOSIG,SCCI,2025-08-14T18:00:00Z,-53.003,-70.855,5,1,80,6,,6+,30.24,,,,,,TRUE,,,,,CAVOK,,,,,,,,VFR,,,,,,,,,,,,METAR,37
SCBA 141800Z 11010KT 9999 FEW045 11/03 Q1024,SCBA,2025-08-14T18:00:00Z,-45.913,-71.694,11,3,110,10,,6+,30.24,,,,,,,,,,,FEW,4500,,,,,,,VFR,,,,,,,,,,,,METAR,516
SCAR 141800Z 21011KT CAVOK 18/11 Q1016,SCAR,2025-08-14T18:00:00Z,-18.351,-70.336,18,11,210,11,,6+,30.00,,,,,,,,,,,CAVOK,,,,,,,,VFR,,,,,,,,,,,,METAR,57
SBYS 141800Z 19004KT 140V240 CAVOK 29/03 Q1020,SBYS,2025-08-14T18:00:00Z,-21.982,-47.34,29,3,190,4,,6+,30.12,,,,,,,,,,,CAVOK,,,,,,,,VFR,,,,,,,,,,,,METAR,600
SBVT 141800Z 12008KT 9999 FEW040 27/19 Q1018,SBVT,2025-08-14T18:00:00Z,-20.258,-40.286,27,19,120,8,,6+,30.06,,,,,,,,,,,FEW,4000,,,,,,,VFR,,,,,,,,,,,,METAR,4
SBVH 141800Z 13008KT CAVOK 31/09 Q1017,SBVH,2025-08-14T18:00:00Z,-12.694,-60.098,31,9,130,8,,6+,30.03,,,,,,,,,,,CAVOK,,,,,,,,VFR,,,,,,,,,,,,METAR,615
SBUY 141800Z 15006KT 9999 SCT025 32/22 Q1011,SBUY,2025-08-14T18:00:00Z,-4.884,-65.354,32,22,150,6,,6+,29.85,,,,,,,,,,,SCT,2500,,,,,,,VFR,,,,,,,,,,,,METAR,44
SBUR 141800Z 33004KT CAVOK 31/02 Q1019,SBUR,2025-08-14T18:00:00Z,-19.765,-47.965,31,2,330,4,,6+,30.09,,,,,,,,,,,CAVOK,,,,,,,,VFR,,,,,,,,,,,,METAR,807
SBUL 141800Z VRB06KT CAVOK 29/06 Q1020,SBUL,2025-08-14T18:00:00Z,-18.883,-48.226,29,6,VRB,6,,6+,30.12,,,,,,,,,,,CAVOK,,,,,,,,VFR,,,,,,,,,,,,METAR,945
SBUF 141800Z 08012KT CAVOK 31/15 Q1016,SBUF,2025-08-14T18:00:00Z,-9.4,-38.25,31,15,80,12,,6+,30.00,,,,,,,,,,,CAVOK,,,,,,,,VFR,,,,,,,,,,,,METAR,266
SBUA 141800Z 28004KT 9999 FEW032 32/25 Q1011,SBUA,2025-08-14T18:00:00Z,-0.15,-66.987,32,25,280,4,,6+,29.85,,,,,,,,,,,FEW,3200,,,,,,,VFR,,,,,,,,,,,,METAR,73
SBTE 141800Z VRB05KT 9999 SCT025 36/15 Q1011,SBTE,2025-08-14T18:00:00Z,-5.06,-42.824,36,15,VRB,5,,6+,29.85,,,,,,,,,,,SCT,2500,,,,,,,VFR,,,,,,,,,,,,METAR,60
SBTC 141800Z 12006KT 9999 SCT025 26/21 Q1018,SBTC,2025-08-14T18:00:00Z,-15.355,-38.999,26,21,120,6,,6+,30.06,,,,,,,,,,,SCT,2500,,,,,,,VFR,,,,,,,,,,,,METAR,6
SBTA 141800Z 17006KT CAVOK 24/07 Q1021,SBTA,2025-08-14T18:00:00Z,-23.04,-45.516,24,7,170,6,,6+,30.15,,,,,,,,,,,CAVOK,,,,,,,,VFR,,,,,,,,,,,,METAR,578
SBSV 141800Z 15009KT 130V210 9999 FEW023 27/20 Q1017,SBSV,2025-08-14T18:00:00Z,-12.911,-38.331,27,20,150,9,,6+,30.03,,,,,,,,,,,FEW,2300,,,,,,,VFR,,,,,,,,,,,,METAR,9
SBST 141800Z 23007KT 8000 SCT018 20/15 Q1023,SBST,2025-08-14T18:00:00Z,-23.924,-46.305,20,15,230,7,,4.97,30.21,,,,,,,,,,,SCT,1800,,,,,,,MVFR,,,,,,,,,,,,METAR,5
SBSR 141800Z VRB04KT CAVOK 30/M00 Q1019,SBSR,2025-08-14T18:00:00Z,-20.817,-49.407,30,0,VRB,4,,6+,30.09,,,,,,,,,,,CAVOK,,,,,,,,VFR,,,,,,,,,,,,METAR,537
SBSP 141800Z 15010KT 120V190 9999 SCT030 18/10 Q1024,SBSP,2025-08-14T18:00:00Z,-23.627,-46.655,18,10,150,10,,6+,30.24,,,,,,,,,,,SCT,3000,,,,,,,VFR,,,,,,,,,,,,METAR,802
SBSN 141800Z 08009KT 9999 SCT023 32/25 Q1011,SBSN,2025-08-14T18:00:00Z,-2.423,-54.789,32,25,80,9,,6+,29.85,,,,,,,,,,,SCT,2300,,,,,,,VFR,,,,,,,,,,,,METAR,57
SBSM 141800Z 12006KT 080V160 9999 OVC020 13/08 Q1027,SBSM,2025-08-14T18:00:00Z,-29.711,-53.688,13,8,120,6,,6+,30.32,,,,,,,,,,,OVC,2000,,,,,,,MVFR,,,,,,,,,,,,METAR,86
SBSL 141800Z 06011KT 9999 SCT020 30/23 Q1013,SBSL,2025-08-14T18:00:00Z,-2.585,-44.234,30,23,60,11,,6+,29.91,,,,,,,,,,,SCT,2000,,,,,,,VFR,,,,,,,,,,,,METAR,53
SBSJ 141800Z 20008KT 160V250 CAVOK 22/12 Q1022,SBSJ,2025-08-14T18:00:00Z,-23.229,-45.861,22,12,200,8,,6+,30.18,,,,,,,,,,,CAVOK,,,,,,,,VFR,,,,,,,,,,,,METAR,640
SBSG 141800Z 12009KT 080V190 9999 SCT040 30/22 Q1014,SBSG,2025-08-14T18:00:00Z,-5.768,-35.376,30,22,120,9,,6+,29.94,,,,,,,,,,,SCT,4000,,,,,,,VFR,,,,,,,,,,,,METAR,83
SBSC 141800Z 18009KT 9999 FEW040 22/15 Q1022,SBSC,2025-08-14T18:00:00Z,-22.932,-43.719,22,15,180,9,,6+,30.18,,,,,,,,,,,FEW,4000,,,,,,,VFR,,,,,,,,,,,,METAR,6
SBRP 141800Z 20003KT CAVOK 31/M01 Q1018,SBRP,2025-08-14T18:00:00Z,-21.134,-47.774,31,-1,200,3,,6+,30.06,,,,,,,,,,,CAVOK,,,,,,,,VFR,,,,,,,,,,,,METAR,550
SBRJ 141800Z 19015KT 9999 FEW020 SCT030 23/15 Q1021,SBRJ,2025-08-14T18:00:00Z,-22.91,-43.163,23,15,190,15,,6+,30.15,,,,,,,,,,,FEW,2000,SCT,3000,,,,,VFR,,,,,,,,,,,,METAR,6
SBRF 141800Z 15010KT 6000 -RA SCT010 BKN017 OVC045 26/23 Q1016,SBRF,2025-08-14T18:00:00Z,-8.126,-34.923,26,23,150,10,,3.73,30.00,,,,,,,,,,-RA,SCT,1000,BKN,1700,OVC,4500,,,MVFR,,,,,,,,,,,,METAR,10
SBRB 141800Z 12006KT 9999 BKN035 35/18 Q1014,SBRB,2025-08-14T18:00:00Z,-9.867,-67.897,35,18,120,6,,6+,29.94,,,,,,,,,,,BKN,3500,,,,,,,VFR,,,,,,,,,,,,METAR,190
SBPV 141800Z 15012KT 9999 SCT035 36/12 Q1012,SBPV,2025-08-14T18:00:00Z,-8.708,-63.901,36,12,150,12,,6+,29.88,,,,,,,,,,,SCT,3500,,,,,,,VFR,,,,,,,,,,,,METAR,89
SBPS 141800Z 10008KT 070V140 9999 SCT020 25/23 Q1018,SBPS,2025-08-14T18:00:00Z,-16.439,-39.081,25,23,100,8,,6+,30.06,,,,,,,,,,,SCT,2000,,,,,,,VFR,,,,,,,,,,,,METAR,44
SBPP 141800Z 00000KT CAVOK 26/06 Q1020,SBPP,2025-08-14T18:00:00Z,-22.55,-55.703,26,6,0,0,,6+,30.12,,,,,,,,,,,CAVOK,,,,,,,,VFR,,,,,,,,,,,,METAR,650
SBPL 141800Z 16008KT CAVOK 32/13 Q1015,SBPL,2025-08-14T18:00:00Z,-9.367,-40.565,32,13,160,8,,6+,29.97,,,,,,,,,,,CAVOK,,,,,,,,VFR,,,,,,,,,,,,METAR,386
SBPK 141800Z 14010KT 9999 BKN045 16/08 Q1028,SBPK,2025-08-14T18:00:00Z,-31.717,-52.328,16,8,140,10,,6+,30.35,,,,,,,,,,,BKN,4500,,,,,,,VFR,,,,,,,,,,,,METAR,17
SBPJ 141800Z 28006KT 9999 BKN045 SCT090 33/18 Q1014,SBPJ,2025-08-14T18:00:00Z,-10.291,-48.357,33,18,280,6,,6+,29.94,,,,,,,,,,,BKN,4500,SCT,9000,,,,,VFR,,,,,,,,,,,,METAR,226
SBPG 141800Z 14005KT CAVOK 21/08 Q1022,SBPG,2025-08-14T18:00:00Z,-25.184,-50.144,21,8,140,5,,6+,30.18,,,,,,,,,,,CAVOK,,,,,,,,VFR,,,,,,,,,,,,METAR,9
SBPB 141800Z /////KT 9999 FEW020 ///// Q1012,SBPB,2025-08-14T18:00:00Z,-2.894,-41.731,,,,,,6+,29.88,,,,,,,,,,,FEW,2000,,,,,,,VFR,,,,,,,,,,,,METAR,3
SBPA 141800Z VRB04KT 9999 SCT030 15/08 Q1027,SBPA,2025-08-14T18:00:00Z,-29.994,-51.171,15,8,VRB,4,,6+,30.32,,,,,,,,,,,SCT,3000,,,,,,,VFR,,,,,,,,,,,,METAR,3
SBOI 141800Z AUTO 12005KT 040V160 9999 BKN042 31/24 Q1012,SBOI,2025-08-14T18:00:00Z,3.861,-51.796,31,24,120,5,,6+,29.88,,,TRUE,,,,,,,,BKN,4200,,,,,,,VFR,,,,,,,,,,,,METAR,15
SBNT 141800Z 13016KT 9999 SCT036 BKN060 29/22 Q1014,SBNT,2025-08-14T18:00:00Z,-5.911,-35.248,29,22,130,16,,6+,29.94,,,,,,,,,,,SCT,3600,BKN,6000,,,,,VFR,,,,,,,,,,,,METAR,51
SBNF 141800Z 10008KT 9999 FEW025 BKN070 19/14 Q1024,SBNF,2025-08-14T18:00:00Z,-26.88,-48.651,19,14,100,8,,6+,30.24,,,,,,,,,,,FEW,2500,BKN,7000,,,,,VFR,,,,,,,,,,,,METAR,5
SBMT 141800Z 15007KT CAVOK 18/07 Q1023,SBMT,2025-08-14T18:00:00Z,-23.509,-46.638,18,7,150,7,,6+,30.21,,,,,,,,,,,CAVOK,,,,,,,,VFR,,,,,,,,,,,,METAR,722
SBMS 141800Z 04016KT 9999 FEW030 36/19 Q1012,SBMS,2025-08-14T18:00:00Z,-5.202,-37.364,36,19,40,16,,6+,29.88,,,,,,,,,,,FEW,3000,,,,,,,VFR,,,,,,,,,,,,METAR,23
SBMQ 141800Z 11009KT 9999 VCSH SCT035 FEW038TCU SCT095 33/24 Q1011,SBMQ,2025-08-14T18:00:00Z,0.051,-51.072,33,24,110,9,,6+,29.85,,,,,,,,,,VCSH,SCT,3500,FEW,3800,SCT,9500,,,VFR,,,,,,,,,,,,METAR,15
SBMO 141800Z 14009KT 9999 BKN020 BKN060 27/20 Q1017,SBMO,2025-08-14T18:00:00Z,-9.511,-35.792,27,20,140,9,,6+,30.03,,,,,,,,,,,BKN,2000,BKN,6000,,,,,MVFR,,,,,,,,,,,,METAR,116
SBMN 141800Z VRB09KT 9999 VCTS FEW030 FEW035CB BKN100 28/21 Q1012,SBMN,2025-08-14T18:00:00Z,-3.146,-59.986,28,21,VRB,9,,6+,29.88,,,,,,,,,,VCTS,FEW,3000,FEW,3500,BKN,10000,,,VFR,,,,,,,,,,,,METAR,71
SBMK 141800Z 03004KT 9999 FEW049 31/10 Q1019,SBMK,2025-08-14T18:00:00Z,-16.705,-43.819,31,10,30,4,,6+,30.09,,,,,,,,,,,FEW,4900,,,,,,,VFR,,,,,,,,,,,,METAR,665
SBMG 141800Z VRB02KT CAVOK 28/02 Q1019,SBMG,2025-08-14T18:00:00Z,-23.476,-52.017,28,2,VRB,2,,6+,30.09,,,,,,,,,,,CAVOK,,,,,,,,VFR,,,,,,,,,,,,METAR,543
SBME 141800Z 21012G22KT 9999 FEW020 26/18 Q1020,SBME,2025-08-14T18:00:00Z,-22.343,-41.766,26,18,210,12,22,6+,30.12,,,,,,,,,,,FEW,2000,,,,,,,VFR,,,,,,,,,,,,METAR,2
SBMA 141800Z 02007KT 9999 SCT025 FEW030TCU 33/23 Q1012,SBMA,2025-08-14T18:00:00Z,-5.368,-49.137,33,23,20,7,,6+,29.88,,,,,,,,,,,SCT,2500,FEW,3000,,,,,VFR,,,,,,,,,,,,METAR,110
SBLS 141800Z 20004KT 090V240 9999 SCT036 27/10 Q1020,SBLS,2025-08-14T18:00:00Z,-19.662,-43.896,27,10,200,4,,6+,30.12,,,,,,,,,,,SCT,3600,,,,,,,VFR,,,,,,,,,,,,METAR,850
SBLO 141800Z 06004KT CAVOK 27/03 Q1020,SBLO,2025-08-14T18:00:00Z,-23.334,-51.13,27,3,60,4,,6+,30.12,,,,,,,,,,,CAVOK,,,,,,,,VFR,,,,,,,,,,,,METAR,563
SBLE 141800Z AUTO VRB03KT CAVOK 29/14 Q1018,SBLE,2025-08-14T18:00:00Z,-12.482,-41.277,29,14,VRB,3,,6+,30.06,,,TRUE,,,,,,,,CAVOK,,,,,,,,VFR,,,,,,,,,,,,METAR,495
SBLB 141800Z AUTO 24011KT 9999 NCD 23/20 Q1020 W22/S4,SBLB,2025-08-14T18:00:00Z,-22.109,-39.917,23,20,240,11,,6+,30.12,,,TRUE,,,,,,,,CLR,,,,,,,,VFR,,,,,,,,,,,,METAR,10
SBKP 141800Z 13009KT 100V160 CAVOK 24/08 Q1021,SBKP,2025-08-14T18:00:00Z,-23.007,-47.135,24,8,130,9,,6+,30.15,,,,,,,,,,,CAVOK,,,,,,,,VFR,,,,,,,,,,,,METAR,659
SBKG 141800Z 11006KT 9999 SCT028 28/19 Q1017,SBKG,2025-08-14T18:00:00Z,-7.27,-35.895,28,19,110,6,,6+,30.03,,,,,,,,,,,SCT,2800,,,,,,,VFR,,,,,,,,,,,,METAR,499
SBJV 141800Z 10006KT 9999 SCT030 BKN050 18/12 Q1025,SBJV,2025-08-14T18:00:00Z,-26.224,-48.797,18,12,100,6,,6+,30.27,,,,,,,,,,,SCT,3000,BKN,5000,,,,,VFR,,,,,,,,,,,,METAR,3
SBJU 141800Z 18003KT CAVOK 34/09 Q1015,SBJU,2025-08-14T18:00:00Z,-7.219,-39.27,34,9,180,3,,6+,29.97,,,,,,,,,,,CAVOK,,,,,,,,VFR,,,,,,,,,,,,METAR,407
SBJR 141800Z 23009KT 9999 FEW025 24/17 Q1022,SBJR,2025-08-14T18:00:00Z,-22.988,-43.37,24,17,230,9,,6+,30.18,,,,,,,,,,,FEW,2500,,,,,,,VFR,,,,,,,,,,,,METAR,5
SBJP 141800Z 13014KT 9999 SCT030 27/22 Q1015,SBJP,2025-08-14T18:00:00Z,-7.148,-34.951,27,22,130,14,,6+,29.97,,,,,,,,,,,SCT,3000,,,,,,,VFR,,,,,,,,,,,,METAR,66
SBJE 141800Z 03017KT CAVOK 32/21 Q1012,SBJE,2025-08-14T18:00:00Z,-2.907,-40.358,32,21,30,17,,6+,29.88,,,,,,,,,,,CAVOK,,,,,,,,VFR,,,,,,,,,,,,METAR,25
SBIZ 141800Z 10010KT 9999 SCT030 34/19 Q1012,SBIZ,2025-08-14T18:00:00Z,-5.53,-47.458,34,19,100,10,,6+,29.88,,,,,,,,,,,SCT,3000,,,,,,,VFR,,,,,,,,,,,,METAR,131
SBIP 141800Z AUTO VRB02KT CAVOK 28/12 Q1019,SBIP,2025-08-14T18:00:00Z,-19.471,-42.488,28,12,VRB,2,,6+,30.09,,,TRUE,,,,,,,,CAVOK,,,,,,,,VFR,,,,,,,,,,,,METAR,240
SBIL 141800Z 15006KT 9999 FEW025 27/20 Q1018,SBIL,2025-08-14T18:00:00Z,-14.816,-39.033,27,20,150,6,,6+,30.06,,,,,,,,,,,FEW,2500,,,,,,,VFR,,,,,,,,,,,,METAR,9
SBIH 141800Z 04007KT 9999 SCT018 FEW025TCU 34/23 Q1010,SBIH,2025-08-14T18:00:00Z,-4.242,-56.001,34,23,40,7,,6+,29.82,,,,,,,,,,,SCT,1800,FEW,2500,,,,,VFR,,,,,,,,,,,,METAR,30
SBHT 141800Z 06006KT 9999 SCT030 33/23 Q1012,SBHT,2025-08-14T18:00:00Z,-3.251,-52.252,33,23,60,6,,6+,29.88,,,,,,,,,,,SCT,3000,,,,,,,VFR,,,,,,,,,,,,METAR,105
SBGW 141800Z 25005KT CAVOK 26/07 Q1021,SBGW,2025-08-14T18:00:00Z,-22.792,-45.205,26,7,250,5,,6+,30.15,,,,,,,,,,,CAVOK,,,,,,,,VFR,,,,,,,,,,,,METAR,539
SBGR 141800Z 14007KT 9999 SCT030 19/10 Q1023,SBGR,2025-08-14T18:00:00Z,-23.432,-46.469,19,10,140,7,,6+,30.21,,,,,,,,,,,SCT,3000,,,,,,,VFR,,,,,,,,,,,,METAR,745
SBGO 141800Z 24005KT 180V290 CAVOK 33/07 Q1018,SBGO,2025-08-14T18:00:00Z,-16.632,-49.221,33,7,240,5,,6+,30.06,,,,,,,,,,,CAVOK,,,,,,,,VFR,,,,,,,,,,,,METAR,740
SBGM 141800Z 08010KT CAVOK 35/16 Q1014,SBGM,2025-08-14T18:00:00Z,-10.787,-65.281,35,16,80,10,,6+,29.94,,,,,,,,,,,CAVOK,,,,,,,,VFR,,,,,,,,,,,,METAR,147
SBGL 141800Z 20012KT 9999 FEW032 SCT040 24/13 Q1021,SBGL,2025-08-14T18:00:00Z,-22.815,-43.261,24,13,200,12,,6+,30.15,,,,,,,,,,,FEW,3200,SCT,4000,,,,,VFR,,,,,,,,,,,,METAR,3
SBFZ 141800Z 09016KT 9999 FEW020 29/21 Q1013,SBFZ,2025-08-14T18:00:00Z,-3.776,-38.533,29,21,90,16,,6+,29.91,,,,,,,,,,,FEW,2000,,,,,,,VFR,,,,,,,,,,,,METAR,32
SBFS 141800Z 19020KT CAVOK 23/18 Q1020,SBFS,2025-08-14T18:00:00Z,-22.028,-41.069,23,18,190,20,,6+,30.12,,,,,,,,,,,CAVOK,,,,,,,,VFR,,,,,,,,,,,,METAR,3
SBFN 141800Z AUTO 11013KT 9999 FEW033 27/22 Q1015,SBFN,2025-08-14T18:00:00Z,-3.855,-32.423,27,22,110,13,,6+,29.97,,,TRUE,,,,,,,,FEW,3300,,,,,,,VFR,,,,,,,,,,,,METAR,52
SBFL 141800Z 15011KT 120V180 9999 FEW040 SCT066 19/11 Q1024,SBFL,2025-08-14T18:00:00Z,-27.671,-48.547,19,11,150,11,,6+,30.24,,,,,,,,,,,FEW,4000,SCT,6600,,,,,VFR,,,,,,,,,,,,METAR,5
SBFI 141800Z 24004KT CAVOK 24/10 Q1020,SBFI,2025-08-14T18:00:00Z,-25.595,-54.488,24,10,240,4,,6+,30.12,,,,,,,,,,,CAVOK,,,,,,,,VFR,,,,,,,,,,,,METAR,233
SBES 141800Z 23011KT 200V260 9999 FEW020 22/20 Q1021,SBES,2025-08-14T18:00:00Z,-22.813,-42.093,22,20,230,11,,6+,30.15,,,,,,,,,,,FEW,2000,,,,,,,VFR,,,,,,,,,,,,METAR,16
SBEG 141800Z 13006KT 080V160 9999 SCT030 FEW035TCU 33/23 Q1011,SBEG,2025-08-14T18:00:00Z,-3.039,-60.05,33,23,130,6,,6+,29.85,,,,,,,,,,,SCT,3000,FEW,3500,,,,,VFR,,,,,,,,,,,,METAR,69
SBDN 141800Z 12004KT CAVOK 28/06 Q1019,SBDN,2025-08-14T18:00:00Z,-22.175,-51.427,28,6,120,4,,6+,30.09,,,,,,,,,,,CAVOK,,,,,,,,VFR,,,,,,,,,,,,METAR,438
SBCZ 141800Z 13006KT 9999 SCT030 33/22 Q1013,SBCZ,2025-08-14T18:00:00Z,-7.597,-72.774,33,22,130,6,,6+,29.91,,,,,,,,,,,SCT,3000,,,,,,,VFR,,,,,,,,,,,,METAR,193
SBCY 141800Z 19006KT CAVOK 33/05 Q1016,SBCY,2025-08-14T18:00:00Z,-15.653,-56.116,33,5,190,6,,6+,30.00,,,,,,,,,,,CAVOK,,,,,,,,VFR,,,,,,,,,,,,METAR,182
SBCT 141800Z 10011KT 9999 SCT017 BKN026 14/09 Q1025,SBCT,2025-08-14T18:00:00Z,-25.529,-49.176,14,9,100,11,,6+,30.27,,,,,,,,,,,SCT,1700,BKN,2600,,,,,MVFR,,,,,,,,,,,,METAR,914
SBCR 141800Z 01006KT 340V070 CAVOK 32/06 Q1017,SBCR,2025-08-14T18:00:00Z,-19.01,-57.667,32,6,10,6,,6+,30.03,,,,,,,,,,,CAVOK,,,,,,,,VFR,,,,,,,,,,,,METAR,142
SBCP 141800Z 20015KT CAVOK 26/15 Q1019,SBCP,2025-08-14T18:00:00Z,-21.701,-41.305,26,15,200,15,,6+,30.09,,,,,,,,,,,CAVOK,,,,,,,,VFR,,,,,,,,,,,,METAR,15
SBCO 141800Z VRB05KT 9999 SCT027 15/// Q1027,SBCO,2025-08-14T18:00:00Z,-29.945,-51.144,,,VRB,5,,6+,30.32,,,,,,,,,,,SCT,2700,,,,,,,VFR,,,,,,,,,,,,METAR,8
SBCJ 141800Z VRB10KT 5000 -SHRA BR BKN027 FEW030TCU 23/20 Q1017,SBCJ,2025-08-14T18:00:00Z,-6.118,-50.004,23,20,VRB,10,,3.11,30.03,,,,,,,,,,-SHRA BR,BKN,2700,FEW,3000,,,,,MVFR,,,,,,,,,,,,METAR,634
SBCH 141800Z 12006KT CAVOK 20/07 Q1023,SBCH,2025-08-14T18:00:00Z,-27.132,-52.662,20,7,120,6,,6+,30.21,,,,,,,,,,,CAVOK,,,,,,,,VFR,,,,,,,,,,,,METAR,639
SBCG 141800Z VRB03KT CAVOK 28/02 Q1020,SBCG,2025-08-14T18:00:00Z,-20.469,-54.672,28,2,VRB,3,,6+,30.12,,,,,,,,,,,CAVOK,,,,,,,,VFR,,,,,,,,,,,,METAR,556
SBCF 141800Z 29006KT 9999 FEW030 28/10 Q1020,SBCF,2025-08-14T18:00:00Z,-19.635,-43.966,28,10,290,6,,6+,30.12,,,,,,,,,,,FEW,3000,,,,,,,VFR,,,,,,,,,,,,METAR,825
SBCC 141800Z 05008KT 9999 SCT030 34/10 Q1014,SBCC,2025-08-14T18:00:00Z,-9.334,-54.965,34,10,50,8,,6+,29.94,,,,,,,,,,,SCT,3000,,,,,,,VFR,,,,,,,,,,,,METAR,540
SBCB 141800Z 25012KT 9999 SCT020 23/19 Q1021,SBCB,2025-08-14T18:00:00Z,-22.922,-42.074,23,19,250,12,,6+,30.15,,,,,,,,,,,SCT,2000,,,,,,,VFR,,,,,,,,,,,,METAR,3
SBCA 141800Z 15004KT CAVOK 24/05 Q1022,SBCA,2025-08-14T18:00:00Z,-25,-53.501,24,5,150,4,,6+,30.18,,,,,,,,,,,CAVOK,,,,,,,,VFR,,,,,,,,,,,,METAR,753
SBBW 141800Z 22002KT CAVOK 35/04 Q1015,SBBW,2025-08-14T18:00:00Z,-15.861,-52.389,35,4,220,2,,6+,29.97,,,,,,,,,,,CAVOK,,,,,,,,VFR,,,,,,,,,,,,METAR,354
SBBV 141800Z 31001KT 9999 TS VCSH SCT030 FEW035CB BKN100 25/22 Q1012,SBBV,2025-08-14T18:00:00Z,2.846,-60.69,25,22,310,1,,6+,29.88,,,,,,,,,,TS VCSH,SCT,3000,FEW,3500,BKN,10000,,,VFR,,,,,,,,,,,,METAR,80
SBBU 141800Z 19004KT CAVOK 28/05 Q1020,SBBU,2025-08-14T18:00:00Z,-22.345,-49.054,28,5,190,4,,6+,30.12,,,,,,,,,,,CAVOK,,,,,,,,VFR,,,,,,,,,,,,METAR,616
SBBR 141800Z 04005G15KT 340V080 9999 SCT045 29/08 Q1020,SBBR,2025-08-14T18:00:00Z,-15.867,-47.933,29,8,40,5,15,6+,30.12,,,,,,,,,,,SCT,4500,,,,,,,VFR,,,,,,,,,,,,METAR,1051
SBBQ 141800Z 09007KT CAVOK 24/10 Q1024,SBBQ,2025-08-14T18:00:00Z,-21.267,-43.761,24,10,90,7,,6+,30.24,,,,,,,,,,,CAVOK,,,,,,,,VFR,,,,,,,,,,,,METAR,1106
SBBI 141800Z 09009KT 9999 FEW030 15/10 Q1025,SBBI,2025-08-14T18:00:00Z,-25.404,-49.232,15,10,90,9,,6+,30.27,,,,,,,,,,,FEW,3000,,,,,,,VFR,,,,,,,,,,,,METAR,928
SBBH 141800Z 30004KT 9999 FEW048 28/09 Q1020,SBBH,2025-08-14T18:00:00Z,-19.851,-43.951,28,9,300,4,,6+,30.12,,,,,,,,,,,FEW,4800,,,,,,,VFR,,,,,,,,,,,,METAR,799
SBBG 141800Z 10010KT 9999 BKN023 14/05 Q1027,SBBG,2025-08-14T18:00:00Z,-31.391,-54.112,14,5,100,10,,6+,30.32,,,,,,,,,,,BKN,2300,,,,,,,MVFR,,,,,,,,,,,,METAR,182
SBBE 141800Z 33008KT 290V010 9999 SCT040 FEW042TCU 30/24 Q1012,SBBE,2025-08-14T18:00:00Z,-1.379,-48.476,30,24,330,8,,6+,29.88,,,,,,,,,,,SCT,4000,FEW,4200,,,,,VFR,,,,,,,,,,,,METAR,16
SBAX 141800Z 18006KT 9999 FEW025 29/06 Q1020,SBAX,2025-08-14T18:00:00Z,-19.563,-46.96,29,6,180,6,,6+,30.12,,,,,,,,,,,FEW,2500,,,,,,,VFR,,,,,,,,,,,,METAR,989
SBAT 141800Z 19005KT CAVOK 36/12 Q1014,SBAT,2025-08-14T18:00:00Z,-9.872,-56.106,36,12,190,5,,6+,29.94,,,,,,,,,,,CAVOK,,,,,,,,VFR,,,,,,,,,,,,METAR,287
SBAR 141800Z 14008KT 9999 FEW025 28/21 Q1017,SBAR,2025-08-14T18:00:00Z,-10.984,-37.07,28,21,140,8,,6+,30.03,,,,,,,,,,,FEW,2500,,,,,,,VFR,,,,,,,,,,,,METAR,4
SBAN 141800Z 34003KT CAVOK 30/07 Q1021,SBAN,2025-08-14T18:00:00Z,-16.229,-48.964,30,7,340,3,,6+,30.15,,,,,,,,,,,CAVOK,,,,,,,,VFR,,,,,,,,,,,,METAR,1131
SBAF 141800Z 19011KT 9999 SCT025 BKN040 22/15 Q1022,SBAF,2025-08-14T18:00:00Z,-22.875,-43.385,22,15,190,11,,6+,30.18,,,,,,,,,,,SCT,2500,BKN,4000,,,,,VFR,,,,,,,,,,,,METAR,34
SAZS 141800Z VRB02KT 9999 SCT033 BKN040 07/01 Q1024,SAZS,2025-08-14T18:00:00Z,-41.151,-71.157,7,1,VRB,2,,6+,30.24,,,,,,,,,,,SCT,3300,BKN,4000,,,,,VFR,,,,,,,,,,,,METAR,843
SAZN 141800Z 05011KT CAVOK 14/M03 Q1027,SAZN,2025-08-14T18:00:00Z,-38.95,-68.141,14,-3,50,11,,6+,30.32,,,,,,,,,,,CAVOK,,,,,,,,VFR,,,,,,,,,,,,METAR,273
SAZM 141800Z 20004KT 9999 BKN030 10/02 Q1031,SAZM,2025-08-14T18:00:00Z,-37.932,-57.581,10,2,200,4,,6+,30.44,,,,,,,,,,,BKN,3000,,,,,,,MVFR,,,,,,,,,,,,METAR,17
SAZB 141800Z 12003KT 050V200 CAVOK 13/01 Q1032,SAZB,2025-08-14T18:00:00Z,-38.725,-62.169,13,1,120,3,,6+,30.47,,,,,,,,,,,CAVOK,,,,,,,,VFR,,,,,,,,,,,,METAR,77
SAWH 141800Z 11003KT 050V130 CAVOK 06/M01 Q1022,SAWH,2025-08-14T18:00:00Z,-54.844,-68.308,6,-1,110,3,,6+,30.18,,,,,,,,,,,CAVOK,,,,,,,,VFR,,,,,,,,,,,,METAR,22
SAWG 141800Z 08006KT CAVOK 07/M01 Q1024,SAWG,2025-08-14T18:00:00Z,-51.609,-69.306,7,-1,80,6,,6+,30.24,,,,,,,,,,,CAVOK,,,,,,,,VFR,,,,,,,,,,,,METAR,18
SAWE 141800Z 35006KT CAVOK 06/M01 Q1024,SAWE,2025-08-14T18:00:00Z,-53.781,-67.754,6,-1,350,6,,6+,30.24,,,,,,,,,,,CAVOK,,,,,,,,VFR,,,,,,,,,,,,METAR,22
SAWC 141800Z 31003KT 270V340 CAVOK 04/00 Q1025,SAWC,2025-08-14T18:00:00Z,-50.284,-72.052,4,0,310,3,,6+,30.27,,,,,,,,,,,CAVOK,,,,,,,,VFR,,,,,,,,,,,,METAR,204
SAVT 141800Z 03006KT 330V100 CAVOK 14/M09 Q1030,SAVT,2025-08-14T18:00:00Z,-43.209,-65.282,14,-9,30,6,,6+,30.41,,,,,,,,,,,CAVOK,,,,,,,,VFR,,,,,,,,,,,,METAR,37
SAVC 141800Z 08008KT 040V110 CAVOK 10/02 Q1030,SAVC,2025-08-14T18:00:00Z,-45.79,-67.471,10,2,80,8,,6+,30.41,,,,,,,,,,,CAVOK,,,,,,,,VFR,,,,,,,,,,,,METAR,58
SASJ 141800Z 03010KT 9999 BKN050 OVC080 19/05 Q1024,SASJ,2025-08-14T18:00:00Z,-24.387,-65.098,19,5,30,10,,6+,30.24,,,,,,,,,,,BKN,5000,OVC,8000,,,,,VFR,,,,,,,,,,,,METAR,913
SASA 141800Z 07010KT 9999 SCT046 BKN050 16/04 Q1024,SASA,2025-08-14T18:00:00Z,-24.856,-65.486,16,4,70,10,,6+,30.24,,,,,,,,,,,SCT,4600,BKN,5000,,,,,VFR,,,,,,,,,,,,METAR,1235
SARP 141800Z 16011KT 100V180 9999 FEW030 22/09 Q1023,SARP,2025-08-14T18:00:00Z,-27.386,-55.969,22,9,160,11,,6+,30.21,,,,,,,,,,,FEW,3000,,,,,,,VFR,,,,,,,,,,,,METAR,123
SARL 141800Z 16007KT 8000 FEW025 16/07 Q1026,SARL,2025-08-14T18:00:00Z,-29.689,-57.152,16,7,160,7,,4.97,30.30,,,,,,,,,,,FEW,2500,,,,,,,MVFR,,,,,,,,,,,,METAR,70
SARI 141800Z VRB02KT CAVOK 23/12 Q1020,SARI,2025-08-14T18:00:00Z,-25.737,-54.473,23,12,VRB,2,,6+,30.12,,,,,,,,,,,CAVOK,,,,,,,,VFR,,,,,,,,,,,,METAR,268
SARF 141800Z 16008KT CAVOK 23/11 Q1022,SARF,2025-08-14T18:00:00Z,-26.213,-58.228,23,11,160,8,,6+,30.18,,,,,,,,,,,CAVOK,,,,,,,,VFR,,,,,,,,,,,,METAR,65
SARE 141800Z 16007KT 120V210 9999 FEW015 20/11 Q1024,SARE,2025-08-14T18:00:00Z,-27.45,-59.056,20,11,160,7,,6+,30.24,,,,,,,,,,,FEW,1500,,,,,,,VFR,,,,,,,,,,,,METAR,52
SARC 141800Z 19008KT 150V240 9999 FEW036 20/12 Q1023,SARC,2025-08-14T18:00:00Z,-27.445,-58.762,20,12,190,8,,6+,30.21,,,,,,,,,,,FEW,3600,,,,,,,VFR,,,,,,,,,,,,METAR,60
SANU 141800Z 16007KT CAVOK 15/03 Q1024,SANU,2025-08-14T18:00:00Z,-31.572,-68.418,15,3,160,7,,6+,30.24,,,,,,,,,,,CAVOK,,,,,,,,VFR,,,,,,,,,,,,METAR,596
SANT 141800Z 20005KT 140V230 8000 OVC035 16/08 Q1025,SANT,2025-08-14T18:00:00Z,-26.841,-65.105,16,8,200,5,,4.97,30.27,,,,,,,,,,,OVC,3500,,,,,,,MVFR,,,,,,,,,,,,METAR,446
SANE 141800Z 1806KT CAVOK 16/08 Q1025,SANE,2025-08-14T18:00:00Z,-27.755,-64.3,16,8,,,,6+,30.27,,,,,,,,,,,CAVOK,,,,,,,,VFR,,,,,,,,,,,,METAR,198
SAME 141800Z VRB06KT 9999 SCT035 15/03 Q1024,SAME,2025-08-14T18:00:00Z,-32.832,-68.793,15,3,VRB,6,,6+,30.24,,,,,,,,,,,SCT,3500,,,,,,,VFR,,,,,,,,,,,,METAR,709
SAEZ 141800Z 16005KT 9999 FEW036 12/03 Q1031 NOSIG,SAEZ,2025-08-14T18:00:00Z,-34.822,-58.536,12,3,160,5,,6+,30.44,,,,,,TRUE,,,,,FEW,3600,,,,,,,VFR,,,,,,,,,,,,METAR,16
SADP 141800Z 13004KT 9999 FEW035 12/01 Q1031,SADP,2025-08-14T18:00:00Z,-34.61,-58.613,12,1,130,4,,6+,30.44,,,,,,,,,,,FEW,3500,,,,,,,VFR,,,,,,,,,,,,METAR,19
SADF 141800Z 09008KT 050V130 CAVOK 10/03 Q1031,SADF,2025-08-14T18:00:00Z,-34.457,-58.593,10,3,90,8,,6+,30.44,,,,,,,,,,,CAVOK,,,,,,,,VFR,,,,,,,,,,,,METAR,4
SACO 141800Z 05008KT 010V080 CAVOK 14/04 Q1027 NOSIG,SACO,2025-08-14T18:00:00Z,-31.324,-64.208,14,4,50,8,,6+,30.32,,,,,,TRUE,,,,,CAVOK,,,,,,,,VFR,,,,,,,,,,,,METAR,474
SABE 141800Z 07008KT CAVOK 09/04 Q1032 NOSIG,SABE,2025-08-14T18:00:00Z,-34.559,-58.416,9,4,70,8,,6+,30.47,,,,,,TRUE,,,,,CAVOK,,,,,,,,VFR,,,,,,,,,,,,METAR,3
SAAV 141800Z 14007KT CAVOK 16/03 Q1029,SAAV,2025-08-14T18:00:00Z,-31.712,-60.812,16,3,140,7,,6+,30.38,,,,,,,,,,,CAVOK,,,,,,,,VFR,,,,,,,,,,,,METAR,19
SAAR 141800Z 11009KT 070V150 9999 SCT039 13/04 Q1030,SAAR,2025-08-14T18:00:00Z,-32.918,-60.782,13,4,110,9,,6+,30.41,,,,,,,,,,,SCT,3900,,,,,,,VFR,,,,,,,,,,,,METAR,24
RPVP 141800Z 30006KT 9999 FEW019 BKN240 25/24 Q1007 RMK A2974,RPVP,2025-08-14T18:00:00Z,9.742,118.759,25,24,300,6,,6+,29.73,,,,,,,,,,,FEW,1900,BKN,24000,,,,,VFR,,,,,,,,,,,,METAR,15
RPVM 141800Z 13008KT 8000 -SHRA FEW018CB OVC090 26/24 Q1010 NOSIG RMK A2983 CB NE-SW,RPVM,2025-08-14T18:00:00Z,10.308,123.978,26,24,130,8,,4.97,29.82,,,,,,TRUE,,,,-SHRA,FEW,1800,OVC,9000,,,,,MVFR,,,,,,,,,,,,METAR,9
RPVK 141800Z VRB02KT 9999 SCT016 BKN070 24/24 Q1008 RMK A2977,RPVK,2025-08-14T18:00:00Z,11.683,122.383,24,24,VRB,2,,6+,29.76,,,,,,,,,,,SCT,1600,BKN,7000,,,,,VFR,,,,,,,,,,,,METAR,6
RPVD 141800Z 22008KT 9999 SCT015 OVC070 26/24 Q1008 RMK A2977,RPVD,2025-08-14T18:00:00Z,9.334,123.297,26,24,220,8,,6+,29.76,,,,,,,,,,,SCT,1500,OVC,7000,,,,,VFR,,,,,,,,,,,,METAR,11
RPMZ 141800Z VRB02KT 9999 FEW017 OVC090 25/24 Q1009 RMK A2980,RPMZ,2025-08-14T18:00:00Z,6.92,122.063,25,24,VRB,2,,6+,29.79,,,,,,,,,,,FEW,1700,OVC,9000,,,,,VFR,,,,,,,,,,,,METAR,8
RPMD 141800Z VRB01KT 9999 -RA SCT015 OVC090 24/24 Q1009 RMK A2980,RPMD,2025-08-14T18:00:00Z,7.125,125.646,24,24,VRB,1,,6+,29.79,,,,,,,,,,-RA,SCT,1500,OVC,9000,,,,,VFR,,,,,,,,,,,,METAR,19
RPLL 141800Z VRB01KT 9999 SCT025 BKN100 27/25 Q1007 NOSIG RMK A2974,RPLL,2025-08-14T18:00:00Z,14.507,121.004,27,25,VRB,1,,6+,29.73,,,,,,TRUE,,,,,SCT,2500,BKN,10000,,,,,VFR,,,,,,,,,,,,METAR,15
RPLI 141800Z 10003KT 9999 FEW018 BKN270 25/23 Q1007 NOSIG RMK A2974,RPLI,2025-08-14T18:00:00Z,18.178,120.532,25,23,100,3,,6+,29.73,,,,,,TRUE,,,,,FEW,1800,BKN,27000,,,,,VFR,,,,,,,,,,,,METAR,5
RPLC 141800Z 18002KT 8000 SCT020 OVC100 24/23 Q1009 RERA RMK A2980,RPLC,2025-08-14T18:00:00Z,15.186,120.56,24,23,180,2,,4.97,29.79,,,,,,,,,,,SCT,2000,OVC,10000,,,,,MVFR,,,,,,,,,,,,METAR,138
RPLB 141800Z 07006KT 9000 -SHRA SCT018 BKN070 OVC280 24/23 Q1008 RMK A2977,RPLB,2025-08-14T18:00:00Z,14.794,120.271,24,23,70,6,,5.59,29.76,,,,,,,,,,-SHRA,SCT,1800,BKN,7000,OVC,28000,,,VFR,,,,,,,,,,,,METAR,19
ROYN 141800Z AUTO 12007KT 9999 FEW012 SCT060 27/26 Q1011,ROYN,2025-08-14T18:00:00Z,24.467,122.978,27,26,120,7,,6+,29.85,,,TRUE,,,,,,,,FEW,1200,SCT,6000,,,,,VFR,,,,,,,,,,,,METAR,21
RORY 141800Z AUTO 08005KT 9999 FEW019 28/25 Q1013,RORY,2025-08-14T18:00:00Z,27.044,128.4,28,25,80,5,,6+,29.91,,,TRUE,,,,,,,,FEW,1900,,,,,,,VFR,,,,,,,,,,,,METAR,13
RORT 141800Z AUTO 10004KT 040V190 9999 FEW019 SCT023 27/25 Q1011,RORT,2025-08-14T18:00:00Z,24.653,124.674,27,25,100,4,,6+,29.85,,,TRUE,,,,,,,,FEW,1900,SCT,2300,,,,,VFR,,,,,,,,,,,,METAR,9
RORS 141800Z AUTO 11005KT 9999 NCD 27/25 Q1011,RORS,2025-08-14T18:00:00Z,24.827,125.145,27,25,110,5,,6+,29.85,,,TRUE,,,,,,,,CLR,,,,,,,,VFR,,,,,,,,,,,,METAR,13
RORK 141800Z AUTO 07013KT 9999 FEW015 29/26 Q1012,RORK,2025-08-14T18:00:00Z,25.944,131.326,29,26,70,13,,6+,29.88,,,TRUE,,,,,,,,FEW,1500,,,,,,,VFR,,,,,,,,,,,,METAR,11
ROMY 141800Z AUTO 09007KT 9999 FEW015 27/25 Q1011,ROMY,2025-08-14T18:00:00Z,24.782,125.295,27,25,90,7,,6+,29.85,,,TRUE,,,,,,,,FEW,1500,,,,,,,VFR,,,,,,,,,,,,METAR,42
ROMD 141800Z AUTO 08006KT 020V190 9999 SCT016 SCT022 BKN038 27/25 Q1012,ROMD,2025-08-14T18:00:00Z,25.847,131.264,27,25,80,6,,6+,29.88,,,TRUE,,,,,,,,SCT,1600,SCT,2200,BKN,3800,,,VFR,,,,,,,,,,,,METAR,45
ROIG 141800Z AUTO 10008KT 9999 SCT017 28/25 Q1011,ROIG,2025-08-14T18:00:00Z,24.395,124.245,28,25,100,8,,6+,29.85,,,TRUE,,,,,,,,SCT,1700,,,,,,,VFR,,,,,,,,,,,,METAR,37
RKTU 141800Z 05001KT 8000 BKN040 BKN160 24/24 Q1015,RKTU,2025-08-14T18:00:00Z,36.717,127.499,24,24,50,1,,4.97,29.97,,,,,,,,,,,BKN,4000,BKN,16000,,,,,MVFR,,,,,,,,,,,,METAR,46
RKTN 141800Z 34001KT 9999 FEW050 25/23 Q1015,RKTN,2025-08-14T18:00:00Z,35.894,128.659,25,23,340,1,,6+,29.97,,,,,,,,,,,FEW,5000,,,,,,,VFR,,,,,,,,,,,,METAR,25
RKSS 141800Z 03001KT 7000 SCT015 BKN030 BKN130 24/24 Q1016 NOSIG,RKSS,2025-08-14T18:00:00Z,37.558,126.791,24,24,30,1,,4.35,30.00,,,,,,TRUE,,,,,SCT,1500,BKN,3000,BKN,13000,,,MVFR,,,,,,,,,,,,METAR,18
RKSM 141800Z 18004KT 9999 BKN020 24/23 A3001,RKSM,2025-08-14T18:00:00Z,37.446,127.114,24,23,180,4,,6+,30.01,,,,,,,,,,,BKN,2000,,,,,,,MVFR,,,,,,,,,,,,METAR,18
RKPK 141800Z 03003KT 9999 FEW030 FEW200 25/24 Q1015,RKPK,2025-08-14T18:00:00Z,35.179,128.938,25,24,30,3,,6+,29.97,,,,,,,,,,,FEW,3000,FEW,20000,,,,,VFR,,,,,,,,,,,,METAR,3
RKPC 141800Z 17001KT CAVOK 26/23 Q1016 NOSIG,RKPC,2025-08-14T18:00:00Z,33.511,126.493,26,23,170,1,,6+,30.00,,,,,,TRUE,,,,,CAVOK,,,,,,,,VFR,,,,,,,,,,,,METAR,23
RKNY 141800Z AUTO 26010KT 9999 NCD 27/20 Q1014,RKNY,2025-08-14T18:00:00Z,38.061,128.669,27,20,260,10,,6+,29.94,,,TRUE,,,,,,,,CLR,,,,,,,,VFR,,,,,,,,,,,,METAR,76
RKJB 141800Z AUTO 08001KT 9999 NCD 26/25 Q1016,RKJB,2025-08-14T18:00:00Z,34.991,126.383,26,25,80,1,,6+,30.00,,,TRUE,,,,,,,,CLR,,,,,,,,VFR,,,,,,,,,,,,METAR,16
RJSN 141800Z AUTO 19007KT 9999 FEW070 BKN090 BKN110 26/23 Q1014,RJSN,2025-08-14T18:00:00Z,37.956,139.121,26,23,190,7,,6+,29.94,,,TRUE,,,,,,,,FEW,7000,BKN,9000,BKN,11000,,,VFR,,,,,,,,,,,,METAR,4
RJSM 141800Z 18008KT 9999 -SHRA FEW030 SCT050 BKN090 24/22 Q1011,RJSM,2025-08-14T18:00:00Z,40.705,141.372,24,22,180,8,,6+,29.85,,,,,,,,,,-SHRA,FEW,3000,SCT,5000,BKN,9000,,,VFR,,,,,,,,,,,,METAR,31
RJSF 141800Z AUTO 16005KT 9999 FEW011 22/20 Q1016,RJSF,2025-08-14T18:00:00Z,37.227,140.428,22,20,160,5,,6+,30.00,,,TRUE,,,,,,,,FEW,1100,,,,,,,VFR,,,,,,,,,,,,METAR,373
RJSA 141800Z AUTO 24005KT 9999 SCT019 BKN025 BKN027 //////TCU 23/22 Q1012,RJSA,2025-08-14T18:00:00Z,40.733,140.689,23,22,240,5,,6+,29.88,,,TRUE,,,,,,,,SCT,1900,BKN,2500,BKN,2700,,,MVFR,,,,,,,,,,,,METAR,196
RJOR 141800Z AUTO 15007KT 9999 SCT050 BKN060 26/24 Q1014,RJOR,2025-08-14T18:00:00Z,35.53,134.165,26,24,150,7,,6+,29.94,,,TRUE,,,,,,,,SCT,5000,BKN,6000,,,,,VFR,,,,,,,,,,,,METAR,11
RJOO 141800Z AUTO 00000KT 9999 OVC027 28/25 Q1015 RMK A2998,RJOO,2025-08-14T18:00:00Z,34.784,135.439,28,25,0,0,,6+,29.97,,,TRUE,,,,,,,,OVC,2700,,,,,,,MVFR,,,,,,,,,,,,METAR,11
RJOK 141800Z AUTO 36005KT 9999 NCD 25/23 Q1015,RJOK,2025-08-14T18:00:00Z,33.546,133.669,25,23,360,5,,6+,29.97,,,TRUE,,,,,,,,CLR,,,,,,,,VFR,,,,,,,,,,,,METAR,7
RJOH 141800Z 17003KT 9999 FEW030 24/24 Q1015,RJOH,2025-08-14T18:00:00Z,35.493,133.239,24,24,170,3,,6+,29.97,,,,,,,,,,,FEW,3000,,,,,,,VFR,,,,,,,,,,,,METAR,6
RJOC 141800Z AUTO 17003KT 9999 NCD 25/23 Q1014,RJOC,2025-08-14T18:00:00Z,35.414,132.89,25,23,170,3,,6+,29.94,,,TRUE,,,,,,,,CLR,,,,,,,,VFR,,,,,,,,,,,,METAR,2
RJOA 141800Z AUTO VRB01KT 9999 FEW022 BKN023 BKN033 26/23 Q1017,RJOA,2025-08-14T18:00:00Z,34.436,132.919,26,23,VRB,1,,6+,30.03,,,TRUE,,,,,,,,FEW,2200,BKN,2300,BKN,3300,,,MVFR,,,,,,,,,,,,METAR,318
RJNT 141800Z AUTO 00000KT 9999 NSC 26/22 Q1015,RJNT,2025-08-14T18:00:00Z,36.641,137.187,26,22,0,0,,6+,29.97,,,TRUE,,,,,,,,CLR,,,,,,,,VFR,,,,,,,,,,,,METAR,30
RJNK 141800Z 18003KT 150V220 9999 FEW030 24/24 Q1015,RJNK,2025-08-14T18:00:00Z,36.394,136.407,24,24,180,3,,6+,29.97,,,,,,,,,,,FEW,3000,,,,,,,VFR,,,,,,,,,,,,METAR,7
RJKI 141800Z AUTO VRB01KT 9999 NSC 26/25 Q1014,RJKI,2025-08-14T18:00:00Z,28.321,129.928,26,25,VRB,1,,6+,29.94,,,TRUE,,,,,,,,CLR,,,,,,,,VFR,,,,,,,,,,,,METAR,6
RJKB 141800Z AUTO 09005KT 9999 BKN018 28/25 Q1013,RJKB,2025-08-14T18:00:00Z,27.4322,128.706,28,25,90,5,,6+,29.91,,,TRUE,,,,,,,,BKN,1800,,,,,,,MVFR,,,,,,,,,,,,METAR,27
RJKA 141800Z AUTO 10005KT 9999 FEW019 SCT050 BKN240 29/25 Q1013,RJKA,2025-08-14T18:00:00Z,28.431,129.713,29,25,100,5,,6+,29.91,,,TRUE,,,,,,,,FEW,1900,SCT,5000,BKN,24000,,,VFR,,,,,,,,,,,,METAR,7
RJFT 141800Z AUTO VRB01KT 9999 NCD 25/23 Q1016,RJFT,2025-08-14T18:00:00Z,32.837,130.855,25,23,VRB,1,,6+,30.00,,,TRUE,,,,,,,,CLR,,,,,,,,VFR,,,,,,,,,,,,METAR,188
RJFR 141800Z AUTO VRB01KT 9999 NCD 27/25 Q1015,RJFR,2025-08-14T18:00:00Z,33.846,131.035,27,25,VRB,1,,6+,29.97,,,TRUE,,,,,,,,CLR,,,,,,,,VFR,,,,,,,,,,,,METAR,9
RJFO 141800Z AUTO 27003KT 240V310 9999 NCD 26/24 Q1015,RJFO,2025-08-14T18:00:00Z,33.479,131.737,26,24,270,3,,6+,29.97,,,TRUE,,,,,,,,CLR,,,,,,,,VFR,,,,,,,,,,,,METAR,3
RJFM 141800Z AUTO 29004KT 9999 NCD 26/25 Q1015,RJFM,2025-08-14T18:00:00Z,31.877,131.449,26,25,290,4,,6+,29.97,,,TRUE,,,,,,,,CLR,,,,,,,,VFR,,,,,,,,,,,,METAR,10
RJEC 141800Z AUTO 12007KT 9999 FEW036 BKN050 OVC060 21/18 Q1010,RJEC,2025-08-14T18:00:00Z,43.671,142.447,21,18,120,7,,6+,29.82,,,TRUE,,,,,,,,FEW,3600,BKN,5000,OVC,6000,,,VFR,,,,,,,,,,,,METAR,209
RJDC 141800Z AUTO 36001KT 9999 NCD 27/25 Q1015,RJDC,2025-08-14T18:00:00Z,33.93,131.279,27,25,360,1,,6+,29.97,,,TRUE,,,,,,,,CLR,,,,,,,,VFR,,,,,,,,,,,,METAR,5
RJDB 141800Z AUTO 26003KT 9999 NCD 27/26 Q1015,RJDB,2025-08-14T18:00:00Z,33.749,129.785,27,26,260,3,,6+,29.97,,,TRUE,,,,,,,,CLR,,,,,,,,VFR,,,,,,,,,,,,METAR,13
RJCK 141800Z AUTO 18012KT 9999 SCT003 OVC007 22/22 Q1013,RJCK,2025-08-14T18:00:00Z,43.041,144.193,22,22,180,12,,6+,29.91,,,TRUE,,,,,,,,SCT,300,OVC,700,,,,,IFR,,,,,,,,,,,,METAR,94
RJCH 141800Z AUTO 21009KT 170V240 9999 BKN009 OVC021 25/24 Q1009,RJCH,2025-08-14T18:00:00Z,41.77,140.822,25,24,210,9,,6+,29.79,,,TRUE,,,,,,,,BKN,900,OVC,2100,,,,,IFR,,,,,,,,,,,,METAR,36
RJBD 141800Z AUTO VRB01KT 9999 OVC029 27/24 Q1015,RJBD,2025-08-14T18:00:00Z,33.662,135.364,27,24,VRB,1,,6+,29.97,,,TRUE,,,,,,,,OVC,2900,,,,,,,MVFR,,,,,,,,,,,,METAR,91
RJAW 141800Z 10009KT 9999 SCT010 BKN/// 26/23 Q1010 RMK 3CU010 A2984,RJAW,2025-08-14T18:00:00Z,24.784,141.322,26,23,100,9,,6+,29.82,,,,,,,,,,,SCT,1000,,,,,,,VFR,,,,,,,,,,,,METAR,116
RJAH 141800Z VRB01KT 8000 FEW030 22/22 Q1015,RJAH,2025-08-14T18:00:00Z,36.182,140.415,22,22,VRB,1,,4.97,29.97,,,,,,,,,,,FEW,3000,,,,,,,MVFR,,,,,,,,,,,,METAR,31
RCSS 141800Z 08009KT 9999 FEW020 29/23 Q1010 NOSIG RMK A2983,RCSS,2025-08-14T18:00:00Z,25.069,121.552,29,23,80,9,,6+,29.82,,,,,,TRUE,,,,,FEW,2000,,,,,,,VFR,,,,,,,,,,,,METAR,8
RCQC 141800Z 36004KT 9999 FEW010 SCT020 BKN060 27/24 Q1009 RMK A2981,RCQC,2025-08-14T18:00:00Z,23.569,119.628,27,24,360,4,,6+,29.79,,,,,,,,,,,FEW,1000,SCT,2000,BKN,6000,,,VFR,,,,,,,,,,,,METAR,26
RCNN 141800Z 09002KT 9999 FEW010 SCT080 26/24 Q1010 RMK A2983 RVR N/A,RCNN,2025-08-14T18:00:00Z,22.95,120.206,26,24,90,2,,6+,29.82,,,,,,,,,,,FEW,1000,SCT,8000,,,,,VFR,,,,,,,,,,,,METAR,15
RCMQ 141800Z 02001KT 9999 FEW012 26/20 Q1010 RMK A2983,RCMQ,2025-08-14T18:00:00Z,24.265,120.621,26,20,20,1,,6+,29.82,,,,,,,,,,,FEW,1200,,,,,,,VFR,,,,,,,,,,,,METAR,202
RCKH 141800Z 09005KT 9999 FEW016 SCT140 26/25 Q1008 NOSIG RMK A2979,RCKH,2025-08-14T18:00:00Z,22.577,120.35,26,25,90,5,,6+,29.76,,,,,,TRUE,,,,,FEW,1600,SCT,14000,,,,,VFR,,,,,,,,,,,,METAR,6
PLCH 141800Z 09008KT 9999 FEW019 28/24 Q1011,PLCH,2025-08-14T18:00:00Z,1.988,-157.349,28,24,90,8,,6+,29.85,,,,,,,,,,,FEW,1900,,,,,,,VFR,,,,,,,,,,,,METAR,5
PANN 141800Z AUTO VRB04KT 10SM -RA FEW009 BKN060 OVC075 12/11 A2977 RMK AO2 P0000 T01220106 TSNO,PANN,2025-08-14T18:00:00Z,64.547,-149.087,12.2,10.6,VRB,4,,10+,29.77,,,TRUE,TRUE,,,TRUE,,,-RA,FEW,900,BKN,6000,OVC,7500,,,VFR,,,,,,0.005,,,,,,SPECI,110
OYSY 141800Z 22006KT 180V250 9999 FEW035 SCT080 34/12 Q1005,OYSY,2025-08-14T18:00:00Z,15.966,48.788,34,12,220,6,,6+,29.68,,,,,,,,,,,FEW,3500,SCT,8000,,,,,VFR,,,,,,,,,,,,METAR,701
OYAA 141800Z 20010KT 9999 FEW020 SCT100 33/24 Q1003 NOSIG,OYAA,2025-08-14T18:00:00Z,12.829,45.029,33,24,200,10,,6+,29.62,,,,,,TRUE,,,,,FEW,2000,SCT,10000,,,,,VFR,,,,,,,,,,,,METAR,3
OTHH 141800Z 02007KT CAVOK 36/29 Q0996 NOSIG,OTHH,2025-08-14T18:00:00Z,25.273,51.609,36,29,20,7,,6+,29.41,,,,,,TRUE,,,,,CAVOK,,,,,,,,VFR,,,,,,,,,,,,METAR,3
OSDI 141800Z 29010KT 9999 FEW030 36/12 Q1011,OSDI,2025-08-14T18:00:00Z,33.411,36.516,36,12,290,10,,6+,29.85,,,,,,,,,,,FEW,3000,,,,,,,VFR,,,,,,,,,,,,METAR,614
OSAP 141800Z 30010KT CAVOK 36/04 Q1008,OSAP,2025-08-14T18:00:00Z,36.183,37.218,36,4,300,10,,6+,29.76,,,,,,,,,,,CAVOK,,,,,,,,VFR,,,,,,,,,,,,METAR,390
ORSU 141800Z 03020KT CAVOK 37/10 Q1007,ORSU,2025-08-14T18:00:00Z,35.56,45.318,37,10,30,20,,6+,29.73,,,,,,,,,,,CAVOK,,,,,,,,VFR,,,,,,,,,,,,METAR,760
ORNI 141800Z 32007KT 7000 NSC 40/00 Q0998,ORNI,2025-08-14T18:00:00Z,31.99,44.405,40,0,320,7,,4.35,29.47,,,,,,,,,,,CLR,,,,,,,,MVFR,,,,,,,,,,,,METAR,33
ORMM 141800Z 24006KT CAVOK 34/M01 Q0996,ORMM,2025-08-14T18:00:00Z,30.549,47.662,34,-1,240,6,,6+,29.41,,,,,,,,,,,CAVOK,,,,,,,,VFR,,,,,,,,,,,,METAR,2
ORER 141800Z 26004KT 9000 NSC 37/00 Q1004,ORER,2025-08-14T18:00:00Z,36.232,43.951,37,0,260,4,,5.59,29.65,,,,,,,,,,,CLR,,,,,,,,VFR,,,,,,,,,,,,METAR,399
ORBI 141800Z 30009KT CAVOK 40/10 Q0998 NOSIG,ORBI,2025-08-14T18:00:00Z,33.263,44.235,40,10,300,9,,6+,29.47,,,,,,TRUE,,,,,CAVOK,,,,,,,,VFR,,,,,,,,,,,,METAR,37
OPFA 141800Z 13006KT 4000 FU FEW040 BKN100 29/26 Q1004 NOSIG,OPFA,2025-08-14T18:00:00Z,31.365,72.995,29,26,130,6,,2.49,29.65,,,,,,TRUE,,,,FU,FEW,4000,BKN,10000,,,,,IFR,,,,,,,,,,,,METAR,180
OMRK 141800Z 13011KT 8000 NS 38/20 Q0997 A2944,OMRK,2025-08-14T18:00:00Z,25.613,55.939,38,20,130,11,,4.97,29.44,,,,,,,,,,,,,,,,,,,MVFR,,,,,,,,,,,,METAR,18
OMFJ 141800Z 09008KT 5000 BR FEW006 SCT012 33/31 Q0998,OMFJ,2025-08-14T18:00:00Z,25.112,56.324,33,31,90,8,,3.11,29.47,,,,,,,,,,BR,FEW,600,SCT,1200,,,,,MVFR,,,,,,,,,,,,METAR,27
OMAL 141800Z 35007KT CAVOK 39/21 Q0999 BECMG 10010KT,OMAL,2025-08-14T18:00:00Z,24.262,55.609,39,21,350,7,,6+,29.50,,,,,,,,,,,CAVOK,,,,,,,,VFR,,1,,,,,,,,,,METAR,247
OMAA 141800Z 06005KT 030V160 CAVOK 37/22 Q0996 NOSIG,OMAA,2025-08-14T18:00:00Z,24.433,54.651,37,22,60,5,,6+,29.41,,,,,,TRUE,,,,,CAVOK,,,,,,,,VFR,,,,,,,,,,,,METAR,13
OLBA 141800Z 21003KT 9999 FEW024 31/25 Q1009 NOSIG,OLBA,2025-08-14T18:00:00Z,33.82,35.491,31,25,210,3,,6+,29.79,,,,,,TRUE,,,,,FEW,2400,,,,,,,VFR,,,,,,,,,,,,METAR,29
OKKK 141800Z 27005KT CAVOK 37/00 Q0997 NOSIG,OKKK,2025-08-14T18:00:00Z,29.227,47.969,37,0,270,5,,6+,29.44,,,,,,TRUE,,,,,CAVOK,,,,,,,,VFR,,,,,,,,,,,,METAR,55
OJAQ 141800Z 35010KT 6000 NSC 42/16 Q1005 NOSIG,OJAQ,2025-08-14T18:00:00Z,29.612,35.018,42,16,350,10,,3.73,29.68,,,,,,TRUE,,,,,CLR,,,,,,,,MVFR,,,,,,,,,,,,METAR,45
OJAM 141800Z 27005KT 8000 NSC 35/05 Q1014 NOSIG,OJAM,2025-08-14T18:00:00Z,31.973,35.992,35,5,270,5,,4.97,29.94,,,,,,TRUE,,,,,CLR,,,,,,,,MVFR,,,,,,,,,,,,METAR,765
OJAI 141800Z 32005KT 4200 HZ NSC 33/09 Q1013 NOSIG,OJAI,2025-08-14T18:00:00Z,31.723,35.993,33,9,320,5,,2.61,29.91,,,,,,TRUE,,,,HZ,CLR,,,,,,,,IFR,,,,,,,,,,,,METAR,723
OIZJ 141800Z 12019KT 5000 BR FEW015 SCT090 32/29 Q0997,OIZJ,2025-08-14T18:00:00Z,25.653,57.798,32,29,120,19,,3.11,29.44,,,,,,,,,,BR,FEW,1500,SCT,9000,,,,,MVFR,,,,,,,,,,,,METAR,6
OIZI 141800Z 36006KT CAVOK 37/02 Q1002,OIZI,2025-08-14T18:00:00Z,27.236,60.72,37,2,360,6,,6+,29.59,,,,,,,,,,,CAVOK,,,,,,,,VFR,,,,,,,,,,,,METAR,622
OIZB 141800Z 34027G37KT 1500 SA DU NSC 35/08 Q1002,OIZB,2025-08-14T18:00:00Z,31.094,61.546,35,8,340,27,37,0.93,29.59,,,,,,,,,,SA DU,CLR,,,,,,,,LIFR,,,,,,,,,,,,METAR,483
OIYY 141800Z 04004KT 8000 NSC 32/02 Q1015,OIYY,2025-08-14T18:00:00Z,31.905,54.276,32,2,40,4,,4.97,29.97,,,,,,,,,,,CLR,,,,,,,,MVFR,,,,,,,,,,,,METAR,1226
OITR 141800Z 13002KT CAVOK 22/11 Q1015 A2999,OITR,2025-08-14T18:00:00Z,37.665,45.066,22,11,130,2,,6+,29.97,,,,,,,,,,,CAVOK,,,,,,,,VFR,,,,,,,,,,,,METAR,1312
OITP 141800Z 11006KT CAVOK 24/18 Q1013,OITP,2025-08-14T18:00:00Z,39.604,47.882,24,18,110,6,,6+,29.91,,,,,,,,,,,CAVOK,,,,,,,,VFR,,,,,,,,,,,,METAR,72
OITM 141800Z 09012KT CAVOK 27/12 Q1014,OITM,2025-08-14T18:00:00Z,37.348,46.146,27,12,90,12,,6+,29.94,,,,,,,,,,,CAVOK,,,,,,,,VFR,,,,,,,,,,,,METAR,1340
OITL 141800Z 05006KT CAVOK 15/11 Q1021,OITL,2025-08-14T18:00:00Z,38.326,48.424,15,11,50,6,,6+,30.15,,,,,,,,,,,CAVOK,,,,,,,,VFR,,,,,,,,,,,,METAR,1314
OISY 141800Z 06019KT CAVOK 30/02 Q1017,OISY,2025-08-14T18:00:00Z,30.701,51.545,30,2,60,19,,6+,30.03,,,,,,,,,,,CAVOK,,,,,,,,VFR,,,,,,,,,,,,METAR,1800
OISL 141800Z 15006KT CAVOK 37/20 Q1002 A2960,OISL,2025-08-14T18:00:00Z,27.67,54.375,37,20,150,6,,6+,29.59,,,,,,,,,,,CAVOK,,,,,,,,VFR,,,,,,,,,,,,METAR,804
OISF 141800Z 03014KT CAVOK 34/M00 Q1010 A2985,OISF,2025-08-14T18:00:00Z,28.895,53.72,34,0,30,14,,6+,29.82,,,,,,,,,,,CAVOK,,,,,,,,VFR,,,,,,,,,,,,METAR,1305
OINZ 141800Z 22004KT 9999 SCT040 OVC060 27/22 Q1015,OINZ,2025-08-14T18:00:00Z,36.636,53.194,27,22,220,4,,6+,29.97,,,,,,,,,,,SCT,4000,OVC,6000,,,,,VFR,,,,,,,,,,,,METAR,8
OINR 141800Z 24002KT 9999 BKN020 FEW022CB OVC090 24/21 Q1014,OINR,2025-08-14T18:00:00Z,36.91,50.68,24,21,240,2,,6+,29.94,,,,,,,,,,,BKN,2000,FEW,2200,OVC,9000,,,MVFR,,,,,,,,,,,,METAR,-19
OING 141800Z 24004KT 9999 SCT030 BKN090 28/21 Q1016,OING,2025-08-14T18:00:00Z,36.908,54.404,28,21,240,4,,6+,30.00,,,,,,,,,,,SCT,3000,BKN,9000,,,,,VFR,,,,,,,,,,,,METAR,
OIMN 141800Z 30014KT 8000 FEW040 25/15 Q1018,OIMN,2025-08-14T18:00:00Z,37.488,57.303,25,15,300,14,,4.97,30.06,,,,,,,,,,,FEW,4000,,,,,,,MVFR,,,,,,,,,,,,METAR,1065
OIMB 141800Z 07016KT 4000 SA NSC 25/02 Q1017 A3003,OIMB,2025-08-14T18:00:00Z,32.894,59.29,25,2,70,16,,2.49,30.03,,,,,,,,,,SA,CLR,,,,,,,,IFR,,,,,,,,,,,,METAR,1512
OIKQ 141800Z 10006KT 2500 BR NSC 33/30 Q0997,OIKQ,2025-08-14T18:00:00Z,26.755,55.902,33,30,100,6,,1.55,29.44,,,,,,,,,,BR,CLR,,,,,,,,IFR,,,,,,,,,,,,METAR,9
OIKK 141800Z 33008KT CAVOK 27/03 Q1017 A3003,OIKK,2025-08-14T18:00:00Z,30.251,56.964,27,3,330,8,,6+,30.03,,,,,,,,,,,CAVOK,,,,,,,,VFR,,,,,,,,,,,,METAR,1749
OIIP 141800Z 28016KT CAVOK 23/14 Q1015 A2999,OIIP,2025-08-14T18:00:00Z,35.776,50.827,23,14,280,16,,6+,29.97,,,,,,,,,,,CAVOK,,,,,,,,VFR,,,,,,,,,,,,METAR,1270
OIHH 141800Z 12006KT 9999 FEW040 27/06 Q1017 A3005,OIHH,2025-08-14T18:00:00Z,34.869,48.553,27,6,120,6,,6+,30.03,,,,,,,,,,,FEW,4000,,,,,,,VFR,,,,,,,,,,,,METAR,1742
OIGG 141800Z 23004KT 9999 FEW020CB BKN025 BKN070 24/20 Q1016,OIGG,2025-08-14T18:00:00Z,37.325,49.606,24,20,230,4,,6+,30.00,,,,,,,,,,,FEW,2000,BKN,2500,BKN,7000,,,MVFR,,,,,,,,,,,,METAR,-16
OIFS 141800Z 15004KT CAVOK 24/M01 Q1021,OIFS,2025-08-14T18:00:00Z,32.297,50.842,24,-1,150,4,,6+,30.15,,,,,,,,,,,CAVOK,,,,,,,,VFR,,,,,,,,,,,,METAR,2042
OICS 141800Z 02014G24KT 9999 FEW040 32/05 Q1012 A2991,OICS,2025-08-14T18:00:00Z,35.245,47.009,32,5,20,14,24,6+,29.88,,,,,,,,,,,FEW,4000,,,,,,,VFR,,,,,,,,,,,,METAR,1369
OICK 141800Z 31004KT CAVOK 34/02 Q1009,OICK,2025-08-14T18:00:00Z,33.435,48.283,34,2,310,4,,6+,29.79,,,,,,,,,,,CAVOK,,,,,,,,VFR,,,,,,,,,,,,METAR,1156
OICI 141800Z 05002KT CAVOK 30/M01 Q1013 A2992,OICI,2025-08-14T18:00:00Z,33.588,46.397,30,-1,50,2,,6+,29.91,,,,,,,,,,,CAVOK,,,,,,,,VFR,,,,,,,,,,,,METAR,1323
OICC 141800Z 28008KT 9999 FEW050 SCT080 32/M03 Q1010 A2982,OICC,2025-08-14T18:00:00Z,34.346,47.158,32,-3,280,8,,6+,29.82,,,,,,,,,,,FEW,5000,SCT,8000,,,,,VFR,,,,,,,,,,,,METAR,1310
OIBP 141800Z 00000KT 4000 BR NSC 34/31 Q0996 A2942,OIBP,2025-08-14T18:00:00Z,27.38,52.738,34,31,0,0,,2.49,29.41,,,,,,,,,,BR,CLR,,,,,,,,IFR,,,,,,,,,,,,METAR,13
OIBL 141800Z 00000KT 3000 HZ NSC 33/28 Q0996,OIBL,2025-08-14T18:00:00Z,26.532,54.825,33,28,0,0,,1.86,29.41,,,,,,,,,,HZ,CLR,,,,,,,,IFR,,,,,,,,,,,,METAR,25
OIBK 141800Z 33004KT 2000 BR NSC 33/30 Q0996,OIBK,2025-08-14T18:00:00Z,26.526,53.98,33,30,330,4,,1.24,29.41,,,,,,,,,,BR,CLR,,,,,,,,IFR,,,,,,,,,,,,METAR,27
OIBB 141800Z 16004KT CAVOK 33/23 Q0996 A2941,OIBB,2025-08-14T18:00:00Z,28.947,50.834,33,23,160,4,,6+,29.41,,,,,,,,,,,CAVOK,,,,,,,,VFR,,,,,,,,,,,,METAR,15
OIAM 141800Z 00000KT CAVOK 38/22 Q0996,OIAM,2025-08-14T18:00:00Z,30.556,49.152,38,22,0,0,,6+,29.41,,,,,,,,,,,CAVOK,,,,,,,,VFR,,,,,,,,,,,,METAR,7
OIAH 141800Z 00000KT CAVOK 36/08 Q1004,OIAH,2025-08-14T18:00:00Z,30.336,50.83,36,8,0,0,,6+,29.65,,,,,,,,,,,CAVOK,,,,,,,,VFR,,,,,,,,,,,,METAR,730
OIAA 141800Z 26006KT CAVOK 37/05 Q0995,OIAA,2025-08-14T18:00:00Z,30.366,48.23,37,5,260,6,,6+,29.38,,,,,,,,,,,CAVOK,,,,,,,,VFR,,,,,,,,,,,,METAR,4
OEWJ 141800Z 32005KT CAVOK 34/26 Q1002 NOSIG,OEWJ,2025-08-14T18:00:00Z,26.199,36.476,34,26,320,5,,6+,29.59,,,,,,TRUE,,,,,CAVOK,,,,,,,,VFR,,,,,,,,,,,,METAR,8
OEWD 141800Z 12004KT CAVOK 37/M03 Q1003,OEWD,2025-08-14T18:00:00Z,20.504,45.197,37,-3,120,4,,6+,29.62,,,,,,,,,,,CAVOK,,,,,,,,VFR,,,,,,,,,,,,METAR,629
OETR 141800Z 35014KT CAVOK 35/M07 Q1011 NOSIG,OETR,2025-08-14T18:00:00Z,31.693,38.731,35,-7,350,14,,6+,29.85,,,,,,TRUE,,,,,CAVOK,,,,,,,,VFR,,,,,,,,,,,,METAR,854
OETF 141800Z 30013KT 7000 FEW030 30/14 Q1016 NOSIG,OETF,2025-08-14T18:00:00Z,21.483,40.544,30,14,300,13,,4.35,30.00,,,,,,TRUE,,,,,FEW,3000,,,,,,,MVFR,,,,,,,,,,,,METAR,1460
OETB 141800Z 34008KT 9999 FEW040 41/01 Q1009 NOSIG,OETB,2025-08-14T18:00:00Z,28.366,36.619,41,1,340,8,,6+,29.79,,,,,,TRUE,,,,,FEW,4000,,,,,,,VFR,,,,,,,,,,,,METAR,770
OESK 141800Z 34006KT CAVOK 39/M11 Q1011 NOSIG,OESK,2025-08-14T18:00:00Z,29.785,40.1,39,-11,340,6,,6+,29.85,,,,,,TRUE,,,,,CAVOK,,,,,,,,VFR,,,,,,,,,,,,METAR,671
OESH 141800Z 06006KT CAVOK 39/03 Q1005 NOSIG,OESH,2025-08-14T18:00:00Z,17.467,47.121,39,3,60,6,,6+,29.68,,,,,,TRUE,,,,,CAVOK,,,,,,,,VFR,,,,,,,,,,,,METAR,720
OERS 141800Z 21005KT 8000 FEW040 SCT100 37/22 Q1001 NOSIG,OERS,2025-08-14T18:00:00Z,25.6287,37.0878,37,22,210,5,,4.97,29.56,,,,,,TRUE,,,,,FEW,4000,SCT,10000,,,,,MVFR,,,,,,,,,,,,METAR,50
OERR 141800Z 35007KT CAVOK 37/M13 Q1006 NOSIG,OERR,2025-08-14T18:00:00Z,30.907,41.138,37,-13,350,7,,6+,29.70,,,,,,TRUE,,,,,CAVOK,,,,,,,,VFR,,,,,,,,,,,,METAR,554
OERK 141800Z 34008KT CAVOK 38/M08 Q1005 NOSIG,OERK,2025-08-14T18:00:00Z,24.945,46.702,38,-8,340,8,,6+,29.68,,,,,,TRUE,,,,,CAVOK,,,,,,,,VFR,,,,,,,,,,,,METAR,618
OERF 141800Z 32010KT CAVOK 37/01 Q1004 NOSIG,OERF,2025-08-14T18:00:00Z,29.626,43.491,37,1,320,10,,6+,29.65,,,,,,TRUE,,,,,CAVOK,,,,,,,,VFR,,,,,,,,,,,,METAR,441
OEPA 141800Z 33005KT CAVOK 38/M08 Q1002 NOSIG,OEPA,2025-08-14T18:00:00Z,28.335,46.125,38,-8,330,5,,6+,29.59,,,,,,TRUE,,,,,CAVOK,,,,,,,,VFR,,,,,,,,,,,,METAR,361
OENG 141800Z 06006KT 9999 FEW030 35/00 Q1011 NOSIG,OENG,2025-08-14T18:00:00Z,17.611,44.419,35,0,60,6,,6+,29.85,,,,,,TRUE,,,,,FEW,3000,,,,,,,VFR,,,,,,,,,,,,METAR,1210
OEMN 141800Z 00000KT 5000 HZ FEW040 37/23 Q1005,OEMN,2025-08-14T18:00:00Z,-99.99,-99.99,37,23,0,0,,3.11,29.68,,,,,,,,,,HZ,FEW,4000,,,,,,,MVFR,,,,,,,,,,,,METAR,9999
OEMA 141800Z 31008KT 9999 SCT040 44/02 Q1007 NOSIG,OEMA,2025-08-14T18:00:00Z,24.553,39.705,44,2,310,8,,6+,29.73,,,,,,TRUE,,,,,SCT,4000,,,,,,,VFR,,,,,,,,,,,,METAR,639
OEKM 141800Z 25005KT 9999 SCT022 FEW025CB 23/18 Q1022 NOSIG,OEKM,2025-08-14T18:00:00Z,18.301,42.798,23,18,250,5,,6+,30.18,,,,,,TRUE,,,,,SCT,2200,FEW,2500,,,,,VFR,,,,,,,,,,,,METAR,2038
OEKJ 141800Z 02005KT CAVOK 37/M05 Q1004,OEKJ,2025-08-14T18:00:00Z,24.0622,47.4112,37,-5,20,5,,6+,29.65,,,,,,,,,,,CAVOK,,,,,,,,VFR,,,,,,,,,,,,METAR,439
OEJN 141800Z 30005KT 4000 DU FEW040 36/23 Q1002 NOSIG,OEJN,2025-08-14T18:00:00Z,21.685,39.166,36,23,300,5,,2.49,29.59,,,,,,TRUE,,,,DU,FEW,4000,,,,,,,IFR,,,,,,,,,,,,METAR,8
OEHL 141800Z 34006KT CAVOK 36/M12 Q1012,OEHL,2025-08-14T18:00:00Z,27.438,41.686,36,-12,340,6,,6+,29.88,,,,,,,,,,,CAVOK,,,,,,,,VFR,,,,,,,,,,,,METAR,1002
OEGT 141800Z 30013KT CAVOK 38/M01 Q1008 NOSIG,OEGT,2025-08-14T18:00:00Z,31.412,37.279,38,-1,300,13,,6+,29.76,,,,,,TRUE,,,,,CAVOK,,,,,,,,VFR,,,,,,,,,,,,METAR,512
OEGS 141800Z 35009KT CAVOK 38/M05 Q1006,OEGS,2025-08-14T18:00:00Z,26.303,43.774,38,-5,350,9,,6+,29.70,,,,,,,,,,,CAVOK,,,,,,,,VFR,,,,,,,,,,,,METAR,647
OEGN 141800Z 08006KT 9999 SCT030 30/24 Q1006 NOSIG,OEGN,2025-08-14T18:00:00Z,16.901,42.586,30,24,80,6,,6+,29.70,,,,,,TRUE,,,,,SCT,3000,,,,,,,VFR,,,,,,,,,,,,METAR,5
OEDR 141800Z 02009KT CAVOK 37/18 Q0996,OEDR,2025-08-14T18:00:00Z,26.265,50.152,37,18,20,9,,6+,29.41,,,,,,,,,,,CAVOK,,,,,,,,VFR,,,,,,,,,,,,METAR,17
OEDM 141800Z 02012KT CAVOK 36/M05 Q1008,OEDM,2025-08-14T18:00:00Z,24.45,44.121,36,-5,20,12,,6+,29.76,,,,,,,,,,,CAVOK,,,,,,,,VFR,,,,,,,,,,,,METAR,922
OEDF 141800Z 01004KT CAVOK 35/14 Q0997 NOSIG,OEDF,2025-08-14T18:00:00Z,26.45,49.817,35,14,10,4,,6+,29.44,,,,,,TRUE,,,,,CAVOK,,,,,,,,VFR,,,,,,,,,,,,METAR,15
OEBH 141800Z 00000KT CAVOK 36/M02 Q1010 NOSIG,OEBH,2025-08-14T18:00:00Z,19.984,42.621,36,-2,0,0,,6+,29.82,,,,,,TRUE,,,,,CAVOK,,,,,,,,VFR,,,,,,,,,,,,METAR,1167
OEBA 141800Z 24006KT 9999 FEW030 30/09 Q1016 NOSIG,OEBA,2025-08-14T18:00:00Z,20.296,41.634,30,9,240,6,,6+,30.00,,,,,,TRUE,,,,,FEW,3000,,,,,,,VFR,,,,,,,,,,,,METAR,1659
OEAO 141800Z 04010KT 9999 FEW040 43/00 Q1007 NOSIG,OEAO,2025-08-14T18:00:00Z,26.483,38.117,43,0,40,10,,6+,29.73,,,,,,TRUE,,,,,FEW,4000,,,,,,,VFR,,,,,,,,,,,,METAR,615
OEAH 141800Z 34005KT CAVOK 38/01 Q0998 NOSIG,OEAH,2025-08-14T18:00:00Z,25.285,49.485,38,1,340,5,,6+,29.47,,,,,,TRUE,,,,,CAVOK,,,,,,,,VFR,,,,,,,,,,,,METAR,180
OEAB 141800Z 20008KT 9000 VCTS SCT020 FEW022CB 22/20 Q1021 RETS NOSIG,OEAB,2025-08-14T18:00:00Z,18.24,42.657,22,20,200,8,,5.59,30.15,,,,,,TRUE,,,,VCTS,SCT,2000,FEW,2200,,,,,VFR,,,,,,,,,,,,METAR,2092
OBBI 141800Z 01006KT CAVOK 35/29 Q0997 NOSIG,OBBI,2025-08-14T18:00:00Z,26.271,50.634,35,29,10,6,,6+,29.44,,,,,,TRUE,,,,,CAVOK,,,,,,,,VFR,,,,,,,,,,,,METAR,6
NVVW 141800Z VRB02KT 9999 BKN020 OVC110 19/18 Q1013 RERA,NVVW,2025-08-14T18:00:00Z,-19.455,169.224,19,18,VRB,2,,6+,29.91,,,,,,,,,,,BKN,2000,OVC,11000,,,,,MVFR,,,,,,,,,,,,METAR,5
NVVV 141800Z 13009KT 3000 +RA FEW008 BKN015 OVC090 19/19 Q1011 INTER 1800/2000 2000 -TSRA SCT006 BKN015 OVC040,NVVV,2025-08-14T18:00:00Z,-17.695,168.313,19,19,130,9,,1.86,29.85,,,,,,,,,,+RA,FEW,800,BKN,1500,OVC,9000,,,IFR,,,,,,,,,,,,METAR,23
NVVA 141800Z 13003KT 4000 -SHRA FEW010 BKN020 OVC110 19/18 Q1014,NVVA,2025-08-14T18:00:00Z,-20.249,169.771,19,18,130,3,,2.49,29.94,,,,,,,,,,-SHRA,FEW,1000,BKN,2000,OVC,11000,,,IFR,,,,,,,,,,,,METAR,7
NVSS 141800Z 19004KT 9999 -SHRA FEW010 BKN018 OVC040 23/23 Q1009 INTER 1800/2000 9000 SHRA SCT008 BKN016 OVC038,NVSS,2025-08-14T18:00:00Z,-15.505,167.22,23,23,190,4,,6+,29.79,,,,,,,,,,-SHRA,FEW,1000,BKN,1800,OVC,4000,,,MVFR,,,,,,,,,,,,METAR,47
NVSG 141800Z 00000KT 9999 FEW010 SCT018 BKN040 25/24 Q1008,NVSG,2025-08-14T18:00:00Z,-15.305,167.969,25,24,0,0,,6+,29.76,,,,,,,,,,,FEW,1000,SCT,1800,BKN,4000,,,VFR,,,,,,,,,,,,METAR,31
NVSC 141800Z 00000KT 9999 SCT020 BKN040 24/24 Q1009,NVSC,2025-08-14T18:00:00Z,-13.852,167.537,24,24,0,0,,6+,29.79,,,,,,,,,,,SCT,2000,BKN,4000,,,,,VFR,,,,,,,,,,,,METAR,11
NSFA 141800Z 12004KT 9999 FEW023 SCT070 26/22 Q1012,NSFA,2025-08-14T18:00:00Z,-13.829,-171.993,26,22,120,4,,6+,29.88,,,,,,,,,,,FEW,2300,SCT,7000,,,,,VFR,,,,,,,,,,,,METAR,6
NGTA 141800Z 10007KT 9999 FEW020 27/22 Q1008,NGTA,2025-08-14T18:00:00Z,1.381,173.147,27,22,100,7,,6+,29.76,,,,,,,,,,,FEW,2000,,,,,,,VFR,,,,,,,,,,,,METAR,8
NGFU 141800Z 05012KT 9999 FEW018TCU SCT300 28/24 Q1009,NGFU,2025-08-14T18:00:00Z,-8.523,179.198,28,24,50,12,,6+,29.79,,,,,,,,,,,FEW,1800,SCT,30000,,,,,VFR,,,,,,,,,,,,METAR,2
NFTV 141800Z 14003KT 9999 FEW016 BKN045 22/18 Q1015,NFTV,2025-08-14T18:00:00Z,-18.585,-173.963,22,18,140,3,,6+,29.97,,,,,,,,,,,FEW,1600,BKN,4500,,,,,VFR,,,,,,,,,,,,METAR,71
NFTL 141800Z 13010KT 9999 FEW017 BKN100 22/16 Q1016,NFTL,2025-08-14T18:00:00Z,-19.777,-174.34,22,16,130,10,,6+,30.00,,,,,,,,,,,FEW,1700,BKN,10000,,,,,VFR,,,,,,,,,,,,METAR,10
NFTF 141800Z 10004KT 9999 SCT016 BKN120 19/16 Q1016 RMK GRASS DEW,NFTF,2025-08-14T18:00:00Z,-21.241,-175.15,19,16,100,4,,6+,30.00,,,,,,,,,,,SCT,1600,BKN,12000,,,,,VFR,,,,,,,,,,,,METAR,38
NFNA 141800Z 06004KT 9999 BKN020 BKN045 22/21 Q1012,NFNA,2025-08-14T18:00:00Z,-18.043,178.559,22,21,60,4,,6+,29.88,,,,,,,,,,,BKN,2000,BKN,4500,,,,,MVFR,,,,,,,,,,,,METAR,6
NFFN 141800Z 15005KT 9999 FEW030 SCT050 22/18 Q1011 NOSIG,NFFN,2025-08-14T18:00:00Z,-17.755,177.443,22,18,150,5,,6+,29.85,,,,,,TRUE,,,,,FEW,3000,SCT,5000,,,,,VFR,,,,,,,,,,,,METAR,14
NCSW 141800Z AUTO NIL,NCSW,2025-08-14T18:00:00Z,-99.99,-99.99,,,,,,,0.00,,,TRUE,,,,,,,,,,,,,,,,,,,,,,,,,,,,METAR,9999
NCRK 141800Z AUTO NIL,NCRK,2025-08-14T18:00:00Z,-10.032,-161.101,,,,,,,0.00,,,TRUE,,,,,,,,,,,,,,,,,,,,,,,,,,,,METAR,7
NCRG 141800Z 19008KT 9999 FEW020 22/17 Q1014,NCRG,2025-08-14T18:00:00Z,-21.203,-159.806,22,17,190,8,,6+,29.94,,,,,,,,,,,FEW,2000,,,,,,,VFR,,,,,,,,,,,,METAR,7
NCPY 141800Z AUTO 05015KT 9999 FEW023 SCT290 28/23 Q1012,NCPY,2025-08-14T18:00:00Z,-9.01,-158.034,28,23,50,15,,6+,29.88,,,TRUE,,,,,,,,FEW,2300,SCT,29000,,,,,VFR,,,,,,,,,,,,METAR,2
NCPL 141800Z AUTO 15004KT //// ////// 25/22 Q1013,NCPL,2025-08-14T18:00:00Z,1.98,-157.48,25,22,150,4,,,29.91,,,TRUE,,,,,,,,,,,,,,,,,,,,,,,,,,,,METAR,3
NCNS 141800Z AUTO NIL,NCNS,2025-08-14T18:00:00Z,-99.99,-99.99,,,,,,,0.00,,,TRUE,,,,,,,,,,,,,,,,,,,,,,,,,,,,METAR,9999
NCMR 141800Z AUTO NIL,NCMR,2025-08-14T18:00:00Z,-19.842,-157.703,,,,,,,0.00,,,TRUE,,,,,,,,,,,,,,,,,,,,,,,,,,,,METAR,8
NCMK 141800Z AUTO NIL,NCMK,2025-08-14T18:00:00Z,-20.137,-157.344,,,,,,,0.00,,,TRUE,,,,,,,,,,,,,,,,,,,,,,,,,,,,METAR,13
NCMH 141800Z AUTO 10003KT //// ////// 28/22 Q1012,NCMH,2025-08-14T18:00:00Z,-10.374,-161.004,28,22,100,3,,,29.88,,,TRUE,,,,,,,,,,,,,,,,,,,,,,,,,,,,METAR,1
NCMG 141800Z AUTO 21005KT //// ////// 22/17 Q1014,NCMG,2025-08-14T18:00:00Z,-21.896,-157.907,22,17,210,5,,,29.94,,,TRUE,,,,,,,,,,,,,,,,,,,,,,,,,,,,METAR,14
NCAT 141800Z AUTO 18004KT //// ////// 24/22 Q1013,NCAT,2025-08-14T18:00:00Z,-19.968,-158.119,24,22,180,4,,,29.91,,,TRUE,,,,,,,,,,,,,,,,,,,,,,,,,,,,METAR,11
NCAI 141800Z AUTO 20007KT 9999 -SHRA SCT020 BKN290 24/23 Q1013,NCAI,2025-08-14T18:00:00Z,-18.829,-159.766,24,23,200,7,,6+,29.91,,,TRUE,,,,,,,-SHRA,SCT,2000,BKN,29000,,,,,VFR,,,,,,,,,,,,METAR,7
MZBZ 141800Z 15008KT 9999 SCT025 32/27 A2998 Q1015 NOSIG,MZBZ,2025-08-14T18:00:00Z,17.538,-88.309,32,27,150,8,,6+,29.97,,,,,,TRUE,,,,,SCT,2500,,,,,,,VFR,,,,,,,,,,,,METAR,6
MYSM 141800Z AUTO 13008KT 100V180 9999 SCT031/// 32/25 A3007,MYSM,2025-08-14T18:00:00Z,24.064,-74.529,32,25,130,8,,6+,30.07,,,TRUE,,,,,,,,SCT,3100,,,,,,,VFR,,,,,,,,,,,,METAR,5
MYNN 141800Z 34010KT 9000 SHRA FEW018 BKN030 28/25 A3009 PK WND 14KT,MYNN,2025-08-14T18:00:00Z,25.04,-77.467,28,25,340,10,,5.59,30.09,,,,,,,,,,SHRA,FEW,1800,BKN,3000,,,,,MVFR,,,,,,,,,,,,METAR,5
MYGF 141800Z 33005KT 300V360 9999 SHRA FEW015CB FEW020TCU BKN025 29/24 A3009 RMK RETS TSE51 RAB53,MYGF,2025-08-14T18:00:00Z,26.555,-78.698,29,24,330,5,,6+,30.09,,,,,,,,,,SHRA,FEW,1500,FEW,2000,BKN,2500,,,MVFR,,,,,,,,,,,,METAR,2
MYCB 141800Z AUTO 09010KT 050V120 //// R09///// // NCD 32/24 A3007,MYCB,2025-08-14T18:00:00Z,24.315,-75.452,32,24,90,10,,,30.07,,,TRUE,,,,,,,,CLR,,,,,,,,,,,,,,,,,,,,METAR,2
MYAF 141800Z AUTO 08008KT 360V130 CAVOK 32/25 A3007,MYAF,2025-08-14T18:00:00Z,24.689,-77.796,32,25,80,8,,6+,30.07,,,TRUE,,,,,,,,CAVOK,,,,,,,,VFR,,,,,,,,,,,,METAR,2
MWCR 141800Z 03007KT 340V070 9999 FEW018 32/24 Q1015,MWCR,2025-08-14T18:00:00Z,19.294,-81.357,32,24,30,7,,6+,29.97,,,,,,,,,,,FEW,1800,,,,,,,VFR,,,,,,,,,,,,METAR,4
MWCB 141800Z 36009KT 9999 FEW020 32/26 Q1016,MWCB,2025-08-14T18:00:00Z,19.688,-79.879,32,26,360,9,,6+,30.00,,,,,,,,,,,FEW,2000,,,,,,,VFR,,,,,,,,,,,,METAR,7
MTPP 141800Z 32010KT 290V350 9999 FEW030CB 34/24 Q1013 A2993 RMK/CB/NE/SE/SW,MTPP,2025-08-14T18:00:00Z,18.577,-72.305,34,24,320,10,,6+,29.91,,,,,,,,,,,FEW,3000,,,,,,,VFR,,,,,,,,,,,,METAR,36
MSSS 141800Z VRB03KT CAVOK 30/19 Q1017 A3005,MSSS,2025-08-14T18:00:00Z,13.704,-89.123,30,19,VRB,3,,6+,30.03,,,,,,,,,,,CAVOK,,,,,,,,VFR,,,,,,,,,,,,METAR,611
MSLP 141800Z 14004KT 090V220 CAVOK 34/24 Q1012 A2989 NOSIG,MSLP,2025-08-14T18:00:00Z,13.438,-89.056,34,24,140,4,,6+,29.88,,,,,,TRUE,,,,,CAVOK,,,,,,,,VFR,,,,,,,,,,,,METAR,25
MRPV 141800Z 08013KT 9999 FEW040 OVC150 25/17 A3009 NOSIG,MRPV,2025-08-14T18:00:00Z,9.957,-84.141,25,17,80,13,,6+,30.09,,,,,,TRUE,,,,,FEW,4000,OVC,15000,,,,,VFR,,,,,,,,,,,,METAR,998
MROC 141800Z 07013G23KT 9999 FEW045 BKN150 27/17 A3004 NOSIG,MROC,2025-08-14T18:00:00Z,9.991,-84.218,27,17,70,13,23,6+,30.04,,,,,,TRUE,,,,,FEW,4500,BKN,15000,,,,,VFR,,,,,,,,,,,,METAR,900
MRLM 141800Z 03007KT 9999 FEW030 BKN140 31/25 A2992,MRLM,2025-08-14T18:00:00Z,9.961,-83.026,31,25,30,7,,6+,29.92,,,,,,,,,,,FEW,3000,BKN,14000,,,,,VFR,,,,,,,,,,,,METAR,2
MRLB 141800Z 10012KT 9999 SCT040 SCT200 32/23 A2989,MRLB,2025-08-14T18:00:00Z,10.589,-85.552,32,23,100,12,,6+,29.89,,,,,,,,,,,SCT,4000,SCT,20000,,,,,VFR,,,,,,,,,,,,METAR,79
MPTO 141800Z VRB02KT 9000 SCT018TCU SCT090 30/25 Q1011 NOSIG,MPTO,2025-08-14T18:00:00Z,9.056,-79.391,30,25,VRB,2,,5.59,29.85,,,,,,TRUE,,,,,SCT,1800,SCT,9000,,,,,VFR,,,,,,,,,,,,METAR,7
MPSM 141800Z VRB02KT 9000 VCSH FEW015 OVC080 28/27 Q1011 RERA,MPSM,2025-08-14T18:00:00Z,8.386,-80.131,28,27,VRB,2,,5.59,29.85,,,,,,,,,,VCSH,FEW,1500,OVC,8000,,,,,VFR,,,,,,,,,,,,METAR,36
MPPA 141800Z VRB02KT 9999 FEW020 SCT090 30/25 Q1010,MPPA,2025-08-14T18:00:00Z,8.909,-79.597,30,25,VRB,2,,6+,29.82,,,,,,,,,,,FEW,2000,SCT,9000,,,,,VFR,,,,,,,,,,,,METAR,1
MPMG 141800Z 31006KT 250V360 9000 FEW016TCU BKN090 29/24 Q1011 NOSIG,MPMG,2025-08-14T18:00:00Z,8.967,-79.555,29,24,310,6,,5.59,29.85,,,,,,TRUE,,,,,FEW,1600,BKN,9000,,,,,VFR,,,,,,,,,,,,METAR,6
MPDA 141800Z 25004KT 9999 SCT015 SCT080 29/24 Q1011 NOSIG,MPDA,2025-08-14T18:00:00Z,8.391,-82.434,29,24,250,4,,6+,29.85,,,,,,TRUE,,,,,SCT,1500,SCT,8000,,,,,VFR,,,,,,,,,,,,METAR,15
MPBO 141800Z 27011KT 9000 SCT018 BKN080 ///// Q1012,MPBO,2025-08-14T18:00:00Z,9.341,-82.245,,,270,11,,5.59,29.88,,,,,,,,,,,SCT,1800,BKN,8000,,,,,VFR,,,,,,,,,,,,METAR,2
MNRS 141800Z 09004KT 9999 FEW013CB BKN200 31/24 Q1012 CB/N/NE/E/SE/S,MNRS,2025-08-14T18:00:00Z,11.417,-85.833,31,24,90,4,,6+,29.88,,,,,,,,,,,FEW,1300,BKN,20000,,,,,VFR,,,,,,,,,,,,METAR,53
MNPC 141800Z 09010KT 7000 SCT016 31/25 Q1013 HZ,MNPC,2025-08-14T18:00:00Z,14.045,-83.388,31,25,90,10,,4.35,29.91,,,,,,,,,,HZ,SCT,1600,,,,,,,MVFR,,,,,,,,,,,,METAR,10
MNMG 141800Z 07016KT 9999 FEW020 SCT300 35/19 Q1011 A2988 1AC080 NOSIG,MNMG,2025-08-14T18:00:00Z,12.141,-86.177,35,19,70,16,,6+,29.85,,,,,,TRUE,,,,,FEW,2000,SCT,30000,,,,,VFR,,,,,,,,,,,,METAR,59
MNJU 141800Z 09006KT 9999 SCT020 SCT300 34/23 Q1012,MNJU,2025-08-14T18:00:00Z,12.1,-85.367,34,23,90,6,,6+,29.88,,,,,,,,,,,SCT,2000,SCT,30000,,,,,VFR,,,,,,,,,,,,METAR,85
MNJG 141800Z 03004KT 9999 SCT016 26/17 Q1015,MNJG,2025-08-14T18:00:00Z,13.141,-86.019,26,17,30,4,,6+,29.97,,,,,,,,,,,SCT,1600,,,,,,,VFR,,,,,,,,,,,,METAR,981
MNCH 141800Z 09004KT 9999 FEW025 SCT300 35/19 Q1012,MNCH,2025-08-14T18:00:00Z,12.638,-87.136,35,19,90,4,,6+,29.88,,,,,,,,,,,FEW,2500,SCT,30000,,,,,VFR,,,,,,,,,,,,METAR,70
MKJS 141800Z 05011KT 9999 FEW022 31/25 Q1014,MKJS,2025-08-14T18:00:00Z,18.502,-77.915,31,25,50,11,,6+,29.94,,,,,,,,,,,FEW,2200,,,,,,,VFR,,,,,,,,,,,,METAR,3
MKJP 141800Z 19015KT //// ////// 32/26 Q1014 RMK CLD FROM CEILOMETER RWY 30 NCD,MKJP,2025-08-14T18:00:00Z,17.942,-76.798,32,26,190,15,,,29.94,,,,,,,,,,,,,,,,,,,,,,,,,,,,,,,METAR,3
MHYR 141800Z 09010KT 9999 SCT024TCU 30/19,MHYR,2025-08-14T18:00:00Z,15.127,-87.135,30,19,90,10,,6+,0.00,,,,,,,,,,,SCT,2400,,,,,,,VFR,,,,,,,,,,,,METAR,682
MHTR 141800Z 05012KT 9999 SCT028 33/26 Q1015 A2997,MHTR,2025-08-14T18:00:00Z,15.926,-85.939,33,26,50,12,,6+,29.97,,,,,,,,,,,SCT,2800,,,,,,,VFR,,,,,,,,,,,,METAR,3
MHTG 141800Z 04016KT 9999 SCT034 30/15 Q1021 A3015 NOSIG,MHTG,2025-08-14T18:00:00Z,14.06,-87.216,30,15,40,16,,6+,30.15,,,,,,TRUE,,,,,SCT,3400,,,,,,,VFR,,,,,,,,,,,,METAR,1001
MHTE 141800Z 03008KT 9999 SCT021 32/27 Q1015 A2997,MHTE,2025-08-14T18:00:00Z,15.776,-87.473,32,27,30,8,,6+,29.97,,,,,,,,,,,SCT,2100,,,,,,,VFR,,,,,,,,,,,,METAR,7
MHSR 141800Z 01004KT 9999 FEW025 28/22 Q1022 A3018,MHSR,2025-08-14T18:00:00Z,14.783,-88.783,28,22,10,4,,6+,30.18,,,,,,,,,,,FEW,2500,,,,,,,VFR,,,,,,,,,,,,METAR,1087
MHRO 141800Z 09016KT 9999 FEW024 32/27 Q1015 A2997 NOSIG,MHRO,2025-08-14T18:00:00Z,16.316,-86.523,32,27,90,16,,6+,29.97,,,,,,TRUE,,,,,FEW,2400,,,,,,,VFR,,,,,,,,,,,,METAR,6
MHPR 141800Z 33010KT 9999 FEW046 32/18 Q1019 A3009 NOSIG,MHPR,2025-08-14T18:00:00Z,14.382,-87.621,32,18,330,10,,6+,30.09,,,,,,TRUE,,,,,FEW,4600,,,,,,,VFR,,,,,,,,,,,,METAR,628
MHPL 141800Z 05010KT 9999 SCT24TCU 32/26,MHPL,2025-08-14T18:00:00Z,15.262,-83.776,32,26,50,10,,6+,0.00,,,,,,,,,,,,,,,,,,,VFR,,,,,,,,,,,,METAR,13
MHNO 141800Z 36004KT 9999 FEW040 29/21,MHNO,2025-08-14T18:00:00Z,14.433,-89.194,29,21,360,4,,6+,0.00,,,,,,,,,,,FEW,4000,,,,,,,VFR,,,,,,,,,,,,METAR,790
MHLM 141800Z VRB03KT 9999 SCT030 33/23 Q1014 A2994 NOSIG,MHLM,2025-08-14T18:00:00Z,15.442,-87.934,33,23,VRB,3,,6+,29.94,,,,,,TRUE,,,,,SCT,3000,,,,,,,VFR,,,,,,,,,,,,METAR,32
MHLE 141800Z 10010KT 9999 FEW022 24/13,MHLE,2025-08-14T18:00:00Z,14.291,-88.175,24,13,100,10,,6+,0.00,,,,,,,,,,,FEW,2200,,,,,,,VFR,,,,,,,,,,,,METAR,1688
MHLC 141800Z 02010KT 9999 FEW035TCU 32/27 Q1014 A2994 NOSIG,MHLC,2025-08-14T18:00:00Z,15.737,-86.864,32,27,20,10,,6+,29.94,,,,,,TRUE,,,,,FEW,3500,,,,,,,VFR,,,,,,,,,,,,METAR,13
MHGS 141800Z 36008KT 9999 FEW030 25/22 Q1022 A3018,MHGS,2025-08-14T18:00:00Z,14.573,-88.596,25,22,360,8,,6+,30.18,,,,,,,,,,,FEW,3000,,,,,,,VFR,,,,,,,,,,,,METAR,913
MHCH 141800Z 08017KT 9999 FEW032 39/21 Q1013 A2991,MHCH,2025-08-14T18:00:00Z,13.318,-87.154,39,21,80,17,,6+,29.91,,,,,,,,,,,FEW,3200,,,,,,,VFR,,,,,,,,,,,,METAR,58
MHCA 141800Z 10005KT 9999 SCT030 31/23 Q1019 A3009,MHCA,2025-08-14T18:00:00Z,14.875,-85.775,31,23,100,5,,6+,30.09,,,,,,,,,,,SCT,3000,,,,,,,VFR,,,,,,,,,,,,METAR,386
MGZA 141800Z 09008KT CAVOK 35/21 QFE 988.9 RMK BKN200,MGZA,2025-08-14T18:00:00Z,14.959,-89.538,35,21,90,8,,6+,0.00,,,,,,,,,,,CAVOK,,,,,,,,VFR,,,,,,,,,,,,METAR,195
MGTU 141800Z 14004KT CAVOK 33/23 RMK FEW200,MGTU,2025-08-14T18:00:00Z,-99.99,-99.99,33,23,140,4,,6+,0.00,,,,,,,,,,,CAVOK,,,,,,,,VFR,,,,,,,,,,,,METAR,9999
MGRT 141800Z 25004KT 9999 FEW020TCU 34/20 Q1015 A2997 RMK TCU N/NNE/NE VOLC STA MARIA Y SATGO EN ACTV,MGRT,2025-08-14T18:00:00Z,14.523,-91.697,34,20,250,4,,6+,29.97,,,,,,,,,,,FEW,2000,,,,,,,VFR,,,,,,,,,,,,METAR,209
MGQZ 141800Z 09010KT 9999 SCT020 22/12 QFE 774.8,MGQZ,2025-08-14T18:00:00Z,14.862,-91.506,22,12,90,10,,6+,0.00,,,,,,,,,,,SCT,2000,,,,,,,VFR,,,,,,,,,,,,METAR,2378
MGPB 141800Z 36010KT 9999 FEW018 SCT200 33/25 Q1013 A2991,MGPB,2025-08-14T18:00:00Z,15.737,-88.589,33,25,360,10,,6+,29.91,,,,,,,,,,,FEW,1800,SCT,20000,,,,,VFR,,,,,,,,,,,,METAR,6
MGMT 141800Z 18004KT CAVOK 33/27 RMK FEW200,MGMT,2025-08-14T18:00:00Z,-99.99,-99.99,33,27,180,4,,6+,0.00,,,,,,,,,,,CAVOK,,,,,,,,VFR,,,,,,,,,,,,METAR,9999
MGMM 141800Z 30006KT 9999 SCT020 33/25 Q1015 A2997,MGMM,2025-08-14T18:00:00Z,16.914,-89.866,33,25,300,6,,6+,29.97,,,,,,,,,,,SCT,2000,,,,,,,VFR,,,,,,,,,,,,METAR,105
MGHT 141800Z 09016KT 9999 FEW030 26/06,MGHT,2025-08-14T18:00:00Z,15.317,-91.503,26,6,90,16,,6+,0.00,,,,,,,,,,,FEW,3000,,,,,,,VFR,,,,,,,,,,,,METAR,1875
MGGT 141800Z 00000KT 9999 FEW020 26/16 Q1023 A3021 RMK FEW200,MGGT,2025-08-14T18:00:00Z,14.585,-90.526,26,16,0,0,,6+,30.21,,,,,,,,,,,FEW,2000,,,,,,,VFR,,,,,,,,,,,,METAR,1497
MGES 141800Z 00000KT 9999 FEW020 BKN200 27/19 QFE 911.5,MGES,2025-08-14T18:00:00Z,14.568,-89.326,27,19,0,0,,6+,0.00,,,,,,,,,,,FEW,2000,BKN,20000,,,,,VFR,,,,,,,,,,,,METAR,948
MGCB 141800Z 09006KT 9999 SCT018 29/18 QFE 872.3,MGCB,2025-08-14T18:00:00Z,15.47,-90.406,29,18,90,6,,6+,0.00,,,,,,,,,,,SCT,1800,,,,,,,VFR,,,,,,,,,,,,METAR,1323
MDST 141800Z 07011KT 050V130 9999 FEW022CB SCT025 34/24 Q1015 CB/NW/N,MDST,2025-08-14T18:00:00Z,19.407,-70.614,34,24,70,11,,6+,29.97,,,,,,,,,,,FEW,2200,SCT,2500,,,,,VFR,,,,,,,,,,,,METAR,175
MDSD 141800Z 18004KT 8000 VCSH FEW014CB SCT015 28/26 Q1015 CB/NE/NW/N,MDSD,2025-08-14T18:00:00Z,18.433,-69.667,28,26,180,4,,4.97,29.97,,,,,,,,,,VCSH,FEW,1400,SCT,1500,,,,,MVFR,,,,,,,,,,,,METAR,18
MDPP 141800Z 06015KT 9999 SCT024 32/26 Q1015,MDPP,2025-08-14T18:00:00Z,19.759,-70.571,32,26,60,15,,6+,29.97,,,,,,,,,,,SCT,2400,,,,,,,VFR,,,,,,,,,,,,METAR,9
MDPC 141800Z 06010KT 9999 SCT024 33/25 Q1015,MDPC,2025-08-14T18:00:00Z,18.566,-68.356,33,25,60,10,,6+,29.97,,,,,,,,,,,SCT,2400,,,,,,,VFR,,,,,,,,,,,,METAR,10
MDLR 141800Z 09016KT 9999 BKN027 35/23 Q1016,MDLR,2025-08-14T18:00:00Z,18.451,-68.921,35,23,90,16,,6+,30.00,,,,,,,,,,,BKN,2700,,,,,,,MVFR,,,,,,,,,,,,METAR,66
MDCY 141800Z 00000KT 8000 -RA FEW014CB BKN016 27/26 Q1015 CB/E/SE,MDCY,2025-08-14T18:00:00Z,19.271,-69.733,27,26,0,0,,4.97,29.97,,,,,,,,,,-RA,FEW,1400,BKN,1600,,,,,MVFR,,,,,,,,,,,,METAR,4
MDBH 141800Z 13012KT 9999 FEW024 35/23 Q1014,MDBH,2025-08-14T18:00:00Z,18.25,-71.126,35,23,130,12,,6+,29.94,,,,,,,,,,,FEW,2400,,,,,,,VFR,,,,,,,,,,,,METAR,7
MDAB 141800Z 09006KT 9999 FEW020CB BKN020 32/26 Q1016 CB/S,MDAB,2025-08-14T18:00:00Z,19.2,-69.433,32,26,90,6,,6+,30.00,,,,,,,,,,,FEW,2000,BKN,2000,,,,,MVFR,,,,,,,,,,,,METAR,28
MBPV 141800Z 17005KT 9999 FEW015 32/22 Q1016,MBPV,2025-08-14T18:00:00Z,21.772,-72.265,32,22,170,5,,6+,30.00,,,,,,,,,,,FEW,1500,,,,,,,VFR,,,,,,,,,,,,METAR,7
LPOV 141800Z 31004KT 270V350 CAVOK 28/20 Q1012,LPOV,2025-08-14T18:00:00Z,40.916,-8.646,28,20,310,4,,6+,29.88,,,,,,,,,,,CAVOK,,,,,,,,VFR,,,,,,,,,,,,METAR,16
LPMT 141800Z 24008KT CAVOK 28/19 Q1011,LPMT,2025-08-14T18:00:00Z,38.704,-9.036,28,19,240,8,,6+,29.85,,,,,,,,,,,CAVOK,,,,,,,,VFR,,,,,,,,,,,,METAR,4
LPMR 141800Z 34004KT 250V030 CAVOK 26/17 Q1012,LPMR,2025-08-14T18:00:00Z,39.831,-8.887,26,17,340,4,,6+,29.88,,,,,,,,,,,CAVOK,,,,,,,,VFR,,,,,,,,,,,,METAR,50
LPLA 141800Z 30012KT 9000 FEW025 SCT040 24/19 Q1017,LPLA,2025-08-14T18:00:00Z,38.762,-27.091,24,19,300,12,,5.59,30.03,,,,,,,,,,,FEW,2500,SCT,4000,,,,,VFR,,,,,,,,,,,,METAR,60
LPBJ 141800Z 17011KT CAVOK 36/10 Q1012,LPBJ,2025-08-14T18:00:00Z,38.073,-7.931,36,10,170,11,,6+,29.88,,,,,,,,,,,CAVOK,,,,,,,,VFR,,,,,,,,,,,,METAR,196
LOAV 141800Z 00000KT CAVOK 27/14 Q////,LOAV,2025-08-14T18:00:00Z,47.965,16.259,27,14,0,0,,6+,0.00,,,,,,,,,,,CAVOK,,,,,,,,VFR,,,,,,,,,,,,METAR,232
LOAN 141800Z VRB02KT CAVOK ///// Q////,LOAN,2025-08-14T18:00:00Z,47.843,16.26,,,VRB,2,,6+,0.00,,,,,,,,,,,CAVOK,,,,,,,,VFR,,,,,,,,,,,,METAR,266
LKLN 141800Z AUTO 04003KT 360V070 CAVOK 31/13 Q1018,LKLN,2025-08-14T18:00:00Z,49.675,13.275,31,13,40,3,,6+,30.06,,,TRUE,,,,,,,,CAVOK,,,,,,,,VFR,,,,,,,,,,,,METAR,353
LKKB 141800Z 06005KT CAVOK 31/15 Q1018 NOSIG,LKKB,2025-08-14T18:00:00Z,50.123,14.538,31,15,60,5,,6+,30.06,,,,,,TRUE,,,,,CAVOK,,,,,,,,VFR,,,,,,,,,,,,METAR,281
LFSM 141800Z AUTO VRB02KT CAVOK 31/18 Q1018,LFSM,2025-08-14T18:00:00Z,47.487,6.791,31,18,VRB,2,,6+,30.06,,,TRUE,,,,,,,,CAVOK,,,,,,,,VFR,,,,,,,,,,,,METAR,317
LFQG 141800Z AUTO 14005KT 090V180 CAVOK 32/17 Q1018,LFQG,2025-08-14T18:00:00Z,46.998,3.113,32,17,140,5,,6+,30.06,,,TRUE,,,,,,,,CAVOK,,,,,,,,VFR,,,,,,,,,,,,METAR,172
LFQB 141800Z AUTO 33003KT CAVOK 30/20 Q1018,LFQB,2025-08-14T18:00:00Z,48.325,4.02,30,20,330,3,,6+,30.06,,,TRUE,,,,,,,,CAVOK,,,,,,,,VFR,,,,,,,,,,,,METAR,107
LFLV 141800Z AUTO 36005KT 320V020 CAVOK 30/16 Q1018,LFLV,2025-08-14T18:00:00Z,46.167,3.399,30,16,360,5,,6+,30.06,,,TRUE,,,,,,,,CAVOK,,,,,,,,VFR,,,,,,,,,,,,METAR,248
LFLU 141800Z AUTO 01003KT 350V080 CAVOK 30/17 Q1016,LFLU,2025-08-14T18:00:00Z,44.922,4.97,30,17,10,3,,6+,30.00,,,TRUE,,,,,,,,CAVOK,,,,,,,,VFR,,,,,,,,,,,,METAR,162
LFBS 141800Z AUTO 25004KT CAVOK 28/21 Q1015,LFBS,2025-08-14T18:00:00Z,44.368,-1.132,28,21,250,4,,6+,29.97,,,TRUE,,,,,,,,CAVOK,,,,,,,,VFR,,,,,,,,,,,,METAR,30
LERI 141800Z 14007KT 110V170 CAVOK 34/11 Q1016 NOSIG,LERI,2025-08-14T18:00:00Z,37.958,-1.229,34,11,140,7,,6+,30.00,,,,,,TRUE,,,,,CAVOK,,,,,,,,VFR,,,,,,,,,,,,METAR,74
LECV 141800Z VRB02KT 9999 FEW060 32/07 Q1020,LECV,2025-08-14T18:00:00Z,40.696,-3.765,32,7,VRB,2,,6+,30.12,,,,,,,,,,,FEW,6000,,,,,,,VFR,,,,,,,,,,,,METAR,995
LBPL 141800Z 08008KT 9999 BKN100 30/16 Q1016,LBPL,2025-08-14T18:00:00Z,43.453,24.504,30,16,80,8,,6+,30.00,,,,,,,,,,,BKN,10000,,,,,,,VFR,,,,,,,,,,,,METAR,93
LBPG 141800Z 11012KT 9999 SCT100 27/11 Q1018,LBPG,2025-08-14T18:00:00Z,42.289,24.714,27,11,110,12,,6+,30.06,,,,,,,,,,,SCT,10000,,,,,,,VFR,,,,,,,,,,,,METAR,198
LBIA 141800Z 08014KT 9999 SCT100 25/13 Q1018,LBIA,2025-08-14T18:00:00Z,42.456,26.352,25,13,80,14,,6+,30.06,,,,,,,,,,,SCT,10000,,,,,,,VFR,,,,,,,,,,,,METAR,155
KUES 141800Z 10005KT 10SM SCT050 27/16 A3007,KUES,2025-08-14T18:00:00Z,43.0425,-88.2465,27,16,100,5,,10+,30.07,,,,,,,,,,,SCT,5000,,,,,,,VFR,,,,,,,,,,,,SPECI,273
KPRN 141800Z AUTO 32004KT 10SM FEW026 BKN036 31/23 A3003 RMK AO2 SLP114 T03060233 10317 20222 58000,KPRN,2025-08-14T18:00:00Z,31.8467,-86.6141,30.6,23.3,320,4,,10+,30.03,1011.4,,TRUE,TRUE,,,,,,,FEW,2600,BKN,3600,,,,,VFR,,31.7,22.2,,,,,,,,,METAR,137
KMHV 141800Z AUTO 31017G23KT 10SM CLR 34/M01 A2993 RMK AO2,KMHV,2025-08-14T18:00:00Z,35.0626,-118.157,34,-1,310,17,23,10+,29.93,,,TRUE,TRUE,,,,,,,CLR,,,,,,,,VFR,,,,,,,,,,,,METAR,841
KGRF 141800Z AUTO 18009KT 10SM SCT028 20/10 A3002 RMK AO2 SLP168 $,KGRF,2025-08-14T18:00:00Z,47.079,-122.58,20,10,180,9,,10+,30.02,1016.8,,TRUE,TRUE,TRUE,,,,,,SCT,2800,,,,,,,VFR,,,,,,,,,,,,SPECI,91
KGFA 141800Z 02004KT 10SM SCT025 19/13 A2995 RMK AO2A SLP120 $,KGFA,2025-08-14T18:00:00Z,47.505,-111.187,19,13,20,4,,10+,29.95,1012,,,TRUE,TRUE,,,,,,SCT,2500,,,,,,,VFR,,,,,,,,,,,,SPECI,1058
KBJC 141800Z 07011KT 10SM FU FEW120 BKN180 36/01 A3007,KBJC,2025-08-14T18:00:00Z,39.9008,-105.104,36,1,70,11,,10+,30.07,,,,,,,,,,FU,FEW,12000,BKN,18000,,,,,VFR,,,,,,,,,,,,SPECI,1694
KBFI 141800Z 17010G18KT 10SM OVC039 17/11 A3005 RMK AO2 T01720106,KBFI,2025-08-14T18:00:00Z,47.5455,-122.315,17.2,10.6,170,10,18,10+,30.05,,,,TRUE,,,,,,,OVC,3900,,,,,,,VFR,,,,,,,,,,,,SPECI,7
KAZO 141800Z 16005KT 10SM FEW035 28/18 A3005 RMK AO2 T02780183,KAZO,2025-08-14T18:00:00Z,42.2283,-85.546,27.8,18.3,160,5,,10+,30.05,,,,TRUE,,,,,,,FEW,3500,,,,,,,VFR,,,,,,,,,,,,SPECI,264
K1BN 141800Z AUTO 30011G18KT 10SM SCT025 25/19 A2974 RMK AO2 SLP067 $,K1BN,2025-08-14T18:00:00Z,47.91,-100.93,25,19,300,11,18,10+,29.74,1006.7,,TRUE,TRUE,TRUE,,,,,,SCT,2500,,,,,,,VFR,,,,,,,,,,,,SPECI,589
HUEN 141800Z 04002KT 9999 FEW023 FEW024CB 22/19 Q1018 NOSIG,HUEN,2025-08-14T18:00:00Z,0.036,32.437,22,19,40,2,,6+,30.06,,,,,,TRUE,,,,,FEW,2300,FEW,2400,,,,,VFR,,,,,,,,,,,,METAR,1147
HTZA 141800Z 08005KT 9999 BKN014 24/21 Q1017 NOSIG,HTZA,2025-08-14T18:00:00Z,-6.222,39.225,24,21,80,5,,6+,30.03,,,,,,TRUE,,,,,BKN,1400,,,,,,,MVFR,,,,,,,,,,,,METAR,19
HTTB 141800Z 07003KT CAVOK 23/09 Q1017 NOSIG,HTTB,2025-08-14T18:00:00Z,-5.074,32.833,23,9,70,3,,6+,30.03,,,,,,TRUE,,,,,CAVOK,,,,,,,,VFR,,,,,,,,,,,,METAR,1185
HTSU 141800Z 00000KT 9999 FEW019 18/07 Q1025,HTSU,2025-08-14T18:00:00Z,-7.949,31.609,18,7,0,0,,6+,30.27,,,,,,,,,,,FEW,1900,,,,,,,VFR,,,,,,,,,,,,METAR,1820
HTSO 141800Z 12004KT CAVOK 19/10 Q1022,HTSO,2025-08-14T18:00:00Z,-10.682,35.584,19,10,120,4,,6+,30.18,,,,,,,,,,,CAVOK,,,,,,,,VFR,,,,,,,,,,,,METAR,1058
HTMW 141800Z 30003KT 9999 FEW020 FEW021CB 21/19 Q1018 NOSIG,HTMW,2025-08-14T18:00:00Z,-2.442,32.925,21,19,300,3,,6+,30.06,,,,,,TRUE,,,,,FEW,2000,FEW,2100,,,,,VFR,,,,,,,,,,,,METAR,1144
HTMU 141800Z 30005KT 9999 FEW021 SCT090 24/19 Q1018,HTMU,2025-08-14T18:00:00Z,-1.503,33.802,24,19,300,5,,6+,30.06,,,,,,,,,,,FEW,2100,SCT,9000,,,,,VFR,,,,,,,,,,,,METAR,1154
HTMT 141800Z 16003KT 9999 FEW020 23/22 Q1018 NOSIG,HTMT,2025-08-14T18:00:00Z,-10.335,40.184,23,22,160,3,,6+,30.06,,,,,,TRUE,,,,,FEW,2000,,,,,,,VFR,,,,,,,,,,,,METAR,114
HTMG 141800Z 00000KT 9999 FEW023 23/19 Q1018,HTMG,2025-08-14T18:00:00Z,-6.797,37.652,23,19,0,0,,6+,30.06,,,,,,,,,,,FEW,2300,,,,,,,VFR,,,,,,,,,,,,METAR,512
HTKJ 141800Z 12005KT 9999 FEW024 22/13 Q1018 NOSIG,HTKJ,2025-08-14T18:00:00Z,-3.427,37.058,22,13,120,5,,6+,30.06,,,,,,TRUE,,,,,FEW,2400,,,,,,,VFR,,,,,,,,,,,,METAR,893
HTKA 141800Z 08004KT CAVOK 23/18 Q1015 NOSIG,HTKA,2025-08-14T18:00:00Z,-4.887,29.669,23,18,80,4,,6+,29.97,,,,,,TRUE,,,,,CAVOK,,,,,,,,VFR,,,,,,,,,,,,METAR,819
HTIR 141800Z 19005KT 9999 FEW020 17/10 Q1022,HTIR,2025-08-14T18:00:00Z,-7.676,35.753,17,10,190,5,,6+,30.18,,,,,,,,,,,FEW,2000,,,,,,,VFR,,,,,,,,,,,,METAR,1432
HTIB 141800Z 00000KT CAVOK 26/09 Q1016,HTIB,2025-08-14T18:00:00Z,-99.99,-99.99,26,9,0,0,,6+,30.00,,,,,,,,,,,CAVOK,,,,,,,,VFR,,,,,,,,,,,,METAR,9999
HTDO 141800Z 11018KT 9999 FEW023 22/13 Q1020 NOSIG,HTDO,2025-08-14T18:00:00Z,-6.169,35.751,22,13,110,18,,6+,30.12,,,,,,TRUE,,,,,FEW,2300,,,,,,,VFR,,,,,,,,,,,,METAR,1119
HTDA 141800Z 14004KT 9999 FEW014 23/21 Q1018 NOSIG,HTDA,2025-08-14T18:00:00Z,-6.881,39.201,23,21,140,4,,6+,30.06,,,,,,TRUE,,,,,FEW,1400,,,,,,,VFR,,,,,,,,,,,,METAR,53
HTBU 141800Z 31004KT 9999 FEW012 20/18 Q1017,HTBU,2025-08-14T18:00:00Z,-1.332,31.821,20,18,310,4,,6+,30.03,,,,,,,,,,,FEW,1200,,,,,,,VFR,,,,,,,,,,,,METAR,1144
HTAR 141800Z 12010KT 9999 FEW026 21/11 Q1022 NOSIG,HTAR,2025-08-14T18:00:00Z,-3.368,36.626,21,11,120,10,,6+,30.18,,,,,,TRUE,,,,,FEW,2600,,,,,,,VFR,,,,,,,,,,,,METAR,1386
HKWJ 141800Z 00000KT SKC 30/14 Q1010,HKWJ,2025-08-14T18:00:00Z,1.74,40.087,30,14,0,0,,,29.82,,,,,,,,,,,SKC,,,,,,,,,,,,,,,,,,,,METAR,254
HKNW 141800Z 09010KT 8000 -RA SCT020 BKN080 19/15 Q1025,HKNW,2025-08-14T18:00:00Z,-1.322,36.815,19,15,90,10,,4.97,30.27,,,,,,,,,,-RA,SCT,2000,BKN,8000,,,,,MVFR,,,,,,,,,,,,METAR,1666
HKNK 141800Z 00000KT 9999 SCT022 14/12,HKNK,2025-08-14T18:00:00Z,-0.298,36.159,14,12,0,0,,6+,0.00,,,,,,,,,,,SCT,2200,,,,,,,VFR,,,,,,,,,,,,METAR,1900
HKNI 141800Z 24002KT 9999 FEW020 BKN080 19/13,HKNI,2025-08-14T18:00:00Z,-0.343,36.915,19,13,240,2,,6+,0.00,,,,,,,,,,,FEW,2000,BKN,8000,,,,,VFR,,,,,,,,,,,,METAR,1769
HKMO 141800Z 18007KT 9999 SCT022 BKN080 24/21 Q1016 NOSIG,HKMO,2025-08-14T18:00:00Z,-4.015,39.606,24,21,180,7,,6+,30.00,,,,,,TRUE,,,,,SCT,2200,BKN,8000,,,,,VFR,,,,,,,,,,,,METAR,55
HKML 141800Z 18006KT 9999 SCT020 24/21 Q1015,HKML,2025-08-14T18:00:00Z,-3.229,40.102,24,21,180,6,,6+,29.97,,,,,,,,,,,SCT,2000,,,,,,,VFR,,,,,,,,,,,,METAR,20
HKME 141800Z 23005KT CAV0K 20/10,HKME,2025-08-14T18:00:00Z,0.052,37.651,20,10,230,5,,,0.00,,,,,,,,,,,,,,,,,,,,,,,,,,,,,,,METAR,1609
HKLO 141800Z 00000KT 9999 FEW032CB BKN300 32/11 Q1009,HKLO,2025-08-14T18:00:00Z,3.122,35.609,32,11,0,0,,6+,29.79,,,,,,,,,,,FEW,3200,BKN,30000,,,,,VFR,,,,,,,,,,,,METAR,503
HKKT 141800Z 00000KT 9999 FEW022 BKN090 16/14 RERA,HKKT,2025-08-14T18:00:00Z,0.973,34.959,16,14,0,0,,6+,0.00,,,,,,,,,,,FEW,2200,BKN,9000,,,,,VFR,,,,,,,,,,,,METAR,1829
HKKI 141800Z 07005KT 9999 FEW021 BKN080 21/13 Q1018,HKKI,2025-08-14T18:00:00Z,-0.086,34.734,21,13,70,5,,6+,30.06,,,,,,,,,,,FEW,2100,BKN,8000,,,,,VFR,,,,,,,,,,,,METAR,1152
HKJK 141800Z 09007KT 9999 BKN019 19/10 Q1023 NOSIG,HKJK,2025-08-14T18:00:00Z,-1.319,36.928,19,10,90,7,,6+,30.21,,,,,,TRUE,,,,,BKN,1900,,,,,,,MVFR,,,,,,,,,,,,METAR,1615
HKGA 141800Z 16013KT SKC 28/17 Q1013,HKGA,2025-08-14T18:00:00Z,-0.464,39.649,28,17,160,13,,,29.91,,,,,,,,,,,SKC,,,,,,,,,,,,,,,,,,,,METAR,147
HKEL 141800Z 18007KT 9999 FEW015 SCT080 13/11 Q1026,HKEL,2025-08-14T18:00:00Z,0.404,35.239,13,11,180,7,,6+,30.30,,,,,,,,,,,FEW,1500,SCT,8000,,,,,VFR,,,,,,,,,,,,METAR,2116
HETR 141800Z 31013KT CAVOK 32/24 Q1003,HETR,2025-08-14T18:00:00Z,28.209,33.646,32,24,310,13,,6+,29.62,,,,,,,,,,,CAVOK,,,,,,,,VFR,,,,,,,,,,,,METAR,35
HESX 141800Z 03007KT CAVOK 31/16 Q1010 NOSIG,HESX,2025-08-14T18:00:00Z,30.108,30.896,31,16,30,7,,6+,29.82,,,,,,TRUE,,,,,CAVOK,,,,,,,,VFR,,,,,,,,,,,,METAR,168
HESW 141800Z 29009KT CAVOK 35/09 Q1011,HESW,2025-08-14T18:00:00Z,29.346,25.507,35,9,290,9,,6+,29.85,,,,,,,,,,,CAVOK,,,,,,,,VFR,,,,,,,,,,,,METAR,101
HESN 141800Z 16011KT CAVOK 38/21 Q1004 NOSIG,HESN,2025-08-14T18:00:00Z,23.964,32.82,38,21,160,11,,6+,29.65,,,,,,TRUE,,,,,CAVOK,,,,,,,,VFR,,,,,,,,,,,,METAR,197
HESH 141800Z 01006KT CAVOK 39/19 Q1003 NOSIG,HESH,2025-08-14T18:00:00Z,27.977,34.395,39,19,10,6,,6+,29.62,,,,,,TRUE,,,,,CAVOK,,,,,,,,VFR,,,,,,,,,,,,METAR,50
HESG 141800Z 31014KT CAVOK 40/12 Q1004 NOSIG,HESG,2025-08-14T18:00:00Z,26.343,31.743,40,12,310,14,,6+,29.65,,,,,,TRUE,,,,,CAVOK,,,,,,,,VFR,,,,,,,,,,,,METAR,70
HEPS 141800Z 35010KT CAVOK 31/25 Q1009 NOSIG,HEPS,2025-08-14T18:00:00Z,31.279,32.238,31,25,350,10,,6+,29.79,,,,,,TRUE,,,,,CAVOK,,,,,,,,VFR,,,,,,,,,,,,METAR,2
HEMM 141800Z 03004KT CAVOK 29/24 Q1011 NOSIG,HEMM,2025-08-14T18:00:00Z,31.325,27.222,29,24,30,4,,6+,29.85,,,,,,TRUE,,,,,CAVOK,,,,,,,,VFR,,,,,,,,,,,,METAR,26
HEMA 141800Z 34008KT CAVOK 38/16 Q1003 NOSIG,HEMA,2025-08-14T18:00:00Z,25.557,34.584,38,16,340,8,,6+,29.62,,,,,,TRUE,,,,,CAVOK,,,,,,,,VFR,,,,,,,,,,,,METAR,77
HELX 141800Z 26004KT CAVOK 40/19 Q1003 NOSIG,HELX,2025-08-14T18:00:00Z,25.671,32.706,40,19,260,4,,6+,29.62,,,,,,TRUE,,,,,CAVOK,,,,,,,,VFR,,,,,,,,,,,,METAR,86
HEGN 141800Z 32009KT CAVOK 40/10 Q1003 NOSIG,HEGN,2025-08-14T18:00:00Z,27.179,33.801,40,10,320,9,,6+,29.62,,,,,,TRUE,,,,,CAVOK,,,,,,,,VFR,,,,,,,,,,,,METAR,14
HEBL 141800Z 00000KT 6000 NSC 40/15 Q1005 NOSIG,HEBL,2025-08-14T18:00:00Z,22.376,31.612,40,15,0,0,,3.73,29.68,,,,,,TRUE,,,,,CLR,,,,,,,,MVFR,,,,,,,,,,,,METAR,184
HEBA 141800Z 31007KT CAVOK 29/24 Q1010 NOSIG,HEBA,2025-08-14T18:00:00Z,30.918,29.696,29,24,310,7,,6+,29.82,,,,,,TRUE,,,,,CAVOK,,,,,,,,VFR,,,,,,,,,,,,METAR,41
HEAT 141800Z 36015KT CAVOK 37/15 Q1010 NOSIG,HEAT,2025-08-14T18:00:00Z,27.049,31.014,37,15,360,15,,6+,29.82,,,,,,TRUE,,,,,CAVOK,,,,,,,,VFR,,,,,,,,,,,,METAR,229
HEAR 141800Z 32003KT CAVOK 30/25 Q1009 NOSIG,HEAR,2025-08-14T18:00:00Z,31.041,33.817,30,25,320,3,,6+,29.79,,,,,,TRUE,,,,,CAVOK,,,,,,,,VFR,,,,,,,,,,,,METAR,36
HBBA 141800Z 27006KT 7000 SCT025 BKN10027/21 Q1014,HBBA,2025-08-14T18:00:00Z,-3.324,29.319,27,21,270,6,,4.35,29.94,,,,,,,,,,,SCT,2500,,,,,,,MVFR,,,,,,,,,,,,METAR,777
HAAB 141800Z 24007KT 9999 BKN022 15/13 Q1026,HAAB,2025-08-14T18:00:00Z,8.978,38.799,15,13,240,7,,6+,30.30,,,,,,,,,,,BKN,2200,,,,,,,MVFR,,,,,,,,,,,,METAR,2319
GVSV 141800Z 23007KT 200V280 9999 BKN024 28/22 Q1012 NOSIG,GVSV,2025-08-14T18:00:00Z,16.833,-25.055,28,22,230,7,,6+,29.88,,,,,,TRUE,,,,,BKN,2400,,,,,,,MVFR,,,,,,,,,,,,METAR,16
GVNP 141800Z 12007KT 9999 SCT019 27/24 Q1012 NOSIG,GVNP,2025-08-14T18:00:00Z,14.947,-23.484,27,24,120,7,,6+,29.88,,,,,,TRUE,,,,,SCT,1900,,,,,,,VFR,,,,,,,,,,,,METAR,70
GVBA 141800Z 32007KT 9999 BKN014 28/23 Q1012 NOSIG,GVBA,2025-08-14T18:00:00Z,16.137,-22.889,28,23,320,7,,6+,29.88,,,,,,TRUE,,,,,BKN,1400,,,,,,,MVFR,,,,,,,,,,,,METAR,23
GVAC 141800Z 11007KT 9999 BKN013 BKN015 28/22 Q1012 NOSIG,GVAC,2025-08-14T18:00:00Z,16.742,-22.949,28,22,110,7,,6+,29.88,,,,,,TRUE,,,,,BKN,1300,BKN,1500,,,,,MVFR,,,,,,,,,,,,METAR,54
GUNZ 141800Z 23004KT 9999 SCT017 25/21 Q1008 NOSIG,GUNZ,2025-08-14T18:00:00Z,7.816,-8.703,25,21,230,4,,6+,29.76,,,,,,TRUE,,,,,SCT,1700,,,,,,,VFR,,,,,,,,,,,,METAR,500
GUCY 141800Z 19012KT 9999 BKN013 BKN100 27/24 Q1013 NOSIG,GUCY,2025-08-14T18:00:00Z,9.577,-13.612,27,24,190,12,,6+,29.91,,,,,,TRUE,,,,,BKN,1300,BKN,10000,,,,,MVFR,,,,,,,,,,,,METAR,10
GQPP 141800Z 32011KT 280V350 7000 BKN020 24/20 Q1011 NOSIG,GQPP,2025-08-14T18:00:00Z,20.929,-17.031,24,20,320,11,,4.35,29.85,,,,,,TRUE,,,,,BKN,2000,,,,,,,MVFR,,,,,,,,,,,,METAR,5
GOTT 141800Z 18004KT 9999 SCT015 SCT020TCU 30/25 Q1012,GOTT,2025-08-14T18:00:00Z,13.733,-13.657,30,25,180,4,,6+,29.88,,,,,,,,,,,SCT,1500,SCT,2000,,,,,VFR,,,,,,,,,,,,METAR,53
GOTK 141800Z 24004KT 210V280 9999 FEW015 FEW016TCU 30/25 Q1011,GOTK,2025-08-14T18:00:00Z,12.572,-12.22,30,25,240,4,,6+,29.85,,,,,,,,,,,FEW,1500,FEW,1600,,,,,VFR,,,,,,,,,,,,METAR,165
GOSS 141800Z 32004KT 260V010 CAVOK 29/24 Q1012,GOSS,2025-08-14T18:00:00Z,16.051,-16.461,29,24,320,4,,6+,29.88,,,,,,,,,,,CAVOK,,,,,,,,VFR,,,,,,,,,,,,METAR,3
GOSP 141800Z 00000KT CAVOK 33/24 Q1011,GOSP,2025-08-14T18:00:00Z,16.677,-14.964,33,24,0,0,,6+,29.85,,,,,,,,,,,CAVOK,,,,,,,,VFR,,,,,,,,,,,,METAR,10
GOSM 141800Z 22002KT 9999 SCT013 FEW030CB 27/25 Q1010,GOSM,2025-08-14T18:00:00Z,15.597,-13.326,27,25,220,2,,6+,29.82,,,,,,,,,,,SCT,1300,FEW,3000,,,,,VFR,,,,,,,,,,,,METAR,28
GOOY 141800Z 33004KT 280V360 9999 SCT016 27/24 Q1012,GOOY,2025-08-14T18:00:00Z,14.741,-17.49,27,24,330,4,,6+,29.88,,,,,,,,,,,SCT,1600,,,,,,,VFR,,,,,,,,,,,,METAR,21
GOOK 141800Z 08004KT 9999 TS FEW013 FEW026CB 27/24 Q1011 RERA,GOOK,2025-08-14T18:00:00Z,14.147,-16.052,27,24,80,4,,6+,29.85,,,,,,,,,,TS,FEW,1300,FEW,2600,,,,,VFR,,,,,,,,,,,,METAR,8
GOOG 141800Z 06004KT 9999 SCT013 SCT015TCU 29/25 Q1009,GOOG,2025-08-14T18:00:00Z,15.4,-15.084,29,25,60,4,,6+,29.79,,,,,,,,,,,SCT,1300,SCT,1500,,,,,VFR,,,,,,,,,,,,METAR,38
GOOD 141800Z 36004KT 9999 TS FEW013 FEW030CB 28/25 Q1011,GOOD,2025-08-14T18:00:00Z,14.65,-16.23,28,25,360,4,,6+,29.85,,,,,,,,,,TS,FEW,1300,FEW,3000,,,,,VFR,,,,,,,,,,,,METAR,9
GOGS 141800Z VRB02KT 9999 SCT015 27/23 Q1011,GOGS,2025-08-14T18:00:00Z,12.389,-16.742,27,23,VRB,2,,6+,29.85,,,,,,,,,,,SCT,1500,,,,,,,VFR,,,,,,,,,,,,METAR,13
GOGK 141800Z 28003KT 9999 BKN013 26/25 Q1011,GOGK,2025-08-14T18:00:00Z,12.898,-14.967,26,25,280,3,,6+,29.85,,,,,,,,,,,BKN,1300,,,,,,,MVFR,,,,,,,,,,,,METAR,37
GOGG 141800Z 20006KT 9999 SCT015 26/25 Q1012,GOGG,2025-08-14T18:00:00Z,12.556,-16.282,26,25,200,6,,6+,29.88,,,,,,,,,,,SCT,1500,,,,,,,VFR,,,,,,,,,,,,METAR,24
GMTN 141800Z 06008KT 030V090 CAVOK 27/23 Q1014 NOSIG,GMTN,2025-08-14T18:00:00Z,35.594,-5.32,27,23,60,8,,6+,29.94,,,,,,TRUE,,,,,CAVOK,,,,,,,,VFR,,,,,,,,,,,,METAR,10
GMTA 141800Z 32008KT 290V360 CAVOK 27/23 Q1014 NOSIG,GMTA,2025-08-14T18:00:00Z,35.177,-3.84,27,23,320,8,,6+,29.94,,,,,,TRUE,,,,,CAVOK,,,,,,,,VFR,,,,,,,,,,,,METAR,14
GMMZ 141800Z 21010KT 9999 SCT040 FEW045TCU 36/01 Q1018 NOSIG,GMMZ,2025-08-14T18:00:00Z,30.939,-6.909,36,1,210,10,,6+,30.06,,,,,,TRUE,,,,,SCT,4000,FEW,4500,,,,,VFR,,,,,,,,,,,,METAR,1139
GMMW 141800Z 07011KT CAVOK 26/22 Q1014 NOSIG,GMMW,2025-08-14T18:00:00Z,34.993,-3.025,26,22,70,11,,6+,29.94,,,,,,TRUE,,,,,CAVOK,,,,,,,,VFR,,,,,,,,,,,,METAR,174
GMML 141800Z 04022KT 6000 NSC 29/19 Q1011 NOSIG,GMML,2025-08-14T18:00:00Z,27.141,-13.23,29,19,40,22,,3.73,29.85,,,,,,TRUE,,,,,CLR,,,,,,,,MVFR,,,,,,,,,,,,METAR,63
GMMI 141800Z 35008KT 320V020 6000 NSC 26/22 Q1013 NOSIG,GMMI,2025-08-14T18:00:00Z,31.406,-9.687,26,22,350,8,,3.73,29.91,,,,,,TRUE,,,,,CLR,,,,,,,,MVFR,,,,,,,,,,,,METAR,102
GMMH 141800Z 02021KT 8000 NSC 23/20 Q1009 NOSIG,GMMH,2025-08-14T18:00:00Z,23.718,-15.932,23,20,20,21,,4.97,29.79,,,,,,TRUE,,,,,CLR,,,,,,,,MVFR,,,,,,,,,,,,METAR,11
GMMD 141800Z 30007KT 9999 BKN040 42/M04 Q1010 NOSIG,GMMD,2025-08-14T18:00:00Z,32.403,-6.316,42,-4,300,7,,6+,29.82,,,,,,TRUE,,,,,BKN,4000,,,,,,,VFR,,,,,,,,,,,,METAR,515
GMMC 141800Z 02004KT 8000 BKN016 26/22 Q1011,GMMC,2025-08-14T18:00:00Z,33.557,-7.66,26,22,20,4,,4.97,29.85,,,,,,,,,,,BKN,1600,,,,,,,MVFR,,,,,,,,,,,,METAR,62
GMMB 141800Z 34009KT 5000 NSC 27/22 Q1012 NOSIG,GMMB,2025-08-14T18:00:00Z,33.655,-7.221,27,22,340,9,,3.11,29.88,,,,,,TRUE,,,,,CLR,,,,,,,,MVFR,,,,,,,,,,,,METAR,191
GMFM 141800Z 34011KT CAVOK 39/13 Q1013 NOSIG,GMFM,2025-08-14T18:00:00Z,33.875,-5.52,39,13,340,11,,6+,29.91,,,,,,TRUE,,,,,CAVOK,,,,,,,,VFR,,,,,,,,,,,,METAR,569
GMFK 141800Z VRB03KT CAVOK 39/M03 Q1018 NOSIG,GMFK,2025-08-14T18:00:00Z,31.946,-4.399,39,-3,VRB,3,,6+,30.06,,,,,,TRUE,,,,,CAVOK,,,,,,,,VFR,,,,,,,,,,,,METAR,1033
GMFB 141800Z 21006KT 160V230 9999 SCT030 37/09 Q1018 NOSIG,GMFB,2025-08-14T18:00:00Z,32.514,-1.978,37,9,210,6,,6+,30.06,,,,,,TRUE,,,,,SCT,3000,,,,,,,VFR,,,,,,,,,,,,METAR,1106
GMAZ 141800Z 20015KT 5000 40/02 Q1014 NOSIG,GMAZ,2025-08-14T18:00:00Z,30.266,-5.854,40,2,200,15,,3.11,29.94,,,,,,TRUE,,,,,,,,,,,,,MVFR,,,,,,,,,,,,METAR,729
GMAT 141800Z 03017KT CAVOK 23/21 Q1011 NOSIG,GMAT,2025-08-14T18:00:00Z,28.446,-11.158,23,21,30,17,,6+,29.85,,,,,,TRUE,,,,,CAVOK,,,,,,,,VFR,,,,,,,,,,,,METAR,192
GMAG 141800Z 22009KT 8000 NSC 28/19 Q1011 NOSIG,GMAG,2025-08-14T18:00:00Z,29.031,-10.051,28,19,220,9,,4.97,29.85,,,,,,TRUE,,,,,CLR,,,,,,,,MVFR,,,,,,,,,,,,METAR,333
GGOV 141800Z 15004KT 120V180 8000 SCT010 25/24 Q1011 NOSIG,GGOV,2025-08-14T18:00:00Z,11.895,-15.654,25,24,150,4,,4.97,29.85,,,,,,TRUE,,,,,SCT,1000,,,,,,,MVFR,,,,,,,,,,,,METAR,31
GBYD 141800Z VRB03KT 9999 BKN011 FEW019CB BKN110 24/24 Q1010 CBSE,GBYD,2025-08-14T18:00:00Z,13.341,-16.653,24,24,VRB,3,,6+,29.82,,,,,,,,,,,BKN,1100,FEW,1900,BKN,11000,,,MVFR,,,,,,,,,,,,METAR,29
GANR 141800Z 04004KT 9999 FEW030 26/23 Q1013,GANR,2025-08-14T18:00:00Z,15.237,-9.577,26,23,40,4,,6+,29.91,,,,,,,,,,,FEW,3000,,,,,,,VFR,,,,,,,,,,,,METAR,237
GAMB 141800Z 24008KT 9999 SCT020 30/22 Q1012,GAMB,2025-08-14T18:00:00Z,14.512,-4.084,30,22,240,8,,6+,29.88,,,,,,,,,,,SCT,2000,,,,,,,VFR,,,,,,,,,,,,METAR,271
GAKD 141800Z 24004KT 9999 SCT020 FEW030CB 27/23 Q1011,GAKD,2025-08-14T18:00:00Z,14.482,-11.404,27,23,240,4,,6+,29.85,,,,,,,,,,,SCT,2000,FEW,3000,,,,,VFR,,,,,,,,,,,,METAR,53
FZAA 141800Z 00000KT 6000 NSC 24/18 Q1015 NOSIG,FZAA,2025-08-14T18:00:00Z,-4.387,15.448,24,18,0,0,,3.73,29.97,,,,,,TRUE,,,,,CLR,,,,,,,,MVFR,,,,,,,,,,,,METAR,309
FYWB 141800Z AUTO 36002KT //// // ////// 11/08 Q1020,FYWB,2025-08-14T18:00:00Z,-22.98,14.645,11,8,360,2,,,30.12,,,TRUE,,,,,,,,,,,,,,,,,,,,,,,,,,,,METAR,87
FYRU 141800Z AUTO 10004KT //// // ////// 24/M01 Q1021,FYRU,2025-08-14T18:00:00Z,-17.956,19.724,24,-1,100,4,,,30.15,,,TRUE,,,,,,,,,,,,,,,,,,,,,,,,,,,,METAR,1104
FYOG 141800Z AUTO 21004KT 9999 SCT180/// 12/11 Q1020,FYOG,2025-08-14T18:00:00Z,-28.585,16.447,12,11,210,4,,6+,30.12,,,TRUE,,,,,,,,SCT,18000,,,,,,,VFR,,,,,,,,,,,,METAR,6
FYLZ 141800Z AUTO /////KT //// // ////// 13/10 Q1019,FYLZ,2025-08-14T18:00:00Z,-26.687,15.243,13,10,,,,,30.09,,,TRUE,,,,,,,,,,,,,,,,,,,,,,,,,,,,METAR,129
FYKT 141800Z 23004KT CAVOK 16/M04 Q1019,FYKT,2025-08-14T18:00:00Z,-26.54,18.111,16,-4,230,4,,6+,30.09,,,,,,,,,,,CAVOK,,,,,,,,VFR,,,,,,,,,,,,METAR,1064
FYKM 141800Z AUTO 00000KT //// // ////// 17/M00 Q1018,FYKM,2025-08-14T18:00:00Z,-17.634,24.177,17,0,0,0,,,30.06,,,TRUE,,,,,,,,,,,,,,,,,,,,,,,,,,,,METAR,959
FYGF 141800Z AUTO 32003KT //// // ////// 18/M00 Q1021,FYGF,2025-08-14T18:00:00Z,-19.599,18.116,18,0,320,3,,,30.15,,,TRUE,,,,,,,,,,,,,,,,,,,,,,,,,,,,METAR,1407
FVRG 141800Z 06003KT CAVOK 15/05 Q1025 NOSIG,FVRG,2025-08-14T18:00:00Z,-17.921,31.1,15,5,60,3,,6+,30.27,,,,,,TRUE,,,,,CAVOK,,,,,,,,VFR,,,,,,,,,,,,METAR,1490
FVMV 141800Z 15006KT CAVOK 17/06 Q1023,FVMV,2025-08-14T18:00:00Z,-20.055,30.859,17,6,150,6,,6+,30.21,,,,,,,,,,,CAVOK,,,,,,,,VFR,,,,,,,,,,,,METAR,1103
FTTJ 141800Z 31004KT 7000 FEW026 25/24 Q1012 NOSIG,FTTJ,2025-08-14T18:00:00Z,12.134,15.034,25,24,310,4,,4.35,29.88,,,,,,TRUE,,,,,FEW,2600,,,,,,,MVFR,,,,,,,,,,,,METAR,295
FSIA 141800Z 15006G16KT 090V220 9999 SCT020 26/22 Q1013 NOSIG,FSIA,2025-08-14T18:00:00Z,-4.674,55.522,26,22,150,6,16,6+,29.91,,,,,,TRUE,,,,,SCT,2000,,,,,,,VFR,,,,,,,,,,,,METAR,3
FQXA 141800Z 09006KT CAVOK 19/17 Q1020,FQXA,2025-08-14T18:00:00Z,-24.8932,33.7527,19,17,90,6,,6+,30.12,,,,,,,,,,,CAVOK,,,,,,,,VFR,,,,,,,,,,,,METAR,88
FQTT 141800Z 00000KT CAVOK 20/10 Q1018,FQTT,2025-08-14T18:00:00Z,-16.108,33.64,20,10,0,0,,6+,30.06,,,,,,,,,,,CAVOK,,,,,,,,VFR,,,,,,,,,,,,METAR,146
FQPB 141800Z /////KT 9999 FEW020 BKN100 24/21 Q1018,FQPB,2025-08-14T18:00:00Z,-12.989,40.525,24,21,,,,6+,30.06,,,,,,,,,,,FEW,2000,BKN,10000,,,,,VFR,,,,,,,,,,,,METAR,101
FQNP 141800Z 15008KT 9999 BKN020 BKN100 23/15 Q1020,FQNP,2025-08-14T18:00:00Z,-15.106,39.282,23,15,150,8,,6+,30.12,,,,,,,,,,,BKN,2000,BKN,10000,,,,,MVFR,,,,,,,,,,,,METAR,434
FQMA 141800Z 09014KT 9999 FEW015 BKN020 22/20 Q1018 NOSIG,FQMA,2025-08-14T18:00:00Z,-25.921,32.573,22,20,90,14,,6+,30.06,,,,,,TRUE,,,,,FEW,1500,BKN,2000,,,,,MVFR,,,,,,,,,,,,METAR,34
FQLC 141800Z 16002KT 9999 BKN015 17/05 Q1024,FQLC,2025-08-14T18:00:00Z,-13.271,35.265,17,5,160,2,,6+,30.24,,,,,,,,,,,BKN,1500,,,,,,,MVFR,,,,,,,,,,,,METAR,1362
FQCH 141800Z /////KT 9999 FEW020 20/14 Q1022,FQCH,2025-08-14T18:00:00Z,-19.148,33.428,20,14,,,,6+,30.18,,,,,,,,,,,FEW,2000,,,,,,,VFR,,,,,,,,,,,,METAR,695
FPST 141800Z 16008KT 9999 FEW023 BKN033 24/19 Q1015 NOSIG,FPST,2025-08-14T18:00:00Z,0.378,6.712,24,19,160,8,,6+,29.97,,,,,,TRUE,,,,,FEW,2300,BKN,3300,,,,,VFR,,,,,,,,,,,,METAR,11
FOON 141800Z /////KT 9999 SCT013 23/19 Q1015,FOON,2025-08-14T18:00:00Z,-1.656,13.438,23,19,,,,6+,29.97,,,,,,,,,,,SCT,1300,,,,,,,VFR,,,,,,,,,,,,METAR,440
FOOL 141800Z 23008KT 200V260 9999 SCT012 24/21 Q1015 NOSIG,FOOL,2025-08-14T18:00:00Z,0.459,9.412,24,21,230,8,,6+,29.97,,,,,,TRUE,,,,,SCT,1200,,,,,,,VFR,,,,,,,,,,,,METAR,9
FOOG 141800Z 21008KT 9999 FEW008 23/19 Q1016,FOOG,2025-08-14T18:00:00Z,-0.712,8.754,23,19,210,8,,6+,30.00,,,,,,,,,,,FEW,800,,,,,,,VFR,,,,,,,,,,,,METAR,4
FNUB 141800Z AUTO 26004KT 9999 ////// 17/08 Q1025,FNUB,2025-08-14T18:00:00Z,-14.925,13.575,17,8,260,4,,6+,30.27,,,TRUE,,,,,,,,,,,,,,,,VFR,,,,,,,,,,,,METAR,1749
FNLU 141800Z 24008KT 9000 NSC 20/18 Q1015 NOSIG,FNLU,2025-08-14T18:00:00Z,-8.858,13.231,20,18,240,8,,5.59,29.97,,,,,,TRUE,,,,,CLR,,,,,,,,VFR,,,,,,,,,,,,METAR,75
FMSD 141800Z 06012KT 9999 SCT016 BKN033 23/20 Q1019,FMSD,2025-08-14T18:00:00Z,-25.038,46.956,23,20,60,12,,6+,30.09,,,,,,,,,,,SCT,1600,BKN,3300,,,,,VFR,,,,,,,,,,,,METAR,7
FMNM 141800Z VRB03KT 9999 FEW040 23/20 Q1018 NOSIG,FMNM,2025-08-14T18:00:00Z,-15.667,46.352,23,20,VRB,3,,6+,30.06,,,,,,TRUE,,,,,FEW,4000,,,,,,,VFR,,,,,,,,,,,,METAR,18
FMMT 141800Z VRB02KT 9999 VCSH SCT017TCU BKN033 21/20 Q1021 TEMPO SHRA,FMMT,2025-08-14T18:00:00Z,-18.11,49.392,21,20,VRB,2,,6+,30.15,,,,,,,,,,VCSH,SCT,1700,BKN,3300,,,,,VFR,,,,,,,,,,,,METAR,13
FLKK 141800Z 14005KT CAVOK 18/04 Q1022,FLKK,2025-08-14T18:00:00Z,-15.329,28.448,18,4,140,5,,6+,30.18,,,,,,,,,,,CAVOK,,,,,,,,VFR,,,,,,,,,,,,METAR,1149
FKYS 141800Z 27005KT 9999 BKN016 22/19 Q1017 NOSIG,FKYS,2025-08-14T18:00:00Z,3.833,11.521,22,19,270,5,,6+,30.03,,,,,,TRUE,,,,,BKN,1600,,,,,,,MVFR,,,,,,,,,,,,METAR,694
FKKR 141800Z 25007KT 220V280 8000 TS SCT012 FEW014CB 26/23 Q1013 NOSIG,FKKR,2025-08-14T18:00:00Z,9.336,13.37,26,23,250,7,,4.97,29.91,,,,,,TRUE,,,,TS,SCT,1200,FEW,1400,,,,,MVFR,,,,,,,,,,,,METAR,223
FKKD 141800Z VRB03KT 8000 -DZ SCT003 BKN010 FEW013CB 23/23 Q1015 TEMPO 2000 RADZ,FKKD,2025-08-14T18:00:00Z,4.006,9.72,23,23,VRB,3,,4.97,29.97,,,,,,,,,,-DZ,SCT,300,BKN,1000,FEW,1300,,,MVFR,,,,,,,,,,,,METAR,10
FIMR 141800Z 12018KT 9999 FEW018 BKN050 22/18 Q1021,FIMR,2025-08-14T18:00:00Z,-19.755,63.36,22,18,120,18,,6+,30.15,,,,,,,,,,,FEW,1800,BKN,5000,,,,,VFR,,,,,,,,,,,,METAR,31
FIMP 141800Z 11010KT 9999 SCT017 21/15 Q1022,FIMP,2025-08-14T18:00:00Z,-20.434,57.684,21,15,110,10,,6+,30.18,,,,,,,,,,,SCT,1700,,,,,,,VFR,,,,,,,,,,,,METAR,57
FGSL 141800Z 24009KT 9999 SCT008 25/23 Q1015 NOSIG,FGSL,2025-08-14T18:00:00Z,3.756,8.71,25,23,240,9,,6+,29.97,,,,,,TRUE,,,,,SCT,800,,,,,,,VFR,,,,,,,,,,,,METAR,23
FEFF 141800Z VRB03KT 9999 SCT013 23/21 Q1014 BECMG BKN013,FEFF,2025-08-14T18:00:00Z,4.399,18.519,23,21,VRB,3,,6+,29.94,,,,,,,,,,,SCT,1300,,,,,,,VFR,,,,,,,,,,,,METAR,364
FCPP 141800Z 22004KT 6000 FEW010 21/19 Q1015 NOSIG,FCPP,2025-08-14T18:00:00Z,-4.816,11.887,21,19,220,4,,3.73,29.97,,,,,,TRUE,,,,,FEW,1000,,,,,,,MVFR,,,,,,,,,,,,METAR,18
FCOD 141800Z 00000KT 7000 NSC 28/22 Q1014,FCOD,2025-08-14T18:00:00Z,-1.226,15.91,28,22,0,0,,4.35,29.94,,,,,,,,,,,CLR,,,,,,,,MVFR,,,,,,,,,,,,METAR,327
FCBB 141800Z 31002KT 7000 NSC 24/17 Q1016 NOSIG,FCBB,2025-08-14T18:00:00Z,-4.252,15.253,24,17,310,2,,4.35,30.00,,,,,,TRUE,,,,,CLR,,,,,,,,MVFR,,,,,,,,,,,,METAR,316
FBSK 141800Z 07007KT CAVOK 17/02 Q1020 NOSIG,FBSK,2025-08-14T18:00:00Z,-24.555,25.918,17,2,70,7,,6+,30.12,,,,,,TRUE,,,,,CAVOK,,,,,,,,VFR,,,,,,,,,,,,METAR,1007
FBMN 141800Z 11005KT CAVOK 21/M01 Q1019,FBMN,2025-08-14T18:00:00Z,-19.973,23.431,21,-1,110,5,,6+,30.09,,,,,,,,,,,CAVOK,,,,,,,,VFR,,,,,,,,,,,,METAR,946
FBKE 141800Z 11005KT CAVOK 19/00 Q1020,FBKE,2025-08-14T18:00:00Z,-17.833,25.162,19,0,110,5,,6+,30.12,,,,,,,,,,,CAVOK,,,,,,,,VFR,,,,,,,,,,,,METAR,999
FAWK 141800Z AUTO /////KT //// // ////// 14/02 Q1025,FAWK,2025-08-14T18:00:00Z,-25.83,28.223,14,2,,,,,30.27,,,TRUE,,,,,,,,,,,,,,,,,,,,,,,,,,,,METAR,1496
FAWB 141800Z AUTO 16003KT //// // ////// 13/04 Q1022,FAWB,2025-08-14T18:00:00Z,-25.654,28.224,13,4,160,3,,,30.18,,,TRUE,,,,,,,,,,,,,,,,,,,,,,,,,,,,METAR,1245
FAVV 141800Z AUTO 27006KT //// // ////// 16/01 Q1025,FAVV,2025-08-14T18:00:00Z,-26.566,27.961,16,1,270,6,,,30.27,,,TRUE,,,,,,,,,,,,,,,,,,,,,,,,,,,,METAR,1480
FAUT 141800Z AUTO 19004KT //// // ////// 15/15 Q1019,FAUT,2025-08-14T18:00:00Z,-31.546,28.673,15,15,190,4,,,30.09,,,TRUE,,,,,,,,,,,,,,,,,,,,,,,,,,,,METAR,735
FAUP 141800Z 22010KT CAVOK 20/M04 Q1016 NOSIG,FAUP,2025-08-14T18:00:00Z,-28.399,21.26,20,-4,220,10,,6+,30.00,,,,,,TRUE,,,,,CAVOK,,,,,,,,VFR,,,,,,,,,,,,METAR,845
FASI 141800Z AUTO 35003KT //// // ////// 13/01 Q1028,FASI,2025-08-14T18:00:00Z,-26.248,28.398,13,1,350,3,,,30.35,,,TRUE,,,,,,,,,,,,,,,,,,,,,,,,,,,,METAR,1627
FAPP 141800Z 10006KT CAVOK 14/M00 Q1025 NOSIG,FAPP,2025-08-14T18:00:00Z,-23.845,29.459,14,0,100,6,,6+,30.27,,,,,,TRUE,,,,,CAVOK,,,,,,,,VFR,,,,,,,,,,,,METAR,1238
FAPN 141800Z AUTO 28002KT //// // ////// 15/04 Q1021,FAPN,2025-08-14T18:00:00Z,-25.334,27.173,15,4,280,2,,,30.15,,,TRUE,,,,,,,,,,,,,,,,,,,,,,,,,,,,METAR,1045
FAPE 141800Z 09009KT 9999 FEW024 18/16 Q1018 NOSIG,FAPE,2025-08-14T18:00:00Z,-33.985,25.617,18,16,90,9,,6+,30.06,,,,,,TRUE,,,,,FEW,2400,,,,,,,VFR,,,,,,,,,,,,METAR,58
FAMM 141800Z 03006KT CAVOK 14/01 Q1022 NOSIG,FAMM,2025-08-14T18:00:00Z,-25.798,25.548,14,1,30,6,,6+,30.18,,,,,,TRUE,,,,,CAVOK,,,,,,,,VFR,,,,,,,,,,,,METAR,1280
FALW 141800Z AUTO 23004KT //// // ////// 12/10 Q1019,FALW,2025-08-14T18:00:00Z,-32.972,18.158,12,10,230,4,,,30.09,,,TRUE,,,,,,,,,,,,,,,,,,,,,,,,,,,,METAR,31
FALE 141800Z 04004KT CAVOK 19/17 Q1017 NOSIG,FALE,2025-08-14T18:00:00Z,-29.602,31.13,19,17,40,4,,6+,30.03,,,,,,TRUE,,,,,CAVOK,,,,,,,,VFR,,,,,,,,,,,,METAR,109
FALA 141800Z 11004KT CAVOK 16/03 Q1024 NOSIG,FALA,2025-08-14T18:00:00Z,-25.939,27.926,16,3,110,4,,6+,30.24,,,,,,TRUE,,,,,CAVOK,,,,,,,,VFR,,,,,,,,,,,,METAR,1365
FAKN 141800Z 00000KT CAVOK 19/03 Q1022 NOSIG,FAKN,2025-08-14T18:00:00Z,-25.383,31.106,19,3,0,0,,6+,30.18,,,,,,TRUE,,,,,CAVOK,,,,,,,,VFR,,,,,,,,,,,,METAR,864
FAKM 141800Z 36007KT CAVOK 16/02 Q1019,FAKM,2025-08-14T18:00:00Z,-28.803,24.765,16,2,360,7,,6+,30.09,,,,,,,,,,,CAVOK,,,,,,,,VFR,,,,,,,,,,,,METAR,1203
FAJB 141800Z AUTO 00000KT //// // ////// 13/02 Q1024,FAJB,2025-08-14T18:00:00Z,-26.15,28,13,2,0,0,,,30.24,,,TRUE,,,,,,,,,,,,,,,,,,,,,,,,,,,,METAR,1626
FAHS 141800Z AUTO 05004KT //// // ////// 23/03 Q1020,FAHS,2025-08-14T18:00:00Z,-24.381,31.044,23,3,50,4,,,30.12,,,TRUE,,,,,,,,,,,,,,,,,,,,,,,,,,,,METAR,532
FAGG 141800Z 25004KT 9999 SCT020 13/11 Q1018,FAGG,2025-08-14T18:00:00Z,-34.006,22.379,13,11,250,4,,6+,30.06,,,,,,,,,,,SCT,2000,,,,,,,VFR,,,,,,,,,,,,METAR,196
FAEL 141800Z 06005KT 030V090 9999 FEW012 OVC037 18/17 Q1019,FAEL,2025-08-14T18:00:00Z,-33.036,27.826,18,17,60,5,,6+,30.09,,,,,,,,,,,FEW,1200,OVC,3700,,,,,VFR,,,,,,,,,,,,METAR,127
FACT 141800Z 21008KT 9999 FEW030 14/12 Q1019 NOSIG,FACT,2025-08-14T18:00:00Z,-33.965,18.602,14,12,210,8,,6+,30.09,,,,,,TRUE,,,,,FEW,3000,,,,,,,VFR,,,,,,,,,,,,METAR,48
FABL 141800Z 06003KT CAVOK 16/01 Q1021 NOSIG,FABL,2025-08-14T18:00:00Z,-29.093,26.302,16,1,60,3,,6+,30.15,,,,,,TRUE,,,,,CAVOK,,,,,,,,VFR,,,,,,,,,,,,METAR,1348
EIME 141800Z 27008KT 9999 FEW033CB SCT042 22/17 Q1019,EIME,2025-08-14T18:00:00Z,53.306,-6.442,22,17,270,8,,6+,30.09,,,,,,,,,,,FEW,3300,SCT,4200,,,,,VFR,,,,,,,,,,,,METAR,90
DXXX 141800Z 22011KT 9999 FEW010 25/22 Q1016 NOSIG,DXXX,2025-08-14T18:00:00Z,6.166,1.254,25,22,220,11,,6+,30.00,,,,,,TRUE,,,,,FEW,1000,,,,,,,VFR,,,,,,,,,,,,METAR,22
DXSK 141800Z 28002KT 9999 FEW013 BKN120 BKN260 27/22 Q////,DXSK,2025-08-14T18:00:00Z,8.995,1.153,27,22,280,2,,6+,0.00,,,,,,,,,,,FEW,1300,BKN,12000,BKN,26000,,,VFR,,,,,,,,,,,,METAR,381
DXNG 141800Z 24003KT 210V270 9999 FEW006 25/20 Q1017,DXNG,2025-08-14T18:00:00Z,9.767,1.091,25,20,240,3,,6+,30.03,,,,,,,,,,,FEW,600,,,,,,,VFR,,,,,,,,,,,,METAR,343
DTTZ 141800Z 28005KT 9999 FEW033 37/13 Q1012,DTTZ,2025-08-14T18:00:00Z,33.94,8.111,37,13,280,5,,6+,29.88,,,,,,,,,,,FEW,3300,,,,,,,VFR,,,,,,,,,,,,METAR,87
DTTX 141800Z 17004KT 130V210 9999 FEW030 29/24 Q1014,DTTX,2025-08-14T18:00:00Z,34.718,10.691,29,24,170,4,,6+,29.94,,,,,,,,,,,FEW,3000,,,,,,,VFR,,,,,,,,,,,,METAR,17
DTTN 141800Z 35008KT 310V030 9999 SCT020 33/10 Q1015,DTTN,2025-08-14T18:00:00Z,36.483,8.8,33,10,350,8,,6+,29.97,,,,,,,,,,,SCT,2000,,,,,,,VFR,,,,,,,,,,,,METAR,145
DTTL 141800Z 01004KT 320V060 CAVOK 28/24 Q1014,DTTL,2025-08-14T18:00:00Z,36.85,11.083,28,24,10,4,,6+,29.94,,,,,,,,,,,CAVOK,,,,,,,,VFR,,,,,,,,,,,,METAR,18
DTTK 141800Z 07006KT 9999 SCT023 33/14 Q1015,DTTK,2025-08-14T18:00:00Z,35.667,10.1,33,14,70,6,,6+,29.97,,,,,,,,,,,SCT,2300,,,,,,,VFR,,,,,,,,,,,,METAR,65
DTTG 141800Z 08010KT 9999 FEW020 32/16 Q1015,DTTG,2025-08-14T18:00:00Z,33.733,9.918,32,16,80,10,,6+,29.97,,,,,,,,,,,FEW,2000,,,,,,,VFR,,,,,,,,,,,,METAR,120
DTTF 141800Z 25002KT 8000 FEW026 31/14 Q1015,DTTF,2025-08-14T18:00:00Z,34.422,8.822,31,14,250,2,,4.97,29.97,,,,,,,,,,,FEW,2600,,,,,,,MVFR,,,,,,,,,,,,METAR,314
DTTD 141800Z 07009KT 030V110 CAVOK 33/10 Q1015,DTTD,2025-08-14T18:00:00Z,32.312,10.386,33,10,70,9,,6+,29.97,,,,,,,,,,,CAVOK,,,,,,,,VFR,,,,,,,,,,,,METAR,306
DTTB 141800Z 02006KT 9999 FEW020 28/23 Q1015,DTTB,2025-08-14T18:00:00Z,37.245,9.791,28,23,20,6,,6+,29.97,,,,,,,,,,,FEW,2000,,,,,,,VFR,,,,,,,,,,,,METAR,4
DTKA 141800Z VRB02KT 9999 FEW020 27/23 Q1015 NOSIG,DTKA,2025-08-14T18:00:00Z,36.98,8.877,27,23,VRB,2,,6+,29.97,,,,,,TRUE,,,,,FEW,2000,,,,,,,VFR,,,,,,,,,,,,METAR,70
DRZR 141800Z 29004KT CAVOK 28/20 Q1015,DRZR,2025-08-14T18:00:00Z,13.779,8.984,28,20,290,4,,6+,29.97,,,,,,,,,,,CAVOK,,,,,,,,VFR,,,,,,,,,,,,METAR,457
DRZA 141800Z 30006KT 9999 TS FEW040 FEW050CB 33/18 Q1012,DRZA,2025-08-14T18:00:00Z,16.964,7.989,33,18,300,6,,6+,29.88,,,,,,,,,,TS,FEW,4000,FEW,5000,,,,,VFR,,,,,,,,,,,,METAR,506
DRRT 141800Z 26003KT 200V280 9999 FEW023 29/21 Q1014,DRRT,2025-08-14T18:00:00Z,14.878,5.27,29,21,260,3,,6+,29.94,,,,,,,,,,,FEW,2300,,,,,,,VFR,,,,,,,,,,,,METAR,387
DRRN 141800Z 25006KT 220V280 8000 TS FEW014 FEW020CB 25/22 Q1014 TEMPO 4000 TSRA,DRRN,2025-08-14T18:00:00Z,13.483,2.17,25,22,250,6,,4.97,29.94,,,,,,,,,,TS,FEW,1400,FEW,2000,,,,,MVFR,,,,,,,,,,,,METAR,223
DRRM 141800Z VRB02KT 9999 FEW033 27/23 Q1014,DRRM,2025-08-14T18:00:00Z,13.502,7.12,27,23,VRB,2,,6+,29.94,,,,,,,,,,,FEW,3300,,,,,,,VFR,,,,,,,,,,,,METAR,374
DNZA 141800Z 24006KT 9999 SCT013 FEW023CB 26/21 Q1016,DNZA,2025-08-14T18:00:00Z,11.13,7.686,26,21,240,6,,6+,30.00,,,,,,,,,,,SCT,1300,FEW,2300,,,,,VFR,,,,,,,,,,,,METAR,655
DNMM 141800Z 25008KT 9999 SCT010 26/23 Q1016 NOSIG,DNMM,2025-08-14T18:00:00Z,6.577,3.321,26,23,250,8,,6+,30.00,,,,,,TRUE,,,,,SCT,1000,,,,,,,VFR,,,,,,,,,,,,METAR,27
DNKN 141800Z 28006KT 9999 FEW010 FEW020CB 26/21 Q1016 NOSIG,DNKN,2025-08-14T18:00:00Z,12.048,8.525,26,21,280,6,,6+,30.00,,,,,,TRUE,,,,,FEW,1000,FEW,2000,,,,,VFR,,,,,,,,,,,,METAR,471
DNKA 141800Z 22011KT 9999 BKN009 FEW020 23/22 Q1017 NOSIG,DNKA,2025-08-14T18:00:00Z,10.6,7.45,23,22,220,11,,6+,30.03,,,,,,TRUE,,,,,BKN,900,FEW,2000,,,,,IFR,,,,,,,,,,,,METAR,631
DNIM 141800Z 21008KT 9999 TS BKN010 FEW019CB 26/24 Q1015,DNIM,2025-08-14T18:00:00Z,5.427,7.206,26,24,210,8,,6+,29.97,,,,,,,,,,TS,BKN,1000,FEW,1900,,,,,MVFR,,,,,,,,,,,,METAR,113
DNIL 141800Z 21007KT 9999 SCT011 27/21 Q1015,DNIL,2025-08-14T18:00:00Z,8.438,4.491,27,21,210,7,,6+,29.97,,,,,,,,,,,SCT,1100,,,,,,,VFR,,,,,,,,,,,,METAR,341
DNIB 141800Z 20005KT 9999 SCT010 26/22 Q1015,DNIB,2025-08-14T18:00:00Z,7.36,3.976,26,22,200,5,,6+,29.97,,,,,,,,,,,SCT,1000,,,,,,,VFR,,,,,,,,,,,,METAR,220
DNAK 141800Z 22005KT 9999 BKN011 FEW020CB 27/23 Q1015,DNAK,2025-08-14T18:00:00Z,7.247,5.301,27,23,220,5,,6+,29.97,,,,,,,,,,,BKN,1100,FEW,2000,,,,,MVFR,,,,,,,,,,,,METAR,328
DNAA 141800Z 07003KT 9999 FEW009 25/23 Q1016 NOSIG,DNAA,2025-08-14T18:00:00Z,9.007,7.263,25,23,70,3,,6+,30.00,,,,,,TRUE,,,,,FEW,900,,,,,,,VFR,,,,,,,,,,,,METAR,338
DGTK 141800Z 23005KT 9999 SCT009 25/22 Q1015 NOSIG,DGTK,2025-08-14T18:00:00Z,4.896,-1.775,25,22,230,5,,6+,29.97,,,,,,TRUE,,,,,SCT,900,,,,,,,VFR,,,,,,,,,,,,METAR,5
DGSI 141800Z 23008KT 9999 BKN014 27/21 Q1015 NOSIG,DGSI,2025-08-14T18:00:00Z,6.715,-1.591,27,21,230,8,,6+,29.97,,,,,,TRUE,,,,,BKN,1400,,,,,,,MVFR,,,,,,,,,,,,METAR,283
DGLE 141800Z 23004KT 9999 SCT011 27/22 Q1014 NOSIG,DGLE,2025-08-14T18:00:00Z,9.554,-0.862,27,22,230,4,,6+,29.94,,,,,,TRUE,,,,,SCT,1100,,,,,,,VFR,,,,,,,,,,,,METAR,169
DGAA 141800Z 22012KT 9999 FEW015 BKN024 BKN049 24/21 Q1015 NOSIG,DGAA,2025-08-14T18:00:00Z,5.6,-0.17,24,21,220,12,,6+,29.97,,,,,,TRUE,,,,,FEW,1500,BKN,2400,BKN,4900,,,MVFR,,,,,,,,,,,,METAR,68
DFOO 141800Z 25004KT 210V300 9999 FEW010 24/23 Q1015,DFOO,2025-08-14T18:00:00Z,11.163,-4.322,24,23,250,4,,6+,29.97,,,,,,,,,,,FEW,1000,,,,,,,VFR,,,,,,,,,,,,METAR,461
DFFD 141800Z 21010KT 9999 FEW020 FEW033CB 28/22 Q1013 TEMPO TS,DFFD,2025-08-14T18:00:00Z,12.356,-1.512,28,22,210,10,,6+,29.91,,,,,,,,,,,FEW,2000,FEW,3300,,,,,VFR,,,,,,,,,,,,METAR,309
DBBB 141800Z 24013KT 9999 FEW009 25/23 Q1015 NOSIG,DBBB,2025-08-14T18:00:00Z,6.357,2.384,25,23,240,13,,6+,29.97,,,,,,TRUE,,,,,FEW,900,,,,,,,VFR,,,,,,,,,,,,METAR,4
CZZJ 141800Z AUTO 28005KT 12/06 RMK AO1 SLP167 T01180061 58002,CZZJ,2025-08-14T18:00:00Z,53.583,-116.462,11.8,6.1,280,5,,,0.00,1016.7,,TRUE,TRUE,,,,,,,,,,,,,,,,-0.02,,,,,,,,,,,METAR,927
CZVL 141800Z AUTO 31013G18KT 9SM FEW036 SCT055 14/07 A2994 RMK SLP149 DENSITY ALT 2700FT,CZVL,2025-08-14T18:00:00Z,53.67,-113.863,14,7,310,13,18,9,29.94,1014.9,,TRUE,,,,,,,,FEW,3600,SCT,5500,,,,,VFR,,,,,,,,,,,,METAR,685
CZTB 141800Z AUTO 12013KT 21/13 RMK AO1 SLP177 T02110129 58005,CZTB,2025-08-14T18:00:00Z,48.369,-89.327,21.1,12.9,120,13,,,0.00,1017.7,,TRUE,TRUE,,,,,,,,,,,,,,,,-0.05,,,,,,,,,,,METAR,197
CZST 141800Z 00000KT 15SM SCT080 BKN200 15/13 A2982 RMK AC3CS4 SLP099,CZST,2025-08-14T18:00:00Z,55.935,-129.984,15,13,0,0,,15,29.82,1009.9,,,,,,,,,,SCT,8000,BKN,20000,,,,,VFR,,,,,,,,,,,,METAR,10
CZSP 141800Z AUTO 22014G20KT 28/18 RMK AO1 PK WND 21023/1736 SLP118 T02830175 52001,CZSP,2025-08-14T18:00:00Z,46.45,-62.576,28.3,17.5,220,14,20,,0.00,1011.8,,TRUE,TRUE,,,,,,,,,,,,,,,,0.01,,,,,,,,,,,METAR,31
CZSM 141800Z AUTO 03003KT 16/03 RMK AO1 SLP131 T01580030 56002,CZSM,2025-08-14T18:00:00Z,60.026,-111.929,15.8,3,30,3,,,0.00,1013.1,,TRUE,TRUE,,,,,,,,,,,,,,,,-0.02,,,,,,,,,,,METAR,203
CZSJ 141800Z AUTO 12010G16KT 9SM OVC018 13/12 A2975 RMK SLP085 DENSITY ALT 1200FT,CZSJ,2025-08-14T18:00:00Z,53.063,-93.344,13,12,120,10,16,9,29.75,1008.5,,TRUE,,,,,,,,OVC,1800,,,,,,,MVFR,,,,,,,,,,,,METAR,286
CZRP 141800Z AUTO 17009KT 08/05 RMK AO1 SLP160 T00780047 56011,CZRP,2025-08-14T18:00:00Z,75.377,-105.715,7.8,4.7,170,9,,,0.00,1016,,TRUE,TRUE,,,,,,,,,,,,,,,,-0.11,,,,,,,,,,,METAR,6
CZPC 141800Z AUTO 13006KT 9SM FEW018 OVC024 13/09 A3001 RMK SLP165 DENSITY ALT 4500FT,CZPC,2025-08-14T18:00:00Z,49.522,-114.005,13,9,130,6,,9,30.01,1016.5,,TRUE,,,,,,,,FEW,1800,OVC,2400,,,,,MVFR,,,,,,,,,,,,METAR,1187
CZMJ 141800Z AUTO 29013G19KT 21/10 RMK AO1 PK WND 28026/1734 SLP111 T02060097 51009,CZMJ,2025-08-14T18:00:00Z,50.332,-105.538,20.6,9.7,290,13,19,,0.00,1011.1,,TRUE,TRUE,,,,,,,,,,,,,,,,0.09,,,,,,,,,,,METAR,571
CZMD 141800Z AUTO 10007KT 020V160 9SM -RA SCT045 BKN055 OVC074 12/10 A2982 RMK PCPN 0.5MM PAST HR SLP111,CZMD,2025-08-14T18:00:00Z,53.439,-91.766,12,10,100,7,,9,29.82,1011.1,,TRUE,,,,,,,-RA,SCT,4500,BKN,5500,OVC,7400,,,VFR,,,,,,,,,,,,METAR,276
CZKD 141800Z AUTO 09015G22KT 08/08 RMK AO1 5PAST HR 8041 PK WND 09023/1711 SLP042 P0002 T00820077 50112,CZKD,2025-08-14T18:00:00Z,56.037,-96.51,8.2,7.7,90,15,22,,0.00,1004.2,,TRUE,TRUE,,,,,,,,,,,,,,,,,,,,,0.02,,,,,,METAR,190
CZHY 141800Z AUTO 33007KT 17/07 RMK AO1 SLP150 T01680066 58001,CZHY,2025-08-14T18:00:00Z,60.839,-115.781,16.8,6.6,330,7,,,0.00,1015,,TRUE,TRUE,,,,,,,,,,,,,,,,-0.01,,,,,,,,,,,METAR,159
CZFS 141800Z AUTO 15007KT 19/06 RMK AO1 SLP139 T01940055 58007,CZFS,2025-08-14T18:00:00Z,61.76,-121.23,19.4,5.5,150,7,,,0.00,1013.9,,TRUE,TRUE,,,,,,,,,,,,,,,,-0.07,,,,,,,,,,,METAR,174
CZFN 141800Z 11009G15KT 090V150 15SM FEW050 FEW100 FEW220 20/10 A2980 RMK CU1AC1CI1 CU TR AC TR CI TR SLP098 DENSITY ALT 1100FT,CZFN,2025-08-14T18:00:00Z,64.908,-125.563,20,10,110,9,15,15,29.80,1009.8,,,,,,,,,,FEW,5000,FEW,10000,FEW,22000,,,VFR,,,,,,,,,,,,METAR,135
CZFM 141800Z 15004KT 090V180 35SM FEW080 20/12 A2971 RMK AC1 AC TR SLP063 DENSITY ALT 1000FT,CZFM,2025-08-14T18:00:00Z,67.41,-134.871,20,12,150,4,,35,29.71,1006.3,,,,,,,,,,FEW,8000,,,,,,,VFR,,,,,,,,,,,,METAR,33
CZFA 141800Z 15009G15KT 30SM FEW040 FEW220 16/07 A2983 RMK CU1CI1 CI TR SLP118 DENSITY ALT 3100FT,CZFA,2025-08-14T18:00:00Z,62.211,-133.385,16,7,150,9,15,30,29.83,1011.8,,,,,,,,,,FEW,4000,FEW,22000,,,,,VFR,,,,,,,,,,,,METAR,702
CZEV 141800Z AUTO 13006KT 23/10 RMK AO1 SLP075 T02310101 58006,CZEV,2025-08-14T18:00:00Z,68.313,-133.496,23.1,10.1,130,6,,,0.00,1007.5,,TRUE,TRUE,,,,,,,,,,,,,,,,-0.06,,,,,,,,,,,METAR,92
CZEM 141800Z 30007KT 270V350 15SM BKN019 10/05 A3020 RMK SC6 SLP230,CZEM,2025-08-14T18:00:00Z,52.23,-78.52,10,5,300,7,,15,30.20,1023,,,,,,,,,,BKN,1900,,,,,,,MVFR,,,,,,,,,,,,METAR,9
CZEL 141800Z AUTO 03003KT 27/14 RMK AO1 SLP181 T02720135 58001,CZEL,2025-08-14T18:00:00Z,43.642,-80.412,27.2,13.5,30,3,,,0.00,1018.1,,TRUE,TRUE,,,,,,,,,,,,,,,,-0.01,,,,,,,,,,,METAR,370
CZDB 141800Z AUTO 23009G16KT 28/20 RMK AO1 PK WND 26017/1733 SLP126 T02790200 56004,CZDB,2025-08-14T18:00:00Z,45.422,-63.466,27.9,20,230,9,16,,0.00,1012.6,,TRUE,TRUE,,,,,,,,,,,,,,,,-0.04,,,,,,,,,,,METAR,38
CZCR 141800Z AUTO 31013KT 26/15 RMK AO1 PK WND 32018/1739 SLP117 T02630150,CZCR,2025-08-14T18:00:00Z,47.99,-66.334,26.3,15,310,13,,,0.00,1011.7,,TRUE,TRUE,,,,,,,,,,,,,,,,,,,,,,,,,,,METAR,39
CZBF 141800Z AUTO 25012KT 240V340 9SM FEW048 BKN086 BKN110 28/17 A2986 RMK SLP114 DENSITY ALT 1900FT,CZBF,2025-08-14T18:00:00Z,47.628,-65.746,28,17,250,12,,9,29.86,1011.4,,TRUE,,,,,,,,FEW,4800,BKN,8600,BKN,11000,,,VFR,,,,,,,,,,,,METAR,60
CYZY 141800Z AUTO VRB02KT 9SM CLR 13/05 A2996 RMK SLP160 DENSITY ALT 2600FT,CYZY,2025-08-14T18:00:00Z,55.303,-123.135,13,5,VRB,2,,9,29.96,1016,,TRUE,,,,,,,,CLR,,,,,,,,VFR,,,,,,,,,,,,METAR,694
CYZW 141800Z 11005KT 060V140 30SM FEW060 FEW085 SCT240 15/09 A2984 RMK CU1AC1CI1 SLP117 DENSITY ALT 3000FT,CYZW,2025-08-14T18:00:00Z,60.175,-132.734,15,9,110,5,,30,29.84,1011.7,,,,,,,,,,FEW,6000,FEW,8500,SCT,24000,,,VFR,,,,,,,,,,,,METAR,700
CYZV 141800Z 32010G19KT 30SM FEW050 FEW260 FEW280 22/08 A2985 RMK SC1CI1CI1 SC TR CU ASOCTD SLP110 DENSITY ALT 1200FT,CYZV,2025-08-14T18:00:00Z,50.217,-66.26,22,8,320,10,19,30,29.85,1011,,,,,,,,,,FEW,5000,FEW,26000,FEW,28000,,,VFR,,,,,,,,,,,,METAR,43
CYZU 141800Z 30007KT 15SM FEW019 BKN040 12/07 A2998 RMK SC2SC5 CIG RAG SLP166 DENSITY ALT 2800FT,CYZU,2025-08-14T18:00:00Z,54.142,-115.785,12,7,300,7,,15,29.98,1016.6,,,,,,,,,,FEW,1900,BKN,4000,,,,,VFR,,,,,,,,,,,,METAR,785
CYZS 141800Z 18014KT 15SM FEW020 12/04 A2999 RMK SC2 WIND EST SLP162,CYZS,2025-08-14T18:00:00Z,64.188,-83.351,12,4,180,14,,15,29.99,1016.2,,,,,,,,,,FEW,2000,,,,,,,VFR,,,,,,,,,,,,METAR,60
CYZR 141800Z AUTO 02008KT 4SM HZ CLR 25/20 A3008 RMK SLP185 DENSITY ALT 1700FT,CYZR,2025-08-14T18:00:00Z,42.995,-82.307,25,20,20,8,,4,30.08,1018.5,,TRUE,,,,,,,HZ,CLR,,,,,,,,MVFR,,,,,,,,,,,,METAR,181
CYZH 141800Z AUTO 29015G20KT 9SM SCT025 SCT034 BKN041 OVC060 13/07 A2992 RMK SLP144 DENSITY ALT 2200FT,CYZH,2025-08-14T18:00:00Z,55.293,-114.773,13,7,290,15,20,9,29.92,1014.4,,TRUE,,,,,,,,SCT,2500,SCT,3400,BKN,4100,OVC,6000,VFR,,,,,,,,,,,,METAR,583
CYZF 141800Z 32006KT 270V060 10SM FEW040 FEW050 BKN092 BKN240 20/07 A2992 RMK FU1SC1AC5CI1 FU TR SC TR FU SLP141 DENSITY ALT 1400FT,CYZF,2025-08-14T18:00:00Z,62.475,-114.448,20,7,320,6,,10+,29.92,1014.1,,,,,,,,,,FEW,4000,FEW,5000,BKN,9200,BKN,24000,VFR,,,,,,,,,,,,METAR,202
CYZE 141800Z AUTO 36008KT 9SM BKN035 OVC045 23/17 A3010 RMK SLP196 DENSITY ALT 1600FT,CYZE,2025-08-14T18:00:00Z,45.885,-82.57,23,17,360,8,,9,30.10,1019.6,,TRUE,,,,,,,,BKN,3500,OVC,4500,,,,,VFR,,,,,,,,,,,,METAR,189
CYYZ 141800Z 15008KT 090V170 10SM SCT070 BKN110 27/15 A3005 RMK CU4AC1 HZ SLP175 DENSITY ALT 2000FT,CYYZ,2025-08-14T18:00:00Z,43.679,-79.629,27,15,150,8,,10+,30.05,1017.5,,,,,,,,,,SCT,7000,BKN,11000,,,,,VFR,,,,,,,,,,,,METAR,171
CYYY 141800Z 27010KT 30SM FEW040 20/10 A2996 RMK SC1 SC TR SLP147 DENSITY ALT 800FT,CYYY,2025-08-14T18:00:00Z,48.609,-68.208,20,10,270,10,,30,29.96,1014.7,,,,,,,,,,FEW,4000,,,,,,,VFR,,,,,,,,,,,,METAR,43
CYYW 141800Z AUTO 17013G21KT 9SM FEW026 19/12 A3002 RMK SLP169 DENSITY ALT 1700FT,CYYW,2025-08-14T18:00:00Z,50.296,-88.912,19,12,170,13,21,9,30.02,1016.9,,TRUE,,,,,,,,FEW,2600,,,,,,,VFR,,,,,,,,,,,,METAR,320
CYYU 141800Z 00000KT 15SM FEW250 19/06 A3015 RMK CI2 SLP216 DENSITY ALT 1200FT,CYYU,2025-08-14T18:00:00Z,49.416,-82.47,19,6,0,0,,15,30.15,1021.6,,,,,,,,,,FEW,25000,,,,,,,VFR,,,,,,,,,,,,METAR,228
CYYT 141800Z 23015G27KT 15SM BKN028 26/19 A3002 RMK FU1SC6 SLP166 DENSITY ALT 1800FT,CYYT,2025-08-14T18:00:00Z,47.627,-52.748,26,19,230,15,27,15,30.02,1016.6,,,,,,,,,,BKN,2800,,,,,,,MVFR,,,,,,,,,,,,METAR,128
CYYR 141800Z 22011KT 200V270 15SM FEW036TCU SCT080 SCT120 26/18 A2964 RMK TCU1AC2AC1 DENSITY ALT 2002FT SH DIST SE SLP038,CYYR,2025-08-14T18:00:00Z,53.32,-60.417,26,18,220,11,,15,29.64,1003.8,,,,,,,,,,FEW,3600,SCT,8000,SCT,12000,,,VFR,,,,,,,,,,,,METAR,42
CYYQ 141800Z 13012KT 15SM FEW032 OVC090 11/06 A2994 RMK SC1AC7 SLP141,CYYQ,2025-08-14T18:00:00Z,58.745,-94.074,11,6,130,12,,15,29.94,1014.1,,,,,,,,,,FEW,3200,OVC,9000,,,,,VFR,,,,,,,,,,,,METAR,20
CYYN 141800Z AUTO 30015G27KT 9SM BKN033 16/10 A2989 RMK SLP124 DENSITY ALT 3500FT,CYYN,2025-08-14T18:00:00Z,50.292,-107.691,16,10,300,15,27,9,29.89,1012.4,,TRUE,,,,,,,,BKN,3300,,,,,,,VFR,,,,,,,,,,,,METAR,814
CYYJ 141800Z 14008KT 30SM SCT035 SCT210 BKN250 19/11 A2999 RMK SC3CC1CI1 SLP156 DENSITY ALT 600FT,CYYJ,2025-08-14T18:00:00Z,48.642,-123.433,19,11,140,8,,30,29.99,1015.6,,,,,,,,,,SCT,3500,SCT,21000,BKN,25000,,,VFR,,,,,,,,,,,,METAR,16
CYYH 141800Z 04008KT 360V070 15SM BKN025 08/02 A2995 RMK SC7 SLP147,CYYH,2025-08-14T18:00:00Z,69.543,-93.568,8,2,40,8,,15,29.95,1014.7,,,,,,,,,,BKN,2500,,,,,,,MVFR,,,,,,,,,,,,METAR,19
CYYG 141800Z 23012G19KT 15SM FEW030 SCT160 27/19 A2988 RMK CU2AC2 SLP119 DENSITY ALT 1700FT,CYYG,2025-08-14T18:00:00Z,46.289,-63.128,27,19,230,12,19,15,29.88,1011.9,,,,,,,,,,FEW,3000,SCT,16000,,,,,VFR,,,,,,,,,,,,METAR,48
CYYF 141800Z 35005KT 310V020 15SM FEW065 SCT110 BKN240 25/13 A2988 RMK CU2AC1CI3 SLP117 DENSITY ALT 2600FT,CYYF,2025-08-14T18:00:00Z,49.46,-119.606,25,13,350,5,,15,29.88,1011.7,,,,,,,,,,FEW,6500,SCT,11000,BKN,24000,,,VFR,,,,,,,,,,,,METAR,342
CYYE 141800Z VRB02KT 30SM FEW040 15/07 A2994 RMK CU1 SLP149 DENSITY ALT 1600FT,CYYE,2025-08-14T18:00:00Z,58.839,-122.59,15,7,VRB,2,,30,29.94,1014.9,,,,,,,,,,FEW,4000,,,,,,,VFR,,,,,,,,,,,,METAR,379
CYYD 141800Z 19009KT 25SM FEW060 SCT080 SCT100 BKN210 18/06 A2988 RMK CU1AC3AC1CS4 CU TR AC TR STANDING LENTICULARIS SLP121 DENSITY ALT 2600FT,CYYD,2025-08-14T18:00:00Z,54.823,-127.185,18,6,190,9,,25,29.88,1012.1,,,,,,,,,,FEW,6000,SCT,8000,SCT,10000,BKN,21000,VFR,,,,,,,,,,,,METAR,527
CYYC 141800Z 00000KT 15SM BKN030 BKN250 12/07 A3000 RMK SC7CI1 CI TR SLP174 DENSITY ALT 4100FT,CYYC,2025-08-14T18:00:00Z,51.116,-114.011,12,7,0,0,,15,30.00,1017.4,,,,,,,,,,BKN,3000,BKN,25000,,,,,MVFR,,,,,,,,,,,,METAR,1085
CYYB 141800Z 04006KT 310V090 30SM FEW280 21/09 A3014 RMK CI2 SLP209 DENSITY ALT 2000FT,CYYB,2025-08-14T18:00:00Z,46.365,-79.423,21,9,40,6,,30,30.14,1020.9,,,,,,,,,,FEW,28000,,,,,,,VFR,,,,,,,,,,,,METAR,360
CYXZ 141800Z VRB02KT 15SM BKN042 21/11 A3010 RMK CU5 SLP200 DENSITY ALT 1600FT,CYXZ,2025-08-14T18:00:00Z,47.974,-84.781,21,11,VRB,2,,15,30.10,1020,,,,,,,,,,BKN,4200,,,,,,,VFR,,,,,,,,,,,,METAR,287
CYXY 141800Z 16011KT 40SM FEW065 BKN100 BKN260 15/07 A2979 RMK SC2AC4CI1 SLP102 DENSITY ALT 3100FT,CYXY,2025-08-14T18:00:00Z,60.71,-135.059,15,7,160,11,,40,29.79,1010.2,,,,,,,,,,FEW,6500,BKN,10000,BKN,26000,,,VFR,,,,,,,,,,,,METAR,677
CYXX 141800Z 23007KT 210V290 20SM BKN024 BKN033 BKN086 BKN240 19/12 A3001 RMK SC5SC1AC1CI1 AC TR SLP164 DENSITY ALT 600FT,CYXX,2025-08-14T18:00:00Z,49.027,-122.377,19,12,230,7,,20,30.01,1016.4,,,,,,,,,,BKN,2400,BKN,3300,BKN,8600,BKN,24000,MVFR,,,,,,,,,,,,METAR,54
CYXU 141800Z 02008KT 320V050 12SM FEW052 27/14 A3007 RMK CU1 SLP182 DENSITY ALT 2400FT,CYXU,2025-08-14T18:00:00Z,43.039,-81.162,27,14,20,8,,12,30.07,1018.2,,,,,,,,,,FEW,5200,,,,,,,VFR,,,,,,,,,,,,METAR,278
CYXT 141800Z 16003KT 100V180 20SM FEW009 FEW045 OVC180 16/13 A2985 RMK SC1SC1AS8 SC TR SC TR SLP111 DENSITY ALT 1100FT,CYXT,2025-08-14T18:00:00Z,54.471,-128.577,16,13,160,3,,20,29.85,1011.1,,,,,,,,,,FEW,900,FEW,4500,OVC,18000,,,VFR,,,,,,,,,,,,METAR,213
CYXS 141800Z AUTO VRB02KT 9SM CLR 14/07 A2994 RMK SLP154 DENSITY ALT 2700FT,CYXS,2025-08-14T18:00:00Z,53.884,-122.677,14,7,VRB,2,,9,29.94,1015.4,,TRUE,,,,,,,,CLR,,,,,,,,VFR,,,,,,,,,,,,METAR,685
CYXR 141800Z AUTO VRB04KT 9SM CLR 19/08 A3015 RMK SLP215 DENSITY ALT 1300FT,CYXR,2025-08-14T18:00:00Z,47.698,-79.852,19,8,VRB,4,,9,30.15,1021.5,,TRUE,,,,,,,,CLR,,,,,,,,VFR,,,,,,,,,,,,METAR,244
CYXQ 141800Z 30008G15KT 280V350 30SM SCT070 BKN100 OVC240 16/04 A2974 RMK AC4AC2CI2 SLP085 DENSITY ALT 3000FT,CYXQ,2025-08-14T18:00:00Z,62.408,-140.866,16,4,300,8,15,30,29.74,1008.5,,,,,,,,,,SCT,7000,BKN,10000,OVC,24000,,,VFR,,,,,,,,,,,,METAR,663
CYXP 141800Z 26012KT 15SM SCT061 BKN150 07/03 A2968 RMK SC3AC4 SLP054,CYXP,2025-08-14T18:00:00Z,66.144,-65.712,7,3,260,12,,15,29.68,1005.4,,,,,,,,,,SCT,6100,BKN,15000,,,,,VFR,,,,,,,,,,,,METAR,29
CYXL 141800Z 16008KT 140V200 15SM FEW028 BKN032 BKN077 21/15 A2990 RMK CU1SC6AC1 CU TR SLP133 DENSITY ALT 2300FT,CYXL,2025-08-14T18:00:00Z,50.114,-91.905,21,15,160,8,,15,29.90,1013.3,,,,,,,,,,FEW,2800,BKN,3200,BKN,7700,,,VFR,,,,,,,,,,,,METAR,381
CYXJ 141800Z 25008KT 15SM FEW020 SCT240 12/07 A2998 RMK CU1CI2 SLP171,CYXJ,2025-08-14T18:00:00Z,56.247,-120.737,12,7,250,8,,15,29.98,1017.1,,,,,,,,,,FEW,2000,SCT,24000,,,,,VFR,,,,,,,,,,,,METAR,700
CYXH 141800Z 29005KT 260V340 30SM BKN026 BKN090 BKN250 16/10 A2997 RMK SC6AC1CI1 CI TR SLP150 DENSITY ALT 3000FT,CYXH,2025-08-14T18:00:00Z,50.018,-110.717,16,10,290,5,,30,29.97,1015,,,,,,,,,,BKN,2600,BKN,9000,BKN,25000,,,MVFR,,,,,,,,,,,,METAR,717
CYXE 141800Z 28020G26KT 15SM BKN035 16/08 A2978 RMK CU7 SLP096 DENSITY ALT 2400FT,CYXE,2025-08-14T18:00:00Z,52.172,-106.695,16,8,280,20,26,15,29.78,1009.6,,,,,,,,,,BKN,3500,,,,,,,VFR,,,,,,,,,,,,METAR,504
CYXC 141800Z VRB03KT 25SM FEW060 FEW120 SCT250 20/09 A2992 RMK CU1AC1CI3 CU TR SLP122 DENSITY ALT 4400FT,CYXC,2025-08-14T18:00:00Z,49.614,-115.784,20,9,VRB,3,,25,29.92,1012.2,,,,,,,,,,FEW,6000,FEW,12000,SCT,25000,,,VFR,,,,,,,,,,,,METAR,928
CYWY 141800Z 14008KT 30SM FEW050 FEW150 18/07 A2987 RMK CU1AC1 CU TR AC TR SLP121 DENSITY ALT 1000FT,CYWY,2025-08-14T18:00:00Z,63.21,-123.434,18,7,140,8,,30,29.87,1012.1,,,,,,,,,,FEW,5000,FEW,15000,,,,,VFR,,,,,,,,,,,,METAR,135
CYWL 141800Z VRB06KT 15SM BKN084 BKN210 17/07 A2995 RMK AC5CC1 SLP145 DENSITY ALT 4100FT,CYWL,2025-08-14T18:00:00Z,52.186,-122.066,17,7,VRB,6,,15,29.95,1014.5,,,,,,,,,,BKN,8400,BKN,21000,,,,,VFR,,,,,,,,,,,,METAR,942
CYWK 141800Z 27016G23KT 15SM VCSH BKN038 BKN050 14/06 A2985 RMK CU5SC2 SLP120 DENSITY ALT 2300FT,CYWK,2025-08-14T18:00:00Z,52.927,-66.874,14,6,270,16,23,15,29.85,1012,,,,,,,,,VCSH,BKN,3800,BKN,5000,,,,,VFR,,,,,,,,,,,,METAR,547
CYWJ 141800Z 11009KT 20SM FEW080 FEW200 18/06 A2985 RMK AC1CI1 AC TR SLP118 DENSITY ALT 1400FT,CYWJ,2025-08-14T18:00:00Z,65.209,-123.434,18,6,110,9,,20,29.85,1011.8,,,,,,,,,,FEW,8000,FEW,20000,,,,,VFR,,,,,,,,,,,,METAR,208
CYWH 141800Z 17008KT 150V210 15SM FEW020 FEW160 BKN220 15/11 A3001 RMK SC1AC1CI5 SLP164,CYWH,2025-08-14T18:00:00Z,48.423,-123.387,15,11,170,8,,15,30.01,1016.4,,,,,,,,,,FEW,2000,FEW,16000,BKN,22000,,,VFR,,,,,,,,,,,,METAR,4
CYWG 141800Z 19022KT 15SM FEW050 FEW150 27/20 A2966 RMK CU1AC1 CU TR AC TR SLP045 DENSITY ALT 2700FT,CYWG,2025-08-14T18:00:00Z,49.916,-97.249,27,20,190,22,,15,29.66,1004.5,,,,,,,,,,FEW,5000,FEW,15000,,,,,VFR,,,,,,,,,,,,METAR,238
CYWE 141800Z AUTO 36006KT 310V030 9SM FEW048 20/07 A2990 RMK SLP137 DENSITY ALT 2100FT,CYWE,2025-08-14T18:00:00Z,64.192,-114.078,20,7,360,6,,9,29.90,1013.7,,TRUE,,,,,,,,FEW,4800,,,,,,,VFR,,,,,,,,,,,,METAR,374
CYWA 141800Z 31006KT 270V060 15SM FEW050 FEW250 24/10 A3010 RMK CU1CI1 DENSITY ALT 1541FT CU TR CI TR SLP194,CYWA,2025-08-14T18:00:00Z,45.948,-77.311,24,10,310,6,,15,30.10,1019.4,,,,,,,,,,FEW,5000,FEW,25000,,,,,VFR,,,,,,,,,,,,METAR,121
CYVV 141800Z 02005KT 340V060 15SM FEW020TCU 24/19 A3008 RMK TCU2 SLP189 DENSITY ALT 1800FT,CYVV,2025-08-14T18:00:00Z,44.745,-81.107,24,19,20,5,,15,30.08,1018.9,,,,,,,,,,FEW,2000,,,,,,,VFR,,,,,,,,,,,,METAR,221
CYVR 141800Z 11015G22KT 20SM FEW035 BKN070 19/13 A3000 RMK SC2AC5 SLP161 DENSITY ALT 500FT,CYVR,2025-08-14T18:00:00Z,49.183,-123.168,19,13,110,15,22,20,30.00,1016.1,,,,,,,,,,FEW,3500,BKN,7000,,,,,VFR,,,,,,,,,,,,METAR,2
CYVQ 141800Z 13010KT 30SM FEW036 FEW150 SCT270 20/11 A2980 RMK CU1AC1CI3 CU TR AC TR SLP094 DENSITY ALT 1000FT,CYVQ,2025-08-14T18:00:00Z,65.278,-126.796,20,11,130,10,,30,29.80,1009.4,,,,,,,,,,FEW,3600,FEW,15000,SCT,27000,,,VFR,,,,,,,,,,,,METAR,63
CYVP 141800Z 36006KT 290V020 7SM -SHRA SCT009 BKN013 BKN022 OVC035 09/08 A2973 RMK SF3CU3SC1SC1 CVCTV CLD EMBD SLP071,CYVP,2025-08-14T18:00:00Z,58.1,-68.415,9,8,360,6,,7,29.73,1007.1,,,,,,,,,-SHRA,SCT,900,BKN,1300,BKN,2200,OVC,3500,MVFR,,,,,,,,,,,,METAR,28
CYVO 141800Z 31003KT 290V010 15SM SCT250 17/06 A3016 RMK CI4 SLP222 DENSITY ALT 1400FT,CYVO,2025-08-14T18:00:00Z,48.056,-77.779,17,6,310,3,,15,30.16,1022.2,,,,,,,,,,SCT,25000,,,,,,,VFR,,,,,,,,,,,,METAR,329
CYVC 141800Z 27012G18KT 13SM -RA OVC010 12/11 A2958 RMK SC8 CIG RAG SLP027 DENSITY ALT 1600FT,CYVC,2025-08-14T18:00:00Z,55.15,-105.264,12,11,270,12,18,13,29.58,1002.7,,,,,,,,,-RA,OVC,1000,,,,,,,MVFR,,,,,,,,,,,,METAR,378
CYUY 141800Z 35003KT 290V070 15SM FEW220 18/05 A3016 RMK CI2 SLP222 DENSITY ALT 1400FT,CYUY,2025-08-14T18:00:00Z,48.209,-78.83,18,5,350,3,,15,30.16,1022.2,,,,,,,,,,FEW,22000,,,,,,,VFR,,,,,,,,,,,,METAR,304
CYUX 141800Z 33008KT 15SM SCT085 BKN110 09/03 A2988 RMK AC3AC3 SLP120,CYUX,2025-08-14T18:00:00Z,68.772,-81.233,9,3,330,8,,15,29.88,1012,,,,,,,,,,SCT,8500,BKN,11000,,,,,VFR,,,,,,,,,,,,METAR,8
CYUT 141800Z 16008KT 25SM BKN270 09/03 A2995 RMK CC6 SLP147,CYUT,2025-08-14T18:00:00Z,66.525,-86.23,9,3,160,8,,25,29.95,1014.7,,,,,,,,,,BKN,27000,,,,,,,VFR,,,,,,,,,,,,METAR,22
CYUL 141800Z 06007KT 320V070 15SM FEW042 SCT080 BKN250 25/15 A3001 RMK CU2AC2CI1 SLP164 DENSITY ALT 1200FT,CYUL,2025-08-14T18:00:00Z,45.468,-73.742,25,15,60,7,,15,30.01,1016.4,,,,,,,,,,FEW,4200,SCT,8000,BKN,25000,,,VFR,,,,,,,,,,,,METAR,31
CYUB 141800Z 17009KT 15SM FEW040 FEW250 20/11 A2972 RMK SC1CI1 SC TR SLP068 DENSITY ALT 900FT,CYUB,2025-08-14T18:00:00Z,69.434,-133.026,20,11,170,9,,15,29.72,1006.8,,,,,,,,,,FEW,4000,FEW,25000,,,,,VFR,,,,,,,,,,,,METAR,5
CYTZ 141800Z AUTO 10008KT 060V130 9SM CLR 26/17 A3004 RMK SLP174 DENSITY ALT 1400FT,CYTZ,2025-08-14T18:00:00Z,43.627,-79.397,26,17,100,8,,9,30.04,1017.4,,TRUE,,,,,,,,CLR,,,,,,,,VFR,,,,,,,,,,,,METAR,76
CYTS 141800Z 10004KT 15SM FEW220 20/06 A3015 RMK CI1 SLP217 DENSITY ALT 1500FT,CYTS,2025-08-14T18:00:00Z,48.568,-81.378,20,6,100,4,,15,30.15,1021.7,,,,,,,,,,FEW,22000,,,,,,,VFR,,,,,,,,,,,,METAR,290
CYTR 141800Z 05006KT 15SM FEW065 29/12 A3003 RMK CU2 DENSITY ALT 2036FT SLP168,CYTR,2025-08-14T18:00:00Z,44.115,-77.531,29,12,50,6,,15,30.03,1016.8,,,,,,,,,,FEW,6500,,,,,,,VFR,,,,,,,,,,,,METAR,80
CYTQ 141800Z 33009KT 8SM SCT010 OVC020 09/07 A2974 RMK NS4SC4 SLP076,CYTQ,2025-08-14T18:00:00Z,58.671,-69.948,9,7,330,9,,8,29.74,1007.6,,,,,,,,,,SCT,1000,OVC,2000,,,,,MVFR,,,,,,,,,,,,METAR,14
CYTL 141800Z AUTO 15011G17KT 110V170 9SM CLR 14/08 A2992 RMK SLP143,CYTL,2025-08-14T18:00:00Z,53.816,-89.892,14,8,150,11,17,9,29.92,1014.3,,TRUE,,,,,,,,CLR,,,,,,,,VFR,,,,,,,,,,,,METAR,218
CYTE 141800Z AUTO 33014G21KT 9SM CLR 11/M01 A2988 RMK SLP124,CYTE,2025-08-14T18:00:00Z,64.23,-76.528,11,-1,330,14,21,9,29.88,1012.4,,TRUE,,,,,,,,CLR,,,,,,,,VFR,,,,,,,,,,,,METAR,49
CYSN 141800Z 04011KT 15SM SCT030 27/19 A3003 RMK CU3 SLP169 DENSITY ALT 1700FT,CYSN,2025-08-14T18:00:00Z,43.192,-79.176,27,19,40,11,,15,30.03,1016.9,,,,,,,,,,SCT,3000,,,,,,,VFR,,,,,,,,,,,,METAR,96
CYSM 141800Z 02008G15KT 010V110 15SM SCT053 SCT260 16/03 A2989 RMK CU3CI1 SLP132 DENSITY ALT 1000FT,CYSM,2025-08-14T18:00:00Z,60.026,-111.929,16,3,20,8,15,15,29.89,1013.2,,,,,,,,,,SCT,5300,SCT,26000,,,,,VFR,,,,,,,,,,,,METAR,203
CYSK 141800Z 30009KT 15SM FEW008 07/04 A3013 RMK SF1 SLP205,CYSK,2025-08-14T18:00:00Z,56.538,-79.242,7,4,300,9,,15,30.13,1020.5,,,,,,,,,,FEW,800,,,,,,,VFR,,,,,,,,,,,,METAR,28
CYSF 141800Z AUTO 06012G18KT 020V090 9SM BKN039 BKN110 14/05 A2979 RMK SLP097,CYSF,2025-08-14T18:00:00Z,59.252,-105.837,14,5,60,12,18,9,29.79,1009.7,,TRUE,,,,,,,,BKN,3900,BKN,11000,,,,,VFR,,,,,,,,,,,,METAR,238
CYSC 141800Z AUTO 32007G17KT 9SM FEW040 SCT250 26/16 A2999 RMK SLP157 DENSITY ALT 2200FT,CYSC,2025-08-14T18:00:00Z,45.44,-71.692,26,16,320,7,17,9,29.99,1015.7,,TRUE,,,,,,,,FEW,4000,SCT,25000,,,,,VFR,,,,,,,,,,,,METAR,236
CYSB 141800Z 03006KT 350V050 20SM SCT056 BKN250 21/11 A3014 RMK SC4CI2 SLP208 DENSITY ALT 1900FT,CYSB,2025-08-14T18:00:00Z,46.622,-80.799,21,11,30,6,,20,30.14,1020.8,,,,,,,,,,SCT,5600,BKN,25000,,,,,VFR,,,,,,,,,,,,METAR,349
CYRV 141800Z AUTO VRB02KT 9SM CLR 20/12 A2992 RMK SLP132 DENSITY ALT 2500FT,CYRV,2025-08-14T18:00:00Z,50.958,-118.176,20,12,VRB,2,,9,29.92,1013.2,,TRUE,,,,,,,,CLR,,,,,,,,VFR,,,,,,,,,,,,METAR,456
CYRT 141800Z 19012KT 15SM BKN052 BKN150 12/03 A3004 RMK SC5AC2 SLP175,CYRT,2025-08-14T18:00:00Z,62.811,-92.1,12,3,190,12,,15,30.04,1017.5,,,,,,,,,,BKN,5200,BKN,15000,,,,,VFR,,,,,,,,,,,,METAR,29
CYRQ 141800Z AUTO 03007G16KT 9SM CLR 23/08 A3003 RMK SLP170 DENSITY ALT 1100FT,CYRQ,2025-08-14T18:00:00Z,46.358,-72.68,23,8,30,7,16,9,30.03,1017,,TRUE,,,,,,,,CLR,,,,,,,,VFR,,,,,,,,,,,,METAR,58
CYRL 141800Z 18011G18KT 130V220 15SM FEW019 SCT120 BKN240 22/17 A2974 RMK SC1AC3CI2 SLP079 DENSITY ALT 2600FT,CYRL,2025-08-14T18:00:00Z,51.067,-93.799,22,17,180,11,18,15,29.74,1007.9,,,,,,,,,,FEW,1900,SCT,12000,BKN,24000,,,VFR,,,,,,,,,,,,METAR,370
CYRJ 141800Z 35007G15KT 260V050 40SM FEW060 19/08 A3007 RMK SC1 SC TR SLP185 DENSITY ALT 1100FT,CYRJ,2025-08-14T18:00:00Z,48.523,-72.266,19,8,350,7,15,40,30.07,1018.5,,,,,,,,,,FEW,6000,,,,,,,VFR,,,,,,,,,,,,METAR,173
CYRB 141800Z 30008KT 30SM FEW003 OVC060 05/01 A2998 RMK ST1SC8 ST TR SLP159,CYRB,2025-08-14T18:00:00Z,74.713,-94.982,5,1,300,8,,30,29.98,1015.9,,,,,,,,,,FEW,300,OVC,6000,,,,,VFR,,,,,,,,,,,,METAR,59
CYRA 141800Z 31003KT 180V340 15SM FEW060 FEW120 FEW230 20/06 A2992 RMK CU1AC1CI1 CI TR SLP140 DENSITY ALT 1500FT,CYRA,2025-08-14T18:00:00Z,64.115,-117.313,20,6,310,3,,15,29.92,1014,,,,,,,,,,FEW,6000,FEW,12000,FEW,23000,,,VFR,,,,,,,,,,,,METAR,232
CYQZ 141800Z AUTO 21003KT 160V290 9SM BKN110 15/05 A2994 RMK SLP150 DENSITY ALT 2300FT,CYQZ,2025-08-14T18:00:00Z,53.027,-122.506,15,5,210,3,,9,29.94,1015,,TRUE,,,,,,,,BKN,11000,,,,,,,VFR,,,,,,,,,,,,METAR,548
CYQY 141800Z 21013G24KT 15SM BKN250 29/15 A2990 RMK CI5 SLP127 DENSITY ALT 1900FT,CYQY,2025-08-14T18:00:00Z,46.166,-60.049,29,15,210,13,24,15,29.90,1012.7,,,,,,,,,,BKN,25000,,,,,,,VFR,,,,,,,,,,,,METAR,58
CYQX 141800Z 20022G29KT 20SM SCT024 BKN032 BKN053 24/19 A2989 RMK SC3SC2SC2 SLP123 DENSITY ALT 1700FT,CYQX,2025-08-14T18:00:00Z,48.946,-54.576,24,19,200,22,29,20,29.89,1012.3,,,,,,,,,,SCT,2400,BKN,3200,BKN,5300,,,VFR,,,,,,,,,,,,METAR,144
CYQW 141800Z AUTO 28018G28KT 9SM BKN040 15/07 A2982 RMK SLP105 DENSITY ALT 2300FT,CYQW,2025-08-14T18:00:00Z,52.769,-108.251,15,7,280,18,28,9,29.82,1010.5,,TRUE,,,,,,,,BKN,4000,,,,,,,VFR,,,,,,,,,,,,METAR,545
CYQU 141800Z 32004KT 200V340 25SM SCT051 BKN220 15/05 A2998 RMK CU4CI1 SLP167 DENSITY ALT 2700FT,CYQU,2025-08-14T18:00:00Z,55.182,-118.882,15,5,320,4,,25,29.98,1016.7,,,,,,,,,,SCT,5100,BKN,22000,,,,,VFR,,,,,,,,,,,,METAR,668
CYQT 141800Z 12013KT 20SM FEW034 FEW280 21/14 A3004 RMK CU1CI1 SLP178 DENSITY ALT 1400FT,CYQT,2025-08-14T18:00:00Z,48.374,-89.33,21,14,120,13,,20,30.04,1017.8,,,,,,,,,,FEW,3400,FEW,28000,,,,,VFR,,,,,,,,,,,,METAR,197
CYQR 141800Z 30017G25KT 15SM FEW036 FEW250 20/11 A2981 RMK CU1CI1 CI TR SLP098 DENSITY ALT 3100FT,CYQR,2025-08-14T18:00:00Z,50.427,-104.67,20,11,300,17,25,15,29.81,1009.8,,,,,,,,,,FEW,3600,FEW,25000,,,,,VFR,,,,,,,,,,,,METAR,576
CYQM 141800Z 31007KT 12SM FEW010 FEW061 SCT071 BKN080 25/21 A2987 RMK CU1SC1AC3AC3 CU TR SC TR SLP115 DENSITY ALT 1500FT,CYQM,2025-08-14T18:00:00Z,46.107,-64.682,25,21,310,7,,12,29.87,1011.5,,,,,,,,,,FEW,1000,FEW,6100,SCT,7100,BKN,8000,VFR,,,,,,,,,,,,METAR,67
CYQL 141800Z 36004KT 320V020 30SM SCT020 BKN046 14/09 A2999 RMK CU3SC4 SLP160 DENSITY ALT 3600FT,CYQL,2025-08-14T18:00:00Z,49.627,-112.792,14,9,360,4,,30,29.99,1016,,,,,,,,,,SCT,2000,BKN,4600,,,,,VFR,,,,,,,,,,,,METAR,923
CYQK 141800Z 18015G21KT 15SM FEW120 FEW250 25/17 A2979 RMK AC1CI1 FU CB TOP DIST N SLP091 DENSITY ALT 3000FT,CYQK,2025-08-14T18:00:00Z,49.791,-94.361,25,17,180,15,21,15,29.79,1009.1,,,,,,,,,,FEW,12000,FEW,25000,,,,,VFR,,,,,,,,,,,,METAR,413
CYQI 141800Z 15005KT 1/4SM FG VV002 18/18 A2994 RMK FG8 SLP141 DENSITY ALT 600FT,CYQI,2025-08-14T18:00:00Z,43.831,-66.088,18,18,150,5,,0.25,29.94,1014.1,,,,,,,,,FG,OVX,0,,,,,,,LIFR,,,,,,,,,,,200,METAR,37
CYQH 141800Z 14004KT 120V190 40SM FEW030 13/08 A2990 RMK CU1 CLIMAT 13.2/5.5/0.0 SLP142 DENSITY ALT 2600FT,CYQH,2025-08-14T18:00:00Z,60.116,-128.832,13,8,140,4,,40,29.90,1014.2,,,,,,,,,,FEW,3000,,,,,,,VFR,,,,,,,,,,,,METAR,692
CYQF 141800Z AUTO 33005KT 9SM BKN024 OVC037 12/08 A2999 RMK SLP171 DENSITY ALT 3300FT,CYQF,2025-08-14T18:00:00Z,52.179,-113.903,12,8,330,5,,9,29.99,1017.1,,TRUE,,,,,,,,BKN,2400,OVC,3700,,,,,MVFR,,,,,,,,,,,,METAR,912
CYQB 141800Z 31005KT 260V350 25SM FEW050 FEW240 25/09 A2997 RMK CU1CI1 CU TR SLP152 DENSITY ALT 1400FT,CYQB,2025-08-14T18:00:00Z,46.791,-71.396,25,9,310,5,,25,29.97,1015.2,,,,,,,,,,FEW,5000,FEW,24000,,,,,VFR,,,,,,,,,,,,METAR,73
CYQA 141800Z AUTO VRB05KT 9SM SCT055 SCT073 26/12 A3008 RMK SLP187 DENSITY ALT 2300FT,CYQA,2025-08-14T18:00:00Z,44.971,-79.303,26,12,VRB,5,,9,30.08,1018.7,,TRUE,,,,,,,,SCT,5500,SCT,7300,,,,,VFR,,,,,,,,,,,,METAR,277
CYPY 141800Z AUTO 05008KT 9SM BKN047 BKN076 OVC100 14/07 A2984 RMK SLP116,CYPY,2025-08-14T18:00:00Z,58.766,-111.117,14,7,50,8,,9,29.84,1011.6,,TRUE,,,,,,,,BKN,4700,BKN,7600,OVC,10000,,,VFR,,,,,,,,,,,,METAR,225
CYPX 141800Z AUTO 30017G23KT 9SM 10/06 A2998 RMK CLD MISG SLP154,CYPX,2025-08-14T18:00:00Z,60.045,-77.281,10,6,300,17,23,9,29.98,1015.4,,TRUE,,,,,,,,,,,,,,,,VFR,,,,,,,,,,,,METAR,10
CYPW 141800Z 11014G20KT 060V140 8SM FEW018 BKN030 OVC043 17/13 A2997 RMK SC1SC6SC1 VIS W 6 FU SLP151 DENSITY ALT 700FT,CYPW,2025-08-14T18:00:00Z,49.835,-124.499,17,13,110,14,20,8,29.97,1015.1,,,,,,,,,,FEW,1800,BKN,3000,OVC,4300,,,MVFR,,,,,,,,,,,,METAR,122
CYPR 141800Z AUTO 21003KT 150V240 FEW045 13/12 A2983 RMK WX MISG VIS MISG SLP104,CYPR,2025-08-14T18:00:00Z,54.291,-130.451,13,12,210,3,,,29.83,1010.4,,TRUE,,,,,,,,FEW,4500,,,,,,,,,,,,,,,,,,,METAR,30
CYPQ 141800Z AUTO 35008KT 290V040 9SM FEW060 SCT081 28/14 A3005 RMK SLP177 DENSITY ALT 2200FT,CYPQ,2025-08-14T18:00:00Z,44.232,-78.36,28,14,350,8,,9,30.05,1017.7,,TRUE,,,,,,,,FEW,6000,SCT,8100,,,,,VFR,,,,,,,,,,,,METAR,190
CYPO 141800Z AUTO 16007KT 110V200 9SM BKN160 13/05 A3012 RMK SLP202,CYPO,2025-08-14T18:00:00Z,54.988,-85.439,13,5,160,7,,9,30.12,1020.2,,TRUE,,,,,,,,BKN,16000,,,,,,,VFR,,,,,,,,,,,,METAR,49
CYPL 141800Z AUTO 17011G20KT 9SM OVC047 18/12 A2994 RMK SLP149 DENSITY ALT 2000FT,CYPL,2025-08-14T18:00:00Z,51.449,-90.218,18,12,170,11,20,9,29.94,1014.9,,TRUE,,,,,,,,OVC,4700,,,,,,,VFR,,,,,,,,,,,,METAR,390
CYPH 141800Z AUTO 35017KT 9SM BKN022 10/05 A3003 RMK SLP172,CYPH,2025-08-14T18:00:00Z,58.47,-78.08,10,5,350,17,,9,30.03,1017.2,,TRUE,,,,,,,,BKN,2200,,,,,,,MVFR,,,,,,,,,,,,METAR,24
CYPE 141800Z AUTO 01008KT 290V030 9SM FEW045 15/04 A2993 RMK SLP152 DENSITY ALT 2300FT,CYPE,2025-08-14T18:00:00Z,56.228,-117.453,15,4,10,8,,9,29.93,1015.2,,TRUE,,,,,,,,FEW,4500,,,,,,,VFR,,,,,,,,,,,,METAR,572
CYPD 141800Z AUTO 20013G21KT 180V250 9SM SCT034 27/19 A2993 RMK SLP135 DENSITY ALT 1900FT,CYPD,2025-08-14T18:00:00Z,45.657,-61.374,27,19,200,13,21,9,29.93,1013.5,,TRUE,,,,,,,,SCT,3400,,,,,,,VFR,,,,,,,,,,,,METAR,106
CYPC 141800Z 18011KT 15SM FEW007 FEW140 SCT230 21/08 A2985 RMK ST1AC1CI2 ST TR LAST STFD OBS/NEXT 151300 UTC SLP109 DENSITY ALT 900FT,CYPC,2025-08-14T18:00:00Z,69.355,-124.077,21,8,180,11,,15,29.85,1010.9,,,,,,,,,,FEW,700,FEW,14000,SCT,23000,,,VFR,,,,,,,,,,,,METAR,5
CYPA 141800Z 29015G27KT 15SM FEW029 OVC048 15/10 A2968 RMK CU2SC6 SLP061 DENSITY ALT 2100FT,CYPA,2025-08-14T18:00:00Z,53.217,-105.679,15,10,290,15,27,15,29.68,1006.1,,,,,,,,,,FEW,2900,OVC,4800,,,,,VFR,,,,,,,,,,,,METAR,428
CYOW 141800Z 33010G17KT 270V360 15SM FEW050 26/11 A3005 RMK CU2 SLP177 DENSITY ALT 1700FT,CYOW,2025-08-14T18:00:00Z,45.307,-75.66,26,11,330,10,17,15,30.05,1017.7,,,,,,,,,,FEW,5000,,,,,,,VFR,,,,,,,,,,,,METAR,111
CYOO 141800Z AUTO 17008KT 130V200 9SM SCT060 BKN085 27/13 A3005 RMK SLP175 DENSITY ALT 1900FT,CYOO,2025-08-14T18:00:00Z,43.921,-78.899,27,13,170,8,,9,30.05,1017.5,,TRUE,,,,,,,,SCT,6000,BKN,8500,,,,,VFR,,,,,,,,,,,,METAR,136
CYOJ 141800Z 35008KT 330V040 15SM FEW045 FEW260 16/06 A2992 RMK SF1CI1 SF TR CI TR VIA CYXU SLP146 DENSITY ALT 1500FT,CYOJ,2025-08-14T18:00:00Z,58.628,-117.174,16,6,350,8,,15,29.92,1014.6,,,,,,,,,,FEW,4500,FEW,26000,,,,,VFR,,,,,,,,,,,,METAR,339
CYNM 141800Z AUTO 31011KT 250V010 9SM CLR 16/05 A3016 RMK SLP224,CYNM,2025-08-14T18:00:00Z,49.759,-77.793,16,5,310,11,,9,30.16,1022.4,,TRUE,,,,,,,,CLR,,,,,,,,VFR,,,,,,,,,,,,METAR,276
CYND 141800Z 29006KT 270V360 15SM FEW050 26/12 A3005 RMK CU1 SLP176 DENSITY ALT 1400FT,CYND,2025-08-14T18:00:00Z,45.52,-75.563,26,12,290,6,,15,30.05,1017.6,,,,,,,,,,FEW,5000,,,,,,,VFR,,,,,,,,,,,,METAR,57
CYMX 141800Z 18003KT 160V320 25SM SCT050 BKN080 25/14 A3001 RMK CU4AC1 SLP164 DENSITY ALT 1400FT,CYMX,2025-08-14T18:00:00Z,45.68,-74.038,25,14,180,3,,25,30.01,1016.4,,,,,,,,,,SCT,5000,BKN,8000,,,,,VFR,,,,,,,,,,,,METAR,78
CYMT 141800Z AUTO 32007G15KT 250V350 9SM CLR 15/04 A3012 RMK SLP211,CYMT,2025-08-14T18:00:00Z,49.779,-74.527,15,4,320,7,15,9,30.12,1021.1,,TRUE,,,,,,,,CLR,,,,,,,,VFR,,,,,,,,,,,,METAR,388
CYMO 141800Z AUTO 08011KT 9SM CLR 15/09 A3018 RMK SLP221,CYMO,2025-08-14T18:00:00Z,51.292,-80.607,15,9,80,11,,9,30.18,1022.1,,TRUE,,,,,,,,CLR,,,,,,,,VFR,,,,,,,,,,,,METAR,8
CYMJ 141800Z 30015G23KT 260V330 15SM FEW035 SCT300 20/10 A2984 RMK CU2CI2 DENSITY ALT 3161FT SLP102,CYMJ,2025-08-14T18:00:00Z,50.33,-105.559,20,10,300,15,23,15,29.84,1010.2,,,,,,,,,,FEW,3500,SCT,30000,,,,,VFR,,,,,,,,,,,,METAR,578
CYMH 141800Z AUTO 15011G18KT 9SM BKN044 OVC055 24/18 A2972 RMK SLP067 DENSITY ALT 1300FT,CYMH,2025-08-14T18:00:00Z,52.304,-55.833,24,18,150,11,18,9,29.72,1006.7,,TRUE,,,,,,,,BKN,4400,OVC,5500,,,,,VFR,,,,,,,,,,,,METAR,18
CYMA 141800Z 11004KT 080V150 20SM FEW060TCU SCT230 18/09 A2978 RMK TCU1CI3 CLIMAT 18.2/6.7/0.0 SLP097 DENSITY ALT 2600FT,CYMA,2025-08-14T18:00:00Z,63.616,-135.88,18,9,110,4,,20,29.78,1009.7,,,,,,,,,,FEW,6000,SCT,23000,,,,,VFR,,,,,,,,,,,,METAR,519
CYLW 141800Z AUTO VRB02KT 9SM SCT110 24/12 A2991 RMK SLP126 DENSITY ALT 2800FT,CYLW,2025-08-14T18:00:00Z,49.953,-119.375,24,12,VRB,2,,9,29.91,1012.6,,TRUE,,,,,,,,SCT,11000,,,,,,,VFR,,,,,,,,,,,,METAR,420
CYLU 141800Z 30012KT 15SM BKN012 BKN016 OVC045 07/03 A2969 RMK SC6SC2SC1 CIG RAG SLP058,CYLU,2025-08-14T18:00:00Z,58.708,-65.989,7,3,300,12,,15,29.69,1005.8,,,,,,,,,,BKN,1200,BKN,1600,OVC,4500,,,MVFR,,,,,,,,,,,,METAR,61
CYLT 141800Z 02002KT 3SM -RA BR SCT008 OVC013 01/00 A2999 RMK SF4SC4 DENSITY ALT -1566FT LAST OBS /NEXT 150700 UTC SLP158,CYLT,2025-08-14T18:00:00Z,82.512,-62.317,1,0,20,2,,3,29.99,1015.8,,,,,,,,,-RA BR,SCT,800,OVC,1300,,,,,MVFR,,,,,,,,,,,,METAR,9
CYLL 141800Z 31020G31KT 15SM BKN029 14/06 A2982 RMK CU7 SLP111 DENSITY ALT 2700FT,CYLL,2025-08-14T18:00:00Z,53.312,-110.074,14,6,310,20,31,15,29.82,1011.1,,,,,,,,,,BKN,2900,,,,,,,MVFR,,,,,,,,,,,,METAR,664
CYLJ 141800Z CCA 29017G26KT 15SM OVC018 12/09 A2972 RMK SC8 SLP077 DENSITY ALT 1800FT,CYLJ,2025-08-14T18:00:00Z,54.126,-108.519,12,9,290,17,26,15,29.72,1007.7,,,,,,,,,,OVC,1800,,,,,,,MVFR,,,,,,,,,,,,METAR,481
CYLH 141800Z AUTO 14010G15KT 120V190 9SM CLR 18/07 A3001 RMK SLP174 DENSITY ALT 1300FT,CYLH,2025-08-14T18:00:00Z,52.196,-87.936,18,7,140,10,15,9,30.01,1017.4,,TRUE,,,,,,,,CLR,,,,,,,,VFR,,,,,,,,,,,,METAR,245
CYLD 141800Z VRB03KT 15SM BKN030 19/12 A3013 RMK SC7 SLP214 DENSITY ALT 2100FT,CYLD,2025-08-14T18:00:00Z,47.818,-83.358,19,12,VRB,3,,15,30.13,1021.4,,,,,,,,,,BKN,3000,,,,,,,MVFR,,,,,,,,,,,,METAR,449
CYLC 141800Z 04008G17KT 360V080 15SM SCT033 BKN044 08/01 A2973 RMK SC3SC4 AAL CLDS DRFT W SLP074,CYLC,2025-08-14T18:00:00Z,62.85,-69.88,8,1,40,8,17,15,29.73,1007.4,,,,,,,,,,SCT,3300,BKN,4400,,,,,VFR,,,,,,,,,,,,METAR,52
CYLA 141800Z 03012KT 9SM -RA OVC015 05/03 A2974 RMK FG1SC7 BR SLP077,CYLA,2025-08-14T18:00:00Z,59.302,-69.598,5,3,30,12,,9,29.74,1007.7,,,,,,,,,-RA,OVC,1500,,,,,,,MVFR,,,,,,,,,,,,METAR,35
CYKY 141800Z 29015G21KT 14SM FEW035 FEW100 17/06 A2988 RMK CU1AC1 AC TR SLP119 DENSITY ALT 3100FT,CYKY,2025-08-14T18:00:00Z,51.517,-109.175,17,6,290,15,21,14,29.88,1011.9,,,,,,,,,,FEW,3500,FEW,10000,,,,,VFR,,,,,,,,,,,,METAR,692
CYKQ 141800Z 30007KT 270V010 15SM FEW023 FEW250 12/06 A3020 RMK SC1CI1 SC TR SLP229,CYKQ,2025-08-14T18:00:00Z,51.476,-78.752,12,6,300,7,,15,30.20,1022.9,,,,,,,,,,FEW,2300,FEW,25000,,,,,VFR,,,,,,,,,,,,METAR,28
CYKP 141800Z AUTO 16008G16KT 130V190 9SM CLR 18/06 A3008 RMK SLP188 DENSITY ALT 900FT,CYKP,2025-08-14T18:00:00Z,51.659,-85.901,18,6,160,8,16,9,30.08,1018.8,,TRUE,,,,,,,,CLR,,,,,,,,VFR,,,,,,,,,,,,METAR,181
CYKO 141800Z 32014KT 15SM FEW007 FEW010 FEW230 09/06 A3001 RMK SF1SC1CI1 SF TR CI TR SLP165,CYKO,2025-08-14T18:00:00Z,60.818,-78.154,9,6,320,14,,15,30.01,1016.5,,,,,,,,,,FEW,700,FEW,1000,FEW,23000,,,VFR,,,,,,,,,,,,METAR,23
CYKG 141800Z 36024G30KT 15SM FEW016 BKN025 06/03 A2977 RMK SC2SC5 SLP094,CYKG,2025-08-14T18:00:00Z,61.591,-71.932,6,3,360,24,30,15,29.77,1009.4,,,,,,,,,,FEW,1600,BKN,2500,,,,,MVFR,,,,,,,,,,,,METAR,134
CYKF 141800Z AUTO 06005KT 9SM CLR 26/14 A3006 RMK SLP179 DENSITY ALT 2400FT,CYKF,2025-08-14T18:00:00Z,43.462,-80.386,26,14,60,5,,9,30.06,1017.9,,TRUE,,,,,,,,CLR,,,,,,,,VFR,,,,,,,,,,,,METAR,312
CYKD 141800Z 14006KT 130V190 15SM FEW080 FEW250 19/13 A2970 RMK AC1CI1 AC TR SLP060 DENSITY ALT 800FT,CYKD,2025-08-14T18:00:00Z,68.227,-135.013,19,13,140,6,,15,29.70,1006,,,,,,,,,,FEW,8000,FEW,25000,,,,,VFR,,,,,,,,,,,,METAR,7
CYKA 141800Z 11007KT 40SM FEW080 SCT110 SCT160 BKN240 22/10 A2990 RMK CU1AC2AC1CI2 SLP126 DENSITY ALT 2300FT,CYKA,2025-08-14T18:00:00Z,50.704,-120.444,22,10,110,7,,40,29.90,1012.6,,,,,,,,,,FEW,8000,SCT,11000,SCT,16000,BKN,24000,VFR,,,,,,,,,,,,METAR,344
CYIV 141800Z AUTO 13016G26KT 9SM OVC010 13/11 A2966 RMK SLP054 DENSITY ALT 1000FT,CYIV,2025-08-14T18:00:00Z,53.857,-94.655,13,11,130,16,26,9,29.66,1005.4,,TRUE,,,,,,,,OVC,1000,,,,,,,MVFR,,,,,,,,,,,,METAR,234
CYIO 141800Z 26009KT 40SM FEW035 BKN070 BKN081 06/06 A2984 RMK CU1AC6AC1 CU TR SLP112,CYIO,2025-08-14T18:00:00Z,72.694,-77.957,6,6,260,9,,40,29.84,1011.2,,,,,,,,,,FEW,3500,BKN,7000,BKN,8100,,,VFR,,,,,,,,,,,,METAR,61
CYIN 141800Z AUTO 08007KT 050V150 9SM CLR 18/08 A2993 RMK SLP133 DENSITY ALT 4900FT,CYIN,2025-08-14T18:00:00Z,51.265,-121.681,18,8,80,7,,9,29.93,1013.3,,TRUE,,,,,,,,CLR,,,,,,,,VFR,,,,,,,,,,,,METAR,1127
CYHZ 141800Z 21009G17KT 15SM OVC006 21/20 A2995 RMK ST8 SLP144 DENSITY ALT 1300FT,CYHZ,2025-08-14T18:00:00Z,44.8781,-63.5136,21,20,210,9,17,15,29.95,1014.4,,,,,,,,,,OVC,600,,,,,,,IFR,,,,,,,,,,,,METAR,136
CYHY 141800Z 32008KT 15SM FEW040 FEW130 FEW220 17/08 A2996 RMK CF1AC1CI1 CF TR AC TR CI TR SLP152 DENSITY ALT 900FT,CYHY,2025-08-14T18:00:00Z,60.839,-115.781,17,8,320,8,,15,29.96,1015.2,,,,,,,,,,FEW,4000,FEW,13000,FEW,22000,,,VFR,,,,,,,,,,,,METAR,159
CYHU 141800Z AUTO 33004KT 290V020 9SM FEW050 25/16 A3001 RMK SLP164 DENSITY ALT 1300FT,CYHU,2025-08-14T18:00:00Z,45.516,-73.415,25,16,330,4,,9,30.01,1016.4,,TRUE,,,,,,,,FEW,5000,,,,,,,VFR,,,,,,,,,,,,METAR,26
CYHM 141800Z 05006KT 360V060 12SM FEW040 26/18 A3006 RMK CU2 SLP177 DENSITY ALT 2200FT,CYHM,2025-08-14T18:00:00Z,43.173,-79.936,26,18,50,6,,12,30.06,1017.7,,,,,,,,,,FEW,4000,,,,,,,VFR,,,,,,,,,,,,METAR,237
CYHK 141800Z 34012KT 15SM FEW018 FEW055 07/04 A2999 RMK CF2SC1 SC TR SLP162,CYHK,2025-08-14T18:00:00Z,68.633,-95.851,7,4,340,12,,15,29.99,1016.2,,,,,,,,,,FEW,1800,FEW,5500,,,,,VFR,,,,,,,,,,,,METAR,36
CYHI 141800Z 14014KT 15SM FEW022 FEW050 FEW220 13/06 A2996 RMK CF1SC1CS1 SC TR SLP151,CYHI,2025-08-14T18:00:00Z,70.761,-117.8,13,6,140,14,,15,29.96,1015.1,,,,,,,,,,FEW,2200,FEW,5000,FEW,22000,,,VFR,,,,,,,,,,,,METAR,33
CYHE 141800Z AUTO 29008G15KT 250V350 9SM FEW055 22/14 A2997 RMK SLP151 DENSITY ALT 900FT,CYHE,2025-08-14T18:00:00Z,49.37,-121.493,22,14,290,8,15,9,29.97,1015.1,,TRUE,,,,,,,,FEW,5500,,,,,,,VFR,,,,,,,,,,,,METAR,43
CYHD 141800Z AUTO 17010KT 9SM BKN039 OVC055 23/16 A2987 RMK SLP121 DENSITY ALT 2700FT,CYHD,2025-08-14T18:00:00Z,49.83,-92.74,23,16,170,10,,9,29.87,1012.1,,TRUE,,,,,,,,BKN,3900,OVC,5500,,,,,VFR,,,,,,,,,,,,METAR,414
CYGX 141800Z 10007G16KT 060V140 6SM -RA OVC060 08/07 A2976 RMK SC8 PRESFR SLP088,CYGX,2025-08-14T18:00:00Z,56.359,-94.704,8,7,100,7,16,6,29.76,1008.8,,,,,,,,,-RA,OVC,6000,,,,,,,VFR,,,,,,,,,,,,METAR,145
CYGW 141800Z AUTO 28006KT 9SM BKN019 OVC024 09/04 A3015 RMK SLP211,CYGW,2025-08-14T18:00:00Z,55.283,-77.76,9,4,280,6,,9,30.15,1021.1,,TRUE,,,,,,,,BKN,1900,OVC,2400,,,,,MVFR,,,,,,,,,,,,METAR,13
CYGV 141800Z AUTO 25017G23KT 9SM CLR 21/15 A2977 RMK ICE MISG SLP084 DENSITY ALT 1100FT,CYGV,2025-08-14T18:00:00Z,50.286,-63.606,21,15,250,17,23,9,29.77,1008.4,,TRUE,,,,,,,,CLR,,,,,,,,VFR,,,,,,,,,,,,METAR,32
CYGP 141800Z 10011KT 15SM FEW010 SCT048 BKN087 BKN240 22/20 A2981 RMK SC1SC2AC2CI1 CU ASOCTD SLP097 DENSITY ALT 1100FT,CYGP,2025-08-14T18:00:00Z,48.777,-64.478,22,20,100,11,,15,29.81,1009.7,,,,,,,,,,FEW,1000,SCT,4800,BKN,8700,BKN,24000,VFR,,,,,,,,,,,,METAR,31
CYGL 141800Z 27013KT 250V350 15SM BKN034 11/04 A3015 RMK SC6 VIA CYQB SLP221,CYGL,2025-08-14T18:00:00Z,53.625,-77.7,11,4,270,13,,15,30.15,1022.1,,,,,,,,,,BKN,3400,,,,,,,VFR,,,,,,,,,,,,METAR,192
CYGK 141800Z 01008G16KT 330V040 15SM SCT055 28/13 A3003 RMK CU3 SLP170 DENSITY ALT 1800FT,CYGK,2025-08-14T18:00:00Z,44.223,-76.599,28,13,10,8,16,15,30.03,1017,,,,,,,,,,SCT,5500,,,,,,,VFR,,,,,,,,,,,,METAR,91
CYGH 141800Z 06004KT 340V120 25SM FEW240 20/11 A2977 RMK CI1 SLP086 DENSITY ALT 1200FT,CYGH,2025-08-14T18:00:00Z,66.242,-128.644,20,11,60,4,,25,29.77,1008.6,,,,,,,,,,FEW,24000,,,,,,,VFR,,,,,,,,,,,,METAR,72
CYGE 141800Z 31009G15KT 20SM FEW073 SCT094 BKN210 16/10 A2995 RMK CU2CU2CC2 CONTRAILS SLP146 DENSITY ALT 3400FT,CYGE,2025-08-14T18:00:00Z,51.3,-116.984,16,10,310,9,15,20,29.95,1014.6,,,,,,,,,,FEW,7300,SCT,9400,BKN,21000,,,VFR,,,,,,,,,,,,METAR,786
CYFT 141800Z 23010KT 15SM FEW041TCU SCT055 SCT100 BKN210 25/15 A2959 RMK TCU1SC3AC1CI2 AC TR SLP024 DENSITY ALT 1800FT,CYFT,2025-08-14T18:00:00Z,55.082,-59.189,25,15,230,10,,15,29.59,1002.4,,,,,,,,,,FEW,4100,SCT,5500,SCT,10000,BKN,21000,VFR,,,,,,,,,,,,METAR,65
CYFS 141800Z 15006KT 130V200 15SM FEW240 20/06 A2992 RMK CI1 SLP141 DENSITY ALT 1300FT,CYFS,2025-08-14T18:00:00Z,61.76,-121.23,20,6,150,6,,15,29.92,1014.1,,,,,,,,,,FEW,24000,,,,,,,VFR,,,,,,,,,,,,METAR,174
CYFR 141800Z 31006KT 260V320 15SM FEW080 FEW300 17/06 A2993 RMK AC1CS1 AC TR CS TR SLP143 DENSITY ALT 900FT,CYFR,2025-08-14T18:00:00Z,61.178,-113.688,17,6,310,6,,15,29.93,1014.3,,,,,,,,,,FEW,8000,FEW,30000,,,,,VFR,,,,,,,,,,,,METAR,159
CYFO 141800Z 25017KT 220V290 12SM OVC014 15/12 A2948 RMK SC8 BR SLP992 DENSITY ALT 1800FT,CYFO,2025-08-14T18:00:00Z,54.678,-101.68,15,12,250,17,,12,29.48,999.2,,,,,,,,,,OVC,1400,,,,,,,MVFR,,,,,,,,,,,,METAR,303
CYFC 141800Z AUTO 18005KT 9SM FEW008 BKN049 24/22 A2988 RMK SLP119 DENSITY ALT 1200FT,CYFC,2025-08-14T18:00:00Z,45.873,-66.539,24,22,180,5,,9,29.88,1011.9,,TRUE,,,,,,,,FEW,800,BKN,4900,,,,,VFR,,,,,,,,,,,,METAR,16
CYEV 141800Z 14007KT 090V160 15SM FEW051 BKN086 BKN260 23/11 A2973 RMK CU1AC5CI1 CU TR CI TR SLP071 DENSITY ALT 1400FT,CYEV,2025-08-14T18:00:00Z,68.309,-133.5,23,11,140,7,,15,29.73,1007.1,,,,,,,,,,FEW,5100,BKN,8600,BKN,26000,,,VFR,,,,,,,,,,,,METAR,74
CYET 141800Z AUTO 29007KT 240V310 9SM BKN029 BKN034 OVC041 12/06 A2999 RMK SLP170 DENSITY ALT 3300FT,CYET,2025-08-14T18:00:00Z,53.58,-116.455,12,6,290,7,,9,29.99,1017,,TRUE,,,,,,,,BKN,2900,BKN,3400,OVC,4100,,,MVFR,,,,,,,,,,,,METAR,925
CYER 141800Z AUTO 14005KT 9SM FEW029 12/06 A3008 RMK SLP190,CYER,2025-08-14T18:00:00Z,56.019,-87.675,12,6,140,5,,9,30.08,1019,,TRUE,,,,,,,,FEW,2900,,,,,,,VFR,,,,,,,,,,,,METAR,11
CYEN 141800Z AUTO 34016G22KT 9SM CLR 22/14 A2980 RMK SLP094 DENSITY ALT 3400FT,CYEN,2025-08-14T18:00:00Z,49.207,-102.963,22,14,340,16,22,9,29.80,1009.4,,TRUE,,,,,,,,CLR,,,,,,,,VFR,,,,,,,,,,,,METAR,580
CYEK 141800Z 14010KT 15SM FEW008 BKN260 11/06 A3001 RMK SF1CS4 SLP164,CYEK,2025-08-14T18:00:00Z,61.098,-94.072,11,6,140,10,,15,30.01,1016.4,,,,,,,,,,FEW,800,BKN,26000,,,,,VFR,,,,,,,,,,,,METAR,7
CYEG 141800Z 32014KT 270V330 20SM BKN033 BKN150 13/06 A2995 RMK CU5AC1 AC TR SLP153 DENSITY ALT 2700FT,CYEG,2025-08-14T18:00:00Z,53.308,-113.592,13,6,320,14,,20,29.95,1015.3,,,,,,,,,,BKN,3300,BKN,15000,,,,,VFR,,,,,,,,,,,,METAR,710
CYED 141800Z 30007G15KT 270V340 15SM BKN030 13/06 A2994 RMK SC5 DENSITY ALT 2600FT SLP150,CYED,2025-08-14T18:00:00Z,53.676,-113.471,13,6,300,7,15,15,29.94,1015,,,,,,,,,,BKN,3000,,,,,,,MVFR,,,,,,,,,,,,METAR,688
CYDQ 141800Z AUTO 29005KT 230V360 9SM CLR 15/06 A2997 RMK SLP164 DENSITY ALT 2700FT,CYDQ,2025-08-14T18:00:00Z,55.741,-120.188,15,6,290,5,,9,29.97,1016.4,,TRUE,,,,,,,,CLR,,,,,,,,VFR,,,,,,,,,,,,METAR,658
CYDP 141800Z 27015G24KT 15SM BKN054 17/08 A2962 RMK SC7 SLP031 DENSITY ALT 700FT,CYDP,2025-08-14T18:00:00Z,56.549,-61.684,17,8,270,15,24,15,29.62,1003.1,,,,,,,,,,BKN,5400,,,,,,,VFR,,,,,,,,,,,,METAR,14
CYDN 141800Z AUTO 29020G28KT 9SM SCT032 SCT130 22/16 A2965 RMK SLP045 DENSITY ALT 2400FT,CYDN,2025-08-14T18:00:00Z,51.1,-100.057,22,16,290,20,28,9,29.65,1004.5,,TRUE,,,,,,,,SCT,3200,SCT,13000,,,,,VFR,,,,,,,,,,,,METAR,302
CYDL 141800Z AUTO 07005KT 030V090 9SM OVC100 14/08 A2985 RMK SLP109 DENSITY ALT 3200FT,CYDL,2025-08-14T18:00:00Z,58.426,-130.025,14,8,70,5,,9,29.85,1010.9,,TRUE,,,,,,,,OVC,10000,,,,,,,VFR,,,,,,,,,,,,METAR,804
CYDF 141800Z 22019KT 15SM BKN040 BKN160 27/19 A2981 RMK SC5AC1 SLP098 DENSITY ALT 1700FT,CYDF,2025-08-14T18:00:00Z,49.212,-57.394,27,19,220,19,,15,29.81,1009.8,,,,,,,,,,BKN,4000,BKN,16000,,,,,VFR,,,,,,,,,,,,METAR,15
CYDC 141800Z 00000KT 25SM SCT057 BKN063 BKN300 24/10 A2994 RMK SC3SC2CC1 CONTRAILS SLP126 DENSITY ALT 3800FT,CYDC,2025-08-14T18:00:00Z,49.468,-120.514,24,10,0,0,,25,29.94,1012.6,,,,,,,,,,SCT,5700,BKN,6300,BKN,30000,,,VFR,,,,,,,,,,,,METAR,703
CYDB 141800Z 12009G15KT 15SM FEW055 FEW170 BKN240 15/04 A2975 RMK SC1AC1CI5 SC TR SLP090 DENSITY ALT 3500FT,CYDB,2025-08-14T18:00:00Z,61.37,-139.032,15,4,120,9,15,15,29.75,1009,,,,,,,,,,FEW,5500,FEW,17000,BKN,24000,,,VFR,,,,,,,,,,,,METAR,807
CYDA 141800Z 03005KT 340V050 20SM BKN080 BKN140 OVC220 18/09 A2973 RMK AC6AC1CI1 SLP078 DENSITY ALT 2100FT,CYDA,2025-08-14T18:00:00Z,64.044,-139.127,18,9,30,5,,20,29.73,1007.8,,,,,,,,,,BKN,8000,BKN,14000,OVC,22000,,,VFR,,,,,,,,,,,,METAR,338
CYCY 141800Z 32014KT 15SM FEW013 FEW016 OVC024 05/01 A2980 RMK SF1SF1SC8 SF TR SF TR SLP096,CYCY,2025-08-14T18:00:00Z,70.484,-68.515,5,1,320,14,,15,29.80,1009.6,,,,,,,,,,FEW,1300,FEW,1600,OVC,2400,,,MVFR,,,,,,,,,,,,METAR,73
CYCS 141800Z 13008KT 15SM BKN051 OVC240 10/06 A3004 RMK SC7CI1 SLP175,CYCS,2025-08-14T18:00:00Z,63.345,-90.727,10,6,130,8,,15,30.04,1017.5,,,,,,,,,,BKN,5100,OVC,24000,,,,,VFR,,,,,,,,,,,,METAR,7
CYCQ 141800Z VRB02KT 35SM FEW040 FEW100 SCT220 14/07 A2997 RMK CU1AC1CI1 SLP165 DENSITY ALT 2300FT,CYCQ,2025-08-14T18:00:00Z,55.689,-121.62,14,7,VRB,2,,35,29.97,1016.5,,,,,,,,,,FEW,4000,FEW,10000,SCT,22000,,,VFR,,,,,,,,,,,,METAR,614
CYCP 141800Z VRB02KT 12SM FEW008 FEW012 FEW070 SCT260 13/10 A2997 RMK SF1ST1CU1CI2 SF TR SLP160 DENSITY ALT 2600FT,CYCP,2025-08-14T18:00:00Z,52.129,-119.29,13,10,VRB,2,,12,29.97,1016,,,,,,,,,,FEW,800,FEW,1200,FEW,7000,SCT,26000,VFR,,,,,,,,,,,,METAR,677
CYCO 141800Z 06010KT 15SM FEW012 FEW280 11/07 A2994 RMK CU1CI1 CU TR CI TR SLP143,CYCO,2025-08-14T18:00:00Z,67.817,-115.135,11,7,60,10,,15,29.94,1014.3,,,,,,,,,,FEW,1200,FEW,28000,,,,,VFR,,,,,,,,,,,,METAR,20
CYCK 141800Z AUTO 12003KT 360V150 9SM CLR 27/16 A3006 RMK SLP179 DENSITY ALT 2100FT,CYCK,2025-08-14T18:00:00Z,42.307,-82.085,27,16,120,3,,9,30.06,1017.9,,TRUE,,,,,,,,CLR,,,,,,,,VFR,,,,,,,,,,,,METAR,196
CYCG 141800Z 33007KT 310V010 15SM FEW040 FEW230 24/09 A2989 RMK CU1CI2 CU TR SLP113 DENSITY ALT 3200FT,CYCG,2025-08-14T18:00:00Z,49.295,-117.634,24,9,330,7,,15,29.89,1011.3,,,,,,,,,,FEW,4000,FEW,23000,,,,,VFR,,,,,,,,,,,,METAR,487
CYCD 141800Z 08005KT 10SM FEW010 BKN021 19/14 A2998 RMK FU1SC6 FU ALF SLP153 DENSITY ALT 600FT,CYCD,2025-08-14T18:00:00Z,49.052,-123.874,19,14,80,5,,10+,29.98,1015.3,,,,,,,,,,FEW,1000,BKN,2100,,,,,MVFR,,,,,,,,,,,,METAR,30
CYCB 141800Z 08005KT 15SM FEW060 SCT074 BKN120 10/04 A3002 RMK SC1AC3AC3 SLP169,CYCB,2025-08-14T18:00:00Z,69.106,-105.116,10,4,80,5,,15,30.02,1016.9,,,,,,,,,,FEW,6000,SCT,7400,BKN,12000,,,VFR,,,,,,,,,,,,METAR,19
CYCA 141800Z AUTO 22012G23KT 9SM BKN100 26/18 A2963 RMK SLP037 DENSITY ALT 1700FT,CYCA,2025-08-14T18:00:00Z,53.683,-57.042,26,18,220,12,23,9,29.63,1003.7,,TRUE,,,,,,,,BKN,10000,,,,,,,VFR,,,,,,,,,,,,METAR,12
CYBV 141800Z 19009G16KT 160V230 12SM OVC012 19/18 A2960 RMK SC8 CIG RAG SLP028 DENSITY ALT 1800FT,CYBV,2025-08-14T18:00:00Z,52.36,-97.022,19,18,190,9,16,12,29.60,1002.8,,,,,,,,,,OVC,1200,,,,,,,MVFR,,,,,,,,,,,,METAR,219
CYBU 141800Z AUTO 24016G21KT 9SM FEW024 OVC055 19/13 A2962 RMK SLP038 DENSITY ALT 2300FT,CYBU,2025-08-14T18:00:00Z,53.333,-104.005,19,13,240,16,21,9,29.62,1003.8,,TRUE,,,,,,,,FEW,2400,OVC,5500,,,,,VFR,,,,,,,,,,,,METAR,369
CYBR 141800Z 28011G19KT 12SM BKN019 BKN140 25/19 A2968 RMK CU5AC2 SLP054 DENSITY ALT 3100FT,CYBR,2025-08-14T18:00:00Z,49.91,-99.945,25,19,280,11,19,12,29.68,1005.4,,,,,,,,,,BKN,1900,BKN,14000,,,,,MVFR,,,,,,,,,,,,METAR,405
CYBQ 141800Z AUTO 09019G30KT 6SM -RA BR BKN014 BKN023 OVC028 07/06 A2982 RMK PCPN 2.2MM PAST HR SLP113,CYBQ,2025-08-14T18:00:00Z,58.707,-98.511,7,6,90,19,30,6,29.82,1011.3,,TRUE,,,,,,,-RA BR,BKN,1400,BKN,2300,OVC,2800,,,MVFR,,,,,,,,,,,,METAR,272
CYBL 141800Z 03003KT 020V100 15SM BKN027 OVC050 16/11 A2996 RMK SC6SC2 FU ALF SLP146,CYBL,2025-08-14T18:00:00Z,49.951,-125.269,16,11,30,3,,15,29.96,1014.6,,,,,,,,,,BKN,2700,OVC,5000,,,,,MVFR,,,,,,,,,,,,METAR,94
CYBK 141800Z 10008KT 25SM FEW030 BKN049 BKN210 11/07 A2998 RMK CU1SC7CI1 CU TR CI TR SLP154,CYBK,2025-08-14T18:00:00Z,64.306,-96.078,11,7,100,8,,25,29.98,1015.4,,,,,,,,,,FEW,3000,BKN,4900,BKN,21000,,,VFR,,,,,,,,,,,,METAR,14
CYBG 141800Z 30011G18KT 25SM FEW035 FEW250 19/11 A3005 RMK CU1CI1 DENSITY ALT 1179FT CI TR SLP177,CYBG,2025-08-14T18:00:00Z,48.331,-70.989,19,11,300,11,18,25,30.05,1017.7,,,,,,,,,,FEW,3500,FEW,25000,,,,,VFR,,,,,,,,,,,,METAR,151
CYBD 141800Z VRB02KT 10SM BKN020 OVC100 16/14 A2989 RMK SC5AC3 VIS LWR E SLP124 DENSITY ALT 400FT,CYBD,2025-08-14T18:00:00Z,52.388,-126.589,16,14,VRB,2,,10+,29.89,1012.4,,,,,,,,,,BKN,2000,OVC,10000,,,,,MVFR,,,,,,,,,,,,METAR,40
CYBC 141800Z AUTO 32010G18KT 270V360 9SM FEW047 22/09 A2993 RMK SLP138 DENSITY ALT 900FT,CYBC,2025-08-14T18:00:00Z,49.135,-68.202,22,9,320,10,18,9,29.93,1013.8,,TRUE,,,,,,,,FEW,4700,,,,,,,VFR,,,,,,,,,,,,METAR,20
CYBB 141800Z 28006KT 15SM OVC110 09/02 A2993 RMK AC8 SLP138,CYBB,2025-08-14T18:00:00Z,68.536,-89.792,9,2,280,6,,15,29.93,1013.8,,,,,,,,,,OVC,11000,,,,,,,VFR,,,,,,,,,,,,METAR,13
CYAZ 141800Z 14009KT 15SM OVC029 15/13 A3000 RMK SC8 SLP162,CYAZ,2025-08-14T18:00:00Z,49.08,-125.767,15,13,140,9,,15,30.00,1016.2,,,,,,,,,,OVC,2900,,,,,,,MVFR,,,,,,,,,,,,METAR,26
CYAW 141800Z 23011G18KT 12SM OVC005 22/20 A2996 RMK SF8 DENSITY ALT 1192FT VIS LWR NW SLP145,CYAW,2025-08-14T18:00:00Z,44.636,-63.507,22,20,230,11,18,12,29.96,1014.5,,,,,,,,,,OVC,500,,,,,,,IFR,,,,,,,,,,,,METAR,50
CYAT 141800Z AUTO 08006KT 050V120 9SM CLR 14/07 A3017 RMK SLP218,CYAT,2025-08-14T18:00:00Z,52.927,-82.432,14,7,80,6,,9,30.17,1021.8,,TRUE,,,,,,,,CLR,,,,,,,,VFR,,,,,,,,,,,,METAR,4
CYAS 141800Z 14008KT 1SM -RA BR OVC010 05/05 A2973 RMK ST8 VIS SE 3 SLP078,CYAS,2025-08-14T18:00:00Z,60.026,-70.004,5,5,140,8,,1,29.73,1007.8,,,,,,,,,-RA BR,OVC,1000,,,,,,,IFR,,,,,,,,,,,,METAR,99
CYAM 141800Z 24003KT 120V290 20SM FEW040 SCT250 24/14 A3010 RMK CU2CI1 SLP195 DENSITY ALT 1600FT,CYAM,2025-08-14T18:00:00Z,46.484,-84.504,24,14,240,3,,20,30.10,1019.5,,,,,,,,,,FEW,4000,SCT,25000,,,,,VFR,,,,,,,,,,,,METAR,186
CYAH 141800Z AUTO 30008G16KT 270V340 9SM FEW030 OVC041 11/03 A3004 RMK SLP187,CYAH,2025-08-14T18:00:00Z,53.757,-73.676,11,3,300,8,16,9,30.04,1018.7,,TRUE,,,,,,,,FEW,3000,OVC,4100,,,,,VFR,,,,,,,,,,,,METAR,298
CXZV 141800Z AUTO 31011G16KT 22/08 RMK AO1 PK WND 32019/1708 SLP108 T02190079 53017,CXZV,2025-08-14T18:00:00Z,50.217,-66.26,21.9,7.9,310,11,16,,0.00,1010.8,,TRUE,TRUE,,,,,,,,,,,,,,,,0.17,,,,,,,,,,,METAR,43
CXZC 141800Z AUTO 11004KT 15/05 RMK AO1 SLP222 T01520049 58011,CXZC,2025-08-14T18:00:00Z,51.292,-80.618,15.2,4.9,110,4,,,0.00,1022.2,,TRUE,TRUE,,,,,,,,,,,,,,,,-0.11,,,,,,,,,,,METAR,8
CXYH 141800Z AUTO 18005KT 17/08 RMK AO1 SLP115 T01670084 58011,CXYH,2025-08-14T18:00:00Z,61.242,-123.742,16.7,8.4,180,5,,,0.00,1011.5,,TRUE,TRUE,,,,,,,,,,,,,,,,-0.11,,,,,,,,,,,METAR,197
CXWN 141800Z AUTO 21004KT 27/19 RMK AO1 6010 SLP047 T02670190 50168,CXWN,2025-08-14T18:00:00Z,49.889,-97.13,26.7,19,210,4,,,0.00,1004.7,,TRUE,TRUE,,,,,,,,,,,,,,,,,,,,,,,,,,,METAR,232
CXVN 141800Z AUTO 04008KT 26/19 RMK AO1 SLP174 T02640187 51005,CXVN,2025-08-14T18:00:00Z,43.183,-79.4,26.4,18.7,40,8,,,0.00,1017.4,,TRUE,TRUE,,,,,,,,,,,,,,,,0.05,,,,,,,,,,,METAR,86
CXTV 141800Z AUTO 18011KT 23/10 RMK AO1 SLP069 T02270097 58005,CXTV,2025-08-14T18:00:00Z,68.746,-133.502,22.7,9.7,180,11,,,0.00,1006.9,,TRUE,TRUE,,,,,,,,,,,,,,,,-0.05,,,,,,,,,,,METAR,91
CXTP 141800Z AUTO 22010G21KT 25/19 RMK AO1 PK WND 23022/1742 SLP138 T02480191 56004,CXTP,2025-08-14T18:00:00Z,48.557,-53.975,24.8,19.1,220,10,21,,0.00,1013.8,,TRUE,TRUE,,,,,,,,,,,,,,,,-0.04,,,,,,,,,,,METAR,104
CXTO 141800Z AUTO 27/15 RMK AO1 SLP177 T02690150 50002,CXTO,2025-08-14T18:00:00Z,43.667,-79.4,26.9,15,,,,,0.00,1017.7,,TRUE,TRUE,,,,,,,,,,,,,,,,0.02,,,,,,,,,,,METAR,115
CXTN 141800Z AUTO 23006KT 18/06 RMK AO1 SLP146 T01770055 58004,CXTN,2025-08-14T18:00:00Z,69.199,-122.359,17.7,5.5,230,6,,,0.00,1014.6,,TRUE,TRUE,,,,,,,,,,,,,,,,-0.04,,,,,,,,,,,METAR,564
CXTD 141800Z AUTO 22019G26KT 26/19 RMK AO1 PK WND 22026/1714 SLP134 T02580186 53007,CXTD,2025-08-14T18:00:00Z,45.608,-61.68,25.8,18.6,220,19,26,,0.00,1013.4,,TRUE,TRUE,,,,,,,,,,,,,,,,0.07,,,,,,,,,,,METAR,58
CXSH 141800Z AUTO 35005KT 22/08 RMK AO1 SLP173 T02210075 53003,CXSH,2025-08-14T18:00:00Z,46.564,-72.733,22.1,7.5,350,5,,,0.00,1017.3,,TRUE,TRUE,,,,,,,,,,,,,,,,0.03,,,,,,,,,,,METAR,106
CXSE 141800Z AUTO 10003KT 01/00 RMK AO1 SLP171 T00140000 56007,CXSE,2025-08-14T18:00:00Z,73.766,-105.296,1.4,0,100,3,,,0.00,1017.1,,TRUE,TRUE,,,,,,,,,,,,,,,,-0.07,,,,,,,,,,,METAR,11
CXRH 141800Z AUTO 24011G18KT 20/18 RMK AO1 0003 PK WND 25019/1734 SLP095 T02040175 50020,CXRH,2025-08-14T18:00:00Z,49.57,-57.878,20.4,17.5,240,11,18,,0.00,1009.5,,TRUE,TRUE,,,,,,,,,,,,,,,,0.2,,,,,,,,,,,METAR,68
CXRB 141800Z AUTO 30009KT 05/01 RMK AO1 SLP154 T00460009 57007,CXRB,2025-08-14T18:00:00Z,74.716,-94.983,4.6,0.9,300,9,,,0.00,1015.4,,TRUE,TRUE,,,,,,,,,,,,,,,,-0.07,,,,,,,,,,,METAR,30
CXPC 141800Z AUTO 26/13 RMK AO1 SLP190 T02550128 50001,CXPC,2025-08-14T18:00:00Z,45.344,-80.044,25.5,12.8,,,,,0.00,1019,,TRUE,TRUE,,,,,,,,,,,,,,,,0.01,,,,,,,,,,,METAR,176
CXOX 141800Z AUTO 29009KT 11/10 RMK AO1 2PAST HR 3006 SLP021 P0001 T01140102 50029,CXOX,2025-08-14T18:00:00Z,55.146,-105.27,11.4,10.2,290,9,,,0.00,1002.1,,TRUE,TRUE,,,,,,,,,,,,,,,,0.29,,,,,0.01,,,,,,METAR,381
CXNP 141800Z AUTO 27012KT 26/20 RMK AO1 PK WND 25017/1737 SLP119 T02620200 53001,CXNP,2025-08-14T18:00:00Z,45.76,-64.241,26.2,20,270,12,,,0.00,1011.9,,TRUE,TRUE,,,,,,,,,,,,,,,,0.01,,,,,,,,,,,METAR,19
CXNM 141800Z AUTO 23015G22KT 26/13 RMK AO1 PK WND 25023/1727 T02610127,CXNM,2025-08-14T18:00:00Z,46.818,-60.673,26.1,12.7,230,15,22,,0.00,,,TRUE,TRUE,,,,,,,,,,,,,,,,,,,,,,,,,,,METAR,452
CXMY 141800Z AUTO 22/20 RMK AO1 T02210198,CXMY,2025-08-14T18:00:00Z,44.984,-62.484,22.1,19.8,,,,,0.00,,,TRUE,TRUE,,,,,,,,,,,,,,,,,,,,,,,,,,,METAR,37
CXMM 141800Z AUTO 33009G15KT 09/08 RMK AO1 5PAST HR 2018 SLP121 P0002 T00890082 50061,CXMM,2025-08-14T18:00:00Z,56.649,-111.221,8.9,8.2,330,9,15,,0.00,1012.1,,TRUE,TRUE,,,,,,,,,,,,,,,,0.61,,,,,0.02,,,,,,METAR,372
CXMI 141800Z AUTO 21015G20KT 21/20 RMK AO1 PK WND 21021/1740 SLP138 T02120198 55002,CXMI,2025-08-14T18:00:00Z,44.602,-63.534,21.2,19.8,210,15,20,,0.00,1013.8,,TRUE,TRUE,,,,,,,,,,,,,,,,-0.02,,,,,,,,,,,METAR,15
CXMD 141800Z AUTO 17012G19KT 28/21 RMK AO1 PK WND 16019/1754 SLP048 T02760208 56015,CXMD,2025-08-14T18:00:00Z,49.188,-98.084,27.6,20.8,170,12,19,,0.00,1004.8,,TRUE,TRUE,,,,,,,,,,,,,,,,-0.15,,,,,,,,,,,METAR,297
CXLL 141800Z AUTO 28002KT 16/08 RMK AO1 SLP141 T01610075 58007,CXLL,2025-08-14T18:00:00Z,61.125,-122.851,16.1,7.5,280,2,,,0.00,1014.1,,TRUE,TRUE,,,,,,,,,,,,,,,,-0.07,,,,,,,,,,,METAR,180
CXLB 141800Z AUTO 19014KT 21/20 RMK AO1 SLP131 T02060195 58001,CXLB,2025-08-14T18:00:00Z,44.36,-64.296,20.6,19.5,190,14,,,0.00,1013.1,,TRUE,TRUE,,,,,,,,,,,,,,,,-0.01,,,,,,,,,,,METAR,4
CXKT 141800Z AUTO 20005KT 28/20 RMK AO1 SLP123 T02840199 56003,CXKT,2025-08-14T18:00:00Z,45.067,-64.478,28.4,19.9,200,5,,,0.00,1012.3,,TRUE,TRUE,,,,,,,,,,,,,,,,-0.03,,,,,,,,,,,METAR,48
CXKI 141800Z AUTO 30004KT 19/07 RMK AO1 SLP209 T01920069 58009,CXKI,2025-08-14T18:00:00Z,48.15,-80,19.2,6.9,300,4,,,0.00,1020.9,,TRUE,TRUE,,,,,,,,,,,,,,,,-0.09,,,,,,,,,,,METAR,328
CXKE 141800Z AUTO 01004KT 26/15 RMK AO1 SLP176 T02610146 51002,CXKE,2025-08-14T18:00:00Z,45.005,-75.637,26.1,14.6,10,4,,,0.00,1017.6,,TRUE,TRUE,,,,,,,,,,,,,,,,0.02,,,,,,,,,,,METAR,99
CXKA 141800Z AUTO 22003KT 19/05 RMK AO1 SLP215 T01880054 58013,CXKA,2025-08-14T18:00:00Z,49.405,-82.443,18.8,5.4,220,3,,,0.00,1021.5,,TRUE,TRUE,,,,,,,,,,,,,,,,-0.13,,,,,,,,,,,METAR,221
CXIB 141800Z AUTO 25005KT 33/13 RMK AO1 PK WND 23017/1732 SLP093 T03250129 55012,CXIB,2025-08-14T18:00:00Z,46.663,-60.406,32.5,12.9,250,5,,,0.00,1009.3,,TRUE,TRUE,,,,,,,,,,,,,,,,-0.12,,,,,,,,,,,METAR,6
CXHM 141800Z AUTO 10005KT 27/18 RMK AO1 SLP179 T02680178 50002,CXHM,2025-08-14T18:00:00Z,43.286,-79.905,26.8,17.8,100,5,,,0.00,1017.9,,TRUE,TRUE,,,,,,,,,,,,,,,,0.02,,,,,,,,,,,METAR,105
CXHA 141800Z AUTO 16006KT 27/18 RMK AO1 SLP179 T02670178 50000,CXHA,2025-08-14T18:00:00Z,42.033,-82.896,26.7,17.8,160,6,,,0.00,1017.9,,TRUE,TRUE,,,,,,,,,,,,,,,,,,,,,,,,,,,METAR,193
CXGH 141800Z AUTO 17014KT 22/19 RMK AO1 PK WND 16021/1702 SLP044 T02200187 58005,CXGH,2025-08-14T18:00:00Z,50.631,-96.984,22,18.7,170,14,,,0.00,1004.4,,TRUE,TRUE,,,,,,,,,,,,,,,,-0.05,,,,,,,,,,,METAR,217
CXET 141800Z AUTO 07002KT 26/14 RMK AO1 SLP184 T02640141 58001,CXET,2025-08-14T18:00:00Z,44.234,-79.779,26.4,14.1,70,2,,,0.00,1018.4,,TRUE,TRUE,,,,,,,,,,,,,,,,-0.01,,,,,,,,,,,METAR,250
CXEG 141800Z AUTO 31011G16KT 13/06 RMK AO1 PK WND 29018/1721 SLP147 T01290056 56002,CXEG,2025-08-14T18:00:00Z,53.307,-113.606,12.9,5.6,310,11,16,,0.00,1014.7,,TRUE,TRUE,,,,,,,,,,,,,,,,-0.02,,,,,,,,,,,METAR,706
CXEC 141800Z AUTO 33010G16KT 13/06 RMK AO1 PK WND 31018/1747 SLP148 T01290056 50000,CXEC,2025-08-14T18:00:00Z,53.573,-113.517,12.9,5.6,330,10,16,,0.00,1014.8,,TRUE,TRUE,,,,,,,,,,,,,,,,,,,,,,,,,,,METAR,666
CXEA 141800Z AUTO 16006KT 21/16 RMK AO1 8029 SLP091 T02070159 50002,CXEA,2025-08-14T18:00:00Z,50.631,-93.221,20.7,15.9,160,6,,,0.00,1009.1,,TRUE,TRUE,,,,,,,,,,,,,,,,0.02,,,,,,,,,,,METAR,351
CXDW 141800Z AUTO 20012KT 27/20 RMK AO1 PK WND 18018/1735 SLP051 T02700200 56010,CXDW,2025-08-14T18:00:00Z,49.4,-98.319,27,20,200,12,,,0.00,1005.1,,TRUE,TRUE,,,,,,,,,,,,,,,,-0.1,,,,,,,,,,,METAR,341
CXDK 141800Z AUTO 18002KT 16/08 RMK AO1 SLP128 T01600075 58014,CXDK,2025-08-14T18:00:00Z,61.257,-124.468,16,7.5,180,2,,,0.00,1012.8,,TRUE,TRUE,,,,,,,,,,,,,,,,-0.14,,,,,,,,,,,METAR,269
CXDI 141800Z AUTO 35004KT 29/14 RMK AO1 SLP175 T02890143 58001,CXDI,2025-08-14T18:00:00Z,42.864,-80.545,28.9,14.3,350,4,,,0.00,1017.5,,TRUE,TRUE,,,,,,,,,,,,,,,,-0.01,,,,,,,,,,,METAR,234
CXCK 141800Z AUTO 29006KT 17/07 RMK AO1 SLP089 T01710066 58013,CXCK,2025-08-14T18:00:00Z,62.115,-136.192,17.1,6.6,290,6,,,0.00,1008.9,,TRUE,TRUE,,,,,,,,,,,,,,,,-0.13,,,,,,,,,,,METAR,526
CXCA 141800Z AUTO 16009KT 20/13 RMK AO1 SLP185 T01970130 58009,CXCA,2025-08-14T18:00:00Z,49.154,-88.344,19.7,13,160,9,,,0.00,1018.5,,TRUE,TRUE,,,,,,,,,,,,,,,,-0.09,,,,,,,,,,,METAR,228
CXBO 141800Z AUTO 25005KT 27/14 RMK AO1 T02680135,CXBO,2025-08-14T18:00:00Z,46.837,-71.197,26.8,13.5,250,5,,,0.00,,,TRUE,TRUE,,,,,,,,,,,,,,,,,,,,,,,,,,,METAR,8
CXBK 141800Z AUTO 20/11 RMK AO1 SLP100 T01970114 51011,CXBK,2025-08-14T18:00:00Z,50.201,-104.71,19.7,11.4,,,,,0.00,1010,,TRUE,TRUE,,,,,,,,,,,,,,,,0.11,,,,,,,,,,,METAR,585
CXBI 141800Z AUTO 04003KT 25/13 RMK AO1 SLP192 T02510130 51002,CXBI,2025-08-14T18:00:00Z,44.484,-79.546,25.1,13,40,3,,,0.00,1019.2,,TRUE,TRUE,,,,,,,,,,,,,,,,0.02,,,,,,,,,,,METAR,287
CXAT 141800Z AUTO 32010KT 03/02 RMK AO1 SLP126 T00250022 56009,CXAT,2025-08-14T18:00:00Z,73.006,-85.033,2.5,2.2,320,10,,,0.00,1012.6,,TRUE,TRUE,,,,,,,,,,,,,,,,-0.09,,,,,,,,,,,METAR,10
CWZW 141800Z AUTO 10005KT 15/08 RMK AO1 SLP144 T01500078 58010,CWZW,2025-08-14T18:00:00Z,60.167,-132.733,15,7.8,100,5,,,0.00,1014.4,,TRUE,TRUE,,,,,,,,,,,,,,,,-0.1,,,,,,,,,,,METAR,683
CWZV 141800Z AUTO 15018G23KT 14/14 RMK AO1 3PAST HR 8016 PK WND 15023/1759 SLP090 P0005 T01360136 50053,CWZV,2025-08-14T18:00:00Z,51.936,-131.016,13.6,13.6,150,18,23,,0.00,1009,,TRUE,TRUE,,,,,,,,,,,,,,,,0.53,,,,,0.05,,,,,,METAR,83
CWZQ 141800Z AUTO 20007KT 25/18 RMK AO1 SLP127 T02520184 53001,CWZQ,2025-08-14T18:00:00Z,46.547,-61.049,25.2,18.4,200,7,,,0.00,1012.7,,TRUE,TRUE,,,,,,,,,,,,,,,,0.01,,,,,,,,,,,METAR,13
CWZO 141800Z AUTO 20016KT RMK AO1 PK WND 19018/1724,CWZO,2025-08-14T18:00:00Z,48.568,-123.265,,,200,16,,,0.00,,,TRUE,TRUE,,,,,,,,,,,,,,,,,,,,,,,,,,,METAR,5
CWZN 141800Z AUTO 18022KT 19/19 RMK AO1 PK WND 19027/1728 SLP108 T01870187 50000,CWZN,2025-08-14T18:00:00Z,47.368,-55.795,18.7,18.7,180,22,,,0.00,1010.8,,TRUE,TRUE,,,,,,,,,,,,,,,,,,,,,,,,,,,METAR,63
CWZL 141800Z AUTO 15015KT 14/13 RMK AO1 2PAST HR 8013 SLP093 P0001 T01380133 50012,CWZL,2025-08-14T18:00:00Z,53.03,-131.602,13.8,13.3,150,15,,,0.00,1009.3,,TRUE,TRUE,,,,,,,,,,,,,,,,0.12,,,,,0.01,,,,,,METAR,17
CWZG 141800Z AUTO 12003KT 15/06 RMK AO1 SLP138 T01520059 58012,CWZG,2025-08-14T18:00:00Z,51.194,-115.552,15.2,5.9,120,3,,,0.00,1013.8,,TRUE,TRUE,,,,,,,,,,,,,,,,-0.12,,,,,,,,,,,METAR,1402
CWZA 141800Z AUTO 24002KT 19/12 RMK AO1 SLP160 T01850123 50001,CWZA,2025-08-14T18:00:00Z,49.244,-121.759,18.5,12.3,240,2,,,0.00,1016,,TRUE,TRUE,,,,,,,,,,,,,,,,0.01,,,,,,,,,,,METAR,18
CWYY 141800Z AUTO 19004KT 27/12 RMK AO1 SLP106 T02670117 58008,CWYY,2025-08-14T18:00:00Z,49.028,-119.441,26.7,11.7,190,4,,,0.00,1010.6,,TRUE,TRUE,,,,,,,,,,,,,,,,-0.08,,,,,,,,,,,METAR,284
CWYJ 141800Z AUTO 21006KT 19/10 RMK AO1 SLP161 T01900102 53009,CWYJ,2025-08-14T18:00:00Z,48.457,-123.305,19,10.2,210,6,,,0.00,1016.1,,TRUE,TRUE,,,,,,,,,,,,,,,,0.09,,,,,,,,,,,METAR,59
CWXL 141800Z AUTO 32005KT 15/09 RMK AO1 SLP157 T01520093 58001,CWXL,2025-08-14T18:00:00Z,49.734,-111.45,15.2,9.3,320,5,,,0.00,1015.7,,TRUE,TRUE,,,,,,,,,,,,,,,,-0.01,,,,,,,,,,,METAR,815
CWXI 141800Z AUTO 22007KT 21/18 RMK AO1 SLP086 T02080179 53001,CWXI,2025-08-14T18:00:00Z,51.022,-57.096,20.8,17.9,220,7,,,0.00,1008.6,,TRUE,TRUE,,,,,,,,,,,,,,,,0.01,,,,,,,,,,,METAR,15
CWXC 141800Z AUTO 31004KT 19/08 RMK AO1 SLP171 T01850075 51002,CWXC,2025-08-14T18:00:00Z,48.894,-71.032,18.5,7.5,310,4,,,0.00,1017.1,,TRUE,TRUE,,,,,,,,,,,,,,,,0.02,,,,,,,,,,,METAR,306
CWXA 141800Z AUTO 03002KT 12/09 RMK AO1 SLP184 T01240089 56006,CWXA,2025-08-14T18:00:00Z,51.083,-115.066,12.4,8.9,30,2,,,0.00,1018.4,,TRUE,TRUE,,,,,,,,,,,,,,,,-0.06,,,,,,,,,,,METAR,1303
CWWZ 141800Z AUTO 04012KT 25/19 RMK AO1 SLP174 T02500194 51004,CWWZ,2025-08-14T18:00:00Z,43.244,-79.218,25,19.4,40,12,,,0.00,1017.4,,TRUE,TRUE,,,,,,,,,,,,,,,,0.04,,,,,,,,,,,METAR,75
CWWS 141800Z AUTO 19019KT 19/17 RMK AO1 PK WND 19024/1727 SLP023 T01880168 56016,CWWS,2025-08-14T18:00:00Z,52.819,-97.616,18.8,16.8,190,19,,,0.00,1002.3,,TRUE,TRUE,,,,,,,,,,,,,,,,-0.16,,,,,,,,,,,METAR,220
CWWL 141800Z AUTO 13018G25KT 13/13 RMK AO1 4PAST HR 7006 PK WND 12025/1705 SLP080 P0002 T01300129 50012,CWWL,2025-08-14T18:00:00Z,53.493,-130.638,13,12.9,130,18,25,,0.00,1008,,TRUE,TRUE,,,,,,,,,,,,,,,,0.12,,,,,0.02,,,,,,METAR,8
CWWK 141800Z AUTO 16005KT 20/13 RMK AO1 SLP170 T01980126 51006,CWWK,2025-08-14T18:00:00Z,49.018,-122.784,19.8,12.6,160,5,,,0.00,1017,,TRUE,TRUE,,,,,,,,,,,,,,,,0.06,,,,,,,,,,,METAR,10
CWWF 141800Z AUTO 33019KT 21/12 RMK AO1 PK WND 33025/1738 SLP093 T02080121 51011,CWWF,2025-08-14T18:00:00Z,49.695,-103.801,20.8,12.1,330,19,,,0.00,1009.3,,TRUE,TRUE,,,,,,,,,,,,,,,,0.11,,,,,,,,,,,METAR,583
CWWE 141800Z AUTO 18011KT 19/17 RMK AO1 PK WND 17017/1705 SLP144 T01910171 54000,CWWE,2025-08-14T18:00:00Z,43.989,-64.662,19.1,17.1,180,11,,,0.00,1014.4,,TRUE,TRUE,,,,,,,,,,,,,,,,,,,,,,,,,,,METAR,4
CWWB 141800Z AUTO 05008KT 24/18 RMK AO1 SLP177 T02350183 50003,CWWB,2025-08-14T18:00:00Z,43.302,-79.791,23.5,18.3,50,8,,,0.00,1017.7,,TRUE,TRUE,,,,,,,,,,,,,,,,0.03,,,,,,,,,,,METAR,77
CWWA 141800Z AUTO 10003KT 18/12 RMK AO1 3PAST HR 3006 SLP163 P0001 T01750122 50003,CWWA,2025-08-14T18:00:00Z,49.347,-123.193,17.5,12.2,100,3,,,0.00,1016.3,,TRUE,TRUE,,,,,,,,,,,,,,,,0.03,,,,,0.01,,,,,,METAR,172
CWVU 141800Z AUTO 14010KT 15/15 RMK AO1 SLP131 T01470146 53005,CWVU,2025-08-14T18:00:00Z,44.287,-66.342,14.7,14.6,140,10,,,0.00,1013.1,,TRUE,TRUE,,,,,,,,,,,,,,,,0.05,,,,,,,,,,,METAR,4
CWVT 141800Z AUTO 32009KT 10/09 RMK AO1 5PAST HR 3013 SLP072 P0006 T00990089 50043,CWVT,2025-08-14T18:00:00Z,55.841,-108.421,9.9,8.9,320,9,,,0.00,1007.2,,TRUE,TRUE,,,,,,,,,,,,,,,,0.43,,,,,0.06,,,,,,METAR,431
CWVQ 141800Z AUTO 35005KT 25/16 RMK AO1 SLP165 T02480157 53001,CWVQ,2025-08-14T18:00:00Z,45.427,-73.929,24.8,15.7,350,5,,,0.00,1016.5,,TRUE,TRUE,,,,,,,,,,,,,,,,0.01,,,,,,,,,,,METAR,38
CWVP 141800Z AUTO 31009G17KT 13/08 RMK AO1 PK WND 34017/1728 SLP137 T01310079 53002,CWVP,2025-08-14T18:00:00Z,49.64,-109.514,13.1,7.9,310,9,17,,0.00,1013.7,,TRUE,TRUE,,,,,,,,,,,,,,,,0.02,,,,,,,,,,,METAR,1269
CWVN 141800Z AUTO 34013KT 19/ RMK AO1 PK WND 34020/1740 SLP126 T0185 52007,CWVN,2025-08-14T18:00:00Z,49.058,-107.586,18.5,,340,13,,,0.00,1012.6,,TRUE,TRUE,,,,,,,,,,,,,,,,0.07,,,,,,,,,,,METAR,792
CWVI 141800Z AUTO 30016G23KT 15/07 RMK AO1 PK WND 29025/1707 SLP127 T01470073 53002,CWVI,2025-08-14T18:00:00Z,53.505,-112.098,14.7,7.3,300,16,23,,0.00,1012.7,,TRUE,TRUE,,,,,,,,,,,,,,,,0.02,,,,,,,,,,,METAR,640
CWVF 141800Z AUTO 14021KT 17/14 RMK AO1 PK WND 14023/1757 T01670141,CWVF,2025-08-14T18:00:00Z,49.106,-123.303,16.7,14.1,140,21,,,0.00,,,TRUE,TRUE,,,,,,,,,,,,,,,,,,,,,,,,,,,METAR,13
CWUX 141800Z AUTO 29010KT 19/10 RMK AO1 PK WND 29019/1715 SLP178 T01940095 55002,CWUX,2025-08-14T18:00:00Z,48.298,-70.92,19.4,9.5,290,10,,,0.00,1017.8,,TRUE,TRUE,,,,,,,,,,,,,,,,-0.02,,,,,,,,,,,METAR,150
CWUS 141800Z AUTO 02004KT 23/12 RMK AO1 SLP119 T02290123 58006,CWUS,2025-08-14T18:00:00Z,49.563,-119.649,22.9,12.3,20,4,,,0.00,1011.9,,TRUE,TRUE,,,,,,,,,,,,,,,,-0.06,,,,,,,,,,,METAR,455
CWTY 141800Z AUTO 32008KT 22/08 RMK AO1 SLP171 T02230084 53007,CWTY,2025-08-14T18:00:00Z,46.354,-72.516,22.3,8.4,320,8,,,0.00,1017.1,,TRUE,TRUE,,,,,,,,,,,,,,,,0.07,,,,,,,,,,,METAR,8
CWTT 141800Z AUTO 33010KT 24/15 RMK AO1 T02440149,CWTT,2025-08-14T18:00:00Z,45.27,-72.17,24.4,14.9,330,10,,,0.00,,,TRUE,TRUE,,,,,,,,,,,,,,,,,,,,,,,,,,,METAR,210
CWTN 141800Z AUTO 09008KT 23/15 RMK AO1 SLP147 T02310146 52003,CWTN,2025-08-14T18:00:00Z,47.079,-70.781,23.1,14.6,90,8,,,0.00,1014.7,,TRUE,TRUE,,,,,,,,,,,,,,,,0.03,,,,,,,,,,,METAR,5
CWTG 141800Z AUTO 28014G23KT 21/09 RMK AO1 PK WND 27023/1737 SLP129 T02130093 53014,CWTG,2025-08-14T18:00:00Z,49.317,-67.381,21.3,9.3,280,14,23,,0.00,1012.9,,TRUE,TRUE,,,,,,,,,,,,,,,,0.14,,,,,,,,,,,METAR,6
CWSW 141800Z 12010G16KT 20SM FEW035 BKN049 BKN069 17/08 A2996 RMK CU1SC5AC1 CU TR SLP137 DENSITY ALT 4900FT,CWSW,2025-08-14T18:00:00Z,49.834,-114.881,17,8,120,10,16,20,29.96,1013.7,,,,,,,,,,FEW,3500,BKN,4900,BKN,6900,,,VFR,,,,,,,,,,,,METAR,1173
CWST 141800Z AUTO 04005KT 23/12 RMK AO1 SLP151 T02290124 53002,CWST,2025-08-14T18:00:00Z,47.354,-70.03,22.9,12.4,40,5,,,0.00,1015.1,,TRUE,TRUE,,,,,,,,,,,,,,,,0.02,,,,,,,,,,,METAR,31
CWSS 141800Z AUTO 35003KT 28/21 RMK AO1 SLP121 T02780206 52002,CWSS,2025-08-14T18:00:00Z,45.21,-67.253,27.8,20.6,350,3,,,0.00,1012.1,,TRUE,TRUE,,,,,,,,,,,,,,,,0.02,,,,,,,,,,,METAR,27
CWSR 141800Z AUTO 27016G24KT 13/08 RMK AO1 PK WND 27024/1746 SLP077 T01340081 51011,CWSR,2025-08-14T18:00:00Z,53.368,-107.553,13.4,8.1,270,16,24,,0.00,1007.7,,TRUE,TRUE,,,,,,,,,,,,,,,,0.11,,,,,,,,,,,METAR,589
CWSP 141800Z AUTO 28020KT 14/14 RMK AO1 PK WND 31023/1707 SLP162 T01410138 58003,CWSP,2025-08-14T18:00:00Z,48.377,-123.921,14.1,13.8,280,20,,,0.00,1016.2,,TRUE,TRUE,,,,,,,,,,,,,,,,-0.03,,,,,,,,,,,METAR,2
CWSL 141800Z AUTO 02002KT 21/12 RMK AO1 SLP122 T02130122 58006,CWSL,2025-08-14T18:00:00Z,50.703,-119.291,21.3,12.2,20,2,,,0.00,1012.2,,TRUE,TRUE,,,,,,,,,,,,,,,,-0.06,,,,,,,,,,,METAR,353
CWSK 141800Z AUTO 15004KT 20/14 RMK AO1 SLP148 T01960139 50000,CWSK,2025-08-14T18:00:00Z,49.783,-123.161,19.6,13.9,150,4,,,0.00,1014.8,,TRUE,TRUE,,,,,,,,,,,,,,,,,,,,,,,,,,,METAR,59
CWSG 141800Z AUTO 24022KT 19/12 RMK AO1 PK WND 25026/1744 SLP132 T01850115 53011,CWSG,2025-08-14T18:00:00Z,49.109,-66.655,18.5,11.5,240,22,,,0.00,1013.2,,TRUE,TRUE,,,,,,,,,,,,,,,,0.11,,,,,,,,,,,METAR,5
CWSF 141800Z AUTO 28015G21KT 18/11 RMK AO1 PK WND 30026/1710 SLP109 T01780114 53009,CWSF,2025-08-14T18:00:00Z,49.251,-65.325,17.8,11.4,280,15,21,,0.00,1010.9,,TRUE,TRUE,,,,,,,,,,,,,,,,0.09,,,,,,,,,,,METAR,15
CWSD 141800Z AUTO 21009KT 28/20 RMK AO1 SLP114 T02750196 55001,CWSD,2025-08-14T18:00:00Z,46.441,-63.837,27.5,19.6,210,9,,,0.00,1011.4,,TRUE,TRUE,,,,,,,,,,,,,,,,-0.01,,,,,,,,,,,METAR,12
CWSA 141800Z AUTO 16011KT 9SM SCT032 SCT043 24/21 A3002 RMK SLP168 DENSITY ALT 900FT,CWSA,2025-08-14T18:00:00Z,43.933,-60.002,24,21,160,11,,9,30.02,1016.8,,TRUE,,,,,,,,SCT,3200,SCT,4300,,,,,VFR,,,,,,,,,,,,METAR,4
CWRZ 141800Z AUTO 04002KT 20/18 RMK AO1 SLP104 T01950182 53009,CWRZ,2025-08-14T18:00:00Z,48.419,-64.317,19.5,18.2,40,2,,,0.00,1010.4,,TRUE,TRUE,,,,,,,,,,,,,,,,0.09,,,,,,,,,,,METAR,16
CWRY 141800Z AUTO 01006KT 16/09 RMK AO1 SLP155 T01570090 56004,CWRY,2025-08-14T18:00:00Z,49.133,-112.051,15.7,9,10,6,,,0.00,1015.5,,TRUE,TRUE,,,,,,,,,,,,,,,,-0.04,,,,,,,,,,,METAR,1048
CWRU 141800Z AUTO 12/ RMK AO1 2PAST HR M38 M P0001 T0118 50016,CWRU,2025-08-14T18:00:00Z,50.112,-127.941,11.8,,,,,,0.00,,,TRUE,TRUE,,,,,,,,,,,,,,,,0.16,,,,,0.01,,,,,,METAR,76
CWRT 141800Z AUTO 00014KT 13/08 RMK AO1 2PAST HR 8003 SLP154 P0001 T01300081 50002,CWRT,2025-08-14T18:00:00Z,49.628,-114.482,13,8.1,VRB,14,,,0.00,1015.4,,TRUE,TRUE,,,,,,,,,,,,,,,,0.02,,,,,0.01,,,,,,METAR,1311
CWRO 141800Z AUTO 13020G25KT 14/13 RMK AO1 1PAST HR 8014 PK WND 14025/1754 SLP093 P0000 T01410134 50002,CWRO,2025-08-14T18:00:00Z,54.161,-131.66,14.1,13.4,130,20,25,,0.00,1009.3,,TRUE,TRUE,,,,,,,,,,,,,,,,0.02,,,,,0.005,,,,,,METAR,7
CWRN 141800Z AUTO 20019G25KT 23/19 RMK AO1 PK WND 22029/1706 SLP140 T02330191 53007,CWRN,2025-08-14T18:00:00Z,45.347,-60.98,23.3,19.1,200,19,25,,0.00,1014,,TRUE,TRUE,,,,,,,,,,,,,,,,0.07,,,,,,,,,,,METAR,8
CWRM 141800Z AUTO 30004KT 10/09 RMK AO1 SLP147 T01040086 50003,CWRM,2025-08-14T18:00:00Z,52.431,-114.907,10.4,8.6,300,4,,,0.00,1014.7,,TRUE,TRUE,,,,,,,,,,,,,,,,0.03,,,,,,,,,,,METAR,986
CWRK 141800Z AUTO 01005KT 26/12 RMK AO1 SLP189 T02610115 51002,CWRK,2025-08-14T18:00:00Z,45.072,-77.879,26.1,11.5,10,5,,,0.00,1018.9,,TRUE,TRUE,,,,,,,,,,,,,,,,0.02,,,,,,,,,,,METAR,328
CWRJ 141800Z AUTO 30016G22KT 16/09 RMK AO1 PK WND 30025/1731 SLP108 T01590086 51005,CWRJ,2025-08-14T18:00:00Z,51.565,-107.924,15.9,8.6,300,16,22,,0.00,1010.8,,TRUE,TRUE,,,,,,,,,,,,,,,,0.05,,,,,,,,,,,METAR,586
CWRA 141800Z AUTO 00022KT 18/18 RMK AO1 SLP184 T01830183 58001,CWRA,2025-08-14T18:00:00Z,46.659,-53.073,18.3,18.3,VRB,22,,,0.00,1018.4,,TRUE,TRUE,,,,,,,,,,,,,,,,-0.01,,,,,,,,,,,METAR,4
CWQV 141800Z AUTO 28021KT 19/ RMK AO1 PK WND 28027/1749 T0192,CWQV,2025-08-14T18:00:00Z,48.26,-70.116,19.2,,280,21,,,0.00,,,TRUE,TRUE,,,,,,,,,,,,,,,,,,,,,,,,,,,METAR,4
CWQS 141800Z AUTO 00000KT 13/12 RMK AO1 2PAST HR M P0001 T01340115,CWQS,2025-08-14T18:00:00Z,53.316,-132.772,13.4,11.5,0,0,,,0.00,,,TRUE,TRUE,,,,,,,,,,,,,,,,,,,,,0.01,,,,,,METAR,10
CWQR 141800Z AUTO 25023KT 15/11 RMK AO1 PK WND 25024/1751 T01450113,CWQR,2025-08-14T18:00:00Z,50.221,-64.207,14.5,11.3,250,23,,,0.00,,,TRUE,TRUE,,,,,,,,,,,,,,,,,,,,,,,,,,,METAR,9
CWQP 141800Z AUTO 12012KT 27/19 RMK AO1 SLP171 T02670190 51004,CWQP,2025-08-14T18:00:00Z,43.84,-77.153,26.7,19,120,12,,,0.00,1017.1,,TRUE,TRUE,,,,,,,,,,,,,,,,0.04,,,,,,,,,,,METAR,77
CWQO 141800Z AUTO 22009KT 14/09 RMK AO1 T01420090,CWQO,2025-08-14T18:00:00Z,48.416,-68.893,14.2,9,220,9,,,0.00,,,TRUE,TRUE,,,,,,,,,,,,,,,,,,,,,,,,,,,METAR,7
CWQK 141800Z AUTO 26015KT 14/10 RMK AO1 PK WND 28021/1718 SLP166 T01370103 51007,CWQK,2025-08-14T18:00:00Z,48.298,-123.531,13.7,10.3,260,15,,,0.00,1016.6,,TRUE,TRUE,,,,,,,,,,,,,,,,0.07,,,,,,,,,,,METAR,5
CWQH 141800Z AUTO 36008KT 26/15 RMK AO1 SLP157 T02560150 53005,CWQH,2025-08-14T18:00:00Z,45.369,-71.824,25.6,15,360,8,,,0.00,1015.7,,TRUE,TRUE,,,,,,,,,,,,,,,,0.05,,,,,,,,,,,METAR,181
CWPZ 141800Z AUTO 15004KT 16/05 RMK AO1 SLP132 T01610051 58012,CWPZ,2025-08-14T18:00:00Z,54.383,-125.959,16.1,5.1,150,4,,,0.00,1013.2,,TRUE,TRUE,,,,,,,,,,,,,,,,-0.12,,,,,,,,,,,METAR,715
CWPR 141800Z AUTO 35003KT 24/10 RMK AO1 SLP122 T02360097 58013,CWPR,2025-08-14T18:00:00Z,49.468,-120.514,23.6,9.7,350,3,,,0.00,1012.2,,TRUE,TRUE,,,,,,,,,,,,,,,,-0.13,,,,,,,,,,,METAR,703
CWPO 141800Z AUTO 21010G15KT 26/20 RMK AO1 PK WND 22017/1741 SLP055 T02640199 50000,CWPO,2025-08-14T18:00:00Z,49.191,-98.905,26.4,19.9,210,10,15,,0.00,1005.5,,TRUE,TRUE,,,,,,,,,,,,,,,,,,,,,,,,,,,METAR,471
CWPK 141800Z AUTO 33004KT 18/06 RMK AO1 SLP207 T01820062 53004,CWPK,2025-08-14T18:00:00Z,47.922,-74.624,18.2,6.2,330,4,,,0.00,1020.7,,TRUE,TRUE,,,,,,,,,,,,,,,,0.04,,,,,,,,,,,METAR,443
CWPE 141800Z AUTO 10005KT 16/16 RMK AO1 SLP124 T01610159 50004,CWPE,2025-08-14T18:00:00Z,45.058,-66.459,16.1,15.9,100,5,,,0.00,1012.4,,TRUE,TRUE,,,,,,,,,,,,,,,,0.04,,,,,,,,,,,METAR,9
CWPD 141800Z AUTO 04007KT 17/08 RMK AO1 SLP140 T01680084 53005,CWPD,2025-08-14T18:00:00Z,47.562,-71.229,16.8,8.4,40,7,,,0.00,1014,,TRUE,TRUE,,,,,,,,,,,,,,,,0.05,,,,,,,,,,,METAR,795
CWOY 141800Z AUTO 27008G15KT 14/11 RMK AO1 PK WND 24018/1745 SLP088 T01390106 53019,CWOY,2025-08-14T18:00:00Z,51.767,-104.2,13.9,10.6,270,8,15,,0.00,1008.8,,TRUE,TRUE,,,,,,,,,,,,,,,,0.19,,,,,,,,,,,METAR,557
CWOE 141800Z AUTO 32012KT 16/09 RMK AO1 PK WND 29017/1718 SLP143 T01610092 50002,CWOE,2025-08-14T18:00:00Z,49.123,-110.469,16.1,9.2,320,12,,,0.00,1014.3,,TRUE,TRUE,,,,,,,,,,,,,,,,0.02,,,,,,,,,,,METAR,931
CWOD 141800Z AUTO 31007KT 20/06 RMK AO1 SLP186 T01970064 55001,CWOD,2025-08-14T18:00:00Z,48.842,-72.546,19.7,6.4,310,7,,,0.00,1018.6,,TRUE,TRUE,,,,,,,,,,,,,,,,-0.01,,,,,,,,,,,METAR,150
CWOC 141800Z AUTO 27010G17KT 25/16 RMK AO1 PK WND 27018/1705 SLP106 T02540159 53008,CWOC,2025-08-14T18:00:00Z,48.012,-65.332,25.4,15.9,270,10,17,,0.00,1010.6,,TRUE,TRUE,,,,,,,,,,,,,,,,0.08,,,,,,,,,,,METAR,42
CWNZ 141800Z AUTO 13007KT 19/07 RMK AO1 SLP211 T01880066 56018,CWNZ,2025-08-14T18:00:00Z,49.747,-84.164,18.8,6.6,130,7,,,0.00,1021.1,,TRUE,TRUE,,,,,,,,,,,,,,,,-0.18,,,,,,,,,,,METAR,261
CWNQ 141800Z AUTO 32004KT 23/12 RMK AO1 SLP170 T02290122 51006,CWNQ,2025-08-14T18:00:00Z,46.226,-72.657,22.9,12.2,320,4,,,0.00,1017,,TRUE,TRUE,,,,,,,,,,,,,,,,0.06,,,,,,,,,,,METAR,9
CWNP 141800Z AUTO 29003KT 18/11 RMK AO1 SLP136 T01840110 58006,CWNP,2025-08-14T18:00:00Z,50.269,-117.817,18.4,11,290,3,,,0.00,1013.6,,TRUE,TRUE,,,,,,,,,,,,,,,,-0.06,,,,,,,,,,,METAR,517
CWNM 141800Z AUTO 26006KT 25/10 RMK AO1 SLP108 T02450095 58009,CWNM,2025-08-14T18:00:00Z,49.491,-117.305,24.5,9.5,260,6,,,0.00,1010.8,,TRUE,TRUE,,,,,,,,,,,,,,,,-0.09,,,,,,,,,,,METAR,533
CWNK 141800Z AUTO 16015G20KT 26/19 RMK AO1 PK WND 16023/1726 SLP048 T02620194 56012,CWNK,2025-08-14T18:00:00Z,49.498,-98.03,26.2,19.4,160,15,20,,0.00,1004.8,,TRUE,TRUE,,,,,,,,,,,,,,,,-0.12,,,,,,,,,,,METAR,271
CWNH 141800Z AUTO 34005KT 20/08 RMK AO1 SLP159 T02000078 51002,CWNH,2025-08-14T18:00:00Z,47.806,-69.548,20,7.8,340,5,,,0.00,1015.9,,TRUE,TRUE,,,,,,,,,,,,,,,,0.02,,,,,,,,,,,METAR,147
CWNE 141800Z AUTO 22013KT 22/20 RMK AO1 SLP115 T02240202 53007,CWNE,2025-08-14T18:00:00Z,47.058,-63.997,22.4,20.2,220,13,,,0.00,1011.5,,TRUE,TRUE,,,,,,,,,,,,,,,,0.07,,,,,,,,,,,METAR,5
CWNC 141800Z AUTO 20008KT 27/19 RMK AO1 SLP170 T02670192 52005,CWNC,2025-08-14T18:00:00Z,43.951,-78.165,26.7,19.2,200,8,,,0.00,1017,,TRUE,TRUE,,,,,,,,,,,,,,,,0.05,,,,,,,,,,,METAR,71
CWMZ 141800Z AUTO 01005KT 23/16 RMK AO1 SLP188 T02300159 50003,CWMZ,2025-08-14T18:00:00Z,45.033,-80.367,23,15.9,10,5,,,0.00,1018.8,,TRUE,TRUE,,,,,,,,,,,,,,,,0.03,,,,,,,,,,,METAR,175
CWMT 141800Z AUTO 27005KT 19/05 RMK AO1 SLP147 T01900048 58004,CWMT,2025-08-14T18:00:00Z,63.134,-117.245,19,4.8,270,5,,,0.00,1014.7,,TRUE,TRUE,,,,,,,,,,,,,,,,-0.04,,,,,,,,,,,METAR,274
CWMQ 141800Z AUTO 27009G15KT 16/09 RMK AO1 PK WND 28017/1722 SLP143 T01640094 50001,CWMQ,2025-08-14T18:00:00Z,49.903,-109.466,16.4,9.4,270,9,15,,0.00,1014.3,,TRUE,TRUE,,,,,,,,,,,,,,,,0.01,,,,,,,,,,,METAR,767
CWMM 141800Z AUTO 14005KT 18/12 RMK AO1 SLP168 T01840123 51004,CWMM,2025-08-14T18:00:00Z,49.208,-122.69,18.4,12.3,140,5,,,0.00,1016.8,,TRUE,TRUE,,,,,,,,,,,,,,,,0.04,,,,,,,,,,,METAR,2
CWMJ 141800Z AUTO 03006KT 22/07 RMK AO1 SLP193 T02200072 52001,CWMJ,2025-08-14T18:00:00Z,46.275,-75.992,22,7.2,30,6,,,0.00,1019.3,,TRUE,TRUE,,,,,,,,,,,,,,,,0.01,,,,,,,,,,,METAR,198
CWME 141800Z AUTO 25003KT 15/13 RMK AO1 SLP129 T01470130 58006,CWME,2025-08-14T18:00:00Z,52.187,-127.471,14.7,13,250,3,,,0.00,1012.9,,TRUE,TRUE,,,,,,,,,,,,,,,,-0.06,,,,,,,,,,,METAR,23
CWLY 141800Z AUTO 20013G28KT 160V240 9SM CLR 25/13 A2986 RMK SLP111 DENSITY ALT 2100FT,CWLY,2025-08-14T18:00:00Z,50.224,-121.582,25,13,200,13,28,9,29.86,1011.1,,TRUE,,,,,,,,CLR,,,,,,,,VFR,,,,,,,,,,,,METAR,228
CWLS 141800Z AUTO 25004KT 25/13 RMK AO1 SLP185 T02540134 58002,CWLS,2025-08-14T18:00:00Z,43.983,-80.74,25.4,13.4,250,4,,,0.00,1018.5,,TRUE,TRUE,,,,,,,,,,,,,,,,-0.02,,,,,,,,,,,METAR,413
CWLP 141800Z AUTO 12013KT 12/ RMK AO1 8PAST HR 7006 SLP132 P0003 T0117 50008,CWLP,2025-08-14T18:00:00Z,50.94,-127.632,11.7,,120,13,,,0.00,1013.2,,TRUE,TRUE,,,,,,,,,,,,,,,,0.08,,,,,0.03,,,,,,METAR,15
CWLM 141800Z AUTO 21012KT 14/11 RMK AO1 PK WND 19018/1722 SLP158 T01350108 53009,CWLM,2025-08-14T18:00:00Z,48.413,-123.325,13.5,10.8,210,12,,,0.00,1015.8,,TRUE,TRUE,,,,,,,,,,,,,,,,0.09,,,,,,,,,,,METAR,62
CWLE 141800Z AUTO 17/10 RMK AO1 23 0006 SLP114 T01690096 50002,CWLE,2025-08-14T18:00:00Z,50.951,-107.143,16.9,9.6,,,,,0.00,1011.4,,TRUE,TRUE,,,,,,,,,,,,,,,,0.02,,,,,,,,,,,METAR,666
CWLC 141800Z AUTO 13008KT 13/13 RMK AO1 T01300130,CWLC,2025-08-14T18:00:00Z,54.296,-130.609,13,13,130,8,,,0.00,,,TRUE,TRUE,,,,,,,,,,,,,,,,,,,,,,,,,,,METAR,27
CWLB 141800Z AUTO 30013G19KT 11/05 RMK AO1 PK WND 30019/1759 SLP122 T01120048 52009,CWLB,2025-08-14T18:00:00Z,54.769,-112.024,11.2,4.8,300,13,19,,0.00,1012.2,,TRUE,TRUE,,,,,,,,,,,,,,,,0.09,,,,,,,,,,,METAR,561
CWKX 141800Z AUTO 06005KT 13/07 RMK AO1 SLP110 T01340071 58011,CWKX,2025-08-14T18:00:00Z,58.429,-130.011,13.4,7.1,60,5,,,0.00,1011,,TRUE,TRUE,,,,,,,,,,,,,,,,-0.11,,,,,,,,,,,METAR,807
CWKO 141800Z AUTO 32015G21KT 18/10 RMK AO1 PK WND 34023/1730 SLP122 T01820095 51013,CWKO,2025-08-14T18:00:00Z,49.168,-105.979,18.2,9.5,320,15,21,,0.00,1012.2,,TRUE,TRUE,,,,,,,,,,,,,,,,0.13,,,,,,,,,,,METAR,914
CWKH 141800Z AUTO 18/11 RMK AO1 SLP149 T01790109 52005,CWKH,2025-08-14T18:00:00Z,48.568,-123.542,17.9,10.9,,,,,0.00,1014.9,,TRUE,TRUE,,,,,,,,,,,,,,,,0.05,,,,,,,,,,,METAR,327
CWKG 141800Z AUTO 22003KT 25/21 RMK AO1 SLP141 T02530207 53001,CWKG,2025-08-14T18:00:00Z,44.432,-65.203,25.3,20.7,220,3,,,0.00,1014.1,,TRUE,TRUE,,,,,,,,,,,,,,,,0.01,,,,,,,,,,,METAR,154
CWJX 141800Z AUTO 30013G20KT 17/08 RMK AO1 PK WND 27021/1724 SLP130 T01690080 51003,CWJX,2025-08-14T18:00:00Z,50.876,-109.501,16.9,8,300,13,20,,0.00,1013,,TRUE,TRUE,,,,,,,,,,,,,,,,0.03,,,,,,,,,,,METAR,671
CWJW 141800Z AUTO 24003KT 13/08 RMK AO1 SLP160 T01250077 58003,CWJW,2025-08-14T18:00:00Z,52.926,-118.03,12.5,7.7,240,3,,,0.00,1016,,TRUE,TRUE,,,,,,,,,,,,,,,,-0.03,,,,,,,,,,,METAR,1022
CWJV 141800Z AUTO 30002KT 23/13 RMK AO1 SLP129 T02280131 58006,CWJV,2025-08-14T18:00:00Z,50.223,-119.194,22.8,13.1,300,2,,,0.00,1012.9,,TRUE,TRUE,,,,,,,,,,,,,,,,-0.06,,,,,,,,,,,METAR,487
CWJU 141800Z AUTO 09008G17KT 13/13 RMK AO1 1PAST HR 6017 PK WND 10017/1745 SLP073 P0000 T01320127 50027,CWJU,2025-08-14T18:00:00Z,54.255,-133.058,13.2,12.7,90,8,17,,0.00,1007.3,,TRUE,TRUE,,,,,,,,,,,,,,,,0.27,,,,,0.005,,,,,,METAR,47
CWJR 141800Z AUTO 21003KT 24/11 RMK AO1 SLP117 T02360106 50002,CWJR,2025-08-14T18:00:00Z,49.04,-116.483,23.6,10.6,210,3,,,0.00,1011.7,,TRUE,TRUE,,,,,,,,,,,,,,,,0.02,,,,,,,,,,,METAR,642
CWJO 141800Z AUTO 08009G15KT 18/09 RMK AO1 SLP178 T01820090 53004,CWJO,2025-08-14T18:00:00Z,48.425,-71.143,18.2,9,80,9,15,,0.00,1017.8,,TRUE,TRUE,,,,,,,,,,,,,,,,0.04,,,,,,,,,,,METAR,113
CWJI 141800Z AUTO 31015KT 19/10 RMK AO1 PK WND 30023/1707 SLP117 T01850095 51010,CWJI,2025-08-14T18:00:00Z,49.729,-105.946,18.5,9.5,310,15,,,0.00,1011.7,,TRUE,TRUE,,,,,,,,,,,,,,,,0.1,,,,,,,,,,,METAR,724
CWJH 141800Z AUTO 02004KT 10/09 RMK AO1 9PAST HR 5005 SLP991 P0004 T01010094 50048,CWJH,2025-08-14T18:00:00Z,56.333,-103.283,10.1,9.4,20,4,,,0.00,999.1,,TRUE,TRUE,,,,,,,,,,,,,,,,0.48,,,,,0.04,,,,,,METAR,345
CWJD 141800Z AUTO 27009G19KT 22/17 RMK AO1 PK WND 25021/1728 SLP008 T02150166 55001,CWJD,2025-08-14T18:00:00Z,53.187,-99.268,21.5,16.6,270,9,19,,0.00,1000.8,,TRUE,TRUE,,,,,,,,,,,,,,,,-0.01,,,,,,,,,,,METAR,222
CWJC 141800Z AUTO 10011KT 14/03 RMK AO1 PK WND 10019/1703 SLP138 T01420031 58011,CWJC,2025-08-14T18:00:00Z,61.132,-100.884,14.2,3.1,100,11,,,0.00,1013.8,,TRUE,TRUE,,,,,,,,,,,,,,,,-0.11,,,,,,,,,,,METAR,340
CWJB 141800Z AUTO 28004KT 25/11 RMK AO1 T02490107,CWJB,2025-08-14T18:00:00Z,46.781,-71.288,24.9,10.7,280,4,,,0.00,,,TRUE,TRUE,,,,,,,,,,,,,,,,,,,,,,,,,,,METAR,90
CWIZ 141800Z AUTO 04005KT 25/16 RMK AO1 T02500158,CWIZ,2025-08-14T18:00:00Z,45.294,-73.35,25,15.8,40,5,,,0.00,,,TRUE,TRUE,,,,,,,,,,,,,,,,,,,,,,,,,,,METAR,45
CWIW 141800Z AUTO 28013G22KT 15/09 RMK AO1 PK WND 29024/1715 SLP094 T01520090 51013,CWIW,2025-08-14T18:00:00Z,51.667,-105.4,15.2,9,280,13,22,,0.00,1009.4,,TRUE,TRUE,,,,,,,,,,,,,,,,0.13,,,,,,,,,,,METAR,524
CWIT 141800Z AUTO 33005KT 26/14 RMK AO1 SLP165 T02560142 52003,CWIT,2025-08-14T18:00:00Z,45.167,-73.678,25.6,14.2,330,5,,,0.00,1016.5,,TRUE,TRUE,,,,,,,,,,,,,,,,0.03,,,,,,,,,,,METAR,53
CWIS 141800Z AUTO 11003KT 18/11 RMK AO1 SLP166 T01820108 53006,CWIS,2025-08-14T18:00:00Z,47.284,-70.637,18.2,10.8,110,3,,,0.00,1016.6,,TRUE,TRUE,,,,,,,,,,,,,,,,0.06,,,,,,,,,,,METAR,720
CWIP 141800Z AUTO 30010G15KT 20/09 RMK AO1 PK WND 29018/1722 T02040093,CWIP,2025-08-14T18:00:00Z,50.162,-66.434,20.4,9.3,300,10,15,,0.00,,,TRUE,TRUE,,,,,,,,,,,,,,,,,,,,,,,,,,,METAR,27
CWIK 141800Z AUTO 30013G18KT 20/12 RMK AO1 PK WND 32023/1716 SLP081 T02020115 51014,CWIK,2025-08-14T18:00:00Z,50.366,-102.567,20.2,11.5,300,13,18,,0.00,1008.1,,TRUE,TRUE,,,,,,,,,,,,,,,,0.14,,,,,,,,,,,METAR,597
CWIJ 141800Z AUTO 11003KT 12/08 RMK AO1 SLP159 T01210080 58004,CWIJ,2025-08-14T18:00:00Z,65.756,-111.246,12.1,8,110,3,,,0.00,1015.9,,TRUE,TRUE,,,,,,,,,,,,,,,,-0.04,,,,,,,,,,,METAR,490
CWII 141800Z AUTO 17015G20KT 23/18 RMK AO1 PK WND 16024/1729 SLP047 T02250180 58008,CWII,2025-08-14T18:00:00Z,50.695,-96.562,22.5,18,170,15,20,,0.00,1004.7,,TRUE,TRUE,,,,,,,,,,,,,,,,-0.08,,,,,,,,,,,METAR,216
CWIG 141800Z AUTO 04007KT RMK AO1,CWIG,2025-08-14T18:00:00Z,47.074,-70.533,,,40,7,,,0.00,,,TRUE,TRUE,,,,,,,,,,,,,,,,,,,,,,,,,,,METAR,12
CWID 141800Z AUTO 25002KT 19/05 RMK AO1 SLP149 T01900047 58005,CWID,2025-08-14T18:00:00Z,61.317,-117.605,19,4.7,250,2,,,0.00,1014.9,,TRUE,TRUE,,,,,,,,,,,,,,,,-0.05,,,,,,,,,,,METAR,160
CWHV 141800Z AUTO 35006KT 24/15 RMK AO1 SLP147 T02420150 53003,CWHV,2025-08-14T18:00:00Z,46.205,-70.785,24.2,15,350,6,,,0.00,1014.7,,TRUE,TRUE,,,,,,,,,,,,,,,,0.03,,,,,,,,,,,METAR,227
CWHT 141800Z AUTO 15001KT 15/06 RMK AO1 SLP101 T01510062 58011,CWHT,2025-08-14T18:00:00Z,60.773,-137.581,15.1,6.2,150,1,,,0.00,1010.1,,TRUE,TRUE,,,,,,,,,,,,,,,,-0.11,,,,,,,,,,,METAR,601
CWHQ 141800Z AUTO 33008KT 23/12 RMK AO1 T02260115,CWHQ,2025-08-14T18:00:00Z,46.691,-71.972,22.6,11.5,330,8,,,0.00,,,TRUE,TRUE,,,,,,,,,,,,,,,,,,,,,,,,,,,METAR,56
CWHO 141800Z AUTO 00000KT 20/12 RMK AO1 SLP030 T01950120 53014,CWHO,2025-08-14T18:00:00Z,55.448,-60.23,19.5,12,0,0,,,0.00,1003,,TRUE,TRUE,,,,,,,,,,,,,,,,0.14,,,,,,,,,,,METAR,16
CWHL 141800Z AUTO 27003KT 13/12 RMK AO1 8007 SLP105 T01280115 50002,CWHL,2025-08-14T18:00:00Z,54.172,-130.361,12.8,11.5,270,3,,,0.00,1010.5,,TRUE,TRUE,,,,,,,,,,,,,,,,0.02,,,,,,,,,,,METAR,5
CWGZ 141800Z VRB02KT 1/2SM FG VV003 02/02 A2992 RMK FG8 SLP138,CWGZ,2025-08-14T18:00:00Z,76.423,-82.902,2,2,VRB,2,,0.5,29.92,1013.8,,,,,,,,,FG,OVX,0,,,,,,,LIFR,,,,,,,,,,,300,METAR,24
CWGY 141800Z AUTO 31016G24KT 16/07 RMK AO1 PK WND 30024/1751 SLP126 T01640068 58002,CWGY,2025-08-14T18:00:00Z,51.67,-110.206,16.4,6.8,310,16,24,,0.00,1012.6,,TRUE,TRUE,,,,,,,,,,,,,,,,-0.02,,,,,,,,,,,METAR,709
CWGW 141800Z AUTO 13010G15KT 17/08 RMK AO1 SLP136 T01700081 58004,CWGW,2025-08-14T18:00:00Z,49.745,-114.884,17,8.1,130,10,15,,0.00,1013.6,,TRUE,TRUE,,,,,,,,,,,,,,,,-0.04,,,,,,,,,,,METAR,1137
CWGT 141800Z AUTO 11023KT 16/15 RMK AO1 PK WND 11025/1756 SLP144 T01600150 58004,CWGT,2025-08-14T18:00:00Z,49.487,-124.435,16,15,110,23,,,0.00,1014.4,,TRUE,TRUE,,,,,,,,,,,,,,,,-0.04,,,,,,,,,,,METAR,5
CWGR 141800Z AUTO 23012G18KT 23/19 RMK AO1 PK WND 23019/1741 SLP114 T02280190 51009,CWGR,2025-08-14T18:00:00Z,47.425,-61.775,22.8,19,230,12,18,,0.00,1011.4,,TRUE,TRUE,,,,,,,,,,,,,,,,0.09,,,,,,,,,,,METAR,4
CWGL 141800Z AUTO 32007KT 25/13 RMK AO1 SLP171 T02510126 51002,CWGL,2025-08-14T18:00:00Z,44.55,-79.218,25.1,12.6,320,7,,,0.00,1017.1,,TRUE,TRUE,,,,,,,,,,,,,,,,0.02,,,,,,,,,,,METAR,220
CWGD 141800Z AUTO 31008KT 24/20 RMK AO1 SLP186 T02420200 51002,CWGD,2025-08-14T18:00:00Z,43.765,-81.712,24.2,20,310,8,,,0.00,1018.6,,TRUE,TRUE,,,,,,,,,,,,,,,,0.02,,,,,,,,,,,METAR,214
CWGB 141800Z AUTO 11019KT 17/17 RMK AO1 PK WND 11023/1725 SLP147 T01700169 50002,CWGB,2025-08-14T18:00:00Z,49.336,-124.149,17,16.9,110,19,,,0.00,1014.7,,TRUE,TRUE,,,,,,,,,,,,,,,,0.02,,,,,,,,,,,METAR,6
CWFQ 141800Z AUTO 34010G16KT 25/16 RMK AO1 PK WND 33017/1743 SLP162 T02490161 52008,CWFQ,2025-08-14T18:00:00Z,45.05,-72.861,24.9,16.1,340,10,16,,0.00,1016.2,,TRUE,TRUE,,,,,,,,,,,,,,,,0.08,,,,,,,,,,,METAR,190
CWFJ 141800Z AUTO 02004KT 13/09 RMK AO1 SLP152 T01310086 57001,CWFJ,2025-08-14T18:00:00Z,49.2,-113.278,13.1,8.6,20,4,,,0.00,1015.2,,TRUE,TRUE,,,,,,,,,,,,,,,,-0.01,,,,,,,,,,,METAR,1142
CWFF 141800Z AUTO 28013G22KT 16/11 RMK AO1 PK WND 28023/1747 SLP061 T01630114 52015,CWFF,2025-08-14T18:00:00Z,52.817,-104.601,16.3,11.4,280,13,22,,0.00,1006.1,,TRUE,TRUE,,,,,,,,,,,,,,,,0.15,,,,,,,,,,,METAR,482
CWEZ 141800Z AUTO 16014KT 20/12 RMK AO1 PK WND 17017/1756 SLP160 T01980115 51006,CWEZ,2025-08-14T18:00:00Z,48.783,-123.046,19.8,11.5,160,14,,,0.00,1016,,TRUE,TRUE,,,,,,,,,,,,,,,,0.06,,,,,,,,,,,METAR,23
CWEW 141800Z AUTO 34006KT 25/15 RMK AO1 SLP169 T02470147 51003,CWEW,2025-08-14T18:00:00Z,45.809,-73.435,24.7,14.7,340,6,,,0.00,1016.9,,TRUE,TRUE,,,,,,,,,,,,,,,,0.03,,,,,,,,,,,METAR,17
CWEU 141800Z 27009KT 15SM FEW022 OVC056 03/00 A2992 RMK SC1SC8 SC TR SLP141,CWEU,2025-08-14T18:00:00Z,79.989,-85.934,3,0,270,9,,15,29.92,1014.1,,,,,,,,,,FEW,2200,OVC,5600,,,,,VFR,,,,,,,,,,,,METAR,2
CWER 141800Z AUTO 06013KT RMK AO1 PK WND 07018/1707,CWER,2025-08-14T18:00:00Z,46.997,-70.808,,,60,13,,,0.00,,,TRUE,TRUE,,,,,,,,,,,,,,,,,,,,,,,,,,,METAR,4
CWEQ 141800Z AUTO 24010G15KT 21/16 RMK AO1 PK WND 25018/1722 SLP032 T02120162 50007,CWEQ,2025-08-14T18:00:00Z,52.115,-101.233,21.2,16.2,240,10,15,,0.00,1003.2,,TRUE,TRUE,,,,,,,,,,,,,,,,0.07,,,,,,,,,,,METAR,331
CWEP 141800Z AUTO 19013KT 26/19 RMK AO1 PK WND 18019/1707 SLP124 T02600193 53002,CWEP,2025-08-14T18:00:00Z,46.46,-61.988,26,19.3,190,13,,,0.00,1012.4,,TRUE,TRUE,,,,,,,,,,,,,,,,0.02,,,,,,,,,,,METAR,9
CWEL 141800Z AUTO 11017KT 17/14 RMK AO1 PK WND 11020/1756 SLP152 T01650135 51009,CWEL,2025-08-14T18:00:00Z,49.209,-123.808,16.5,13.5,110,17,,,0.00,1015.2,,TRUE,TRUE,,,,,,,,,,,,,,,,0.09,,,,,,,,,,,METAR,
CWEK 141800Z AUTO 16002KT 13/13 RMK AO1 SLP106 T01270127 58007,CWEK,2025-08-14T18:00:00Z,54.58,-130.698,12.7,12.7,160,2,,,0.00,1010.6,,TRUE,TRUE,,,,,,,,,,,,,,,,-0.07,,,,,,,,,,,METAR,8
CWEH 141800Z AUTO 31011G16KT 16/09 RMK AO1 PK WND 30018/1705 SLP136 T01570087 53004,CWEH,2025-08-14T18:00:00Z,49.438,-108.989,15.7,8.7,310,11,16,,0.00,1013.6,,TRUE,TRUE,,,,,,,,,,,,,,,,0.04,,,,,,,,,,,METAR,1077
CWEF 141800Z AUTO 00024KT 22/18 RMK AO1 SLP114 T02180181 53001,CWEF,2025-08-14T18:00:00Z,47.226,-60.141,21.8,18.1,VRB,24,,,0.00,1011.4,,TRUE,TRUE,,,,,,,,,,,,,,,,0.01,,,,,,,,,,,METAR,27
CWEB 141800Z AUTO 14/12 RMK AO1 17 0001 SLP154 T01350121,CWEB,2025-08-14T18:00:00Z,49.383,-126.543,13.5,12.1,,,,,0.00,1015.4,,TRUE,TRUE,,,,,,,,,,,,,,,,,,,,,,,,,,,METAR,1
CWDZ 141800Z AUTO 31007KT 16/08 RMK AO1 SLP142 T01570079 58007,CWDZ,2025-08-14T18:00:00Z,51.445,-112.677,15.7,7.9,310,7,,,0.00,1014.2,,TRUE,TRUE,,,,,,,,,,,,,,,,-0.07,,,,,,,,,,,METAR,689
CWDV 141800Z AUTO 16007KT 22/15 RMK AO1 SLP163 T02190148 58007,CWDV,2025-08-14T18:00:00Z,49.033,-90.467,21.9,14.8,160,7,,,0.00,1016.3,,TRUE,TRUE,,,,,,,,,,,,,,,,-0.07,,,,,,,,,,,METAR,487
CWDQ 141800Z AUTO 32008KT 21/08 RMK AO1 SLP181 T02140078 56001,CWDQ,2025-08-14T18:00:00Z,47.415,-72.788,21.4,7.8,320,8,,,0.00,1018.1,,TRUE,TRUE,,,,,,,,,,,,,,,,-0.01,,,,,,,,,,,METAR,174
CWDO 141800Z AUTO 21009G19KT 23/19 RMK AO1 PK WND 20022/1738 SLP098 T02300190 56013,CWDO,2025-08-14T18:00:00Z,49.688,-54.8,23,19,210,9,19,,0.00,1009.8,,TRUE,TRUE,,,,,,,,,,,,,,,,-0.13,,,,,,,,,,,METAR,89
CWDM 141800Z AUTO 20008KT 17/17 RMK AO1 SLP079 T01680167 57002,CWDM,2025-08-14T18:00:00Z,50.465,-59.64,16.8,16.7,200,8,,,0.00,1007.9,,TRUE,TRUE,,,,,,,,,,,,,,,,-0.02,,,,,,,,,,,METAR,2
CWDK 141800Z AUTO 11002KT 15/09 RMK AO1 SLP154 T01460087 58003,CWDK,2025-08-14T18:00:00Z,50.006,-113.631,14.6,8.7,110,2,,,0.00,1015.4,,TRUE,TRUE,,,,,,,,,,,,,,,,-0.03,,,,,,,,,,,METAR,1014
CWDJ 141800Z AUTO 29019G25KT 21/11 RMK AO1 PK WND 30027/1714 SLP092 T02050107 51009,CWDJ,2025-08-14T18:00:00Z,50.408,-104.58,20.5,10.7,290,19,25,,0.00,1009.2,,TRUE,TRUE,,,,,,,,,,,,,,,,0.09,,,,,,,,,,,METAR,576
CWDC 141800Z AUTO 05009KT 13/05 RMK AO1 SLP114 T01310054 50000,CWDC,2025-08-14T18:00:00Z,59.56,-108.487,13.1,5.4,50,9,,,0.00,1011.4,,TRUE,TRUE,,,,,,,,,,,,,,,,,,,,,,,,,,,METAR,311
CWDA 141800Z AUTO 13004KT 21/16 RMK AO1 SLP089 T02110163 56011,CWDA,2025-08-14T18:00:00Z,50.721,-56.113,21.1,16.3,130,4,,,0.00,1008.9,,TRUE,TRUE,,,,,,,,,,,,,,,,-0.11,,,,,,,,,,,METAR,30
CWCT 141800Z AUTO 31014G19KT 16/07 RMK AO1 PK WND 30021/1721 SLP144 T01610072 58003,CWCT,2025-08-14T18:00:00Z,52.074,-111.448,16.1,7.2,310,14,19,,0.00,1014.4,,TRUE,TRUE,,,,,,,,,,,,,,,,-0.03,,,,,,,,,,,METAR,793
CWCJ 141800Z AUTO 27005KT 20/09 RMK AO1 SLP203 T01980094 56006,CWCJ,2025-08-14T18:00:00Z,48.588,-86.295,19.8,9.4,270,5,,,0.00,1020.3,,TRUE,TRUE,,,,,,,,,,,,,,,,-0.06,,,,,,,,,,,METAR,207
CWCI 141800Z AUTO 09009KT 20/16 RMK AO1 SLP198 T01980159 56003,CWCI,2025-08-14T18:00:00Z,47.341,-85.807,19.8,15.9,90,9,,,0.00,1019.8,,TRUE,TRUE,,,,,,,,,,,,,,,,-0.03,,,,,,,,,,,METAR,167
CWCF 141800Z AUTO 18008G15KT 19/18 RMK AO1 6016 SLP021 T01930175 50003,CWCF,2025-08-14T18:00:00Z,52.36,-97.022,19.3,17.5,180,8,15,,0.00,1002.1,,TRUE,TRUE,,,,,,,,,,,,,,,,0.03,,,,,,,,,,,METAR,219
CWBZ 141800Z AUTO 29003KT 26/15 RMK AO1 SLP163 T02600154 53001,CWBZ,2025-08-14T18:00:00Z,45.121,-74.289,26,15.4,290,3,,,0.00,1016.3,,TRUE,TRUE,,,,,,,,,,,,,,,,0.01,,,,,,,,,,,METAR,49
CWBV 141800Z AUTO 19018KT 21/21 RMK AO1 PK WND 19020/1739 SLP133 T02110211 57004,CWBV,2025-08-14T18:00:00Z,44.825,-62.338,21.1,21.1,190,18,,,0.00,1013.3,,TRUE,TRUE,,,,,,,,,,,,,,,,-0.04,,,,,,,,,,,METAR,16
CWBU 141800Z AUTO 27014G20KT 18/13 RMK AO1 PK WND 26020/1758 SLP033 T01830129 52012,CWBU,2025-08-14T18:00:00Z,53.333,-104.005,18.3,12.9,270,14,20,,0.00,1003.3,,TRUE,TRUE,,,,,,,,,,,,,,,,0.12,,,,,,,,,,,METAR,369
CWBT 141800Z AUTO 25006KT 20/14 RMK AO1 SLP088 T01950135 53005,CWBT,2025-08-14T18:00:00Z,50.271,-64.226,19.5,13.5,250,6,,,0.00,1008.8,,TRUE,TRUE,,,,,,,,,,,,,,,,0.05,,,,,,,,,,,METAR,12
CWBS 141800Z AUTO 02003KT 22/11 RMK AO1 T02240114,CWBS,2025-08-14T18:00:00Z,46.189,-72.916,22.4,11.4,20,3,,,0.00,,,TRUE,TRUE,,,,,,,,,,,,,,,,,,,,,,,,,,,METAR,3
CWBO 141800Z AUTO 34008KT 17/10 RMK AO1 8001 SLP152 T01700100 50002,CWBO,2025-08-14T18:00:00Z,50.55,-111.849,17,10,340,8,,,0.00,1015.2,,TRUE,TRUE,,,,,,,,,,,,,,,,0.02,,,,,,,,,,,METAR,752
CWBK 141800Z AUTO 21010G18KT 27/19 RMK AO1 PK WND 20018/1737 SLP127 T02730191 55000,CWBK,2025-08-14T18:00:00Z,45.764,-62.681,27.3,19.1,210,10,18,,0.00,1012.7,,TRUE,TRUE,,,,,,,,,,,,,,,,,,,,,,,,,,,METAR,2
CWBA 141800Z AUTO 04004KT 21/07 RMK AO1 T02120074,CWBA,2025-08-14T18:00:00Z,46.71,-79.101,21.2,7.4,40,4,,,0.00,,,TRUE,TRUE,,,,,,,,,,,,,,,,,,,,,,,,,,,METAR,181
CWAV 141800Z AUTO 32003KT 12/06 RMK AO1 SLP163 T01200059 57006,CWAV,2025-08-14T18:00:00Z,51.777,-114.681,12,5.9,320,3,,,0.00,1016.3,,TRUE,TRUE,,,,,,,,,,,,,,,,-0.06,,,,,,,,,,,METAR,1115
CWAR 141800Z AUTO 22015KT 20/19 RMK AO1 PK WND 21020/1716 SLP163 T02030187 58001,CWAR,2025-08-14T18:00:00Z,47.294,-53.993,20.3,18.7,220,15,,,0.00,1016.3,,TRUE,TRUE,,,,,,,,,,,,,,,,-0.01,,,,,,,,,,,METAR,6
CWAQ 141800Z AUTO 32015G21KT 21/12 RMK AO1 PK WND 32023/1716 SLP114 T02070117 53014,CWAQ,2025-08-14T18:00:00Z,49.05,-105.483,20.7,11.7,320,15,21,,0.00,1011.4,,TRUE,TRUE,,,,,,,,,,,,,,,,0.14,,,,,,,,,,,METAR,761
CWAF 141800Z AUTO 30018KT 15/ RMK AO1 PK WND 30022/1718 T0153 50002,CWAF,2025-08-14T18:00:00Z,48.069,-69.556,15.3,,300,18,,,0.00,,,TRUE,TRUE,,,,,,,,,,,,,,,,0.02,,,,,,,,,,,METAR,6
CWAE 141800Z 18009G//KT 10SM FEW025 SCT051TCU BKN075 18/13 A2997 RMK SC2TCU2AC3 WIND EST SLP143 DENSITY ALT 3000FT,CWAE,2025-08-14T18:00:00Z,50.129,-122.955,18,13,,,,10+,29.97,1014.3,,,,,,,,,,FEW,2500,SCT,5100,BKN,7500,,,VFR,,,,,,,,,,,,METAR,658
CTRA 141800Z AUTO 18008G16KT 24/17 RMK AO1 PK WND 18017/1729 SLP104 T02390170 58017,CTRA,2025-08-14T18:00:00Z,49.664,-93.733,23.9,17,180,8,16,,0.00,1010.4,,TRUE,TRUE,,,,,,,,,,,,,,,,-0.17,,,,,,,,,,,METAR,432
CTNK 141800Z AUTO 05004KT 24/10 RMK AO1 SLP199 T02360097 51004,CTNK,2025-08-14T18:00:00Z,45.533,-78.266,23.6,9.7,50,4,,,0.00,1019.9,,TRUE,TRUE,,,,,,,,,,,,,,,,0.04,,,,,,,,,,,METAR,405
CTCK 141800Z AUTO 35004KT 26/14 RMK AO1 SLP165 T02580139 51003,CTCK,2025-08-14T18:00:00Z,45.251,-74.963,25.8,13.9,350,4,,,0.00,1016.5,,TRUE,TRUE,,,,,,,,,,,,,,,,0.03,,,,,,,,,,,METAR,84
CMGB 141800Z AUTO 35004KT 25/16 RMK AO1 SLP170 T02500156 53008,CMGB,2025-08-14T18:00:00Z,45.373,-72.774,25,15.6,350,4,,,0.00,1017,,TRUE,TRUE,,,,,,,,,,,,,,,,0.08,,,,,,,,,,,METAR,87
CMFM 141800Z AUTO 34003KT 19/07 RMK AO1 SLP168 T01920069 51005,CMFM,2025-08-14T18:00:00Z,47.323,-71.148,19.2,6.9,340,3,,,0.00,1016.8,,TRUE,TRUE,,,,,,,,,,,,,,,,0.05,,,,,,,,,,,METAR,663
CERM 141800Z AUTO 32008KT 24/12 RMK AO1 SLP145 T02410116 53009,CERM,2025-08-14T18:00:00Z,47.417,-68.325,24.1,11.6,320,8,,,0.00,1014.5,,TRUE,TRUE,,,,,,,,,,,,,,,,0.09,,,,,,,,,,,METAR,151
CBBC 141800Z AUTO 16003KT 9SM -RA FEW022 BKN032 BKN076 OVC091 14/13 A2990 RMK PCPN 0.5MM PAST HR SLP128,CBBC,2025-08-14T18:00:00Z,52.181,-128.154,14,13,160,3,,9,29.90,1012.8,,TRUE,,,,,,,-RA,FEW,2200,BKN,3200,BKN,7600,OVC,9100,VFR,,,,,,,,,,,,METAR,36
CAHR 141800Z AUTO 20012G17KT 27/19 RMK AO1 PK WND 19020/1729 SLP118 T02740191 55002,CAHR,2025-08-14T18:00:00Z,46.344,-63.17,27.4,19.1,200,12,17,,0.00,1011.8,,TRUE,TRUE,,,,,,,,,,,,,,,,-0.02,,,,,,,,,,,METAR,52
BIVM 141800Z 29015KT 9999 OVC019 10/08 Q1016,BIVM,2025-08-14T18:00:00Z,63.424,-20.278,10,8,290,15,,6+,30.00,,,,,,,,,,,OVC,1900,,,,,,,MVFR,,,,,,,,,,,,METAR,93
BIRK 141800Z 27013KT 9999 FEW015 BKN039 12/07 Q1017,BIRK,2025-08-14T18:00:00Z,64.129,-21.941,12,7,270,13,,6+,30.03,,,,,,,,,,,FEW,1500,BKN,3900,,,,,VFR,,,,,,,,,,,,METAR,12
BIIS 141800Z 25008KT 9999 FEW025 SCT100 11/05 Q1014,BIIS,2025-08-14T18:00:00Z,66.056,-23.143,11,5,250,8,,6+,29.94,,,,,,,,,,,FEW,2500,SCT,10000,,,,,VFR,,,,,,,,,,,,METAR,3
BIEG 141800Z 36009KT 9999 VCSH SCT035 BKN062 12/09 Q1012,BIEG,2025-08-14T18:00:00Z,65.275,-14.409,12,9,360,9,,6+,29.88,,,,,,,,,,VCSH,SCT,3500,BKN,6200,,,,,VFR,,,,,,,,,,,,METAR,20
AYPY 141800Z 15015G20KT 9999 FEW015 SCT050 25/20 Q1010,AYPY,2025-08-14T18:00:00Z,-9.443,147.216,25,20,150,15,20,6+,29.82,,,,,,,,,,,FEW,1500,SCT,5000,,,,,VFR,,,,,,,,,,,,METAR,44
KOFF 141759Z 17010G15KT 7SM FEW080 FEW180 28/20 A2995 RMK AO2A SLPNO WND DATA ESTMD ALSTG/SLP ESTMD 60000 T02810204 10251 20226 $,KOFF,2025-08-14T17:59:00Z,41.122,-95.91,28.1,20.4,170,10,15,7,29.95,,,,TRUE,TRUE,,,,,,FEW,8000,FEW,18000,,,,,VFR,,25.1,22.6,,,,,0.005,,,,METAR,308
KNOZ 141759Z AUTO 17012G20KT CLR 38/17 A2981 RMK AO2 SLP044 T03830172 10383 20289 50000 $,KNOZ,2025-08-14T17:59:00Z,32.55,-114.512,38.3,17.2,170,12,20,,29.81,1004.4,,TRUE,TRUE,TRUE,,,,,,CLR,,,,,,,,,,38.3,28.9,,,,,,,,,METAR,78
KNGU 141759Z 20006KT 10SM FEW020 BKN180 BKN250 31/23 A2995 RMK AO2 SLP141 T03060233 10306 20261 50000,KNGU,2025-08-14T17:59:00Z,36.937,-76.281,30.6,23.3,200,6,,10+,29.95,1014.1,,,TRUE,,,,,,,FEW,2000,BKN,18000,BKN,25000,,,VFR,,30.6,26.1,,,,,,,,,METAR,3
PASY 141758Z 15004KT 1/4SM R28/3000V4000FT FG VV001 10/10 A3026 RMK AO2A SLP250 T01030101 10112 20095 53014 PNO FZRANO $,PASY,2025-08-14T17:58:00Z,52.711,174.107,10.3,10.1,150,4,,0.25,30.26,1025,,,TRUE,TRUE,,,TRUE,,FG,OVX,0,,,,,,,LIFR,0.14,11.2,9.5,,,,,,,,100,METAR,6
MMTL 141758Z RTD 08013KT 7SM BKN020 32/25 A3004 RMK SLP/// 5//// 9// 8/100 HZY,MMTL,2025-08-14T17:58:00Z,20.1725,-87.6622,32,25,80,13,,7,30.04,,,,,,,,,,,BKN,2000,,,,,,,MVFR,,,,,,,,,,,,METAR,20
KROG 141758Z 22005KT 10SM BKN065 BKN075 32/20 A3004 RMK AO2 SLP154 T03220200 10322 20217 58005,KROG,2025-08-14T17:58:00Z,36.3749,-94.1078,32.2,20,220,5,,10+,30.04,1015.4,,,TRUE,,,,,,,BKN,6500,BKN,7500,,,,,VFR,-0.05,32.2,21.7,,,,,,,,,METAR,407
KNFE 141758Z AUTO 00000KT 10SM CLR 30/24 A2994 RMK AO2 SLP140 T03000244 10300 20250 58001,KNFE,2025-08-14T17:58:00Z,36.701,-76.129,30,24.4,0,0,,10+,29.94,1014,,TRUE,TRUE,,,,,,,CLR,,,,,,,,VFR,-0.01,30,25,,,,,,,,,METAR,4
KMRH 141758Z AUTO 21012KT 10SM CLR 29/26 A2997 RMK AO2 LTG DSNT N AND NE RAE32 SLP150 P0000 60000 T02940261 10306 20278 58010,KMRH,2025-08-14T17:58:00Z,34.7326,-76.6566,29.4,26.1,210,12,,10+,29.97,1015,,TRUE,TRUE,,,,,,,CLR,,,,,,,,VFR,-0.1,30.6,27.8,,,0.005,,0.005,,,,METAR,2
KMEI 141758Z 31005KT 10SM FEW026 33/24 A3002 RMK AO2 SLP161 T03280244 10328 20228 58011 $,KMEI,2025-08-14T17:58:00Z,32.3348,-88.7507,32.8,24.4,310,5,,10+,30.02,1016.1,,,TRUE,TRUE,,,,,,FEW,2600,,,,,,,VFR,-0.11,32.8,22.8,,,,,,,,,METAR,90
KHUA 141758Z VRB05KT 7SM SCT034 33/23 A3003,KHUA,2025-08-14T17:58:00Z,34.676,-86.6854,33,23,VRB,5,,7,30.03,,,,,,,,,,,SCT,3400,,,,,,,VFR,,,,,,,,,,,,METAR,200
KCSG 141758Z 32010KT 10SM FEW033 BKN043 32/22 A3002 RMK AO2 T03170222,KCSG,2025-08-14T17:58:00Z,32.5163,-84.9422,31.7,22.2,320,10,,10+,30.02,,,,TRUE,,,,,,,FEW,3300,BKN,4300,,,,,VFR,,,,,,,,,,,,SPECI,120
KBKF 141758Z 09005KT 10SM FEW090 FEW140 BKN220 35/M03 A3004 RMK AO2A SLP061 T03451030 10348 20191 58004,KBKF,2025-08-14T17:58:00Z,39.713,-104.758,34.5,-3,90,5,,10+,30.04,1006.1,,,TRUE,,,,,,,FEW,9000,FEW,14000,BKN,22000,,,VFR,-0.04,34.8,19.1,,,,,,,,,METAR,1703
KBCR 141758Z AUTO 21004KT 10SM FEW036 FEW055 33/26 A3002 RMK AO2 SLP125 T03330256 10333 20244 58007,KBCR,2025-08-14T17:58:00Z,30.8432,-85.6043,33.3,25.6,210,4,,10+,30.02,1012.5,,TRUE,TRUE,,,,,,,FEW,3600,FEW,5500,,,,,VFR,-0.07,33.3,24.4,,,,,,,,,METAR,26
K0J4 141758Z AUTO 00000KT 10SM SCT036 34/22 A3004 RMK AO2 SLP167 60000 T03390222 10339 20250 58008,K0J4,2025-08-14T17:58:00Z,31.0447,-86.3119,33.9,22.2,0,0,,10+,30.04,1016.7,,TRUE,TRUE,,,,,,,SCT,3600,,,,,,,VFR,-0.08,33.9,25,,,,,0.005,,,,METAR,96
PHNG 141757Z 06008KT 7SM BKN026 BKN060 26/22 A3001 RMK AO2 SLP156 T02610217 10267 20250 51006 $,PHNG,2025-08-14T17:57:00Z,21.45,-157.763,26.1,21.7,60,8,,7,30.01,1015.6,,,TRUE,TRUE,,,,,,BKN,2600,BKN,6000,,,,,MVFR,0.06,26.7,25,,,,,,,,,METAR,1
LIQO 141757Z AUTO VRB08KT //// // ///////// 25/13 Q1019 RMK ///,LIQO,2025-08-14T17:57:00Z,42.387,11.17,25,13,VRB,8,,,30.09,,,TRUE,,,,,,,,,,,,,,,,,,,,,,,,,,,,SPECI,627
KSUE 141757Z AUTO 11009KT 9SM SCT018 24/18 A3008 RMK AO2 SLP182 6//// T02390178 10244 20194 55004,KSUE,2025-08-14T17:57:00Z,44.847,-87.425,23.9,17.8,110,9,,9,30.08,1018.2,,TRUE,TRUE,,,,,,,SCT,1800,,,,,,,VFR,-0.04,24.4,19.4,,,,,,,,,METAR,215
KNYL 141757Z 19011G19KT 10SM CLR 40/13 A2979 RMK AO2 SLP084 T04000128 10400 20289 58001,KNYL,2025-08-14T17:57:00Z,32.66,-114.608,40,12.8,190,11,19,10+,29.79,1008.4,,,TRUE,,,,,,,CLR,,,,,,,,VFR,-0.01,40,28.9,,,,,,,,,METAR,58
KNJW 141757Z AUTO VRB03KT 10SM CLR 30/24 A3006 RMK AO2 SLP090 T03000244 10306 20228 58009,KNJW,2025-08-14T17:57:00Z,32.792,-88.832,30,24.4,VRB,3,,10+,30.06,1009,,TRUE,TRUE,,,,,,,CLR,,,,,,,,VFR,-0.09,30.6,22.8,,,,,,,,,METAR,165
KNFL 141757Z 24004KT 10SM FEW100 29/01 A3001 RMK AO2 SLP133 T02940006 10294 20133 58005,KNFL,2025-08-14T17:57:00Z,39.417,-118.705,29.4,0.6,240,4,,10+,30.01,1013.3,,,TRUE,,,,,,,FEW,10000,,,,,,,VFR,-0.05,29.4,13.3,,,,,,,,,METAR,1199
KMNM 141757Z AUTO 07008KT 9SM FEW018 23/18 A3008 RMK AO2 SLP181 T02330183 10239 20172 56007 $,KMNM,2025-08-14T17:57:00Z,45.126,-87.639,23.3,18.3,70,8,,9,30.08,1018.1,,TRUE,TRUE,TRUE,,,,,,FEW,1800,,,,,,,VFR,-0.07,23.9,17.2,,,,,,,,,METAR,188
KFLG 141757Z 20009KT 10SM OVC110 22/08 A3033 RMK AO2 SLP158 T02220078 10233 20133 55000,KFLG,2025-08-14T17:57:00Z,35.1443,-111.666,22.2,7.8,200,9,,10+,30.33,1015.8,,,TRUE,,,,,,,OVC,11000,,,,,,,VFR,,23.3,13.3,,,,,,,,,METAR,2134
TJSJ 141756Z 07016G24KT 10SM FEW036 32/23 A2998 RMK AO2 SLP151 60000 T03170233 10322 20283 58013,TJSJ,2025-08-14T17:56:00Z,18.4326,-66.0107,31.7,23.3,70,16,24,10+,29.98,1015.1,,,TRUE,,,,,,,FEW,3600,,,,,,,VFR,-0.13,32.2,28.3,,,,,0.005,,,,METAR,3
RJOI 141756Z 31004KT CLR 27/24 A2998 RMK AO2 SLP151 T02670244 10283 20267 55002,RJOI,2025-08-14T17:56:00Z,34.144,132.236,26.7,24.4,310,4,,,29.98,1015.1,,,TRUE,,,,,,,CLR,,,,,,,,,-0.02,28.3,26.7,,,,,,,,,METAR,2
PTYA 141756Z 00000KT 12SM SCT016CB BKN130 OVC300 25/25 A2978 RMK CB ALQDS SLP084 60020 8/378 T02530248 10263 20253 57017,PTYA,2025-08-14T17:56:00Z,9.487,138.077,25.3,24.8,0,0,,12,29.78,1008.4,,,,,,,,,,SCT,1600,BKN,13000,OVC,30000,,,VFR,-0.17,26.3,25.3,,,,,0.2,,,,METAR,4
POKA 141756Z AUTO 27014KT 10SM OVC021 09/05 A3011 RMK AO2 SLP202 6//// T00890050 10089 20078 53014 PNO $,POKA,2025-08-14T17:56:00Z,60.569,-165.246,8.9,5,270,14,,10+,30.11,1020.2,,TRUE,TRUE,TRUE,,,,,,OVC,2100,,,,,,,MVFR,0.14,8.9,7.8,,,,,,,,,METAR,19
PFZK 141756Z AUTO 30013KT 10SM FEW010 BKN029 09/06 A3002 RMK AO2 SLP161 T00940061 10100 20061 51010,PFZK,2025-08-14T17:56:00Z,60.9156,-161.488,9.4,6.1,300,13,,10+,30.02,1016.1,,TRUE,TRUE,,,,,,,FEW,1000,BKN,2900,,,,,MVFR,0.1,10,6.1,,,,,,,,,METAR,16
PFYU 141756Z VRB04KT 10SM BKN060 OVC070 14/09 A2973 RMK AO2 SLP076 T01440094 10150 20078 53004,PFYU,2025-08-14T17:56:00Z,66.572,-145.243,14.4,9.4,VRB,4,,10+,29.73,1007.6,,,TRUE,,,,,,,BKN,6000,OVC,7000,,,,,VFR,0.04,15,7.8,,,,,,,,,METAR,130
PFTO 141756Z AUTO 00000KT 10SM FEW075 OVC095 14/05 A2975 RMK AO2 SLP717 T01440050 10144 20078 56004 $,PFTO,2025-08-14T17:56:00Z,63.329,-142.954,14.4,5,0,0,,10+,29.75,971.7,,TRUE,TRUE,TRUE,,,,,,FEW,7500,OVC,9500,,,,,VFR,-0.04,14.4,7.8,,,,,,,,,METAR,500
PFKO 141756Z AUTO 32009KT 10SM CLR 09/05 RMK AO2 SLPNO T00940050 10094 20078 $,PFKO,2025-08-14T17:56:00Z,63.0334,-163.532,9.4,5,320,9,,10+,0.00,,,TRUE,TRUE,TRUE,,,,,,CLR,,,,,,,,VFR,,9.4,7.8,,,,,,,,,METAR,13
PFCL 141756Z AUTO 10SM FEW014 OVC043 14/14 A2991 RMK AO2 SLP120 T01440139 10144 20128 51018 $,PFCL,2025-08-14T17:56:00Z,58.837,-158.526,14.4,13.9,,,,10+,29.91,1012,,TRUE,TRUE,TRUE,,,,,,FEW,1400,OVC,4300,,,,,VFR,0.18,14.4,12.8,,,,,,,,,METAR,23
PAZK 141756Z AUTO VRB04KT 10SM OVC032 07/06 A2981 RMK AO2 RAE00B40E55 SLP119 P0000 60005 T00720061 10072 20056 58003 $,PAZK,2025-08-14T17:56:00Z,61.938,-147.169,7.2,6.1,VRB,4,,10+,29.81,1011.9,,TRUE,TRUE,TRUE,,,,,,OVC,3200,,,,,,,VFR,-0.03,7.2,5.6,,,0.005,,0.05,,,,METAR,1002
PAWN 141756Z AUTO 34013KT 10SM CLR 06/00 A2992 RMK AO2 SLP142 T00560000 10056 20011 51009,PAWN,2025-08-14T17:56:00Z,67.567,-162.977,5.6,0,340,13,,10+,29.92,1014.2,,TRUE,TRUE,,,,,,,CLR,,,,,,,,VFR,0.09,5.6,1.1,,,,,,,,,METAR,26
PAWM 141756Z AUTO 34012KT 8SM CLR 06/03 A2999 RMK AO2 SLP157 6//// T00560028 10056 20028 51012 PNO $,PAWM,2025-08-14T17:56:00Z,64.688,-163.41,5.6,2.8,340,12,,8,29.99,1015.7,,TRUE,TRUE,TRUE,,,,,,CLR,,,,,,,,VFR,0.12,5.6,2.8,,,,,,,,,METAR,80
PAWG 141756Z 00000KT 5SM BR BKN001 BKN036 OVC040 12/12 A2981 RMK AO2 SLP096 P0001 60001 T01220122 10133 20111 58005 $,PAWG,2025-08-14T17:56:00Z,56.486,-132.377,12.2,12.2,0,0,,5,29.81,1009.6,,,TRUE,TRUE,,,,,BR,BKN,100,BKN,3600,OVC,4000,,,LIFR,-0.05,13.3,11.1,,,0.01,,0.01,,,,METAR,6
PAVD 141756Z 00000KT 10SM FEW010 OVC095 12/10 A2986 RMK AO2 SLP109 T01220100 10122 20083 58011 $,PAVD,2025-08-14T17:56:00Z,61.133,-146.251,12.2,10,0,0,,10+,29.86,1010.9,,,TRUE,TRUE,,,,,,FEW,1000,OVC,9500,,,,,VFR,-0.11,12.2,8.3,,,,,,,,,METAR,21
PAVC 141756Z AUTO 25018G26KT 5SM -RA BR OVC021 11/09 A3010 RMK AO2 PK WND 25026/1756 RAE35B52 SLP194 6//// T01110089 10117 20111 51024 PNO $,PAVC,2025-08-14T17:56:00Z,55.115,-162.271,11.1,8.9,250,18,26,5,30.10,1019.4,,TRUE,TRUE,TRUE,,,,,-RA BR,OVC,2100,,,,,,,MVFR,0.24,11.7,11.1,,,,,,,,,METAR,48
PAUN 141756Z AUTO 35011KT 10SM CLR 08/04 A2997 RMK AO2 SLP151 T00780039 10078 20056 51016,PAUN,2025-08-14T17:56:00Z,63.885,-160.794,7.8,3.9,350,11,,10+,29.97,1015.1,,TRUE,TRUE,,,,,,,CLR,,,,,,,,VFR,0.16,7.8,5.6,,,,,,,,,METAR,4
PATG 141756Z AUTO 30017G24KT 10SM CLR 10/06 A2997 RMK AO2 SLP149 T01000061 10122 20100 51024,PATG,2025-08-14T17:56:00Z,59.051,-160.398,10,6.1,300,17,24,10+,29.97,1014.9,,TRUE,TRUE,,,,,,,CLR,,,,,,,,VFR,0.24,12.2,10,,,,,,,,,METAR,1
PATE 141756Z AUTO 20003KT 10SM CLR 06/03 A3001 RMK AO2 SLP166 T00610033 10061 20006 53002 TSNO,PATE,2025-08-14T17:56:00Z,65.242,-166.328,6.1,3.3,200,3,,10+,30.01,1016.6,,TRUE,TRUE,,,TRUE,,,,CLR,,,,,,,,VFR,0.02,6.1,0.6,,,,,,,,,METAR,93
PASX 141756Z AUTO 31003KT 10SM SCT009 SCT042 OVC065 13/11 A2983 RMK AO2 SLP107 T01330106 10133 20100 58003 TSNO,PASX,2025-08-14T17:56:00Z,60.476,-151.053,13.3,10.6,310,3,,10+,29.83,1010.7,,TRUE,TRUE,,,TRUE,,,,SCT,900,SCT,4200,OVC,6500,,,VFR,-0.03,13.3,10,,,,,,,,,METAR,28
PASM 141756Z AUTO 30007KT 10SM OVC025 08/05 A3004 RMK AO2 SLP179 T00780050 10078 20072 51013,PASM,2025-08-14T17:56:00Z,62.057,-163.298,7.8,5,300,7,,10+,30.04,1017.9,,TRUE,TRUE,,,,,,,OVC,2500,,,,,,,MVFR,0.13,7.8,7.2,,,,,,,,,METAR,108
PASD 141756Z 33019KT 10SM FEW022 SCT029 BKN034 13/08 A3005 RMK AO2 SLP178 6//// T01280083 10128 20117 53023 PNO $,PASD,2025-08-14T17:56:00Z,55.318,-160.525,12.8,8.3,330,19,,10+,30.05,1017.8,,,TRUE,TRUE,,,,,,FEW,2200,SCT,2900,BKN,3400,,,VFR,0.23,12.8,11.7,,,,,,,,,METAR,6
PASA 141756Z AUTO 23009KT 10SM CLR 09/07 A3006 RMK AO2 SLP179 T00890067 10089 20050 52004,PASA,2025-08-14T17:56:00Z,63.689,-170.49,8.9,6.7,230,9,,10+,30.06,1017.9,,TRUE,TRUE,,,,,,,CLR,,,,,,,,VFR,0.04,8.9,5,,,,,,,,,METAR,9
PARS 141756Z AUTO 31008G15KT 290V350 10SM CLR 10/06 A2998 RMK AO2 SLP156 6//// T01000061 10100 20083 52016 PNO $,PARS,2025-08-14T17:56:00Z,61.78,-161.321,10,6.1,310,8,15,10+,29.98,1015.6,,TRUE,TRUE,TRUE,,,,,,CLR,,,,,,,,VFR,0.16,10,8.3,,,,,,,,,METAR,15
PARC 141756Z AUTO 00000KT 10SM CLR 13/06 A2974 RMK AO2 SLP093 T01330061 10133 20050 58006 TSNO,PARC,2025-08-14T17:56:00Z,68.113,-145.576,13.3,6.1,0,0,,10+,29.74,1009.3,,TRUE,TRUE,,,TRUE,,,,CLR,,,,,,,,VFR,-0.06,13.3,5,,,,,,,,,METAR,626
PAPO 141756Z AUTO 27006KT 10SM FEW065 07/02 A2997 RMK AO2 SLP147 T00670022 10067 20056 51003,PAPO,2025-08-14T17:56:00Z,68.345,-166.807,6.7,2.2,270,6,,10+,29.97,1014.7,,TRUE,TRUE,,,,,,,FEW,6500,,,,,,,VFR,0.03,6.7,5.6,,,,,,,,,METAR,4
PAPM 141756Z AUTO 35013KT 10SM OVC016 09/09 A3004 RMK AO2 SLP176 60000 T00890089 10106 20089 51020 TSNO,PAPM,2025-08-14T17:56:00Z,59.011,-161.82,8.9,8.9,350,13,,10+,30.04,1017.6,,TRUE,TRUE,,,TRUE,,,,OVC,1600,,,,,,,MVFR,0.2,10.6,8.9,,,,,0.005,,,,METAR,4
PAPH 141756Z AUTO 30015G20KT 10SM -RA OVC010 12/ A3000 RMK AO2 RAB47 CIG 008V014 SLP158 P0000 60001 T0117 10122 20106 53013 $,PAPH,2025-08-14T17:56:00Z,56.959,-158.631,11.7,,300,15,20,10+,30.00,1015.8,,TRUE,TRUE,TRUE,,,,,-RA,OVC,1000,,,,,,,MVFR,0.13,12.2,10.6,,,0.005,,0.01,,,,METAR,29
PAPG 141756Z 07003KT 10SM FEW048 14/12 A2981 RMK AO2 SLP096 T01440122 10144 20100 58006,PAPG,2025-08-14T17:56:00Z,56.805,-132.935,14.4,12.2,70,3,,10+,29.81,1009.6,,,TRUE,,,,,,,FEW,4800,,,,,,,VFR,-0.06,14.4,10,,,,,,,,,METAR,24
PAOO 141756Z AUTO 30010G16KT 10SM OVC021 09/05 A3011 RMK AO2 SLP201 T00890050 10089 20078 51017 TSNO $,PAOO,2025-08-14T17:56:00Z,60.537,-165.089,8.9,5,300,10,16,10+,30.11,1020.1,,TRUE,TRUE,TRUE,,TRUE,,,,OVC,2100,,,,,,,MVFR,0.17,8.9,7.8,,,,,,,,,METAR,15
PAOH 141756Z AUTO 00000KT 10SM BKN055 17/12 A2978 RMK AO2 SLP086 T01720122 10172 20072 58010,PAOH,2025-08-14T17:56:00Z,58.108,-135.448,17.2,12.2,0,0,,10+,29.78,1008.6,,TRUE,TRUE,,,,,,,BKN,5500,,,,,,,VFR,-0.1,17.2,7.2,,,,,,,,,METAR,
PANI 141756Z AUTO 28009KT 7SM BKN010 OVC029 09/08 A2993 RMK AO2 RAB02E45 SLP138 P0000 60000 T00940078 10094 20083 53015 $,PANI,2025-08-14T17:56:00Z,61.578,-159.539,9.4,7.8,280,9,,7,29.93,1013.8,,TRUE,TRUE,TRUE,,,,,,BKN,1000,OVC,2900,,,,,MVFR,0.15,9.4,8.3,,,0.005,,0.005,,,,METAR,21
PANA 141756Z AUTO 31009KT 4SM HZ OVC023 09/06 A3004 RMK AO2 SLP173 T00940061 10094 20078 53012 TSNO,PANA,2025-08-14T17:56:00Z,60.694,-161.978,9.4,6.1,310,9,,4,30.04,1017.3,,TRUE,TRUE,,,TRUE,,,HZ,OVC,2300,,,,,,,MVFR,0.12,9.4,7.8,,,,,,,,,METAR,7
PAMO 141756Z AUTO 31008KT 10SM BKN018 OVC025 08/06 A3004 RMK AO2 SLP177 T00830056 10083 20067 53012,PAMO,2025-08-14T17:56:00Z,62.095,-163.686,8.3,5.6,310,8,,10+,30.04,1017.7,,TRUE,TRUE,,,,,,,BKN,1800,OVC,2500,,,,,MVFR,0.12,8.3,6.7,,,,,,,,,METAR,93
PAMM 141756Z AUTO VRB04KT 10SM OVC011 14/12 A2984 RMK AO2 SLP097 T01440122 10150 20128 56003 $,PAMM,2025-08-14T17:56:00Z,55.131,-131.578,14.4,12.2,VRB,4,,10+,29.84,1009.7,,TRUE,TRUE,TRUE,,,,,,OVC,1100,,,,,,,MVFR,-0.03,15,12.8,,,,,,,,,METAR,
PAMK 141756Z AUTO 32012KT 10SM CLR 08/04 A2998 RMK AO2 SLPNO 60000 T00830044 10094 20061 51014,PAMK,2025-08-14T17:56:00Z,63.484,-162.115,8.3,4.4,320,12,,10+,29.98,,,TRUE,TRUE,,,,,,,CLR,,,,,,,,VFR,0.14,9.4,6.1,,,,,0.005,,,,METAR,31
PAMH 141756Z AUTO 21005KT 9SM -RA BKN006 OVC015 11/10 A2979 RMK AO2 CIG 003V009 SLP084 P0003 60016 T01060100 10106 20100 56001 TSNO,PAMH,2025-08-14T17:56:00Z,63.889,-152.292,10.6,10,210,5,,9,29.79,1008.4,,TRUE,TRUE,,,TRUE,,,-RA,BKN,600,OVC,1500,,,,,IFR,-0.01,10.6,10,,,0.03,,0.16,,,,METAR,200
PAMB 141756Z AUTO 28004KT 10SM FEW035 BKN047 13/12 A2991 RMK AO2 SLP132 T01330122 10133 20106 51019,PAMB,2025-08-14T17:56:00Z,58.986,-159.05,13.3,12.2,280,4,,10+,29.91,1013.2,,TRUE,TRUE,,,,,,,FEW,3500,BKN,4700,,,,,VFR,0.19,13.3,10.6,,,,,,,,,METAR,28
PAKK 141756Z AUTO VRB06KT 10SM OVC023 07/03 A2991 RMK AO2 SLP137 T00670033 10067 20044 53010,PAKK,2025-08-14T17:56:00Z,64.939,-161.156,6.7,3.3,VRB,6,,10+,29.91,1013.7,,TRUE,TRUE,,,,,,,OVC,2300,,,,,,,MVFR,0.1,6.7,4.4,,,,,,,,,METAR,56
PAKI 141756Z AUTO 01014KT 10SM OVC021 08/05 A3010 RMK AO2 SLP193 6//// T00830050 10083 20078 51015 PNO $,PAKI,2025-08-14T17:56:00Z,59.935,-164.033,8.3,5,10,14,,10+,30.10,1019.3,,TRUE,TRUE,TRUE,,,,,,OVC,2100,,,,,,,MVFR,0.15,8.3,7.8,,,,,,,,,METAR,4
PAKH 141756Z AUTO 35007KT 10SM FEW034 OVC055 14/11 A2985 RMK AO2 SLP107 6//// T01440106 10150 20122 53011 PNO $,PAKH,2025-08-14T17:56:00Z,56.94,-154.181,14.4,10.6,350,7,,10+,29.85,1010.7,,TRUE,TRUE,TRUE,,,,,,FEW,3400,OVC,5500,,,,,VFR,0.11,15,12.2,,,,,,,,,METAR,15
PAII 141756Z AUTO 28007KT 10SM OVC006 13/13 A2991 RMK AO2 SLP125 60002 T01330128 10133 20117 53018,PAII,2025-08-14T17:56:00Z,58.186,-157.375,13.3,12.8,280,7,,10+,29.91,1012.5,,TRUE,TRUE,,,,,,,OVC,600,,,,,,,IFR,0.18,13.3,11.7,,,,,0.02,,,,METAR,31
PAHY 141756Z AUTO 13005KT 10SM OVC015 A2978 RMK AO2 SLPNO 60000 58010 FZRANO $,PAHY,2025-08-14T17:56:00Z,55.202,-132.825,,,130,5,,10+,29.78,,,TRUE,TRUE,TRUE,,,TRUE,,,OVC,1500,,,,,,,MVFR,-0.1,,,,,,,0.005,,,,METAR,
PAHL 141756Z AUTO 27009G14KT 10SM OVC007 07/06 A2982 RMK AO2 CIG 006V011 SLP100 60003 T00720061 10083 20067 51010 TSNO,PAHL,2025-08-14T17:56:00Z,65.699,-156.353,7.2,6.1,270,9,14,10+,29.82,1010,,TRUE,TRUE,,,TRUE,,,,OVC,700,,,,,,,IFR,0.1,8.3,6.7,,,,,0.03,,,,METAR,49
PAGM 141756Z AUTO 24010KT 10SM BKN015 09/07 A3005 RMK AO2 SLP181 T00940072 10094 20089 52002,PAGM,2025-08-14T17:56:00Z,63.777,-171.735,9.4,7.2,240,10,,10+,30.05,1018.1,,TRUE,TRUE,,,,,,,BKN,1500,,,,,,,MVFR,0.02,9.4,8.9,,,,,,,,,METAR,6
PAGL 141756Z AUTO 33008KT 10SM CLR 06/03 A3000 RMK AO2 SLP153 T00560028 10061 20044 52012,PAGL,2025-08-14T17:56:00Z,64.548,-163.013,5.6,2.8,330,8,,10+,30.00,1015.3,,TRUE,TRUE,,,,,,,CLR,,,,,,,,VFR,0.12,6.1,4.4,,,,,,,,,METAR,20
PAGH 141756Z AUTO 23007KT 7SM OVC008 07/06 A2982 RMK AO2 RAB27E42 CIG 005V009 SLP101 P0000 60002 T00670061 10078 20067 53009,PAGH,2025-08-14T17:56:00Z,66.886,-157.159,6.7,6.1,230,7,,7,29.82,1010.1,,TRUE,TRUE,,,,,,,OVC,800,,,,,,,IFR,0.09,7.8,6.7,,,0.005,,0.02,,,,METAR,56
PAEM 141756Z AUTO 33009KT 10SM CLR 09/05 A3004 RMK AO2 SLP171 T00890050 10089 20067 53013,PAEM,2025-08-14T17:56:00Z,62.785,-164.488,8.9,5,330,9,,10+,30.04,1017.1,,TRUE,TRUE,,,,,,,CLR,,,,,,,,VFR,0.13,8.9,6.7,,,,,,,,,METAR,2
PADU 141756Z 32011KT 10SM FEW015 BKN020 OVC024 10/08 A3028 RMK AO2 SLP254 T01000078 10106 20100 51024,PADU,2025-08-14T17:56:00Z,53.896,-166.543,10,7.8,320,11,,10+,30.28,1025.4,,,TRUE,,,,,,,FEW,1500,BKN,2000,OVC,2400,,,MVFR,0.24,10.6,10,,,,,,,,,METAR,4
PADL 141756Z COR 31007KT 10SM BKN045 BKN075 15/12 A2990 RMK AO2 SLP128 T01500122 10150 20111 51018 $,PADL,2025-08-14T17:56:00Z,59.04,-158.507,15,12.2,310,7,,10+,29.90,1012.8,TRUE,,TRUE,TRUE,,,,,,BKN,4500,BKN,7500,,,,,VFR,0.18,15,11.1,,,,,,,,,METAR,20
PADK 141756Z AUTO 00000KT 10SM CLR 09/08 A3032 RMK AO2 SLP267 T00890078 10089 20044 53012,PADK,2025-08-14T17:56:00Z,51.881,-176.644,8.9,7.8,0,0,,10+,30.32,1026.7,,TRUE,TRUE,,,,,,,CLR,,,,,,,,VFR,0.12,8.9,4.4,,,,,,,,,METAR,3
PACX 141756Z AUTO 36004KT 10SM BKN060 OVC110 11/08 A2975 RMK AO2 SLP705 T01110078 10117 20083 58004,PACX,2025-08-14T17:56:00Z,67.252,-150.204,11.1,7.8,360,4,,10+,29.75,970.5,,TRUE,TRUE,,,,,,,BKN,6000,OVC,11000,,,,,VFR,-0.04,11.7,8.3,,,,,,,,,METAR,319
PABV 141756Z AUTO 00000KT 10SM FEW003 BKN090 OVC110 11/09 A2985 RMK AO2 SLP109 60000 T01060094 10111 20100 56001,PABV,2025-08-14T17:56:00Z,61.416,-149.511,10.6,9.4,0,0,,10+,29.85,1010.9,,TRUE,TRUE,,,,,,,FEW,300,BKN,9000,OVC,11000,,,VFR,-0.01,11.1,10,,,,,0.005,,,,METAR,21
PABA 141756Z AUTO 06008KT 8SM CLR 08/07 A2970 RMK AO2 SLP074 T00780067 10083 20067 58000 TSNO,PABA,2025-08-14T17:56:00Z,70.135,-143.585,7.8,6.7,60,8,,8,29.70,1007.4,,TRUE,TRUE,,,TRUE,,,,CLR,,,,,,,,VFR,,8.3,6.7,,,,,,,,,METAR,1
PAAK 141756Z AUTO 09004KT 1/4SM FG OVC003 08/08 A3036 RMK AO2 SLP279 6//// T00780078 10083 20072 53010 TSNO PNO $,PAAK,2025-08-14T17:56:00Z,52.219,-174.208,7.8,7.8,90,4,,0.25,30.36,1027.9,,TRUE,TRUE,TRUE,,TRUE,,,FG,OVC,300,,,,,,,LIFR,0.1,8.3,7.2,,,,,,,,,METAR,11
KYKN 141756Z AUTO 18015G24KT 10SM SCT080 29/22 A2983 RMK AO2 SLP100 T02940222 10294 20189 58012,KYKN,2025-08-14T17:56:00Z,42.9142,-97.3807,29.4,22.2,180,15,24,10+,29.83,1010,,TRUE,TRUE,,,,,,,SCT,8000,,,,,,,VFR,-0.12,29.4,18.9,,,,,,,,,METAR,388
KY50 141756Z AUTO VRB03KT 10SM FEW047 27/15 A3004 RMK AO2 SLP168 6//// T02670150 10272 20150 56006 $,KY50,2025-08-14T17:56:00Z,44.0435,-89.304,26.7,15,VRB,3,,10+,30.04,1016.8,,TRUE,TRUE,TRUE,,,,,,FEW,4700,,,,,,,VFR,-0.06,27.2,15,,,,,,,,,METAR,261
KWWD 141756Z AUTO 23004KT 10SM BKN019 29/25 A2994 RMK AO2 SLP139 T02940250 10306 20250 51005,KWWD,2025-08-14T17:56:00Z,39.0108,-74.9079,29.4,25,230,4,,10+,29.94,1013.9,,TRUE,TRUE,,,,,,,BKN,1900,,,,,,,MVFR,0.05,30.6,25,,,,,,,,,METAR,4
KWVL 141756Z AUTO 34007KT 8SM FEW060 31/17 A2986 RMK AO2 SLP134 T03060172 10311 20244 56007,KWVL,2025-08-14T17:56:00Z,44.5301,-69.6753,30.6,17.2,340,7,,8,29.86,1013.4,,TRUE,TRUE,,,,,,,FEW,6000,,,,,,,VFR,-0.07,31.1,24.4,,,,,,,,,METAR,87
KWMC 141756Z AUTO 32007KT 10SM CLR 30/00 A3003 RMK AO2 SLP109 T03000000 10300 20111 58004,KWMC,2025-08-14T17:56:00Z,40.9018,-117.808,30,0,320,7,,10+,30.03,1010.9,,TRUE,TRUE,,,,,,,CLR,,,,,,,,VFR,-0.04,30,11.1,,,,,,,,,METAR,1311
KWJF 141756Z 27018G23KT 10SM CLR 35/01 A2992 RMK AO2 SLP104 T03500011 10350 20239 58005,KWJF,2025-08-14T17:56:00Z,34.7412,-118.213,35,1.1,270,18,23,10+,29.92,1010.4,,,TRUE,,,,,,,CLR,,,,,,,,VFR,-0.05,35,23.9,,,,,,,,,METAR,712
KVPZ 141756Z AUTO 06005KT 10SM FEW047 29/17 A3006 RMK AO2 SLP176 T02890167 10289 20183 58000,KVPZ,2025-08-14T17:56:00Z,41.4535,-86.998,28.9,16.7,60,5,,10+,30.06,1017.6,,TRUE,TRUE,,,,,,,FEW,4700,,,,,,,VFR,,28.9,18.3,,,,,,,,,METAR,235
KVIS 141756Z AUTO VRB03KT 10SM CLR 27/16 A2992 RMK AO2 SLP128 T02720156 10272 20167 58003 $,KVIS,2025-08-14T17:56:00Z,36.3135,-119.388,27.2,15.6,VRB,3,,10+,29.92,1012.8,,TRUE,TRUE,TRUE,,,,,,CLR,,,,,,,,VFR,-0.03,27.2,16.7,,,,,,,,,METAR,92
KVBT 141756Z AUTO VRB04KT 10SM CLR 32/21 A3004 RMK AO2 SLP159 T03220206 10328 20228 58004,KVBT,2025-08-14T17:56:00Z,36.3444,-94.2211,32.2,20.6,VRB,4,,10+,30.04,1015.9,,TRUE,TRUE,,,,,,,CLR,,,,,,,,VFR,-0.04,32.8,22.8,,,,,,,,,METAR,390
KUKI 141756Z AUTO 00000KT 10SM CLR 25/12 A2993 RMK AO2 SLP128 T02500122 10250 20133 58010,KUKI,2025-08-14T17:56:00Z,39.1278,-123.2,25,12.2,0,0,,10+,29.93,1012.8,,TRUE,TRUE,,,,,,,CLR,,,,,,,,VFR,-0.1,25,13.3,,,,,,,,,METAR,183
KUCP 141756Z AUTO 01004KT 10SM FEW040 SCT050 BKN070 27/18 A3006 RMK AO2 SLP185 T02720178 10283 20217 58002,KUCP,2025-08-14T17:56:00Z,41.0228,-80.4153,27.2,17.8,10,4,,10+,30.06,1018.5,,TRUE,TRUE,,,,,,,FEW,4000,SCT,5000,BKN,7000,,,VFR,-0.02,28.3,21.7,,,,,,,,,METAR,313
KTVF 141756Z AUTO 18013G19KT 10SM BKN024 26/20 A2978 RMK AO2 SLP082 6//// T02610200 10261 20189 58007 PNO $,KTVF,2025-08-14T17:56:00Z,48.0597,-96.1787,26.1,20,180,13,19,10+,29.78,1008.2,,TRUE,TRUE,TRUE,,,,,,BKN,2400,,,,,,,MVFR,-0.07,26.1,18.9,,,,,,,,,METAR,339
KTPH 141756Z AUTO VRB06KT 10SM CLR 29/M01 A3010 RMK AO2 SLP104 T02891006 10289 20156 58002,KTPH,2025-08-14T17:56:00Z,38.0505,-117.091,28.9,-0.6,VRB,6,,10+,30.10,1010.4,,TRUE,TRUE,,,,,,,CLR,,,,,,,,VFR,-0.02,28.9,15.6,,,,,,,,,METAR,1647
KSZL 141756Z 10005KT 10SM FEW100 SCT170 31/20 A3001 RMK AO2A SLP156 CHINO RWY01 $,KSZL,2025-08-14T17:56:00Z,38.736,-93.55,31,20,100,5,,10+,30.01,1015.6,,,TRUE,TRUE,,,,,,FEW,10000,SCT,17000,,,,,VFR,,,,,,,,,,,,SPECI,259
KSRC 141756Z AUTO 35003KT 10SM BKN046 34/22 A2998 RMK AO2 SLP150 T03390222 10350 20222 58012,KSRC,2025-08-14T17:56:00Z,35.2134,-91.7393,33.9,22.2,350,3,,10+,29.98,1015,,TRUE,TRUE,,,,,,,BKN,4600,,,,,,,VFR,-0.12,35,22.2,,,,,,,,,METAR,80
KSQI 141756Z AUTO 12006KT 10SM FEW039 27/18 A3005 RMK AO2 SLP172 T02720183 10278 20167 58003,KSQI,2025-08-14T17:56:00Z,41.7432,-89.6655,27.2,18.3,120,6,,10+,30.05,1017.2,,TRUE,TRUE,,,,,,,FEW,3900,,,,,,,VFR,-0.03,27.8,16.7,,,,,,,,,METAR,196
KSPD 141756Z AUTO 17011KT 37/10 A2998 RMK AO1 SLP071 T03670100 10367 20178 50000,KSPD,2025-08-14T17:56:00Z,37.2834,-102.614,36.7,10,170,11,,,29.98,1007.1,,TRUE,TRUE,,,,,,,,,,,,,,,,,36.7,17.8,,,,,,,,,METAR,1340
KSMP 141756Z AUTO VRB04KT 10SM OVC005 11/10 A3009 RMK AO2 SLP826 T01060100 10111 20094 51007,KSMP,2025-08-14T17:56:00Z,47.2764,-121.338,10.6,10,VRB,4,,10+,30.09,982.6,,TRUE,TRUE,,,,,,,OVC,500,,,,,,,IFR,0.07,11.1,9.4,,,,,,,,,METAR,1206
KSMN 141756Z AUTO VRB03KT 10SM CLR 25/05 A2996 RMK AO2 SLP105 T02500050 10250 20089 58017,KSMN,2025-08-14T17:56:00Z,45.1283,-113.883,25,5,VRB,3,,10+,29.96,1010.5,,TRUE,TRUE,,,,,,,CLR,,,,,,,,VFR,-0.17,25,8.9,,,,,,,,,METAR,1228
KSLG 141756Z AUTO 17006KT 10SM CLR 32/22 A3003 RMK AO2 SLP156 T03170222 10317 20206 58004,KSLG,2025-08-14T17:56:00Z,36.1941,-94.488,31.7,22.2,170,6,,10+,30.03,1015.6,,TRUE,TRUE,,,,,,,CLR,,,,,,,,VFR,-0.04,31.7,20.6,,,,,,,,,METAR,361
KSLE 141756Z 00000KT 10SM OVC031 21/12 A3005 RMK AO2 SLP175 T02060122 10206 20172 50000 $,KSLE,2025-08-14T17:56:00Z,44.9049,-123.001,20.6,12.2,0,0,,10+,30.05,1017.5,,,TRUE,TRUE,,,,,,OVC,3100,,,,,,,VFR,,20.6,17.2,,,,,,,,,METAR,63
KSGU 141756Z AUTO VRB03KT 10SM CLR 36/08 A2993 RMK AO2 SLP090 T03610083 10367 20278 58005,KSGU,2025-08-14T17:56:00Z,37.0444,-113.503,36.1,8.3,VRB,3,,10+,29.93,1009,,TRUE,TRUE,,,,,,,CLR,,,,,,,,VFR,-0.05,36.7,27.8,,,,,,,,,METAR,877
KSGT 141756Z AUTO VRB04KT 8SM CLR 34/23 A2999 RMK AO2 SLP154 T03440228 10344 20250 58014,KSGT,2025-08-14T17:56:00Z,34.5998,-91.5763,34.4,22.8,VRB,4,,8,29.99,1015.4,,TRUE,TRUE,,,,,,,CLR,,,,,,,,VFR,-0.14,34.4,25,,,,,,,,,METAR,67
KSGJ 141756Z 23007KT 10SM FEW038 SCT046 BKN085 33/24 A3005 RMK AO2 SLP173 T03280244 10339 20267 58008 $,KSGJ,2025-08-14T17:56:00Z,29.9592,-81.341,32.8,24.4,230,7,,10+,30.05,1017.3,,,TRUE,TRUE,,,,,,FEW,3800,SCT,4600,BKN,8500,,,VFR,-0.08,33.9,26.7,,,,,,,,,METAR,2
KSGH 141756Z AUTO 09005KT 10SM FEW038 BKN080 28/22 A3005 RMK AO2 SLP169 T02830217 10283 20194 58005,KSGH,2025-08-14T17:56:00Z,39.8358,-83.8443,28.3,21.7,90,5,,10+,30.05,1016.9,,TRUE,TRUE,,,,,,,FEW,3800,BKN,8000,,,,,VFR,-0.05,28.3,19.4,,,,,,,,,METAR,318
KSFZ 141756Z AUTO 00000KT 10SM BKN036 29/22 A2992 RMK AO2 SLP125 T02940222 10311 20244 55001 $,KSFZ,2025-08-14T17:56:00Z,41.9168,-71.4924,29.4,22.2,0,0,,10+,29.92,1012.5,,TRUE,TRUE,TRUE,,,,,,BKN,3600,,,,,,,VFR,-0.01,31.1,24.4,,,,,,,,,METAR,129
KSFO 141756Z 02005KT 10SM FEW006 FEW018 19/14 A2996 RMK AO2 SLP146 T01890139 10194 20144 51003,KSFO,2025-08-14T17:56:00Z,37.6196,-122.366,18.9,13.9,20,5,,10+,29.96,1014.6,,,TRUE,,,,,,,FEW,600,FEW,1800,,,,,VFR,0.03,19.4,14.4,,,,,,,,,METAR,2
KSFM 141756Z AUTO VRB06KT 10SM FEW120 31/20 A2989 RMK AO2 LTG DSNT N SLP124 T03060200 10311 20244 55002,KSFM,2025-08-14T17:56:00Z,43.3876,-70.7154,30.6,20,VRB,6,,10+,29.89,1012.4,,TRUE,TRUE,,,,,,,FEW,12000,,,,,,,VFR,-0.02,31.1,24.4,,,,,,,,,METAR,70
KSDY 141756Z AUTO 32008KT 10SM CLR 22/14 A2987 RMK AO2 SLP109 60000 T02170139 10228 20178 51016,KSDY,2025-08-14T17:56:00Z,47.7029,-104.195,21.7,13.9,320,8,,10+,29.87,1010.9,,TRUE,TRUE,,,,,,,CLR,,,,,,,,VFR,0.16,22.8,17.8,,,,,0.005,,,,METAR,600
KSDF 141756Z 36003KT 10SM BKN043 BKN100 BKN300 31/20 A2999 RMK AO2 SLP151 T03060200 10311 20239 58010,KSDF,2025-08-14T17:56:00Z,38.1774,-85.7308,30.6,20,360,3,,10+,29.99,1015.1,,,TRUE,,,,,,,BKN,4300,BKN,10000,BKN,30000,,,VFR,-0.1,31.1,23.9,,,,,,,,,METAR,146
KSBP 141756Z 28004KT 10SM FU SCT013 18/13 A2998 RMK AO2 SLP151 T01830133 10189 20139 50000,KSBP,2025-08-14T17:56:00Z,35.2382,-120.644,18.3,13.3,280,4,,10+,29.98,1015.1,,,TRUE,,,,,,FU,SCT,1300,,,,,,,VFR,,18.9,13.9,,,,,,,,,METAR,52
KRUT 141756Z AUTO 33011G16KT 10SM CLR 28/17 A2997 RMK AO2 SLP139 T02830172 10283 20200 53000 $,KRUT,2025-08-14T17:56:00Z,43.53,-72.9517,28.3,17.2,330,11,16,10+,29.97,1013.9,,TRUE,TRUE,TRUE,,,,,,CLR,,,,,,,,VFR,,28.3,20,,,,,,,,,METAR,238
KRKD 141756Z AUTO 12004KT 10SM FEW025 BKN038 BKN060 24/22 A2989 RMK AO2 RAE21 SLP121 P0000 60000 T02440222 10283 20200 55000 $,KRKD,2025-08-14T17:56:00Z,44.0611,-69.1014,24.4,22.2,120,4,,10+,29.89,1012.1,,TRUE,TRUE,TRUE,,,,,,FEW,2500,BKN,3800,BKN,6000,,,VFR,,28.3,20,,,0.005,,0.005,,,,METAR,15
KRDM 141756Z 10SM CLR 22/09 A3004 RMK AO2 SLP146 T02220094 10228 20089 56002,KRDM,2025-08-14T17:56:00Z,44.2558,-121.141,22.2,9.4,,,,10+,30.04,1014.6,,,TRUE,,,,,,,CLR,,,,,,,,VFR,-0.02,22.8,8.9,,,,,,,,,METAR,930
KPWT 141756Z AUTO 21005KT 10SM FEW027 17/12 A3005 RMK AO2 SLP178 T01670117 10167 20139 50003,KPWT,2025-08-14T17:56:00Z,47.4942,-122.759,16.7,11.7,210,5,,10+,30.05,1017.8,,TRUE,TRUE,,,,,,,FEW,2700,,,,,,,VFR,0.03,16.7,13.9,,,,,,,,,METAR,143
KPWG 141756Z AUTO 13007KT 10SM CLR 34/24 A2998 RMK AO2 SLP144 T03440239 10344 20239 58010,KPWG,2025-08-14T17:56:00Z,31.4891,-97.3202,34.4,23.9,130,7,,10+,29.98,1014.4,,TRUE,TRUE,,,,,,,CLR,,,,,,,,VFR,-0.1,34.4,23.9,,,,,,,,,METAR,178
KPVU 141756Z 13007KT 10SM CLR 31/08 A3004 RMK AO2 SLP103 T03110078 10311 20206 50005 $,KPVU,2025-08-14T17:56:00Z,40.224,-111.725,31.1,7.8,130,7,,10+,30.04,1010.3,,,TRUE,TRUE,,,,,,CLR,,,,,,,,VFR,0.05,31.1,20.6,,,,,,,,,METAR,1370
KPVC 141756Z AUTO 22009KT 10SM CLR 30/23 A2991 RMK AO2 SLP127 T03000228 10300 20233 58003,KPVC,2025-08-14T17:56:00Z,42.0743,-70.2183,30,22.8,220,9,,10+,29.91,1012.7,,TRUE,TRUE,,,,,,,CLR,,,,,,,,VFR,-0.03,30,23.3,,,,,,,,,METAR,1
KPTV 141756Z AUTO 21003KT 10SM CLR 28/15 A2992 RMK AO2 SLP129 T02830150 10289 20167 58005 $,KPTV,2025-08-14T17:56:00Z,36.0274,-119.063,28.3,15,210,3,,10+,29.92,1012.9,,TRUE,TRUE,TRUE,,,,,,CLR,,,,,,,,VFR,-0.05,28.9,16.7,,,,,,,,,METAR,132
KPRX 141756Z AUTO VRB03KT 10SM FEW049 33/23 A2999 RMK AO2 SLP148 T03280228 10344 20222 58013,KPRX,2025-08-14T17:56:00Z,33.6359,-95.4514,32.8,22.8,VRB,3,,10+,29.99,1014.8,,TRUE,TRUE,,,,,,,FEW,4900,,,,,,,VFR,-0.13,34.4,22.2,,,,,,,,,METAR,165
KPQI 141756Z AUTO 35010KT 10SM FEW040 26/17 A2992 RMK AO2 SLP154 T02610167 10267 20217 51003,KPQI,2025-08-14T17:56:00Z,46.697,-68.054,26.1,16.7,350,10,,10+,29.92,1015.4,,TRUE,TRUE,,,,,,,FEW,4000,,,,,,,VFR,0.03,26.7,21.7,,,,,,,,,METAR,154
KPIB 141756Z AUTO VRB05KT 10SM FEW041 SCT049 SCT070 34/24 A3002 RMK AO2 LTG DSNT SW SLP163 6//// T03390244 10339 20233 58012 PNO $,KPIB,2025-08-14T17:56:00Z,31.4727,-89.3383,33.9,24.4,VRB,5,,10+,30.02,1016.3,,TRUE,TRUE,TRUE,,,,,,FEW,4100,SCT,4900,SCT,7000,,,VFR,-0.12,33.9,23.3,,,,,,,,,METAR,91
KP60 141756Z AUTO VRB03KT 20/06 A3024 RMK AO1 SLP148 T02000056 10211 20039 58005 $,KP60,2025-08-14T17:56:00Z,44.5448,-110.422,20,5.6,VRB,3,,,30.24,1014.8,,TRUE,TRUE,TRUE,,,,,,,,,,,,,,,-0.05,21.1,3.9,,,,,,,,,METAR,2377
KP53 141756Z AUTO 05007KT 21/15 A3008 RMK AO1 SLP186 T02110150 10222 20133 58005 $,KP53,2025-08-14T17:56:00Z,46.412,-86.6504,21.1,15,50,7,,,30.08,1018.6,,TRUE,TRUE,TRUE,,,,,,,,,,,,,,,-0.05,22.2,13.3,,,,,,,,,METAR,185
KP28 141756Z AUTO 16010G19KT 34/21 A2994 RMK AO1 SLP117 T03440206 10344 20228 58010 $,KP28,2025-08-14T17:56:00Z,37.2664,-98.5463,34.4,20.6,160,10,19,,29.94,1011.7,,TRUE,TRUE,TRUE,,,,,,,,,,,,,,,-0.1,34.4,22.8,,,,,,,,,METAR,469
KOXC 141756Z 32006KT 10SM BKN120 29/22 A2996 RMK AO2 SLP148 T02890222 10289 20211 51003 $,KOXC,2025-08-14T17:56:00Z,41.4741,-73.1353,28.9,22.2,320,6,,10+,29.96,1014.8,,,TRUE,TRUE,,,,,,BKN,12000,,,,,,,VFR,0.03,28.9,21.1,,,,,,,,,METAR,211
KOWB 141756Z 36007KT 10SM FEW055 32/21 A3000 RMK AO2 SLP155 T03170206 10317 20233 58009,KOWB,2025-08-14T17:56:00Z,37.7297,-87.1683,31.7,20.6,360,7,,10+,30.00,1015.5,,,TRUE,,,,,,,FEW,5500,,,,,,,VFR,-0.09,31.7,23.3,,,,,,,,,METAR,121
KOTH 141756Z 34006KT 10SM FEW014 OVC031 19/17 A3010 RMK AO2 SLP192 60001 T01940167 10200 20156 50001,KOTH,2025-08-14T17:56:00Z,43.4194,-124.244,19.4,16.7,340,6,,10+,30.10,1019.2,,,TRUE,,,,,,,FEW,1400,OVC,3100,,,,,VFR,0.01,20,15.6,,,,,0.01,,,,METAR,3
KOTG 141756Z AUTO 17012G17KT 10SM FEW100 26/22 A2992 RMK AO2 SLP123 60000 T02610222 10261 20200 58001,KOTG,2025-08-14T17:56:00Z,43.6525,-95.5759,26.1,22.2,170,12,17,10+,29.92,1012.3,,TRUE,TRUE,,,,,,,FEW,10000,,,,,,,VFR,-0.01,26.1,20,,,,,0.005,,,,METAR,478
KOLU 141756Z AUTO 18014G23KT 10SM CLR 29/23 A2990 RMK AO2 SLP115 60001 T02890228 10289 20200 58008,KOLU,2025-08-14T17:56:00Z,41.4472,-97.3391,28.9,22.8,180,14,23,10+,29.90,1011.5,,TRUE,TRUE,,,,,,,CLR,,,,,,,,VFR,-0.08,28.9,20,,,,,0.01,,,,METAR,438
KOKK 141756Z AUTO 04003KT 10SM CLR 29/17 A3007 RMK AO2 SLP176 T02890172 10294 20178 58003 $,KOKK,2025-08-14T17:56:00Z,40.5304,-86.055,28.9,17.2,40,3,,10+,30.07,1017.6,,TRUE,TRUE,TRUE,,,,,,CLR,,,,,,,,VFR,-0.03,29.4,17.8,,,,,,,,,METAR,251
KOFK 141756Z AUTO 18017G28KT 10SM CLR 29/22 A2987 RMK AO2 PK WND 16030/1734 SLP098 60001 T02890217 10289 20194 58012,KOFK,2025-08-14T17:56:00Z,41.9799,-97.4335,28.9,21.7,180,17,28,10+,29.87,1009.8,,TRUE,TRUE,,,,,,,CLR,,,,,,,,VFR,-0.12,28.9,19.4,,,,,0.01,,,,METAR,476
KOCH 141756Z AUTO VRB03KT 10SM SCT038 33/24 A3001 RMK AO2 SLP161 T03330239 10333 20233 58011,KOCH,2025-08-14T17:56:00Z,31.5809,-94.7081,33.3,23.9,VRB,3,,10+,30.01,1016.1,,TRUE,TRUE,,,,,,,SCT,3800,,,,,,,VFR,-0.11,33.3,23.3,,,,,,,,,METAR,105
KOAJ 141756Z 23006KT 10SM CLR 31/26 A2998 RMK AO2 SLP155 T03110256 10317 20261 58006 $,KOAJ,2025-08-14T17:56:00Z,34.8251,-77.6189,31.1,25.6,230,6,,10+,29.98,1015.5,,,TRUE,TRUE,,,,,,CLR,,,,,,,,VFR,-0.06,31.7,26.1,,,,,,,,,METAR,26
KNUC 141756Z 26004KT 10SM OVC007 17/14 A2998 RMK AO2 SLP148 T01720144 10172 20150 52003 PNO $,KNUC,2025-08-14T17:56:00Z,33.022,-118.583,17.2,14.4,260,4,,10+,29.98,1014.8,,,TRUE,TRUE,,,,,,OVC,700,,,,,,,IFR,0.03,17.2,15,,,,,,,,,METAR,52
KNTU 141756Z 09006KT 10SM FEW025 SCT110 BKN250 29/24 A2993 RMK AO2 SLP138 T2 SET T02890244 10311 20256 50001,KNTU,2025-08-14T17:56:00Z,36.8209,-76.0277,28.9,24.4,90,6,,10+,29.93,1013.8,,,TRUE,,,,,,,FEW,2500,SCT,11000,BKN,25000,,,VFR,0.01,31.1,25.6,,,,,,,,,METAR,6
KNSE 141756Z 31006KT 10SM SCT030 BKN250 32/24 A3003 RMK AO2 SLP153 T03170239 10322 20244 58007 $,KNSE,2025-08-14T17:56:00Z,30.728,-87.022,31.7,23.9,310,6,,10+,30.03,1015.3,,,TRUE,TRUE,,,,,,SCT,3000,BKN,25000,,,,,VFR,-0.07,32.2,24.4,,,,,,,,,METAR,56
KNQI 141756Z 12012G21KT 10SM FEW040 FEW250 36/23 A2994 RMK AO2 SLP136 T03610228 10361 20256 58006 $,KNQI,2025-08-14T17:56:00Z,27.507,-97.81,36.1,22.8,120,12,21,10+,29.94,1013.6,,,TRUE,TRUE,,,,,,FEW,4000,FEW,25000,,,,,VFR,-0.06,36.1,25.6,,,,,,,,,METAR,15
KNPA 141756Z 00000KT 10SM SCT039 SCT250 33/23 A3002 RMK AO2 SLP166 T03280233 10333 20272 58007 $,KNPA,2025-08-14T17:56:00Z,30.356,-87.323,32.8,23.3,0,0,,10+,30.02,1016.6,,,TRUE,TRUE,,,,,,SCT,3900,SCT,25000,,,,,VFR,-0.07,33.3,27.2,,,,,,,,,METAR,6
KNOG 141756Z AUTO 10008G19KT 10SM CLR 36/20 A2996 RMK AO2 SLP124 6//// T03610200 10372 20244 58007 PWINO PNO $,KNOG,2025-08-14T17:56:00Z,27.895,-98.043,36.1,20,100,8,19,10+,29.96,1012.4,,TRUE,TRUE,TRUE,,,,TRUE,,CLR,,,,,,,,VFR,-0.07,37.2,24.4,,,,,,,,,METAR,72
KNMM 141756Z 00000KT 10SM BKN021 BKN100 29/24 A3003 RMK AO2 SLP176 T02940239 10300 20228 58006,KNMM,2025-08-14T17:56:00Z,32.546,-88.543,29.4,23.9,0,0,,10+,30.03,1017.6,,,TRUE,,,,,,,BKN,2100,BKN,10000,,,,,MVFR,-0.06,30,22.8,,,,,,,,,METAR,94
KNLC 141756Z 36007KT 10SM FEW045 FEW070 28/13 A2991 RMK AO2 SLP127 FU FEW045 RH/39 T02830133 10283 20172 58004 $,KNLC,2025-08-14T17:56:00Z,36.3024,-119.94,28.3,13.3,360,7,,10+,29.91,1012.7,,,TRUE,TRUE,,,,,,FEW,4500,FEW,7000,,,,,VFR,-0.04,28.3,17.2,,,,,,,,,METAR,69
KNJK 141756Z VRB04KT 10SM SCT200 37/18 A2978 RMK AO2 SLP100 FU SCT200 T03720183 10378 20244 58005 $,KNJK,2025-08-14T17:56:00Z,32.823,-115.668,37.2,18.3,VRB,4,,10+,29.78,1010,,,TRUE,TRUE,,,,,,SCT,20000,,,,,,,VFR,-0.05,37.8,24.4,,,,,,,,,METAR,-15
KNID 141756Z VRB03KT 10SM FEW220 36/00 A2990 RMK AO2 SLP096 T03560000 10356 20211 58002 $,KNID,2025-08-14T17:56:00Z,35.688,-117.69,35.6,0,VRB,3,,10+,29.90,1009.6,,,TRUE,TRUE,,,,,,FEW,22000,,,,,,,VFR,-0.02,35.6,21.1,,,,,,,,,METAR,682
KNGP 141756Z 16012KT 10SM FEW024 FEW030 33/25 A2997 RMK AO2 SLP147 T03280250 10333 20283 58000,KNGP,2025-08-14T17:56:00Z,27.688,-97.292,32.8,25,160,12,,10+,29.97,1014.7,,,TRUE,,,,,,,FEW,2400,FEW,3000,,,,,VFR,,33.3,28.3,,,,,,,,,METAR,5
KNDZ 141756Z 31006KT 10SM SCT034 SCT250 33/24 A3003 RMK AO2 SLP153 T03280244 10328 20244 58007 $,KNDZ,2025-08-14T17:56:00Z,30.6973,-87.0207,32.8,24.4,310,6,,10+,30.03,1015.3,,,TRUE,TRUE,,,,,,SCT,3400,SCT,25000,,,,,VFR,-0.07,32.8,24.4,,,,,,,,,METAR,51
KNCA 141756Z VRB04KT 7SM BKN015 BKN140 31/26 A2994 RMK AO2 SLP136 T03110261 $,KNCA,2025-08-14T17:56:00Z,34.7062,-77.4406,31.1,26.1,VRB,4,,7,29.94,1013.6,,,TRUE,TRUE,,,,,,BKN,1500,BKN,14000,,,,,MVFR,,,,,,,,,,,,METAR,9
KNBC 141756Z 25014G18KT 7SM FEW029 SCT036 32/24 A2999 RMK AO2 SLP154 T03220244 10322 20261 56006,KNBC,2025-08-14T17:56:00Z,32.477,-80.722,32.2,24.4,250,14,18,7,29.99,1015.4,,,TRUE,,,,,,,FEW,2900,SCT,3600,,,,,VFR,-0.06,32.2,26.1,,,,,,,,,METAR,9
KMVN 141756Z AUTO 02004KT 10SM BKN040 31/22 A3001 RMK AO2 SLP161 T03060222 10322 20211 58004 $,KMVN,2025-08-14T17:56:00Z,38.3284,-88.853,30.6,22.2,20,4,,10+,30.01,1016.1,,TRUE,TRUE,TRUE,,,,,,BKN,4000,,,,,,,VFR,-0.04,32.2,21.1,,,,,,,,,METAR,145
KMTW 141756Z AUTO 12007KT 9SM CLR 24/19 A3007 RMK AO2 SLP180 T02390189 10239 20161 58002,KMTW,2025-08-14T17:56:00Z,44.1322,-87.6819,23.9,18.9,120,7,,9,30.07,1018,,TRUE,TRUE,,,,,,,CLR,,,,,,,,VFR,-0.02,23.9,16.1,,,,,,,,,METAR,197
KMTC 141756Z 07007KT 10SM FEW035 SCT080 28/19 A3003 RMK AO2A SLP170 T02760194 10276 20198 58001 $,KMTC,2025-08-14T17:56:00Z,42.6045,-82.8353,27.6,19.4,70,7,,10+,30.03,1017,,,TRUE,TRUE,,,,,,FEW,3500,SCT,8000,,,,,VFR,-0.01,27.6,19.8,,,,,,,,,METAR,177
KMQY 141756Z VRB03KT 10SM SCT025 32/23 A3003 RMK AO2 SLP171 6//// T03170233 10317 20217 58012,KMQY,2025-08-14T17:56:00Z,36.0029,-86.5144,31.7,23.3,VRB,3,,10+,30.03,1017.1,,,TRUE,,,,,,,SCT,2500,,,,,,,VFR,-0.12,31.7,21.7,,,,,,,,,METAR,156
KMOB 141756Z 31006KT 10SM SCT035 SCT130 32/24 A3003 RMK AO2 SLP167 T03220239 10322 20239 58007,KMOB,2025-08-14T17:56:00Z,30.6882,-88.2459,32.2,23.9,310,6,,10+,30.03,1016.7,,,TRUE,,,,,,,SCT,3500,SCT,13000,,,,,VFR,-0.07,32.2,23.9,,,,,,,,,METAR,67
KMML 141756Z AUTO 13009KT 10SM BKN100 26/21 A2986 RMK AO2 SLP107 T02610206 10261 20206 50007,KMML,2025-08-14T17:56:00Z,44.4504,-95.8215,26.1,20.6,130,9,,10+,29.86,1010.7,,TRUE,TRUE,,,,,,,BKN,10000,,,,,,,VFR,0.07,26.1,20.6,,,,,,,,,METAR,358
KMKY 141756Z AUTO 19008KT 10SM CLR 34/24 RMK AO2 SLPNO T03390239 10339 20267 $,KMKY,2025-08-14T17:56:00Z,25.999,-81.674,33.9,23.9,190,8,,10+,0.00,,,TRUE,TRUE,TRUE,,,,,,CLR,,,,,,,,VFR,,33.9,26.7,,,,,,,,,METAR,2
KMKT 141756Z AUTO 16014G20KT 10SM CLR 23/18 A2994 RMK AO2 SLP136 T02280178 10228 20200 58005,KMKT,2025-08-14T17:56:00Z,44.2184,-93.9179,22.8,17.8,160,14,20,10+,29.94,1013.6,,TRUE,TRUE,,,,,,,CLR,,,,,,,,VFR,-0.05,22.8,20,,,,,,,,,METAR,309
KMHS 141756Z AUTO 28005KT 10SM CLR 26/11 A3004 RMK AO2 SLP156 T02610106 10267 20106 58005,KMHS,2025-08-14T17:56:00Z,41.3149,-122.317,26.1,10.6,280,5,,10+,30.04,1015.6,,TRUE,TRUE,,,,,,,CLR,,,,,,,,VFR,-0.05,26.7,10.6,,,,,,,,,METAR,1080
KMDH 141756Z 00000KT 10SM BKN043 33/22 A3000,KMDH,2025-08-14T17:56:00Z,37.7833,-89.2453,33,22,0,0,,10+,30.00,,,,,,,,,,,BKN,4300,,,,,,,VFR,,,,,,,,,,,,METAR,122
KMBL 141756Z AUTO 33007KT 10SM BKN043 27/18 A3007 RMK AO2 SLP180 6//// T02670178 10283 20150 58004,KMBL,2025-08-14T17:56:00Z,44.2714,-86.2377,26.7,17.8,330,7,,10+,30.07,1018,,TRUE,TRUE,,,,,,,BKN,4300,,,,,,,VFR,-0.04,28.3,15,,,,,,,,,METAR,187
KM19 141756Z AUTO 18006KT 10SM CLR 33/23 A2999 RMK AO2 SLP167 T03280228 10328 20222 58009 $,KM19,2025-08-14T17:56:00Z,35.643,-91.1735,32.8,22.8,180,6,,10+,29.99,1016.7,,TRUE,TRUE,TRUE,,,,,,CLR,,,,,,,,VFR,-0.09,32.8,22.2,,,,,,,,,METAR,72
KLZU 141756Z 26008KT 10SM BKN025 30/23 A3004 RMK AO2 SLP171 T03000233 10300 20239 58002 $,KLZU,2025-08-14T17:56:00Z,33.9828,-83.9585,30,23.3,260,8,,10+,30.04,1017.1,,,TRUE,TRUE,,,,,,BKN,2500,,,,,,,MVFR,-0.02,30,23.9,,,,,,,,,METAR,316
KLWS 141756Z VRB03KT 10SM CLR 28/11 A2990 RMK AO2 SLP110 T02830106 10283 20200 58007,KLWS,2025-08-14T17:56:00Z,46.3746,-117.015,28.3,10.6,VRB,3,,10+,29.90,1011,,,TRUE,,,,,,,CLR,,,,,,,,VFR,-0.07,28.3,20,,,,,,,,,METAR,435
KLRD 141756Z 19007KT 10SM CLR 37/20 A2993 RMK AO2 SLP131 T03670200 10372 20267 58005 $,KLRD,2025-08-14T17:56:00Z,27.551,-99.4614,36.7,20,190,7,,10+,29.93,1013.1,,,TRUE,TRUE,,,,,,CLR,,,,,,,,VFR,-0.05,37.2,26.7,,,,,,,,,METAR,150
KLNR 141756Z AUTO 18006KT 10SM FEW045 28/18 A3003 RMK AO2 SLP160 T02780178 10278 20156 56008,KLNR,2025-08-14T17:56:00Z,43.2111,-90.1874,27.8,17.8,180,6,,10+,30.03,1016,,TRUE,TRUE,,,,,,,FEW,4500,,,,,,,VFR,-0.08,27.8,15.6,,,,,,,,,METAR,218
KLEW 141756Z AUTO 32005KT 10SM FEW055 BKN100 28/18 A2990 RMK AO2 LTG DSNT SW RAB34E47 SLP127 6//// T02830178 10311 20233 55004 PNO $,KLEW,2025-08-14T17:56:00Z,44.0444,-70.2853,28.3,17.8,320,5,,10+,29.90,1012.7,,TRUE,TRUE,TRUE,,,,,,FEW,5500,BKN,10000,,,,,VFR,-0.04,31.1,23.3,,,,,,,,,METAR,81
KLCI 141756Z AUTO 32007KT 10SM FEW070 30/18 A2991 RMK AO2 LTG DSNT E SLP122 6//// T03000183 10311 20222 55005 PNO $,KLCI,2025-08-14T17:56:00Z,43.5718,-71.4254,30,18.3,320,7,,10+,29.91,1012.2,,TRUE,TRUE,TRUE,,,,,,FEW,7000,,,,,,,VFR,-0.05,31.1,22.2,,,,,,,,,METAR,166
KLBT 141756Z AUTO 34004KT 10SM SCT029 BKN080 OVC110 28/24 A2998 RMK AO2 SLP149 60000 T02830244 10289 20267 58007,KLBT,2025-08-14T17:56:00Z,34.6082,-79.059,28.3,24.4,340,4,,10+,29.98,1014.9,,TRUE,TRUE,,,,,,,SCT,2900,BKN,8000,OVC,11000,,,VFR,-0.07,28.9,26.7,,,,,0.005,,,,METAR,37
KLBL 141756Z AUTO 20017G21KT 10SM CLR 34/18 A2996 RMK AO2 SLP104 6//// T03390183 10339 20194 58007 PNO $,KLBL,2025-08-14T17:56:00Z,37.0375,-100.957,33.9,18.3,200,17,21,10+,29.96,1010.4,,TRUE,TRUE,TRUE,,,,,,CLR,,,,,,,,VFR,-0.07,33.9,19.4,,,,,,,,,METAR,877
KLAS 141756Z 18008G16KT 140V210 10SM CLR 37/04 A2989 RMK AO2 SLP086 T03720039 10372 20300 58001,KLAS,2025-08-14T17:56:00Z,36.0719,-115.163,37.2,3.9,180,8,16,10+,29.89,1008.6,,,TRUE,,,,,,,CLR,,,,,,,,VFR,-0.01,37.2,30,,,,,,,,,METAR,662
KKLS 141756Z AUTO 01005KT 10SM OVC026 18/12 A3008 RMK AO2 SLP190 T01830117 10183 20161 50002,KKLS,2025-08-14T17:56:00Z,46.118,-122.898,18.3,11.7,10,5,,10+,30.08,1019,,TRUE,TRUE,,,,,,,OVC,2600,,,,,,,MVFR,0.02,18.3,16.1,,,,,,,,,METAR,4
KJXN 141756Z VRB03KT 10SM BKN047 27/16 A3007 RMK AO2 SLP177 T02670161 10283 20183 58003,KJXN,2025-08-14T17:56:00Z,42.259,-84.4589,26.7,16.1,VRB,3,,10+,30.07,1017.7,,,TRUE,,,,,,,BKN,4700,,,,,,,VFR,-0.03,28.3,18.3,,,,,,,,,METAR,303
KJRB 141756Z AUTO 23003G34KT 10SM CLR 32/22 A2993 RMK AO2 PK WND 30040/1708 SLP134 60000 T03170222 10317 20239 50000,KJRB,2025-08-14T17:56:00Z,40.701,-74.009,31.7,22.2,230,3,34,10+,29.93,1013.4,,TRUE,TRUE,,,,,,,CLR,,,,,,,,VFR,,31.7,23.9,,,,,0.005,,,,METAR,2
KJMS 141756Z AUTO 21010G22KT 10SM CLR 28/19 A2974 RMK AO2 SLP062 T02780194 10278 20156 58003,KJMS,2025-08-14T17:56:00Z,46.9259,-98.6704,27.8,19.4,210,10,22,10+,29.74,1006.2,,TRUE,TRUE,,,,,,,CLR,,,,,,,,VFR,-0.03,27.8,15.6,,,,,,,,,METAR,455
KJKA 141756Z 25010KT 10SM FEW035 34/25 A3002,KJKA,2025-08-14T17:56:00Z,30.291,-87.661,34,25,250,10,,10+,30.02,,,,,,,,,,,FEW,3500,,,,,,,VFR,,,,,,,,,,,,METAR,5
KJHW 141756Z AUTO 01007KT 10SM CLR 26/12 A3009 RMK AO2 SLP182 T02560122 10261 20189 51001 $,KJHW,2025-08-14T17:56:00Z,42.1534,-79.2542,25.6,12.2,10,7,,10+,30.09,1018.2,,TRUE,TRUE,TRUE,,,,,,CLR,,,,,,,,VFR,0.01,26.1,18.9,,,,,,,,,METAR,520
KJAC 141756Z VRB03KT 10SM CLR 23/07 A3015 RMK AO2 SLP137 60000 T02330067 10233 20078 58009,KJAC,2025-08-14T17:56:00Z,43.6129,-110.737,23.3,6.7,VRB,3,,10+,30.15,1013.7,,,TRUE,,,,,,,CLR,,,,,,,,VFR,-0.09,23.3,7.8,,,,,0.005,,,,METAR,1967
KIWD 141756Z AUTO 21008KT 170V230 10SM CLR 24/16 A3004 RMK AO2 SLP172 T02390156 10239 20144 55006,KIWD,2025-08-14T17:56:00Z,46.5321,-90.126,23.9,15.6,210,8,,10+,30.04,1017.2,,TRUE,TRUE,,,,,,,CLR,,,,,,,,VFR,-0.06,23.9,14.4,,,,,,,,,METAR,373
KITH 141756Z 33008KT 10SM BKN030 28/20 A3002 RMK AO2 SLP159 T02780200 10278 20206 58002,KITH,2025-08-14T17:56:00Z,42.4931,-76.4569,27.8,20,330,8,,10+,30.02,1015.9,,,TRUE,,,,,,,BKN,3000,,,,,,,MVFR,-0.02,27.8,20.6,,,,,,,,,METAR,338
KISP 141756Z VRB05KT 10SM SCT032 BKN110 BKN180 BKN250 31/22 A2991 RMK AO2 SLP127 T03110217 10317 20244 51000,KISP,2025-08-14T17:56:00Z,40.7939,-73.1018,31.1,21.7,VRB,5,,10+,29.91,1012.7,,,TRUE,,,,,,,SCT,3200,BKN,11000,BKN,18000,BKN,25000,VFR,,31.7,24.4,,,,,,,,,METAR,25
KISO 141756Z 31005KT 10SM BKN023 BKN032 BKN045 29/25 A2999,KISO,2025-08-14T17:56:00Z,35.324,-77.6187,29,25,310,5,,10+,29.99,,,,,,,,,,,BKN,2300,BKN,3200,BKN,4500,,,MVFR,,,,,,,,,,,,METAR,27
KISM 141756Z 21006KT 10SM BKN041 BKN050 OVC060 34/24 A3007 RMK AO2 SLP181 T03390239 10344 20267 58007 $,KISM,2025-08-14T17:56:00Z,28.2924,-81.4371,33.9,23.9,210,6,,10+,30.07,1018.1,,,TRUE,TRUE,,,,,,BKN,4100,BKN,5000,OVC,6000,,,VFR,-0.07,34.4,26.7,,,,,,,,,METAR,25
KINW 141756Z AUTO VRB06KT 10SM CLR 34/07 A3014 RMK AO2 SLP111 T03390072 10339 20233 58004,KINW,2025-08-14T17:56:00Z,35.028,-110.722,33.9,7.2,VRB,6,,10+,30.14,1011.1,,TRUE,TRUE,,,,,,,CLR,,,,,,,,VFR,-0.04,33.9,23.3,,,,,,,,,METAR,1492
KILE 141756Z AUTO 19006KT CLR 36/21 A2999 RMK AO2 SLP140 T03560211 10356 20244 58010 PWINO,KILE,2025-08-14T17:56:00Z,31.084,-97.6885,35.6,21.1,190,6,,,29.99,1014,,TRUE,TRUE,,,,,TRUE,,CLR,,,,,,,,,-0.1,35.6,24.4,,,,,,,,,METAR,256
KHYS 141756Z AUTO 18022G30KT 10SM CLR 33/19 A2989 RMK AO2 PK WND 19030/1756 SLP102 T03330189 10333 20206 58011 $,KHYS,2025-08-14T17:56:00Z,38.8392,-99.2742,33.3,18.9,180,22,30,10+,29.89,1010.2,,TRUE,TRUE,TRUE,,,,,,CLR,,,,,,,,VFR,-0.11,33.3,20.6,,,,,,,,,METAR,607
KHYI 141756Z 18010G17KT 10SM CLR 36/20 A2999 RMK AO2 SLP144 T03560200 10356 20250 58009,KHYI,2025-08-14T17:56:00Z,29.8958,-97.8664,35.6,20,180,10,17,10+,29.99,1014.4,,,TRUE,,,,,,,CLR,,,,,,,,VFR,-0.09,35.6,25,,,,,,,,,METAR,180
KHYA 141756Z 19006KT 5SM -RA BR BKN009 BKN050 BKN070 26/23 A2991 RMK AO2 RAB55 SLP127 P0000 60000 T02560233 10278 20239 50003,KHYA,2025-08-14T17:56:00Z,41.6719,-70.2697,25.6,23.3,190,6,,5,29.91,1012.7,,,TRUE,,,,,,-RA BR,BKN,900,BKN,5000,BKN,7000,,,IFR,0.03,27.8,23.9,,,0.005,,0.005,,,,METAR,11
KHWV 141756Z AUTO 21008KT 10SM BKN033 28/23 A2992 RMK AO2 SLP130 T02780233 10300 20228 53003,KHWV,2025-08-14T17:56:00Z,40.8212,-72.8674,27.8,23.3,210,8,,10+,29.92,1013,,TRUE,TRUE,,,,,,,BKN,3300,,,,,,,VFR,0.03,30,22.8,,,,,,,,,METAR,20
KHPN 141756Z 30004KT 10SM FEW030 BKN110 30/22 A2993 RMK AO2 SLP128 T03000217 10300 20228 50001,KHPN,2025-08-14T17:56:00Z,41.0624,-73.7046,30,21.7,300,4,,10+,29.93,1012.8,,,TRUE,,,,,,,FEW,3000,BKN,11000,,,,,VFR,0.01,30,22.8,,,,,,,,,METAR,113
KHND 141756Z 24009KT 10SM CLR 37/05 A2992 RMK AO2 SLP109 T03670050 10367 20289 58001 $,KHND,2025-08-14T17:56:00Z,35.9658,-115.134,36.7,5,240,9,,10+,29.92,1010.9,,,TRUE,TRUE,,,,,,CLR,,,,,,,,VFR,-0.01,36.7,28.9,,,,,,,,,METAR,740
KHNB 141756Z AUTO 05007KT 10SM FEW033 32/23 A3001 RMK AO2 SLP157 T03170228 10317 20233 58010,KHNB,2025-08-14T17:56:00Z,38.2505,-86.9473,31.7,22.8,50,7,,10+,30.01,1015.7,,TRUE,TRUE,,,,,,,FEW,3300,,,,,,,VFR,-0.1,31.7,23.3,,,,,,,,,METAR,159
KHEZ 141756Z AUTO VRB03KT 10SM SCT027 SCT050 SCT110 33/26 A3001 RMK AO2 LTG DSNT W-N SLP160 60000 T03280256 10328 20239 58013 $,KHEZ,2025-08-14T17:56:00Z,31.6159,-91.2973,32.8,25.6,VRB,3,,10+,30.01,1016,,TRUE,TRUE,TRUE,,,,,,SCT,2700,SCT,5000,SCT,11000,,,VFR,-0.13,32.8,23.9,,,,,0.005,,,,METAR,82
KHEF 141756Z 32008KT 10SM BKN044 32/22 A2995 RMK AO2 SLP145 T03220222 10322 20222 58001,KHEF,2025-08-14T17:56:00Z,38.724,-77.5175,32.2,22.2,320,8,,10+,29.95,1014.5,,,TRUE,,,,,,,BKN,4400,,,,,,,VFR,-0.01,32.2,22.2,,,,,,,,,METAR,53
KHDN 141756Z AUTO 00000KT 10SM CLR 30/M01 A3018 RMK AO2 SLP116 T03001006 10300 20122 58009 $,KHDN,2025-08-14T17:56:00Z,40.4842,-107.23,30,-0.6,0,0,,10+,30.18,1011.6,,TRUE,TRUE,TRUE,,,,,,CLR,,,,,,,,VFR,-0.09,30,12.2,,,,,,,,,METAR,2012
KGVQ 141756Z AUTO 06011G17KT 10SM CLR 27/17 A3005 RMK AO2 SLP170 T02670167 10272 20200 51003,KGVQ,2025-08-14T17:56:00Z,43.0298,-78.1665,26.7,16.7,60,11,17,10+,30.05,1017,,TRUE,TRUE,,,,,,,CLR,,,,,,,,VFR,0.03,27.2,20,,,,,,,,,METAR,279
KGUC 141756Z AUTO 00000KT 10SM CLR 23/01 A3031 RMK AO2 SLP170 T02280011 10228 20050 58014 $,KGUC,2025-08-14T17:56:00Z,38.5322,-106.942,22.8,1.1,0,0,,10+,30.31,1017,,TRUE,TRUE,TRUE,,,,,,CLR,,,,,,,,VFR,-0.14,22.8,5,,,,,,,,,METAR,2337
KGTU 141756Z 15005KT 10SM FEW085 36/21 A2999 RMK AO2 SLP146 T03560211 10356 20261 58007,KGTU,2025-08-14T17:56:00Z,30.6809,-97.6767,35.6,21.1,150,5,,10+,29.99,1014.6,,,TRUE,,,,,,,FEW,8500,,,,,,,VFR,-0.07,35.6,26.1,,,,,,,,,METAR,232
KGRD 141756Z AUTO 24003KT 10SM FEW025 BKN048 OVC075 29/23 A3001 RMK AO2 SLP154 T02890233 10300 20239 58002,KGRD,2025-08-14T17:56:00Z,34.2539,-82.1526,28.9,23.3,240,3,,10+,30.01,1015.4,,TRUE,TRUE,,,,,,,FEW,2500,BKN,4800,OVC,7500,,,VFR,-0.02,30,23.9,,,,,,,,,METAR,188
KGPZ 141756Z AUTO 16010G15KT 10SM SCT031 23/17 A2993 RMK AO2 LTG DSNT E SLP132 T02280172 10228 20156 58007,KGPZ,2025-08-14T17:56:00Z,47.2029,-93.5071,22.8,17.2,160,10,15,10+,29.93,1013.2,,TRUE,TRUE,,,,,,,SCT,3100,,,,,,,VFR,-0.07,22.8,15.6,,,,,,,,,METAR,410
KGON 141756Z 19007KT 10SM CLR 26/23 A2990 RMK AO2 SLP124 T02560228 10272 20233 50002,KGON,2025-08-14T17:56:00Z,41.3279,-72.0489,25.6,22.8,190,7,,10+,29.90,1012.4,,,TRUE,,,,,,,CLR,,,,,,,,VFR,0.02,27.2,23.3,,,,,,,,,METAR,2
KGNR 141756Z AUTO 33010G20KT 27/14 A2993 RMK AO1 SLP126 T02670139 10278 20217 51001,KGNR,2025-08-14T17:56:00Z,45.4649,-69.5543,26.7,13.9,330,10,20,,29.93,1012.6,,TRUE,TRUE,,,,,,,,,,,,,,,,0.01,27.8,21.7,,,,,,,,,METAR,426
KGNA 141756Z AUTO 10010KT 20/16 A3003 RMK AO1 SLP166 T02000156 10200 20161 56005 $,KGNA,2025-08-14T17:56:00Z,47.745,-90.346,20,15.6,100,10,,,30.03,1016.6,,TRUE,TRUE,TRUE,,,,,,,,,,,,,,,-0.05,20,16.1,,,,,,,,,METAR,186
KGDV 141756Z AUTO 03009KT 10SM CLR 23/14 A2990 RMK AO2 SLP108 T02330139 10233 20156 51026 TSNO,KGDV,2025-08-14T17:56:00Z,47.14,-104.813,23.3,13.9,30,9,,10+,29.90,1010.8,,TRUE,TRUE,,,TRUE,,,,CLR,,,,,,,,VFR,0.26,23.3,15.6,,,,,,,,,METAR,749
KGBD 141756Z AUTO 18017G24KT 10SM CLR 33/20 A2993 RMK AO2 PK WND 19026/1702 SLP115 T03330200 10333 20211 58007 $,KGBD,2025-08-14T17:56:00Z,38.3405,-98.8592,33.3,20,180,17,24,10+,29.93,1011.5,,TRUE,TRUE,TRUE,,,,,,CLR,,,,,,,,VFR,-0.07,33.3,21.1,,,,,,,,,METAR,573
KGAI 141756Z AUTO 27007KT 10SM -RA FEW038 SCT070 BKN085 29/25 A2997 RMK AO2 LTG DSNT N AND SE RAB51 SLP156 6//// T02890250 10311 20228 58002 PNO $,KGAI,2025-08-14T17:56:00Z,39.1696,-77.1653,28.9,25,270,7,,10+,29.97,1015.6,,TRUE,TRUE,TRUE,,,,,-RA,FEW,3800,SCT,7000,BKN,8500,,,VFR,-0.02,31.1,22.8,,,,,,,,,METAR,151
KGAD 141756Z AUTO 00000KT FEW033 29/24 A3004 RMK AO2 SLP170 T02940239 10306 20211 58007 PWINO $,KGAD,2025-08-14T17:56:00Z,33.9686,-86.0917,29.4,23.9,0,0,,,30.04,1017,,TRUE,TRUE,TRUE,,,,TRUE,,FEW,3300,,,,,,,,-0.07,30.6,21.1,,,,,,,,,METAR,169
KFSD 141756Z 18018G28KT 10SM FEW030 SCT100 SCT250 29/21 A2984 RMK AO2 PK WND 16029/1746 SLP092 60005 T02890211 10294 20200 56018,KFSD,2025-08-14T17:56:00Z,43.5775,-96.7539,28.9,21.1,180,18,28,10+,29.84,1009.2,,,TRUE,,,,,,,FEW,3000,SCT,10000,SCT,25000,,,VFR,-0.18,29.4,20,,,,,0.05,,,,METAR,433
KFRM 141756Z AUTO 18014KT 10SM SCT120 21/18 A2994 RMK AO2 RAE25 SLP139 P0000 60000 T02110183 10239 20194 58005,KFRM,2025-08-14T17:56:00Z,43.6455,-94.4168,21.1,18.3,180,14,,10+,29.94,1013.9,,TRUE,TRUE,,,,,,,SCT,12000,,,,,,,VFR,-0.05,23.9,19.4,,,0.005,,0.005,,,,METAR,353
KFOD 141756Z AUTO 17009KT 10SM CLR 25/19 A2999 RMK AO2 SLP161 60000 T02500194 10256 20194 58004 $,KFOD,2025-08-14T17:56:00Z,42.549,-94.182,25,19.4,170,9,,10+,29.99,1016.1,,TRUE,TRUE,TRUE,,,,,,CLR,,,,,,,,VFR,-0.04,25.6,19.4,,,,,0.005,,,,METAR,347
KFMH 141756Z 21010KT 10SM BKN019 29/23 A2992,KFMH,2025-08-14T17:56:00Z,41.6608,-70.5221,29,23,210,10,,10+,29.92,,,,,,,,,,,BKN,1900,,,,,,,MVFR,,,,,,,,,,,,METAR,35
KFLP 141756Z AUTO 20005KT 10SM SCT050 34/19 A3000 RMK AO2 SLP150 T03390194 10339 20206 58012 $,KFLP,2025-08-14T17:56:00Z,36.2925,-92.5851,33.9,19.4,200,5,,10+,30.00,1015,,TRUE,TRUE,TRUE,,,,,,SCT,5000,,,,,,,VFR,-0.12,33.9,20.6,,,,,,,,,METAR,215
KFKL 141756Z AUTO VRB06KT 10SM SCT049 A3008 RMK AO2 SLPNO 6//// 57003 FZRANO $,KFKL,2025-08-14T17:56:00Z,41.3806,-79.8603,,,VRB,6,,10+,30.08,,,TRUE,TRUE,TRUE,,,TRUE,,,SCT,4900,,,,,,,VFR,-0.03,,,,,,,,,,,METAR,468
KFCI 141756Z AUTO 07003KT 10SM BKN041 OVC048 32/23 A2995 RMK AO2 SLP151 T03170233 10328 20244 57001,KFCI,2025-08-14T17:56:00Z,37.407,-77.522,31.7,23.3,70,3,,10+,29.95,1015.1,,TRUE,TRUE,,,,,,,BKN,4100,OVC,4800,,,,,VFR,-0.01,32.8,24.4,,,,,,,,,METAR,63
KEWK 141756Z AUTO 17015G19KT 10SM CLR 32/21 A2998 RMK AO2 SLP133 T03170211 10317 20206 58011 $,KEWK,2025-08-14T17:56:00Z,38.0621,-97.275,31.7,21.1,170,15,19,10+,29.98,1013.3,,TRUE,TRUE,TRUE,,,,,,CLR,,,,,,,,VFR,-0.11,31.7,20.6,,,,,,,,,METAR,468
KEUL 141756Z AUTO 29006KT 10SM CLR 27/11 A2995 RMK AO2 SLP118 6//// T02720106 10278 20178 58002 PNO $,KEUL,2025-08-14T17:56:00Z,43.6405,-116.63,27.2,10.6,290,6,,10+,29.95,1011.8,,TRUE,TRUE,TRUE,,,,,,CLR,,,,,,,,VFR,-0.02,27.8,17.8,,,,,,,,,METAR,741
KESC 141756Z AUTO 11009G14KT 10SM CLR 22/17 A3009 RMK AO2 SLP189 T02220167 10222 20144 58006,KESC,2025-08-14T17:56:00Z,45.7225,-87.0893,22.2,16.7,110,9,14,10+,30.09,1018.9,,TRUE,TRUE,,,,,,,CLR,,,,,,,,VFR,-0.06,22.2,14.4,,,,,,,,,METAR,180
KENV 141756Z AUTO 09008KT 10SM CLR 32/04 A3000 RMK AO2 SLPNO 6//// T03170039 56005,KENV,2025-08-14T17:56:00Z,40.7211,-114.031,31.7,3.9,90,8,,10+,30.00,,,TRUE,TRUE,,,,,,,CLR,,,,,,,,VFR,-0.05,,,,,,,,,,,METAR,1291
KELZ 141756Z AUTO 33008KT 10SM SCT055 BKN085 27/17 A3009 RMK AO2 SLP175 T02720172 10272 20194 50001,KELZ,2025-08-14T17:56:00Z,42.1077,-77.9842,27.2,17.2,330,8,,10+,30.09,1017.5,,TRUE,TRUE,,,,,,,SCT,5500,BKN,8500,,,,,VFR,0.01,27.2,19.4,,,,,,,,,METAR,639
KEKY 141756Z AUTO 00000KT 10SM CLR 31/23 A3006 RMK AO2 SLP149 6//// T03060228 10306 20233 58006,KEKY,2025-08-14T17:56:00Z,33.314,-86.925,30.6,22.8,0,0,,10+,30.06,1014.9,,TRUE,TRUE,,,,,,,CLR,,,,,,,,VFR,-0.06,30.6,23.3,,,,,,,,,METAR,213
KEKO 141756Z AUTO 23008KT 10SM CLR 30/02 A3005 RMK AO2 SLP107 T03000022 10300 20144 58007,KEKO,2025-08-14T17:56:00Z,40.824,-115.786,30,2.2,230,8,,10+,30.05,1010.7,,TRUE,TRUE,,,,,,,CLR,,,,,,,,VFR,-0.07,30,14.4,,,,,,,,,METAR,1541
KEHR 141756Z AUTO VRB04KT 10SM CLR 32/22 A3000 RMK AO2 SLP155 T03170217 10322 20217 58010,KEHR,2025-08-14T17:56:00Z,37.8066,-87.6824,31.7,21.7,VRB,4,,10+,30.00,1015.5,,TRUE,TRUE,,,,,,,CLR,,,,,,,,VFR,-0.1,32.2,21.7,,,,,,,,,METAR,117
KEGE 141756Z VRB03KT 10SM CLR 27/M01 A3020 RMK AO2 SLP134 T02671011 10267 20083 58019 $,KEGE,2025-08-14T17:56:00Z,39.6448,-106.918,26.7,-1.1,VRB,3,,10+,30.20,1013.4,,,TRUE,TRUE,,,,,,CLR,,,,,,,,VFR,-0.19,26.7,8.3,,,,,,,,,METAR,1993
KEEN 141756Z AUTO 35008G15KT 10SM FEW050 31/18 A2992 RMK AO2 SLP130 T03060183 10306 20211 55005 $,KEEN,2025-08-14T17:56:00Z,42.898,-72.2695,30.6,18.3,350,8,15,10+,29.92,1013,,TRUE,TRUE,TRUE,,,,,,FEW,5000,,,,,,,VFR,-0.05,30.6,21.1,,,,,,,,,METAR,143
KEED 141756Z AUTO 20015G25KT 10SM CLR 40/16 A2983 RMK AO2 PK WND 20026/1738 SLP059 T04000161 10400 20317 58001,KEED,2025-08-14T17:56:00Z,34.7678,-114.618,40,16.1,200,15,25,10+,29.83,1005.9,,TRUE,TRUE,,,,,,,CLR,,,,,,,,VFR,-0.01,40,31.7,,,,,,,,,METAR,271
KEAU 141756Z 19012KT 10SM CLR 27/16 A3000 RMK AO2 SLP156 T02720161 10272 20161 58004,KEAU,2025-08-14T17:56:00Z,44.8665,-91.4881,27.2,16.1,190,12,,10+,30.00,1015.6,,,TRUE,,,,,,,CLR,,,,,,,,VFR,-0.04,27.2,16.1,,,,,,,,,METAR,271
KEAR 141756Z AUTO 19018G26KT 10SM CLR 31/21 A2988 RMK AO2 PK WND 17028/1711 SLP094 T03110206 10311 20206 55005,KEAR,2025-08-14T17:56:00Z,40.7193,-99.0086,31.1,20.6,190,18,26,10+,29.88,1009.4,,TRUE,TRUE,,,,,,,CLR,,,,,,,,VFR,-0.05,31.1,20.6,,,,,,,,,METAR,649
KDYR 141756Z AUTO VRB03KT 10SM FEW037 32/22 A3001 RMK AO2 SLP164 T03220217 10328 20222 58009,KDYR,2025-08-14T17:56:00Z,35.9957,-89.4057,32.2,21.7,VRB,3,,10+,30.01,1016.4,,TRUE,TRUE,,,,,,,FEW,3700,,,,,,,VFR,-0.09,32.8,22.2,,,,,,,,,METAR,98
KDWU 141756Z AUTO 00000KT 10SM FEW046 SCT070 BKN110 29/23 A3002 RMK AO2 SLP160 T02940233 10311 20222 58005,KDWU,2025-08-14T17:56:00Z,38.556,-82.7375,29.4,23.3,0,0,,10+,30.02,1016,,TRUE,TRUE,,,,,,,FEW,4600,SCT,7000,BKN,11000,,,VFR,-0.05,31.1,22.2,,,,,,,,,METAR,165
KDVL 141756Z AUTO 16013KT 10SM OVC018 24/20 A2973 RMK AO2 SLP064 T02440200 10250 20183 53001,KDVL,2025-08-14T17:56:00Z,48.1136,-98.9034,24.4,20,160,13,,10+,29.73,1006.4,,TRUE,TRUE,,,,,,,OVC,1800,,,,,,,MVFR,0.01,25,18.3,,,,,,,,,METAR,439
KDIK 141756Z AUTO 36014G23KT 10SM CLR 21/17 A2980 RMK AO2 RAE10 SLP079 P0000 60007 T02110172 10250 20133 56006,KDIK,2025-08-14T17:56:00Z,46.7997,-102.797,21.1,17.2,360,14,23,10+,29.80,1007.9,,TRUE,TRUE,,,,,,,CLR,,,,,,,,VFR,-0.06,25,13.3,,,0.005,,0.07,,,,METAR,788
KDIJ 141756Z AUTO VRB06KT 10SM BKN110 28/03 A3014 RMK AO2 SLP111 60000 T02780033 10278 20144 58004 $,KDIJ,2025-08-14T17:56:00Z,43.745,-111.091,27.8,3.3,VRB,6,,10+,30.14,1011.1,,TRUE,TRUE,TRUE,,,,,,BKN,11000,,,,,,,VFR,-0.04,27.8,14.4,,,,,0.005,,,,METAR,1896
KDAY 141756Z 28006KT 10SM SCT045 29/19 A3005 RMK AO2 SLP166 T02890189 10294 20206 58003,KDAY,2025-08-14T17:56:00Z,39.9064,-84.2185,28.9,18.9,280,6,,10+,30.05,1016.6,,,TRUE,,,,,,,SCT,4500,,,,,,,VFR,-0.03,29.4,20.6,,,,,,,,,METAR,303
KD07 141756Z AUTO 24005KT 33/12 A2981 RMK AO1 SLP076 T03280122 10328 20156 53006 $,KD07,2025-08-14T17:56:00Z,45.0326,-102.02,32.8,12.2,240,5,,,29.81,1007.6,,TRUE,TRUE,TRUE,,,,,,,,,,,,,,,0.06,32.8,15.6,,,,,,,,,METAR,786
KCWI 141756Z AUTO 15010KT 10SM SCT041 27/18 A3005 RMK AO2 SLP175 T02720178 10272 20167 58004,KCWI,2025-08-14T17:56:00Z,41.8295,-90.3328,27.2,17.8,150,10,,10+,30.05,1017.5,,TRUE,TRUE,,,,,,,SCT,4100,,,,,,,VFR,-0.04,27.2,16.7,,,,,,,,,METAR,212
KCVO 141756Z 06004KT 10SM OVC031 21/13 A3007 RMK AO2 SLP185 T02110133 10211 20178 51001,KCVO,2025-08-14T17:56:00Z,44.5013,-123.293,21.1,13.3,60,4,,10+,30.07,1018.5,,,TRUE,,,,,,,OVC,3100,,,,,,,VFR,0.01,21.1,17.8,,,,,,,,,METAR,75
KCVN 141756Z AUTO 26011G16KT 10SM CLR 35/11 A3007 RMK AO2 SLP128 T03500106 10350 20161 58006 $,KCVN,2025-08-14T17:56:00Z,34.4227,-103.08,35,10.6,260,11,16,10+,30.07,1012.8,,TRUE,TRUE,TRUE,,,,,,CLR,,,,,,,,VFR,-0.06,35,16.1,,,,,,,,,METAR,1278
KCTB 141756Z AUTO 00000KT 10SM OVC029 16/08 A2999 RMK AO2 SLP137 60000 T01560083 10161 20117 57007,KCTB,2025-08-14T17:56:00Z,48.6036,-112.377,15.6,8.3,0,0,,10+,29.99,1013.7,,TRUE,TRUE,,,,,,,OVC,2900,,,,,,,MVFR,-0.07,16.1,11.7,,,,,0.005,,,,METAR,1172
KCOE 141756Z AUTO 31003KT 10SM SCT095 24/09 A2995 RMK AO2 SLP139 T02390094 10239 20167 50007,KCOE,2025-08-14T17:56:00Z,47.7719,-116.833,23.9,9.4,310,3,,10+,29.95,1013.9,,TRUE,TRUE,,,,,,,SCT,9500,,,,,,,VFR,0.07,23.9,16.7,,,,,,,,,METAR,693
KCOD 141756Z AUTO 07007KT 10SM CLR 29/03 A3002 RMK AO2 SLP096 T02890028 10289 20161 58008,KCOD,2025-08-14T17:56:00Z,44.52,-109.027,28.9,2.8,70,7,,10+,30.02,1009.6,,TRUE,TRUE,,,,,,,CLR,,,,,,,,VFR,-0.08,28.9,16.1,,,,,,,,,METAR,1550
KCIU 141756Z AUTO 00000KT 10SM SCT035 SCT045 BKN060 23/14 A3011 RMK AO2 SLP193 T02280144 10233 20150 58006,KCIU,2025-08-14T17:56:00Z,46.2531,-84.4773,22.8,14.4,0,0,,10+,30.11,1019.3,,TRUE,TRUE,,,,,,,SCT,3500,SCT,4500,BKN,6000,,,VFR,-0.06,23.3,15,,,,,,,,,METAR,242
KCHS 141756Z 21008KT 10SM SCT028 BKN060 BKN200 31/26 A2997 RMK AO2 SLP149 T03060256 10328 20267 56006,KCHS,2025-08-14T17:56:00Z,32.8994,-80.0407,30.6,25.6,210,8,,10+,29.97,1014.9,,,TRUE,,,,,,,SCT,2800,BKN,6000,BKN,20000,,,VFR,-0.06,32.8,26.7,,,,,,,,,METAR,12
KCGZ 141756Z AUTO 11008KT 10SM CLR 34/14 A2994 RMK AO2 SLP121 6//// T03390144 10344 20278 50003 $,KCGZ,2025-08-14T17:56:00Z,32.9531,-111.773,33.9,14.4,110,8,,10+,29.94,1012.1,,TRUE,TRUE,TRUE,,,,,,CLR,,,,,,,,VFR,0.03,34.4,27.8,,,,,,,,,METAR,444
KBZN 141756Z 18004KT 10SM CLR 27/05 A2997 RMK AO2 SLP107 T02720050 10278 20100 58011,KBZN,2025-08-14T17:56:00Z,45.7876,-111.162,27.2,5,180,4,,10+,29.97,1010.7,,,TRUE,,,,,,,CLR,,,,,,,,VFR,-0.11,27.8,10,,,,,,,,,METAR,1349
KBVX 141756Z AUTO 09010KT 10SM SCT041 SCT055 34/23 A3000 RMK AO2 SLP152 T03390228 10344 20217 58012,KBVX,2025-08-14T17:56:00Z,35.7259,-91.6517,33.9,22.8,90,10,,10+,30.00,1015.2,,TRUE,TRUE,,,,,,,SCT,4100,SCT,5500,,,,,VFR,-0.12,34.4,21.7,,,,,,,,,METAR,137
KBTP 141756Z AUTO VRB03KT 10SM SCT031 27/21 A3006 RMK AO2 SLP177 T02720206 10278 20206 58002 $,KBTP,2025-08-14T17:56:00Z,40.7765,-79.9568,27.2,20.6,VRB,3,,10+,30.06,1017.7,,TRUE,TRUE,TRUE,,,,,,SCT,3100,,,,,,,VFR,-0.02,27.8,20.6,,,,,,,,,METAR,375
KBMI 141756Z 12005KT 10SM SCT041 28/18 A3007 RMK AO2 SLP173 T02780178 10283 20178 58001,KBMI,2025-08-14T17:56:00Z,40.4777,-88.9144,27.8,17.8,120,5,,10+,30.07,1017.3,,,TRUE,,,,,,,SCT,4100,,,,,,,VFR,-0.01,28.3,17.8,,,,,,,,,METAR,262
KBKX 141756Z AUTO 19010KT 10SM OVC065 26/20 A2985 RMK AO2 SLP105 60001 T02560200 10261 20194 55013,KBKX,2025-08-14T17:56:00Z,44.3075,-96.8183,25.6,20,190,10,,10+,29.85,1010.5,,TRUE,TRUE,,,,,,,OVC,6500,,,,,,,VFR,-0.13,26.1,19.4,,,,,0.01,,,,METAR,494
KBJJ 141756Z AUTO 01004KT 10SM SCT040 27/18 A3007 RMK AO2 SLP173 T02720183 10283 20194 58003,KBJJ,2025-08-14T17:56:00Z,40.8732,-81.8886,27.2,18.3,10,4,,10+,30.07,1017.3,,TRUE,TRUE,,,,,,,SCT,4000,,,,,,,VFR,-0.03,28.3,19.4,,,,,,,,,METAR,338
KBIH 141756Z AUTO VRB03KT 10SM CLR 32/03 A2997 RMK AO2 SLP090 T03220028 10328 20133 58009,KBIH,2025-08-14T17:56:00Z,37.3711,-118.359,32.2,2.8,VRB,3,,10+,29.97,1009,,TRUE,TRUE,,,,,,,CLR,,,,,,,,VFR,-0.09,32.8,13.3,,,,,,,,,METAR,1252
KBID 141756Z AUTO 20009KT 10SM CLR 26/22 A2991 RMK AO2 SLP129 6//// T02610217 10272 20222 50000 PNO $,KBID,2025-08-14T17:56:00Z,41.1668,-71.5757,26.1,21.7,200,9,,10+,29.91,1012.9,,TRUE,TRUE,TRUE,,,,,,CLR,,,,,,,,VFR,,27.2,22.2,,,,,,,,,METAR,32
KBHB 141756Z AUTO 16006KT 10SM SCT029 BKN044 BKN110 28/22 A2988 RMK AO2 SLP119 T02780217 10283 20194 56004,KBHB,2025-08-14T17:56:00Z,44.4549,-68.3617,27.8,21.7,160,6,,10+,29.88,1011.9,,TRUE,TRUE,,,,,,,SCT,2900,BKN,4400,BKN,11000,,,VFR,-0.04,28.3,19.4,,,,,,,,,METAR,21
KAWO 141756Z AUTO 00000KT 10SM OVC019 17/12 A3005 RMK AO2 SLP181 T01670122 10167 20139 50003,KAWO,2025-08-14T17:56:00Z,48.1584,-122.159,16.7,12.2,0,0,,10+,30.05,1018.1,,TRUE,TRUE,,,,,,,OVC,1900,,,,,,,MVFR,0.03,16.7,13.9,,,,,,,,,METAR,38
KAUO 141756Z AUTO 33008KT 10SM SCT033 30/24 A3006 RMK AO2 SLP165 T03000239 10306 20233 58006 $,KAUO,2025-08-14T17:56:00Z,32.617,-85.4342,30,23.9,330,8,,10+,30.06,1016.5,,TRUE,TRUE,TRUE,,,,,,SCT,3300,,,,,,,VFR,-0.06,30.6,23.3,,,,,,,,,METAR,231
KASH 141756Z 34003KT 10SM BKN048 31/21 A2990 RMK AO2 SLPNO T03100210 10311 20222 56003 $,KASH,2025-08-14T17:56:00Z,42.7798,-71.5141,31,21,340,3,,10+,29.90,,,,TRUE,TRUE,,,,,,BKN,4800,,,,,,,VFR,-0.03,31.1,22.2,,,,,,,,,METAR,56
KART 141756Z AUTO 02012KT 10SM CLR 28/14 A3002 RMK AO2 SLP159 T02830139 10283 20194 51003,KART,2025-08-14T17:56:00Z,43.9888,-76.0261,28.3,13.9,20,12,,10+,30.02,1015.9,,TRUE,TRUE,,,,,,,CLR,,,,,,,,VFR,0.03,28.3,19.4,,,,,,,,,METAR,100
KARG 141756Z AUTO VRB03KT 9SM CLR 32/23 A2999 RMK AO2 SLP154 6//// T03220228 10328 20222 58012 $,KARG,2025-08-14T17:56:00Z,36.1256,-90.9216,32.2,22.8,VRB,3,,9,29.99,1015.4,,TRUE,TRUE,TRUE,,,,,,CLR,,,,,,,,VFR,-0.12,32.8,22.2,,,,,,,,,METAR,82
KAND 141756Z AUTO 00000KT 10SM SCT032 31/22 A3000 RMK AO2 SLP148 T03110222 10317 20233 58003,KAND,2025-08-14T17:56:00Z,34.498,-82.7092,31.1,22.2,0,0,,10+,30.00,1014.8,,TRUE,TRUE,,,,,,,SCT,3200,,,,,,,VFR,-0.03,31.7,23.3,,,,,,,,,METAR,233
KALK 141756Z AUTO 28006KT 10SM CLR 29/08 A3019 RMK AO2 SLP125 T02890083 10289 20200 50000,KALK,2025-08-14T17:56:00Z,31.606,-110.428,28.9,8.3,280,6,,10+,30.19,1012.5,,TRUE,TRUE,,,,,,,CLR,,,,,,,,VFR,,28.9,20,,,,,,,,,METAR,1451
KAJO 141756Z AUTO 00000KT 9SM CLR 24/18 A2994 RMK AO2 SLP134 T02440178 10250 20189 58001,KAJO,2025-08-14T17:56:00Z,33.8956,-117.596,24.4,17.8,0,0,,9,29.94,1013.4,,TRUE,TRUE,,,,,,,CLR,,,,,,,,VFR,-0.01,25,18.9,,,,,,,,,METAR,161
KAIZ 141756Z AUTO VRB04KT 10SM CLR 32/19 A3001 RMK AO2 SLP154 T03220194 10328 20206 58009,KAIZ,2025-08-14T17:56:00Z,38.1005,-92.5475,32.2,19.4,VRB,4,,10+,30.01,1015.4,,TRUE,TRUE,,,,,,,CLR,,,,,,,,VFR,-0.09,32.8,20.6,,,,,,,,,METAR,263
KAFJ 141756Z AUTO VRB05KT 10SM SCT027 27/20 A3009 RMK AO2 SLP179 T02670200 10278 20217 56003 $,KAFJ,2025-08-14T17:56:00Z,40.1362,-80.2851,26.7,20,VRB,5,,10+,30.09,1017.9,,TRUE,TRUE,TRUE,,,,,,SCT,2700,,,,,,,VFR,-0.03,27.8,21.7,,,,,,,,,METAR,360
KADF 141756Z AUTO 21005KT 10SM CLR 34/23 A2999 RMK AO2 SLP151 T03390233 10339 20217 58012,KADF,2025-08-14T17:56:00Z,34.0953,-93.069,33.9,23.3,210,5,,10+,29.99,1015.1,,TRUE,TRUE,,,,,,,CLR,,,,,,,,VFR,-0.12,33.9,21.7,,,,,,,,,METAR,54
K8D3 141756Z AUTO 16013G20KT 28/19 A2978 RMK AO1 SLP068 T02780194 10283 20189 58003 $,K8D3,2025-08-14T17:56:00Z,45.669,-96.9918,27.8,19.4,160,13,20,,29.78,1006.8,,TRUE,TRUE,TRUE,,,,,,,,,,,,,,,-0.03,28.3,18.9,,,,,,,,,METAR,535
K79J 141756Z AUTO 26005KT 10SM BKN030 33/24 A3003 RMK AO2 SLP162 T03280239 10333 20244 58009 TSNO,K79J,2025-08-14T17:56:00Z,31.3061,-86.3902,32.8,23.9,260,5,,10+,30.03,1016.2,,TRUE,TRUE,,,TRUE,,,,BKN,3000,,,,,,,MVFR,-0.09,33.3,24.4,,,,,,,,,METAR,93
K2WX 141756Z AUTO 36010KT 31/12 A2983 RMK AO1 SLP074 T03110117 10311 20139 51022,K2WX,2025-08-14T17:56:00Z,45.6043,-103.547,31.1,11.7,360,10,,,29.83,1007.4,,TRUE,TRUE,,,,,,,,,,,,,,,,0.22,31.1,13.9,,,,,,,,,METAR,925
K1M4 141756Z AUTO VRB03KT 10SM FEW032 31/23 A3006 RMK AO2 SLP938 T03110228 10311 20217 58009 $,K1M4,2025-08-14T17:56:00Z,34.2832,-87.5986,31.1,22.8,VRB,3,,10+,30.06,993.8,,TRUE,TRUE,TRUE,,,,,,FEW,3200,,,,,,,VFR,-0.09,31.1,21.7,,,,,,,,,METAR,283
TXKF 141755Z 20013KT 9999 FEW015 SCT047 BKN300 30/25 Q1019 ,TXKF,2025-08-14T17:55:00Z,32.364,-64.679,30,25,200,13,,6+,30.09,,,,,,,,,,,FEW,1500,SCT,4700,BKN,30000,,,VFR,,,,,,,,,,,,METAR,4
TNCE 141755Z AUTO 09014KT 050V130 //// // ///////// 29/24 Q1015 RE//,TNCE,2025-08-14T17:55:00Z,17.497,-62.979,29,24,90,14,,,29.97,,,TRUE,,,,,,,,,,,,,,,,,,,,,,,,,,,,METAR,38
TNCB 141755Z 12009KT 050V180 9999 SCT025 32/24 Q1012,TNCB,2025-08-14T17:55:00Z,12.133,-68.277,32,24,120,9,,6+,29.88,,,,,,,,,,,SCT,2500,,,,,,,VFR,,,,,,,,,,,,METAR,6
RODN 141755Z 05008KT 10SM SCT020 29/26 A2992 RMK AO2A SLP132 60000 T02880256 10291 20282 56016 FZRANO $,RODN,2025-08-14T17:55:00Z,26.356,127.768,28.8,25.6,50,8,,10+,29.92,1013.2,,,TRUE,TRUE,,,TRUE,,,SCT,2000,,,,,,,VFR,-0.16,29.1,28.2,,,,,0.005,,,,METAR,38
RKSO 141755Z 09004KT 6SM BR CLR 24/24 A2998 RMK AO2A SLP156 T02400236 $,RKSO,2025-08-14T17:55:00Z,37.091,127.03,24,23.6,90,4,,6,29.98,1015.6,,,TRUE,TRUE,,,,,BR,CLR,,,,,,,,VFR,,,,,,,,,,,,METAR,10
RKSG 141755Z 00000KT 5SM BR FEW065 SCT100 SCT120 24/24 A2998 RMK AO2A SLP155 T02440235 10268 20244 57005 $,RKSG,2025-08-14T17:55:00Z,36.962,127.031,24.4,23.5,0,0,,5,29.98,1015.5,,,TRUE,TRUE,,,,,BR,FEW,6500,SCT,10000,SCT,12000,,,MVFR,-0.05,26.8,24.4,,,,,,,,,METAR,12
RJTY 141755Z 00000KT 10SM CLR 24/22 A3003 RMK AO2A SLP168 T02440215 10264 20243 56008,RJTY,2025-08-14T17:55:00Z,35.749,139.349,24.4,21.5,0,0,,10+,30.03,1016.8,,,TRUE,,,,,,,CLR,,,,,,,,VFR,-0.08,26.4,24.3,,,,,,,,,METAR,136
RJTR 141755Z AUTO 00000KT 10SM CLR 23/22 A3000 RMK AO2 SLP157 T02320216 10258 20232 57009 $,RJTR,2025-08-14T17:55:00Z,35.514,139.395,23.2,21.6,0,0,,10+,30.00,1015.7,,TRUE,TRUE,TRUE,,,,,,CLR,,,,,,,,VFR,-0.09,25.8,23.2,,,,,,,,,METAR,106
PWAK 141755Z AUTO 08007KT 9SM CLR 28/24 A2985 RMK AO2 SLP111 T02820244 10287 20277 55000,PWAK,2025-08-14T17:55:00Z,19.287,166.623,28.2,24.4,80,7,,9,29.85,1011.1,,TRUE,TRUE,,,,,,,CLR,,,,,,,,VFR,,28.7,27.7,,,,,,,,,METAR,7
PHSF 141755Z 16003KT 10SM CLR 21/04 A3032 RMK WND DATA AND ALSTG/SLP ESTMD SLP177 58001,PHSF,2025-08-14T17:55:00Z,19.758,-155.557,21,4,160,3,,10+,30.32,1017.7,,,,,,,,,,CLR,,,,,,,,VFR,-0.01,,,,,,,,,,,METAR,1863
PGUA 141755Z AUTO 00000KT 10SM CLR 26/23 A2983 RMK AO2 SLP092 T02610233 10276 20248 56013 $,PGUA,2025-08-14T17:55:00Z,13.583,144.918,26.1,23.3,0,0,,10+,29.83,1009.2,,TRUE,TRUE,TRUE,,,,,,CLR,,,,,,,,VFR,-0.13,27.6,24.8,,,,,,,,,METAR,159
PATL 141755Z AUTO VRB03KT 10SM FEW011 BKN044 09/09 A2982 RMK AO2 SHRAB1649E1733 SLP102 60013 T00920091 10106 20100 52008,PATL,2025-08-14T17:55:00Z,62.893,-155.977,9.2,9.1,VRB,3,,10+,29.82,1010.2,,TRUE,TRUE,,,,,,,FEW,1100,BKN,4400,,,,,VFR,0.08,10.6,10,,,,,0.13,,,,METAR,261
PASV 141755Z AUTO VRB04KT 3SM -RA OVC006 08/07 A2986 RMK AO2 RAB1555DZB1703E1711 SLP115 P0002 60051 T00810073 10086 20082 52007,PASV,2025-08-14T17:55:00Z,61.101,-155.577,8.1,7.3,VRB,4,,3,29.86,1011.5,,TRUE,TRUE,,,,,,-RA,OVC,600,,,,,,,IFR,0.07,8.6,8.2,,,0.02,,,,,,METAR,462
PALU 141755Z 26004KT 10SM FEW035 FEW041 OVC060 10/07 A2995 RMK AO2A SLP142 5//// BWC MOD,PALU,2025-08-14T17:55:00Z,68.873,-166.101,10,7,260,4,,10+,29.95,1014.2,,,TRUE,,,,,,,FEW,3500,FEW,4100,OVC,6000,,,VFR,,,,,,,,,,,,METAR,8
PAEI 141755Z 23004KT 10SM -RA OVC009 12/11 A2977 RMK AO2A CIG 008 RWY14 SLP085 P0000 60009 T01200107 10121 20104 51002 $,PAEI,2025-08-14T17:55:00Z,64.654,-147.094,12,10.7,230,4,,10+,29.77,1008.5,,,TRUE,TRUE,,,,,-RA,OVC,900,,,,,,,IFR,0.02,12.1,10.4,,,0.005,,0.09,,,,METAR,166
PAEH 141755Z AUTO 34019KT 250V090 10SM OVC012 08/06 A3006 RMK AO2 PK WND 34028/1720 SLP182 T00780056 10102 20078 51021 $,PAEH,2025-08-14T17:55:00Z,58.652,-162.062,7.8,5.6,340,19,,10+,30.06,1018.2,,TRUE,TRUE,TRUE,,,,,,OVC,1200,,,,,,,MVFR,0.21,10.2,7.8,,,,,,,,,METAR,101
PAED 141755Z 03007KT 10SM -RA BKN005 OVC070 12/11 A2980 RMK AO2A RAB36 SLP088 P0000 60000 T01210107 10122 20106 58003 $,PAED,2025-08-14T17:55:00Z,61.25,-149.837,12.1,10.7,30,7,,10+,29.80,1008.8,,,TRUE,TRUE,,,,,-RA,BKN,500,OVC,7000,,,,,IFR,-0.03,12.2,10.6,,,0.005,,0.005,,,,METAR,54
OTBH 141755Z 35008KT 9000 HZ CLR 38/26 A2940 Q0996 RMK AO2A SLP956 T03810261 10453 20381 52012 $,OTBH,2025-08-14T17:55:00Z,25.117,51.315,38.1,26.1,350,8,,5.59,29.41,995.6,,,TRUE,TRUE,,,,,HZ,CLR,,,,,,,,VFR,0.12,45.3,38.1,,,,,,,,,METAR,40
OKAS 141755Z AUTO 28005KT 9999 CLR 39/M08 A2948 RMK AO2 SLP976 T03861078 10475 20386 52007 $,OKAS,2025-08-14T17:55:00Z,29.347,47.521,38.6,-7.8,280,5,,6+,29.48,997.6,,TRUE,TRUE,TRUE,,,,,,CLR,,,,,,,,VFR,0.07,47.5,38.6,,,,,,,,,METAR,144
OEPS 141755Z 04002KT 9999 FEW210 37/M05 A2961 RMK AO2A SLP972 WND DATA ESTMD T03661047 10457 20366 52009,OEPS,2025-08-14T17:55:00Z,24.063,47.581,36.6,-4.7,40,2,,6+,29.61,997.2,,,TRUE,,,,,,,FEW,21000,,,,,,,VFR,0.09,45.7,36.6,,,,,,,,,METAR,503
NZCM 141755Z AUTO 05008KT 9999 OVC100 M25/M36 A2927 RMK AO2 SLP918 T12501358 11246 21325 51001,NZCM,2025-08-14T17:55:00Z,-77.85,166.667,-25,-35.8,50,8,,6+,29.27,991.8,,TRUE,TRUE,,,,,,,OVC,10000,,,,,,,VFR,0.01,-24.6,-32.5,,,,,,,,,METAR,24
MUBA 141755Z 09010KT 9999 SCT020 31/26 Q1016,MUBA,2025-08-14T17:55:00Z,20.36,-74.504,31,26,90,10,,6+,30.00,,,,,,,,,,,SCT,2000,,,,,,,VFR,,,,,,,,,,,,METAR,9
LIVM 141755Z AUTO /////KT //// ///// Q////,LIVM,2025-08-14T17:55:00Z,44.441,12.296,,,,,,,0.00,,,TRUE,,,,,,,,,,,,,,,,,,,,,,,,,,,,METAR,6
LIVF 141755Z AUTO 19005KT //// // ///////// 26/16 Q////,LIVF,2025-08-14T17:55:00Z,43.517,12.728,26,16,190,5,,,0.00,,,TRUE,,,,,,,,,,,,,,,,,,,,,,,,,,,,METAR,549
LIVE 141755Z AUTO 10003KT 040V150 //// // ///////// 21/14 Q1025,LIVE,2025-08-14T17:55:00Z,46.833,10.5,21,14,100,3,,,30.27,,,TRUE,,,,,,,,,,,,,,,,,,,,,,,,,,,,METAR,1684
LIVD 141755Z AUTO 08007KT //// 22/// Q////,LIVD,2025-08-14T17:55:00Z,46.729,12.228,,,80,7,,,0.00,,,TRUE,,,,,,,,,,,,,,,,,,,,,,,,,,,,METAR,1221
LIVC 141755Z AUTO VRB04KT //// // ///////// 17/10 Q1030,LIVC,2025-08-14T17:55:00Z,44.194,10.7,17,10,VRB,4,,,30.41,,,TRUE,,,,,,,,,,,,,,,,,,,,,,,,,,,,METAR,2139
LIRY 141755Z AUTO 28005KT //// // ///////// 28/14 Q1016,LIRY,2025-08-14T17:55:00Z,-99.99,-99.99,28,14,280,5,,,30.00,,,TRUE,,,,,,,,,,,,,,,,,,,,,,,,,,,,METAR,9999
LIRV 141755Z 34016KT 9999 TS SCT030 FEW035CB 28/20 Q1016 RMK OVC BKN060 MON E SE LIB NC VIS MIN 9999 BLU,LIRV,2025-08-14T17:55:00Z,42.43,12.064,28,20,340,16,,6+,30.00,,,,,,,,,,TS,SCT,3000,FEW,3500,,,,,VFR,,,,,,,,,,,,METAR,294
LIRT 141755Z AUTO 29010KT //// // ///////// 20/10 Q1021,LIRT,2025-08-14T17:55:00Z,41.047,15.233,20,10,290,10,,,30.15,,,TRUE,,,,,,,,,,,,,,,,,,,,,,,,,,,,METAR,1058
LIRS 141755Z 06009KT 9999 FEW050 28/15 Q1014 RMK BKN SCT100 VIS MIN 9999 WIND THR03 06010KT WIND THR21 06009KT BLU,LIRS,2025-08-14T17:55:00Z,42.76,11.072,28,15,60,9,,6+,29.94,,,,,,,,,,,FEW,5000,,,,,,,VFR,,,,,,,,,,,,METAR,3
LIRM 141755Z 04004KT 9999 TS SCT025 FEW030CB SCT035 27/10 Q1014 RMK BKN VIS MIN 9999 WIND THR06 05004KT BLU,LIRM,2025-08-14T17:55:00Z,41.061,14.082,27,10,40,4,,6+,29.94,,,,,,,,,,TS,SCT,2500,FEW,3000,SCT,3500,,,VFR,,,,,,,,,,,,METAR,6
LIRL 141755Z 30005KT 9999 FEW030 32/16 Q1014 RMK SCT SCT200 MON LIB NC VIS MIN 9999 WIND THR12 /////KT WIND THR30 /////KT BLU,LIRL,2025-08-14T17:55:00Z,41.545,12.91,32,16,300,5,,6+,29.94,,,,,,,,,,,FEW,3000,,,,,,,VFR,,,,,,,,,,,,METAR,23
LIRH 141755Z 09006KT 9999 FEW035CB BKN040 30/12 Q1014 RMK BKN MON LIB NC VIS MIN 9999 WIND THR16 /////KT BLU,LIRH,2025-08-14T17:55:00Z,41.646,13.3,30,12,90,6,,6+,29.94,,,,,,,,,,,FEW,3500,BKN,4000,,,,,VFR,,,,,,,,,,,,METAR,183
LIRG 141755Z /////KT CAVOK 33/15 Q1015 RMK FEW FEW070 MON NE LIB NC VIS MIN 9999 BLU,LIRG,2025-08-14T17:55:00Z,41.996,12.735,33,15,,,,6+,29.97,,,,,,,,,,,CAVOK,,,,,,,,VFR,,,,,,,,,,,,METAR,82
LIRE 141755Z 30008KT 9999 FEW030 29/20 Q1013 RMK BKN SCT090 VIS MIN 9999 WIND THR13 /////KT WIND THR31 /////KT BLU,LIRE,2025-08-14T17:55:00Z,41.656,12.449,29,20,300,8,,6+,29.91,,,,,,,,,,,FEW,3000,,,,,,,VFR,,,,,,,,,,,,METAR,16
LIQW 141755Z AUTO 12004KT 080V170 //// // ///////// 31/19 Q1014 RMK /// WIND THR14 11007KT,LIQW,2025-08-14T17:55:00Z,44.088,9.987,31,19,120,4,,,29.94,,,TRUE,,,,,,,,,,,,,,,,,,-0.7,,,,,,,,,,METAR,6
LIQC 141755Z AUTO VRB03KT 9999 ///////// 27/16 Q1014 RMK /// VIS MIN 9999,LIQC,2025-08-14T17:55:00Z,40.558,14.201,27,16,VRB,3,,6+,29.94,,,TRUE,,,,,,,,,,,,,,,,VFR,,,,,,,,,,,,METAR,154
LIPS 141755Z 00000KT CAVOK 32/19 Q1014 RMK SKC VIS MIN 9999 WIND THR26 00000KT WIND THR08 00000KT BLU,LIPS,2025-08-14T17:55:00Z,45.689,12.101,32,19,0,0,,6+,29.94,,,,,,,,,,,CAVOK,,,,,,,,VFR,,,,,,,,,,,,METAR,42
LIPL 141755Z /////KT CAVOK 31/21 Q1014,LIPL,2025-08-14T17:55:00Z,45.432,10.268,31,21,,,,6+,29.94,,,,,,,,,,,CAVOK,,,,,,,,VFR,,,,,,,,,,,,METAR,96
LIPI 141755Z 03003KT CAVOK 31/16 Q1014 RMK SKC VIS MIN 9999 WIND THR06 07005KT WIND THR24 07003KT BLU,LIPI,2025-08-14T17:55:00Z,45.979,13.049,31,16,30,3,,6+,29.94,,,,,,,,,,,CAVOK,,,,,,,,VFR,,,,,,,,,,,,METAR,49
LIPF 141755Z AUTO VRB01KT //// // ///////// 33/17 Q1014 RMK ///,LIPF,2025-08-14T17:55:00Z,44.814,11.61,33,17,VRB,1,,,29.94,,,TRUE,,,,,,,,,,,,,,,,,,,,,,,,,,,,METAR,5
LIPC 141755Z 07003KT CAVOK 29/22 Q1015 RMK BKN FEW110 SCT220 VIS MIN 9999 WIND THR11 08004KT WIND THR29 08003KT BLU,LIPC,2025-08-14T17:55:00Z,44.224,12.307,29,22,70,3,,6+,29.97,,,,,,,,,,,CAVOK,,,,,,,,VFR,,,,,,,,,,,,METAR,10
LIPA 141755Z 01005KT CAVOK 31/21 Q1015 RMK SKC VIS MIN 9999 WIND THR05 /////KT WIND THR23 /////KT A2997 BLU,LIPA,2025-08-14T17:55:00Z,46.03,12.599,31,21,10,5,,6+,29.97,,,,,,,,,,,CAVOK,,,,,,,,VFR,,,,,,,,,,,,METAR,113
LIMS 141755Z 09005KT 9999 FEW050 35/24 Q1014 RMK BKN BKN200 VIS MIN 9999 WIND THR30 08005KT BLU,LIMS,2025-08-14T17:55:00Z,44.913,9.723,35,24,90,5,,6+,29.94,,,,,,,,,,,FEW,5000,,,,,,,VFR,,,,,,,,,,,,METAR,132
LIMN 141755Z VRB02KT CAVOK 32/21 Q1015 RMK SCT FEW120 SCT200 VIS MIN 9999 BLU,LIMN,2025-08-14T17:55:00Z,45.53,8.669,32,21,VRB,2,,6+,29.97,,,,,,,,,,,CAVOK,,,,,,,,VFR,,,,,,,,,,,,METAR,168
LIMK 141755Z AUTO 09006KT //// // ///////// 30/21 Q1019,LIMK,2025-08-14T17:55:00Z,45.033,7.731,30,21,90,6,,,30.09,,,TRUE,,,,,,,,,,,,,,,,,,,,,,,,,,,,METAR,693
LIMH 141755Z AUTO /////KT //// ///// Q////,LIMH,2025-08-14T17:55:00Z,45.935,7.707,,,,,,,0.00,,,TRUE,,,,,,,,,,,,,,,,,,,,,,,,,,,,METAR,3473
LIED 141755Z 02003KT 9999 FEW060 30/21 Q1014 RMK SCT VIS MIN 9999 WIND THR34 36003KT WIND THR16 36004KT BLU,LIED,2025-08-14T17:55:00Z,39.354,8.973,30,21,20,3,,6+,29.94,,,,,,,,,,,FEW,6000,,,,,,,VFR,,,,,,,,,,,,METAR,26
LICZ 141755Z 07007KT 9999 FEW090 30/23 Q1013 RMK FEW VIS MIN 9999 WIND THR 28 06007KT WIND THR 10 ///// KT A2993 BLU,LICZ,2025-08-14T17:55:00Z,37.406,14.919,30,23,70,7,,6+,29.91,,,,,,,,,,,FEW,9000,,,,,,,VFR,,,,,,,,,,,,METAR,22
LICT 141755Z 35009KT CAVOK 27/24 Q1014 RMK SKC VIS MIN 9999 WIND THR13 01009KT BLU,LICT,2025-08-14T17:55:00Z,37.911,12.488,27,24,350,9,,6+,29.94,,,,,,,,,,,CAVOK,,,,,,,,VFR,,,,,,,,,,,,METAR,4
LICF 141755Z AUTO VRB04KT //// // ///////// 29/23 Q1013 RMK ///,LICF,2025-08-14T17:55:00Z,38.2,15.549,29,23,VRB,4,,,29.91,,,TRUE,,,,,,,,,,,,,,,,,,,,,,,,,,,,METAR,66
LIBY 141755Z AUTO 05005KT //// 27/22 Q1013,LIBY,2025-08-14T17:55:00Z,39.811,18.342,27,22,50,5,,,29.91,,,TRUE,,,,,,,,,,,,,,,,,,,,,,,,,,,,METAR,105
LIBV 141755Z 01006KT CAVOK 28/15 Q1015 RMK SCT SCT100 VIS MIN 9999 WIND THR32 02006KT WIND THR14 01005KT BLU,LIBV,2025-08-14T17:55:00Z,40.766,16.935,28,15,10,6,,6+,29.97,,,,,,,,,,,CAVOK,,,,,,,,VFR,,,,,,,,,,,,METAR,344
LIBQ 141755Z 08004KT 050V110 CAVOK 19/11 Q1025,LIBQ,2025-08-14T17:55:00Z,39.331,16.396,19,11,80,4,,6+,30.27,,,,,,,,,,,CAVOK,,,,,,,,VFR,,,,,,,,,,,,METAR,1660
LIBN 141755Z 36008KT CAVOK 28/19 Q1014 RMK SCT SCT100 VIS MIN 9999 WIND THR14 01007KT WIND THR32 01008KT BLU,LIBN,2025-08-14T17:55:00Z,40.238,18.138,28,19,360,8,,6+,29.94,,,,,,,,,,,CAVOK,,,,,,,,VFR,,,,,,,,,,,,METAR,46
LIBA 141755Z 05007KT CAVOK 28/20 Q1014 RMK BKN SCT120 SCT220 VIS MIN 9999 WIND THR11 05007KT WIND THR29 /////KT BLU,LIBA,2025-08-14T17:55:00Z,41.538,15.714,28,20,50,7,,6+,29.94,,,,,,,,,,,CAVOK,,,,,,,,VFR,,,,,,,,,,,,METAR,55
KXMR 141755Z AUTO 09007KT 10SM FEW060 33/25 A3002 RMK AO2 SLP169 T03340248 10336 20276 58002 $,KXMR,2025-08-14T17:55:00Z,28.4674,-80.5589,33.4,24.8,90,7,,10+,30.02,1016.9,,TRUE,TRUE,TRUE,,,,,,FEW,6000,,,,,,,VFR,-0.02,33.6,27.6,,,,,,,,,METAR,5
KXIF 141755Z AUTO 00000KT 9SM TS FEW065 25/22 A2998 RMK AO2 RAB28E32RAB32E32 TSE1655TSB28E42TSB45 SLP150 P0000 60000 T02500215 10296 20230 53004 $,KXIF,2025-08-14T17:55:00Z,-99.99,-99.99,25,21.5,0,0,,9,29.98,1015,,TRUE,TRUE,TRUE,,,,,TS,FEW,6500,,,,,,,VFR,0.04,29.6,23,,,0.005,,0.005,,,,METAR,9999
KWRB 141755Z AUTO 29006KT 10SM CLR 31/23 A3000 RMK AO2 SLP158 T03130234 10320 20248 58003,KWRB,2025-08-14T17:55:00Z,32.639,-83.593,31.3,23.4,290,6,,10+,30.00,1015.8,,TRUE,TRUE,,,,,,,CLR,,,,,,,,VFR,-0.03,32,24.8,,,,,,,,,METAR,82
KWHP 141755Z 00000KT 5SM HZ SKC 23/17 A2996,KWHP,2025-08-14T17:55:00Z,34.2596,-118.415,23,17,0,0,,5,29.96,,,,,,,,,,HZ,SKC,,,,,,,,MVFR,,,,,,,,,,,,METAR,302
KVPS 141755Z AUTO 00000KT 10SM FEW047 FEW210 34/22 A3001 RMK AO2 DZB35E41 SLP168 P0000 60000 T03430223 10346 20262 58009 $,KVPS,2025-08-14T17:55:00Z,30.483,-86.526,34.3,22.3,0,0,,10+,30.01,1016.8,,TRUE,TRUE,TRUE,,,,,,FEW,4700,FEW,21000,,,,,VFR,-0.09,34.6,26.2,,,0.005,,0.005,,,,METAR,21
KVOK 141755Z 17007KT 10SM FEW048 SCT075 28/16 A3000 RMK AO2A DZB54 SLP159 T02770160 10277 20123 58004,KVOK,2025-08-14T17:55:00Z,43.938,-90.253,27.7,16,170,7,,10+,30.00,1015.9,,,TRUE,,,,,,,FEW,4800,SCT,7500,,,,,VFR,-0.04,27.7,12.3,,,,,,,,,METAR,278
KVGN 141755Z AUTO 31010KT 8SM CLR 18/13 A2999 RMK AO2 SLP158 T01770134 10180 20139 50003 $,KVGN,2025-08-14T17:55:00Z,34.8494,-120.6,17.7,13.4,310,10,,8,29.99,1015.8,,TRUE,TRUE,TRUE,,,,,,CLR,,,,,,,,VFR,0.03,18,13.9,,,,,,,,,METAR,93
KVBG 141755Z 34010KT 10SM SCT011 17/13 A3000 RMK AO2A SLP161 T01730134 10176 20133,KVBG,2025-08-14T17:55:00Z,34.733,-120.583,17.3,13.4,340,10,,10+,30.00,1016.1,,,TRUE,,,,,,,SCT,1100,,,,,,,VFR,,17.6,13.3,,,,,,,,,METAR,96
KVAD 141755Z AUTO 28009KT 10SM FEW043 33/23 A3001 RMK AO2 SLP162 T03280228 10338 20268 57005 $,KVAD,2025-08-14T17:55:00Z,30.979,-83.192,32.8,22.8,280,9,,10+,30.01,1016.2,,TRUE,TRUE,TRUE,,,,,,FEW,4300,,,,,,,VFR,-0.05,33.8,26.8,,,,,,,,,METAR,70
KU19 141755Z AUTO 19005KT 10SM CLR 33/02 A2997 RMK AO2 SLPNO T03340022 10336 20206 50001,KU19,2025-08-14T17:55:00Z,40.1604,-113.351,33.4,2.2,190,5,,10+,29.97,,,TRUE,TRUE,,,,,,,CLR,,,,,,,,VFR,0.01,33.6,20.6,,,,,,,,,METAR,1310
KU16 141755Z AUTO 29004KT 10SM OVC160 32/03 A2998 RMK AO2 SLP079 T03240033 10324 20197 58002,KU16,2025-08-14T17:55:00Z,41.059,-113.083,32.4,3.3,290,4,,10+,29.98,1007.9,,TRUE,TRUE,,,,,,,OVC,16000,,,,,,,VFR,-0.02,32.4,19.7,,,,,,,,,METAR,1292
KTTS 141755Z AUTO 09007KT 10SM FEW049 SCT085 SCT110 BKN150 BKN180 BKN200 32/25 A3003 RMK AO2 SLP173 T03230251 10340 20276 58004 $,KTTS,2025-08-14T17:55:00Z,28.5987,-80.6815,32.3,25.1,90,7,,10+,30.03,1017.3,,TRUE,TRUE,TRUE,,,,,,FEW,4900,SCT,8500,SCT,11000,BKN,15000,VFR,-0.04,34,27.6,,,,,,,,,METAR,1
KTQS 141755Z AUTO 35008KT 10SM OVC003 15/15 A3001 RMK AO2 SLP165 60001 T01490147 10150 20133 51005 $,KTQS,2025-08-14T17:55:00Z,34.633,-120.617,14.9,14.7,350,8,,10+,30.01,1016.5,,TRUE,TRUE,TRUE,,,,,,OVC,300,,,,,,,LIFR,0.05,15,13.3,,,,,0.01,,,,METAR,34
KTIK 141755Z AUTO 16008G20KT 10SM FEW044 33/21 A2994 RMK AO2 SLP124 T03290214 10329 20229 58008,KTIK,2025-08-14T17:55:00Z,35.415,-97.386,32.9,21.4,160,8,20,10+,29.94,1012.4,,TRUE,TRUE,,,,,,,FEW,4400,,,,,,,VFR,-0.08,32.9,22.9,,,,,,,,,METAR,387
KTDR 141755Z AUTO 25007KT 10SM VCTS CLR 32/27 A2998 RMK AO2 SLP153 60004 T03180268 10319 20277 58002,KTDR,2025-08-14T17:55:00Z,30.038,-85.528,31.8,26.8,250,7,,10+,29.98,1015.3,,TRUE,TRUE,,,,,,VCTS,CLR,,,,,,,,VFR,-0.02,31.9,27.7,,,,,0.04,,,,METAR,4
KTCM 141755Z AUTO 24010KT 10SM OVC027 19/11 A3004 RMK AO2 CIG 026 RWY34 SLP175 T01860107 10187 20156 50001 $,KTCM,2025-08-14T17:55:00Z,47.149,-122.475,18.6,10.7,240,10,,10+,30.04,1017.5,,TRUE,TRUE,TRUE,,,,,,OVC,2700,,,,,,,MVFR,0.01,18.7,15.6,,,,,,,,,METAR,87
KTBN 141755Z AUTO 27003KT 10SM FEW045 32/20 A3000 RMK AO2 SLP148 T03230198 10328 20201 58006,KTBN,2025-08-14T17:55:00Z,37.7445,-92.1447,32.3,19.8,270,3,,10+,30.00,1014.8,,TRUE,TRUE,,,,,,,FEW,4500,,,,,,,VFR,-0.06,32.8,20.1,,,,,,,,,METAR,349
KT70 141755Z AUTO 13009KT 10SM CLR 34/22 A2995 RMK AO2 SLP126 T03440218 10346 20266 56008 $,KT70,2025-08-14T17:55:00Z,29.117,-100.473,34.4,21.8,130,9,,10+,29.95,1012.6,,TRUE,TRUE,TRUE,,,,,,CLR,,,,,,,,VFR,-0.08,34.6,26.6,,,,,,,,,METAR,296
KSVN 141755Z 24011KT 10SM FEW038 SCT047 BKN055 BKN080 33/24 A2996 RMK AO2A SLP148 T03290238 10338 20266 56009,KSVN,2025-08-14T17:55:00Z,32.011,-81.131,32.9,23.8,240,11,,10+,29.96,1014.8,,,TRUE,,,,,,,FEW,3800,SCT,4700,BKN,5500,BKN,8000,VFR,-0.09,33.8,26.6,,,,,,,,,METAR,13
KSUU 141755Z AUTO 22011KT 10SM CLR 23/13 A2992 RMK AO2 SLP138 T02260134 10226 20143 50002 $,KSUU,2025-08-14T17:55:00Z,38.25,-121.938,22.6,13.4,220,11,,10+,29.92,1013.8,,TRUE,TRUE,TRUE,,,,,,CLR,,,,,,,,VFR,0.02,22.6,14.3,,,,,,,,,METAR,9
KSLI 141755Z 00000KT 6SM HZ OVC016 22/17 A2991 RMK AO2A SLP131 T02210170 10222 20201 51005,KSLI,2025-08-14T17:55:00Z,33.796,-118.042,22.1,17,0,0,,6,29.91,1013.1,,,TRUE,,,,,,HZ,OVC,1600,,,,,,,MVFR,0.05,22.2,20.1,,,,,,,,,METAR,8
KSKF 141755Z AUTO 13008KT 10SM FEW170 FEW200 36/19 A2994 RMK AO2 SLP129 T03620191 10362 20266 58009 $,KSKF,2025-08-14T17:55:00Z,29.392,-98.581,36.2,19.1,130,8,,10+,29.94,1012.9,,TRUE,TRUE,TRUE,,,,,,FEW,17000,FEW,20000,,,,,VFR,-0.09,36.2,26.6,,,,,,,,,METAR,214
KSKA 141755Z 00000KT 10SM FEW150 28/11 A2994 RMK AO2A SLP125 T02220067 10222 20150 51009 $,KSKA,2025-08-14T17:55:00Z,47.612,-117.679,28,11,0,0,,10+,29.94,1012.5,,,TRUE,TRUE,,,,,,FEW,15000,,,,,,,VFR,0.09,22.2,15,,,,,,,,,METAR,754
KSHM 141755Z AUTO 10005KT 9SM CLR 32/04 A3009 RMK AO2 LTG DSNT S SLPNO T03220040 10322 20196 50003 $,KSHM,2025-08-14T17:55:00Z,38.8,-104.52,32.2,4,100,5,,9,30.09,,,TRUE,TRUE,TRUE,,,,,,CLR,,,,,,,,VFR,0.03,32.2,19.6,,,,,,,,,METAR,1900
KSEQ 141755Z AUTO 15005KT 10SM CLR 36/22 A2992 RMK AO2 SLP126 60000 T03610215 10361 20246 58011,KSEQ,2025-08-14T17:55:00Z,29.566,-97.908,36.1,21.5,150,5,,10+,29.92,1012.6,,TRUE,TRUE,,,,,,,CLR,,,,,,,,VFR,-0.11,36.1,24.6,,,,,0.005,,,,METAR,160
KSCK 141755Z VRB03KT 10SM CLR 23/14 A2993 RMK AO2 SLP134 T02330139 10239 20139 50003,KSCK,2025-08-14T17:55:00Z,37.89,-121.226,23.3,13.9,VRB,3,,10+,29.93,1013.4,,,TRUE,,,,,,,CLR,,,,,,,,VFR,0.03,23.9,13.9,,,,,,,,,METAR,8
KRYM 141755Z AUTO 16012KT 10SM SCT100 26/19 A2985 RMK AO2 SLP106 T02610185 10272 20200 58003 $,KRYM,2025-08-14T17:55:00Z,46.0878,-94.353,26.1,18.5,160,12,,10+,29.85,1010.6,,TRUE,TRUE,TRUE,,,,,,SCT,10000,,,,,,,VFR,-0.03,27.2,20,,,,,,,,,METAR,344
KRNO 141755Z 08003KT 10SM CLR 27/M02 A3008 RMK AO2 SLP123 T02671022 10267 20133 58007,KRNO,2025-08-14T17:55:00Z,39.5077,-119.768,26.7,-2.2,80,3,,10+,30.08,1012.3,,,TRUE,,,,,,,CLR,,,,,,,,VFR,-0.07,26.7,13.3,,,,,,,,,METAR,1344
KRND 141755Z AUTO 18008KT 10SM CLR 35/20 A2997 RMK AO2 SLP139 T03540197 10354 20244 58008,KRND,2025-08-14T17:55:00Z,29.537,-98.268,35.4,19.7,180,8,,10+,29.97,1013.9,,TRUE,TRUE,,,,,,,CLR,,,,,,,,VFR,-0.08,35.4,24.4,,,,,,,,,METAR,224
KRIV 141755Z AUTO 33005KT 10SM CLR 26/17 A2993 RMK AO2 SLP122 T02570165 10260 20171 50000,KRIV,2025-08-14T17:55:00Z,33.878,-117.244,25.7,16.5,330,5,,10+,29.93,1012.2,,TRUE,TRUE,,,,,,,CLR,,,,,,,,VFR,,26,17.1,,,,,,,,,METAR,454
KRDR 141755Z 22012KT 10SM OVC022 25/20 A2971 RMK AO2A CIG 021 RWY36 SLP063 T02510197 10262 20166 55001 $,KRDR,2025-08-14T17:55:00Z,47.9477,-97.4029,25.1,19.7,220,12,,10+,29.71,1006.3,,,TRUE,TRUE,,,,,,OVC,2200,,,,,,,MVFR,-0.01,26.2,16.6,,,,,,,,,METAR,276
KRCA 141755Z AUTO 12006KT 10SM CLR 33/12 A2983 RMK AO2 SLP072 T03330117 10333 20149 52005 PWINO $,KRCA,2025-08-14T17:55:00Z,44.155,-103.118,33.3,11.7,120,6,,10+,29.83,1007.2,,TRUE,TRUE,TRUE,,,,TRUE,,CLR,,,,,,,,VFR,0.05,33.3,14.9,,,,,,,,,METAR,993
KQTZ 141755Z 28005KT 9999 SKC 40/07 A2946 RMK SLP979 52008,KQTZ,2025-08-14T17:55:00Z,-99.99,-99.99,40,7,280,5,,6+,29.46,997.9,,,,,,,,,,SKC,,,,,,,,VFR,0.08,,,,,,,,,,,METAR,9999
KQOA 141755Z VRB06KT 9999 SCT060 32/18 A3005 RMK AO2A SLP132 WND DATA/ALSTG DATA ESTMD T03200182 10230 20192 57013 $,KQOA,2025-08-14T17:55:00Z,-99.99,-99.99,32,18.2,VRB,6,,6+,30.05,1013.2,,,TRUE,TRUE,,,,,,SCT,6000,,,,,,,VFR,-0.13,23,19.2,,,,,,,,,METAR,9999
KQHY 141755Z AUTO 22005KT 10SM FEW044 33/26 A3002 RMK AO2 SLP172 T03250255 10337 20278 58008,KQHY,2025-08-14T17:55:00Z,-99.99,-99.99,32.5,25.5,220,5,,10+,30.02,1017.2,,TRUE,TRUE,,,,,,,FEW,4400,,,,,,,VFR,-0.08,33.7,27.8,,,,,,,,,METAR,9999
KQBR 141755Z AUTO VRB03KT 10SM CLR 33/06 A3002 RMK AO2 SLP031 WND DATA ESTMD T03300060 10270 20235 52002,KQBR,2025-08-14T17:55:00Z,-99.99,-99.99,33,6,VRB,3,,10+,30.02,1003.1,,TRUE,TRUE,,,,,,,CLR,,,,,,,,VFR,0.02,27,23.5,,,,,,,,,METAR,9999
KPSM 141755Z 13005KT 10SM FEW040 BKN100 BKN250 31/19 A2987 RMK AO2A SLP117 T03060190 10315 20236 50001,KPSM,2025-08-14T17:55:00Z,43.0677,-70.8127,30.6,19,130,5,,10+,29.87,1011.7,,,TRUE,,,,,,,FEW,4000,BKN,10000,BKN,25000,,,VFR,0.01,31.5,23.6,,,,,,,,,METAR,34
KPOE 141755Z AUTO 27006KT 10SM FEW035 SCT160 BKN180 32/24 A3000 RMK AO2 LTG DSNT NE AND W-NW SLP158 T03240241 10340 20258 58007,KPOE,2025-08-14T17:55:00Z,31.047,-93.194,32.4,24.1,270,6,,10+,30.00,1015.8,,TRUE,TRUE,,,,,,,FEW,3500,SCT,16000,BKN,18000,,,VFR,-0.07,34,25.8,,,,,,,,,METAR,98
KPHP 141755Z AUTO 15004KT 10SM CLR 33/16 A2978 RMK AO2 SLP061 T03280156 10328 20144 58003,KPHP,2025-08-14T17:55:00Z,44.051,-101.601,32.8,15.6,150,4,,10+,29.78,1006.1,,TRUE,TRUE,,,,,,,CLR,,,,,,,,VFR,-0.03,32.8,14.4,,,,,,,,,METAR,673
KPAM 141755Z 25011KT 10SM VCTS SCT025 33/26 A3002 RMK AO2A SLP169 60001 T03250260 10328 20284 58003,KPAM,2025-08-14T17:55:00Z,30.071,-85.577,32.5,26,250,11,,10+,30.02,1016.9,,,TRUE,,,,,,VCTS,SCT,2500,,,,,,,VFR,-0.03,32.8,28.4,,,,,0.01,,,,METAR,4
KP58 141755Z AUTO VRB03KT 24/20 A3009 RMK AO1 SLP181 T02390200 10239 20206 50003 $,KP58,2025-08-14T17:55:00Z,44.0217,-82.7929,23.9,20,VRB,3,,,30.09,1018.1,,TRUE,TRUE,TRUE,,,,,,,,,,,,,,,0.03,23.9,20.6,,,,,,,,,METAR,180
KOZR 141755Z AUTO 27004KT 10SM SCT035 SCT200 33/24 A3001 RMK AO2 SLP160 T03260240 10330 20246 58006 $,KOZR,2025-08-14T17:55:00Z,31.2767,-85.7105,32.6,24,270,4,,10+,30.01,1016,,TRUE,TRUE,TRUE,,,,,,SCT,3500,SCT,20000,,,,,VFR,-0.06,33,24.6,,,,,,,,,METAR,90
KOEL 141755Z AUTO 21014G19KT 10SM CLR 32/16 A2992 RMK AO1 T03150157 10316 20199,KOEL,2025-08-14T17:55:00Z,39.1139,-100.819,31.5,15.7,210,14,19,10+,29.92,,,TRUE,TRUE,,,,,,,CLR,,,,,,,,VFR,,31.6,19.9,,,,,,,,,METAR,924
KNKX 141755Z AUTO 26007KT 10SM CLR 23/17 A2995 RMK AO2 SLP135 6//// T02330167 10233 20189 50003 PNO $,KNKX,2025-08-14T17:55:00Z,32.865,-117.137,23.3,16.7,260,7,,10+,29.95,1013.5,,TRUE,TRUE,TRUE,,,,,,CLR,,,,,,,,VFR,0.03,23.3,18.9,,,,,,,,,METAR,138
KNBT 141755Z AUTO 26005KT 5SM TSRA SCT029 BKN055 OVC090 27/23 A2998 RMK AO2 P0001 T02670228,KNBT,2025-08-14T17:55:00Z,35.022,-76.463,26.7,22.8,260,5,,5,29.98,,,TRUE,TRUE,,,,,,TSRA,SCT,2900,BKN,5500,OVC,9000,,,MVFR,,,,,,0.01,,,,,,SPECI,5
KNBG 141755Z 24004KT 10SM SCT042 SCT090 BKN250 33/22 A3002 RMK SLP165 T03330222 10333 20244 58006,KNBG,2025-08-14T17:55:00Z,29.837,-90.024,33.3,22.2,240,4,,10+,30.02,1016.5,,,,,,,,,,SCT,4200,SCT,9000,BKN,25000,,,VFR,-0.06,33.3,24.4,,,,,,,,,METAR,
KMXF 141755Z AUTO 33004KT 10SM BKN025 BKN170 32/24 A3000 RMK AO2 CIG 025V170 BKN025 V SCT SLP159 T03170240 10317 20233 57007,KMXF,2025-08-14T17:55:00Z,32.3877,-86.3724,31.7,24,330,4,,10+,30.00,1015.9,,TRUE,TRUE,,,,,,,BKN,2500,BKN,17000,,,,,MVFR,-0.07,31.7,23.3,,,,,,,,,METAR,47
KMWN 141755Z 29020G28KT 1/8SM FG BKN000 BKN010TCU 13/11 RMK FG BKN000 TCU DSNT SE SH DSNT SE FG INTMT 10147 20126,KMWN,2025-08-14T17:55:00Z,44.271,-71.304,13,11,290,20,28,0.13,0.00,,,,,,,,,,FG,BKN,0,BKN,1000,,,,,LIFR,,14.7,12.6,,,,,,,,,METAR,1911
KMUO 141755Z AUTO 29014G21KT 8SM CLR 30/03 A2994 RMK AO2 SLP103 T03020032 10305 20168 50000 $,KMUO,2025-08-14T17:55:00Z,43.03,-115.859,30.2,3.2,290,14,21,8,29.94,1010.3,,TRUE,TRUE,TRUE,,,,,,CLR,,,,,,,,VFR,,30.5,16.8,,,,,,,,,METAR,915
KMUI 141755Z 01005KT 10SM VCSH SCT035 BKN090 BKN180 31/21 A2994 RMK AO2A LTG DSNT SE-SW SLP137 60000 T03060211 10313 20233 50002,KMUI,2025-08-14T17:55:00Z,40.4381,-76.5643,30.6,21.1,10,5,,10+,29.94,1013.7,,,TRUE,,,,,,VCSH,SCT,3500,BKN,9000,BKN,18000,,,VFR,0.02,31.3,23.3,,,,,0.005,,,,METAR,146
KMMT 141755Z 03005KT 7SM VCSH SCT007 BKN015 28/25 A2996 RMK AO2A CIG 007V015 SLP145 P0000 60055 T02770247 10285 20251 58001 $,KMMT,2025-08-14T17:55:00Z,33.922,-80.802,27.7,24.7,30,5,,7,29.96,1014.5,,,TRUE,TRUE,,,,,VCSH,SCT,700,BKN,1500,,,,,MVFR,-0.01,28.5,25.1,,,0.005,,,,,,METAR,76
KMKG 141755Z 09005KT 10SM SCT046 BKN060 28/17 A3006 RMK AO2 SLP176 T02830167 10283 20172 58002,KMKG,2025-08-14T17:55:00Z,43.1711,-86.2368,28.3,16.7,90,5,,10+,30.06,1017.6,,,TRUE,,,,,,,SCT,4600,BKN,6000,,,,,VFR,-0.02,28.3,17.2,,,,,,,,,METAR,190
KMIB 141755Z 33016KT 10SM SCT023 BKN140 24/18 A2972 RMK RAE49 SLP062 T02380180 10239 20202 51020,KMIB,2025-08-14T17:55:00Z,48.4062,-101.341,23.8,18,330,16,,10+,29.72,1006.2,,,,,,,,,,SCT,2300,BKN,14000,,,,,VFR,0.2,23.9,20.2,,,,,,,,,METAR,505
KMGE 141755Z 32004KT 10SM SCT033 SCT120 SCT190 30/21 A3003 RMK AO2A SLP157 T02950214 10297 20237 58004,KMGE,2025-08-14T17:55:00Z,33.9189,-84.5266,29.5,21.4,320,4,,10+,30.03,1015.7,,,TRUE,,,,,,,SCT,3300,SCT,12000,SCT,19000,,,VFR,-0.04,29.7,23.7,,,,,,,,,METAR,309
KLUF 141755Z AUTO 18006KT 10SM CLR 38/13 A2987 RMK AO2 SLP097 T03780131 10380 20310 58004 $,KLUF,2025-08-14T17:55:00Z,33.538,-112.38,37.8,13.1,180,6,,10+,29.87,1009.7,,TRUE,TRUE,TRUE,,,,,,CLR,,,,,,,,VFR,-0.04,38,31,,,,,,,,,METAR,333
KLTS 141755Z 16013G18KT 10SM CLR 35/20 A2993 RMK AO2A SLP115 T03520199 10356 20229 58010 $,KLTS,2025-08-14T17:55:00Z,34.666,-99.27,35.2,19.9,160,13,18,10+,29.93,1011.5,,,TRUE,TRUE,,,,,,CLR,,,,,,,,VFR,-0.1,35.6,22.9,,,,,,,,,METAR,416
KLSV 141755Z 00000KT 10SM CLR 37/01 A2982 RMK AO2A SLP065 T03730005 10373 20272 58003 $,KLSV,2025-08-14T17:55:00Z,36.236,-115.034,37.3,0.5,0,0,,10+,29.82,1006.5,,,TRUE,TRUE,,,,,,CLR,,,,,,,,VFR,-0.03,37.3,27.2,,,,,,,,,METAR,563
KLSF 141755Z 31007KT 270V340 10SM SCT020 BKN200 32/24 A2999 RMK SLPNO T03160239 10322 20309 $,KLSF,2025-08-14T17:55:00Z,32.3239,-84.9826,31.6,23.9,310,7,,10+,29.99,,,,,TRUE,,,,,,SCT,2000,BKN,20000,,,,,VFR,,32.2,30.9,,,,,,,,,METAR,68
KLRF 141755Z AUTO 00000KT 10SM CLR 34/21 A2997 RMK AO2 SLP147 T03390213 10344 20226 57014,KLRF,2025-08-14T17:55:00Z,34.92,-92.131,33.9,21.3,0,0,,10+,29.97,1014.7,,TRUE,TRUE,,,,,,,CLR,,,,,,,,VFR,-0.14,34.4,22.6,,,,,,,,,METAR,85
KLOR 141755Z AUTO 31005KT 10SM SCT031 BKN042 33/26 A3001 RMK AO2 SLP143 T03300255 10335 20245 57009,KLOR,2025-08-14T17:55:00Z,31.36,-85.749,33,25.5,310,5,,10+,30.01,1014.3,,TRUE,TRUE,,,,,,,SCT,3100,BKN,4200,,,,,VFR,-0.09,33.5,24.5,,,,,,,,,METAR,92
KLLJ 141755Z AUTO VRB04KT 10SM CLR 27/03 A3000 RMK AO2 SLP089 T02670028 10267 20106 58013,KLLJ,2025-08-14T17:55:00Z,44.523,-114.216,26.7,2.8,VRB,4,,10+,30.00,1008.9,,TRUE,TRUE,,,,,,,CLR,,,,,,,,VFR,-0.13,26.7,10.6,,,,,,,,,METAR,1535
KLIC 141755Z AUTO 35005KT 10SM CLR 34/06 A3005 RMK AO2 SLP081 T03390056 10339 20106 50002,KLIC,2025-08-14T17:55:00Z,39.2733,-103.667,33.9,5.6,350,5,,10+,30.05,1008.1,,TRUE,TRUE,,,,,,,CLR,,,,,,,,VFR,0.02,33.9,10.6,,,,,,,,,METAR,1635
KLHW 141755Z 25006KT 10SM BKN036 BKN045 33/25 A2996 RMK AO2A SLP148 T03270247 10328 20257 57006 $,KLHW,2025-08-14T17:55:00Z,31.8872,-81.5625,32.7,24.7,250,6,,10+,29.96,1014.8,,,TRUE,TRUE,,,,,,BKN,3600,BKN,4500,,,,,VFR,-0.06,32.8,25.7,,,,,,,,,METAR,14
KLGF 141755Z AUTO 16011KT 8SM CLR 40/14 A2980 RMK AO2 SLP086 T04020144 10402 20296 58003 $,KLGF,2025-08-14T17:55:00Z,32.868,-114.393,40.2,14.4,160,11,,8,29.80,1008.6,,TRUE,TRUE,TRUE,,,,,,CLR,,,,,,,,VFR,-0.03,40.2,29.6,,,,,,,,,METAR,118
KLFI 141755Z 04006KT 10SM FEW030 BKN130 BKN170 31/21 A2993 RMK AO2A SLP141 T03140212 10314 20262 50001 $,KLFI,2025-08-14T17:55:00Z,37.088,-76.349,31.4,21.2,40,6,,10+,29.93,1014.1,,,TRUE,TRUE,,,,,,FEW,3000,BKN,13000,BKN,17000,,,VFR,0.01,31.4,26.2,,,,,,,,,METAR,2
KLCK 141755Z AUTO 00000KT 10SM BKN046 30/19 A3003 RMK AO2 T02970192 10297 20220,KLCK,2025-08-14T17:55:00Z,39.83,-82.919,29.7,19.2,0,0,,10+,30.03,,,TRUE,TRUE,,,,,,,BKN,4600,,,,,,,VFR,,29.7,22,,,,,,,,,METAR,225
KIWA 141755Z COR 13008KT 10SM BKN120 35/14 A2994,KIWA,2025-08-14T17:55:00Z,33.3008,-111.644,35,14,130,8,,10+,29.94,,TRUE,,,,,,,,,BKN,12000,,,,,,,VFR,,,,,,,,,,,,METAR,420
KIRK 141755Z AUTO 15007KT 10SM CLR 27/19 A3003 RMK AO2 SLP166 T02720194 10272 20150 58006 $,KIRK,2025-08-14T17:55:00Z,40.0966,-92.5469,27.2,19.4,150,7,,10+,30.03,1016.6,,TRUE,TRUE,TRUE,,,,,,CLR,,,,,,,,VFR,-0.06,27.2,15,,,,,,,,,METAR,292
KIOB 141755Z AUTO 00000KT 10SM BKN002 OVC038 31/21 A3005 RMK AO2 PWINO,KIOB,2025-08-14T17:55:00Z,38.0574,-83.9829,31,21,0,0,,10+,30.05,,,TRUE,TRUE,,,,,TRUE,,BKN,200,OVC,3800,,,,,LIFR,,,,,,,,,,,,METAR,301
KINS 141755Z AUTO 00000KT 10SM CLR 35/M06 A2992 RMK AO2 SLP069 T03491060 10350 20222 58004 $,KINS,2025-08-14T17:55:00Z,36.586,-115.69,34.9,-6,0,0,,10+,29.92,1006.9,,TRUE,TRUE,TRUE,,,,,,CLR,,,,,,,,VFR,-0.04,35,22.2,,,,,,,,,METAR,954
KIAB 141755Z AUTO 20011KT 10SM CLR 32/22 A2996 RMK AO2 SLP130 T03170221 10317 20227 58008,KIAB,2025-08-14T17:55:00Z,37.622,-97.268,31.7,22.1,200,11,,10+,29.96,1013,,TRUE,TRUE,,,,,,,CLR,,,,,,,,VFR,-0.08,31.7,22.7,,,,,,,,,METAR,413
KHST 141755Z AUTO 09009KT 10SM FEW180 33/24 A3006 RMK AO2 LTG DSNT N SLP183 T03250242 10330 20280 57006 VISNO RWY24 $,KHST,2025-08-14T17:55:00Z,25.49,-80.379,32.5,24.2,90,9,,10+,30.06,1018.3,,TRUE,TRUE,TRUE,,,,,,FEW,18000,,,,,,,VFR,-0.06,33,28,,,,,,,,,METAR,1
KHRT 141755Z 33005KT 10SM SCT030 34/24 A3000 RMK AO2A LTG DSNT E SLP157 T03380243 10342 20269 58008 $,KHRT,2025-08-14T17:55:00Z,30.428,-86.69,33.8,24.3,330,5,,10+,30.00,1015.7,,,TRUE,TRUE,,,,,,SCT,3000,,,,,,,VFR,-0.08,34.2,26.9,,,,,,,,,METAR,10
KHOP 141755Z AUTO 22006KT 10SM CLR 33/23 A2998 RMK AO2 LTG DSNT N AND E SLP146 60000 T03260226 10326 20226 58012,KHOP,2025-08-14T17:55:00Z,36.672,-87.495,32.6,22.6,220,6,,10+,29.98,1014.6,,TRUE,TRUE,,,,,,,CLR,,,,,,,,VFR,-0.12,32.6,22.6,,,,,0.005,,,,METAR,170
KHMN 141755Z AUTO 23007KT 10SM CLR 33/10 A3012 RMK AO2 SLP111 T03340100 10334 20233 58007 $,KHMN,2025-08-14T17:55:00Z,32.852,-106.108,33.4,10,230,7,,10+,30.12,1011.1,,TRUE,TRUE,TRUE,,,,,,CLR,,,,,,,,VFR,-0.07,33.4,23.3,,,,,,,,,METAR,1240
KHLR 141755Z AUTO 22009KT 10SM CLR 35/21 A2997 RMK AO2 SLP136 T03480211 10349 20241 58009,KHLR,2025-08-14T17:55:00Z,31.1361,-97.7149,34.8,21.1,220,9,,10+,29.97,1013.6,,TRUE,TRUE,,,,,,,CLR,,,,,,,,VFR,-0.09,34.9,24.1,,,,,,,,,METAR,271
KHIF 141755Z 17006KT 10SM FEW200 32/01 A3003 RMK AO2A SLP087 T03230014 10323 20219 53002,KHIF,2025-08-14T17:55:00Z,41.111,-111.962,32.3,1.4,170,6,,10+,30.03,1008.7,,,TRUE,,,,,,,FEW,20000,,,,,,,VFR,0.02,32.3,21.9,,,,,,,,,METAR,1461
KHFF 141755Z AUTO 18006KT 10SM -RA FEW013 BKN065 OVC085 27/25 A2997 RMK AO2 LTG DSNT W-N RAB33 SLP148 P0001 60001 T02730251 10277 20247 58001 $,KHFF,2025-08-14T17:55:00Z,35.0424,-79.4973,27.3,25.1,180,6,,10+,29.97,1014.8,,TRUE,TRUE,TRUE,,,,,-RA,FEW,1300,BKN,6500,OVC,8500,,,VFR,-0.01,27.7,24.7,,,0.01,,0.01,,,,METAR,100
KHEY 141755Z AUTO 25004KT 10SM SCT035 BKN045 33/25 A3001 RMK AO2 SLP161 T03280250 10329 20240 57009,KHEY,2025-08-14T17:55:00Z,31.348,-85.655,32.8,25,250,4,,10+,30.01,1016.1,,TRUE,TRUE,,,,,,,SCT,3500,BKN,4500,,,,,VFR,-0.09,32.9,24,,,,,,,,,METAR,95
KGXF 141755Z AUTO 29007KT 10SM CLR 40/14 A2986 RMK AO2 SLP094 T03960139 10396 20307 58001 FZRANO $,KGXF,2025-08-14T17:55:00Z,32.885,-112.721,39.6,13.9,290,7,,10+,29.86,1009.4,,TRUE,TRUE,TRUE,,,TRUE,,,CLR,,,,,,,,VFR,-0.01,39.6,30.7,,,,,,,,,METAR,261
KGUS 141755Z AUTO 31005KT 10SM FEW200 29/16 A3003 RMK AO2 SLP166 T02880157 10288 20180 58002 $,KGUS,2025-08-14T17:55:00Z,40.6375,-86.1631,28.8,15.7,310,5,,10+,30.03,1016.6,,TRUE,TRUE,TRUE,,,,,,FEW,20000,,,,,,,VFR,-0.02,28.8,18,,,,,,,,,METAR,245
KGUR 141755Z AUTO 35012G16KT 9SM FEW310 FEW350 36/03 A2994 RMK AO2 SLP095 T03560029 10357 20149 58004,KGUR,2025-08-14T17:55:00Z,42.261,-104.732,35.6,2.9,350,12,16,9,29.94,1009.5,,TRUE,TRUE,,,,,,,FEW,31000,FEW,35000,,,,,VFR,-0.04,35.7,14.9,,,,,,,,,METAR,1341
KGTB 141755Z AUTO 02008KT 10SM FEW041 28/15 A3000 RMK AO2 SLP154 T02770147 10277 20192 50003,KGTB,2025-08-14T17:55:00Z,44.0617,-75.7218,27.7,14.7,20,8,,10+,30.00,1015.4,,TRUE,TRUE,,,,,,,FEW,4100,,,,,,,VFR,0.03,27.7,19.2,,,,,,,,,METAR,206
KGRK 141755Z AUTO 00000KT 10SM FEW260 FEW360 35/22 A2998 RMK AO2 SLP136 T03500216 10350 20234 58008,KGRK,2025-08-14T17:55:00Z,31.0779,-97.8323,35,21.6,0,0,,10+,29.98,1013.6,,TRUE,TRUE,,,,,,,FEW,26000,FEW,36000,,,,,VFR,-0.08,35,23.4,,,,,,,,,METAR,311
KGPI 141755Z VRB03KT 10SM FU CLR 24/06 A2989 RMK AO2 SLP103 T02440056 10250 20100 50001,KGPI,2025-08-14T17:55:00Z,48.3041,-114.264,24.4,5.6,VRB,3,,10+,29.89,1010.3,,,TRUE,,,,,,FU,CLR,,,,,,,,VFR,0.01,25,10,,,,,,,,,METAR,903
KGOV 141755Z AUTO 13007KT 10SM FEW065 28/12 A3009 RMK AO2 SLP192 T02770121 10277 20122 57006 $,KGOV,2025-08-14T17:55:00Z,44.681,-84.727,27.7,12.1,130,7,,10+,30.09,1019.2,,TRUE,TRUE,TRUE,,,,,,FEW,6500,,,,,,,VFR,-0.06,27.7,12.2,,,,,,,,,METAR,350
KGEU 141755Z 09005KT 10SM CLR 37/13 A2985,KGEU,2025-08-14T17:55:00Z,33.528,-112.293,37,13,90,5,,10+,29.85,,,,,,,,,,,CLR,,,,,,,,VFR,,,,,,,,,,,,METAR,319
KFTK 141755Z AUTO 00000KT 10SM CLR 32/21 A2999 RMK AO2 SLP149 60013 T03160214 10316 20220 58008 $,KFTK,2025-08-14T17:55:00Z,37.907,-85.973,31.6,21.4,0,0,,10+,29.99,1014.9,,TRUE,TRUE,TRUE,,,,,,CLR,,,,,,,,VFR,-0.08,31.6,22,,,,,0.13,,,,METAR,225
KFSI 141755Z 17009KT 10SM CLR 35/19 A2992 RMK AO2 SLP120 T03470187 10347 20228 58010 $,KFSI,2025-08-14T17:55:00Z,34.6457,-98.404,34.7,18.7,170,9,,10+,29.92,1012,,,TRUE,TRUE,,,,,,CLR,,,,,,,,VFR,-0.1,34.7,22.8,,,,,,,,,METAR,360
KFRI 141755Z AUTO 19014KT 10SM CLR 32/21 A2994 RMK AO2 SLP126 T03190208 10323 20215 57009 $,KFRI,2025-08-14T17:55:00Z,39.0568,-96.7617,31.9,20.8,190,14,,10+,29.94,1012.6,,TRUE,TRUE,TRUE,,,,,,CLR,,,,,,,,VFR,-0.09,32.3,21.5,,,,,,,,,METAR,232
KFHU 141755Z AUTO 00000KT 10SM FEW130 29/11 A3019 RMK AO2 SLP150 T02880114 10292 20230 50001 $,KFHU,2025-08-14T17:55:00Z,31.586,-110.348,28.8,11.4,0,0,,10+,30.19,1015,,TRUE,TRUE,TRUE,,,,,,FEW,13000,,,,,,,VFR,0.01,29.2,23,,,,,,,,,METAR,1424
KFFO 141755Z 00000KT 10SM SCT040 30/20 A3002 RMK AO2A SLP160 T03020198 10302 20212 58005,KFFO,2025-08-14T17:55:00Z,39.837,-84.035,30.2,19.8,0,0,,10+,30.02,1016,,,TRUE,,,,,,,SCT,4000,,,,,,,VFR,-0.05,30.2,21.2,,,,,,,,,METAR,250
KFEW 141755Z AUTO 35008G15KT 10SM CLR 32/01 A3011 RMK AO2 SLP096 T03200011 10325 20138 50001 $,KFEW,2025-08-14T17:55:00Z,41.141,-104.869,32,1.1,350,8,15,10+,30.11,1009.6,,TRUE,TRUE,TRUE,,,,,,CLR,,,,,,,,VFR,0.01,32.5,13.8,,,,,,,,,METAR,1877
KFBG 141755Z 19003KT 10SM FEW019 OVC085 28/24 A2998 RMK AO2A SLP153 60000 T02810236 10293 20267 58001 RVRNO $,KFBG,2025-08-14T17:55:00Z,35.131,-78.932,28.1,23.6,190,3,,10+,29.98,1015.3,,,TRUE,TRUE,,,,,,FEW,1900,OVC,8500,,,,,VFR,-0.01,29.3,26.7,,,,,0.005,,,,METAR,69
KFAF 141755Z 28003KT 10SM SCT030 BKN180 30/24 A2991 RMK AO2A SLP132 T02980237 10302 20254 50002 $,KFAF,2025-08-14T17:55:00Z,37.134,-76.61,29.8,23.7,280,3,,10+,29.91,1013.2,,,TRUE,TRUE,,,,,,SCT,3000,BKN,18000,,,,,VFR,0.02,30.2,25.4,,,,,,,,,METAR,3
KEGI 141755Z AUTO 30006KT 10SM CLR 34/23 A3001 RMK AO2 SLP161 T03380228 10341 20251 58009 $,KEGI,2025-08-14T17:55:00Z,30.653,-86.525,33.8,22.8,300,6,,10+,30.01,1016.1,,TRUE,TRUE,TRUE,,,,,,CLR,,,,,,,,VFR,-0.09,34.1,25.1,,,,,,,,,METAR,59
KEDW 141755Z 25018G25KT 70SM CLR 35/M06 A2988 RMK AO2A PK WND 27030/19 SLP086 T03491060 10349 20230 55006,KEDW,2025-08-14T17:55:00Z,34.908,-117.874,34.9,-6,250,18,25,70,29.88,1008.6,,,TRUE,,,,,,,CLR,,,,,,,,VFR,-0.06,34.9,23,,,,,,,,,METAR,698
KEAT 141755Z AUTO VRB06KT 10SM CLR 26/09 A2990 RMK AO2 SLP115 T02610089 10261 20189 58003,KEAT,2025-08-14T17:55:00Z,47.3975,-120.201,26.1,8.9,VRB,6,,10+,29.90,1011.5,,TRUE,TRUE,,,,,,,CLR,,,,,,,,VFR,-0.03,26.1,18.9,,,,,,,,,METAR,375
KDYS 141755Z AUTO 00000KT 10SM CLR 36/16 A2995 RMK AO2 SLP111 60000 T03620163 10362 20233 58011,KDYS,2025-08-14T17:55:00Z,32.406,-99.85,36.2,16.3,0,0,,10+,29.95,1011.1,,TRUE,TRUE,,,,,,,CLR,,,,,,,,VFR,-0.11,36.2,23.3,,,,,0.005,,,,METAR,544
KDOV 141755Z 10004KT 10SM FEW180 FEW220 30/24 A2991 RMK AO2A DZB30E31 SLP132 P0000 60007 T03010237 10303 20240 52004,KDOV,2025-08-14T17:55:00Z,39.13,-75.465,30.1,23.7,100,4,,10+,29.91,1013.2,,,TRUE,,,,,,,FEW,18000,FEW,22000,,,,,VFR,0.04,30.3,24,,,0.005,,0.07,,,,METAR,6
KDMA 141755Z 26004KT 10SM BKN130 BKN150 33/11 A3003 RMK AO2A SLP163 T03300109 10330 20257 58002 $,KDMA,2025-08-14T17:55:00Z,32.165,-110.887,33,10.9,260,4,,10+,30.03,1016.3,,,TRUE,TRUE,,,,,,BKN,13000,BKN,15000,,,,,VFR,-0.02,33,25.7,,,,,,,,,METAR,804
KDLH 141755Z 13011KT 10SM SCT040 SCT100 21/16 A2997 RMK AO2 SLP149 6//// T02110156 10222 20150 58006,KDLH,2025-08-14T17:55:00Z,46.8435,-92.1866,21.1,15.6,130,11,,10+,29.97,1014.9,,,TRUE,,,,,,,SCT,4000,SCT,10000,,,,,VFR,-0.06,22.2,15,,,,,,,,,METAR,434
KDLF 141755Z AUTO 13008KT 10SM CLR 36/21 A2992 RMK AO2 SLP116 T03560207 10363 20265 58009 $,KDLF,2025-08-14T17:55:00Z,29.3666,-100.785,35.6,20.7,130,8,,10+,29.92,1011.6,,TRUE,TRUE,TRUE,,,,,,CLR,,,,,,,,VFR,-0.09,36.3,26.5,,,,,,,,,METAR,328
KDAA 141755Z AUTO 28008KT 10SM FEW039 SCT075 SCT210 33/23 A2991 RMK AO2 LTG DSNT NE-E SLP131 T03260229 10326 20236 50000 $,KDAA,2025-08-14T17:55:00Z,38.714,-77.178,32.6,22.9,280,8,,10+,29.91,1013.1,,TRUE,TRUE,TRUE,,,,,,FEW,3900,SCT,7500,SCT,21000,,,VFR,,32.6,23.6,,,,,,,,,METAR,17
KCWN 141755Z AUTO 09003KT 10SM BKN140 30/04 A3017 RMK AO2 SLPNO T02950042 10323 20252 51004 $,KCWN,2025-08-14T17:55:00Z,38.748,-104.847,29.5,4.2,90,3,,10+,30.17,,,TRUE,TRUE,TRUE,,,,,,BKN,14000,,,,,,,VFR,0.04,32.3,25.2,,,,,,,,,METAR,2040
KCVS 141755Z AUTO 26010KT 10SM FEW220 34/09 A3004 RMK AO2 SLP094 T03420087 10342 20187 58005 $,KCVS,2025-08-14T17:55:00Z,34.381,-103.322,34.2,8.7,260,10,,10+,30.04,1009.4,,TRUE,TRUE,TRUE,,,,,,FEW,22000,,,,,,,VFR,-0.05,34.2,18.7,,,,,,,,,METAR,1305
KCOF 141755Z AUTO 09008KT 10SM FEW180 33/25 A3003 RMK AO2 SLP174 T03270249 10329 20277 57003 $,KCOF,2025-08-14T17:55:00Z,28.242,-80.608,32.7,24.9,90,8,,10+,30.03,1017.4,,TRUE,TRUE,TRUE,,,,,,FEW,18000,,,,,,,VFR,-0.03,32.9,27.7,,,,,,,,,METAR,1
KCNW 141755Z 16005KT 10SM CLR 34/22 A2997,KCNW,2025-08-14T17:55:00Z,31.637,-97.071,34,22,160,5,,10+,29.97,,,,,,,,,,,CLR,,,,,,,,VFR,,,,,,,,,,,,METAR,139
KCNK 141755Z AUTO 16016G25KT 10SM CLR 33/19 A2992 RMK AO2 PK WND 17026/1728 SLP113 T03280194 10328 20200 58007 $,KCNK,2025-08-14T17:55:00Z,39.5513,-97.6508,32.8,19.4,160,16,25,10+,29.92,1011.3,,TRUE,TRUE,TRUE,,,,,,CLR,,,,,,,,VFR,-0.07,32.8,20,,,,,,,,,METAR,445
KCMY 141755Z AUTO 17003KT 10SM FEW340 29/17 A3000 RMK AO2 SLP159 T02860174 10286 20117 58004,KCMY,2025-08-14T17:55:00Z,43.9581,-90.7398,28.6,17.4,170,3,,10+,30.00,1015.9,,TRUE,TRUE,,,,,,,FEW,34000,,,,,,,VFR,-0.04,28.6,11.7,,,,,,,,,METAR,253
KCMA 141755Z 30006KT 10SM SCT019 21/15 A2994 RMK AO2 SLP147 T02060150 10211 20150 58001,KCMA,2025-08-14T17:55:00Z,34.2114,-119.088,20.6,15,300,6,,10+,29.94,1014.7,,,TRUE,,,,,,,SCT,1900,,,,,,,VFR,-0.01,21.1,15,,,,,,,,,METAR,20
KCEF 141755Z 02006KT 10SM SCT042 SCT110 31/20 A2987 RMK AO2A CB DSNT NW SLP117 T03140203 10317 20221 56006,KCEF,2025-08-14T17:55:00Z,42.201,-72.525,31.4,20.3,20,6,,10+,29.87,1011.7,,,TRUE,,,,,,,SCT,4200,SCT,11000,,,,,VFR,-0.06,31.7,22.1,,,,,,,,,METAR,72
KCBM 141755Z 00000KT 10SM SCT030 32/24 A2997 RMK AO2A SLP149 T03240241 10324 20234 58009 $,KCBM,2025-08-14T17:55:00Z,33.6519,-88.4567,32.4,24.1,0,0,,10+,29.97,1014.9,,,TRUE,TRUE,,,,,,SCT,3000,,,,,,,VFR,-0.09,32.4,23.4,,,,,,,,,METAR,59
KCBK 141755Z AUTO 17013KT 10SM CLR 31/18 A2993 RMK AO2 T03080181 10312 20201,KCBK,2025-08-14T17:55:00Z,39.4301,-101.051,30.8,18.1,170,13,,10+,29.93,,,TRUE,TRUE,,,,,,,CLR,,,,,,,,VFR,,31.2,20.1,,,,,,,,,METAR,970
KCAO 141755Z AUTO 17013KT 10SM CLR 34/08 A3005 RMK AO2 SLP094 T03440078 10344 20156 58003,KCAO,2025-08-14T17:55:00Z,36.4483,-103.154,34.4,7.8,170,13,,10+,30.05,1009.4,,TRUE,TRUE,,,,,,,CLR,,,,,,,,VFR,-0.03,34.4,15.6,,,,,,,,,METAR,1517
KBYS 141755Z AUTO 18008KT 10SM CLR 33/02 A2990 RMK AO2 SLP091 T03330022 10335 20206 50000 $,KBYS,2025-08-14T17:55:00Z,35.271,-116.634,33.3,2.2,180,8,,10+,29.90,1009.1,,TRUE,TRUE,TRUE,,,,,,CLR,,,,,,,,VFR,,33.5,20.6,,,,,,,,,METAR,717
KBLV 141755Z AUTO 16005KT 10SM CLR 32/23 A2999 RMK AO2 SLP154 T03210230 10321 20219 58002,KBLV,2025-08-14T17:55:00Z,38.54,-89.845,32.1,23,160,5,,10+,29.99,1015.4,,TRUE,TRUE,,,,,,,CLR,,,,,,,,VFR,-0.02,32.1,21.9,,,,,,,,,METAR,134
KBKT 141755Z AUTO 25005KT 10SM SCT031 SCT041 31/24 A2996 RMK AO2 SLP144 T03080239 10317 20241 51001,KBKT,2025-08-14T17:55:00Z,37.082,-77.953,30.8,23.9,250,5,,10+,29.96,1014.4,,TRUE,TRUE,,,,,,,SCT,3100,SCT,4100,,,,,VFR,0.01,31.7,24.1,,,,,,,,,METAR,134
KBIX 141755Z AUTO 23009KT 10SM CLR 33/25 A3000 RMK AO2 SLP162 T03270247 10334 20250 58006,KBIX,2025-08-14T17:55:00Z,30.415,-88.922,32.7,24.7,230,9,,10+,30.00,1016.2,,TRUE,TRUE,,,,,,,CLR,,,,,,,,VFR,-0.06,33.4,25,,,,,,,,,METAR,4
KBIF 141755Z AUTO M 10SM CLR 33/12 A3009 RMK AO2 SLP111 T03250121 10326 20251 58005 $,KBIF,2025-08-14T17:55:00Z,31.861,-106.369,32.5,12.1,,,,10+,30.09,1011.1,,TRUE,TRUE,TRUE,,,,,,CLR,,,,,,,,VFR,-0.05,32.6,25.1,,,,,,,,,METAR,1201
KBAB 141755Z AUTO 19004KT 10SM CLR 24/15 A2991 RMK AO2 SLP131 T02400149 10240 20145 58004 $,KBAB,2025-08-14T17:55:00Z,39.145,-121.436,24,14.9,190,4,,10+,29.91,1013.1,,TRUE,TRUE,TRUE,,,,,,CLR,,,,,,,,VFR,-0.04,24,14.5,,,,,,,,,METAR,31
KAST 141755Z AUTO 24007KT 10SM OVC032 18/12 A3006 RMK AO2 SLP178 T01830122 10194 20156 51001 $,KAST,2025-08-14T17:55:00Z,46.157,-123.883,18.3,12.2,240,7,,10+,30.06,1017.8,,TRUE,TRUE,TRUE,,,,,,OVC,3200,,,,,,,VFR,0.01,19.4,15.6,,,,,,,,,METAR,3
KANJ 141755Z AUTO 00000KT 10SM SCT037 BKN050 23/14 A3009 RMK AO2 SLP188 T02330144 10233 20150 56006,KANJ,2025-08-14T17:55:00Z,46.48,-84.3581,23.3,14.4,0,0,,10+,30.09,1018.8,,TRUE,TRUE,,,,,,,SCT,3700,BKN,5000,,,,,VFR,-0.06,23.3,15,,,,,,,,,METAR,220
KAFF 141755Z 16004KT 10SM FEW150 BKN220 33/M06 A3014 RMK AO2A SLP095 T03291057 10329 20139 50000,KAFF,2025-08-14T17:55:00Z,38.971,-104.816,32.9,-5.7,160,4,,10+,30.14,1009.5,,,TRUE,,,,,,,FEW,15000,BKN,22000,,,,,VFR,,32.9,13.9,,,,,,,,,METAR,2003
KADW 141755Z 03012KT 10SM -TSRA BKN036 27/23 A2992 RMK SLP136 T02650233 10328 20253 51003 FZRANO TSNO $,KADW,2025-08-14T17:55:00Z,38.8215,-76.8654,26.5,23.3,30,12,,10+,29.92,1013.6,,,,TRUE,,TRUE,TRUE,,-TSRA,BKN,3600,,,,,,,VFR,0.03,32.8,25.3,,,,,,,,,METAR,87
KAAT 141755Z AUTO 28004KT 10SM CLR 26/06 A3008 RMK AO2 SLP135 T02560056 10256 20094 58007,KAAT,2025-08-14T17:55:00Z,41.4836,-120.561,25.6,5.6,280,4,,10+,30.08,1013.5,,TRUE,TRUE,,,,,,,CLR,,,,,,,,VFR,-0.07,25.6,9.4,,,,,,,,,METAR,1336
K9L2 141755Z AUTO 21013G19KT 7SM CLR 36/03 A2987 RMK AO2 SLP083 T03590031 10360 20220 55008,K9L2,2025-08-14T17:55:00Z,34.996,-117.857,35.9,3.1,210,13,19,7,29.87,1008.3,,TRUE,TRUE,,,,,,,CLR,,,,,,,,VFR,-0.08,36,22,,,,,,,,,METAR,697
K4MR 141755Z AUTO 24008KT 10SM CLR 34/10 A3002 RMK AO2 SLP060 T03420101 10342 20218 58004 $,K4MR,2025-08-14T17:55:00Z,34.29,-103.791,34.2,10.1,240,8,,10+,30.02,1006,,TRUE,TRUE,TRUE,,,,,,CLR,,,,,,,,VFR,-0.04,34.2,21.8,,,,,,,,,METAR,1339
K1YT 141755Z AUTO 00000KT 10SM CLR 25/10 A2988 RMK AO2 SLP113 T02490096 10249 20146 58003 $,K1YT,2025-08-14T17:55:00Z,46.668,-120.457,24.9,9.6,0,0,,10+,29.88,1011.3,,TRUE,TRUE,TRUE,,,,,,CLR,,,,,,,,VFR,-0.03,24.9,14.6,,,,,,,,,METAR,423
K1OW 141755Z AUTO 33011G16KT 10SM CLR 33/04 A3015 RMK AO2 SLP115 T03330041 10335 20177 51005 $,K1OW,2025-08-14T17:55:00Z,40.885,-103.999,33.3,4.1,330,11,16,10+,30.15,1011.5,,TRUE,TRUE,TRUE,,,,,,CLR,,,,,,,,VFR,0.05,33.5,17.7,,,,,,,,,METAR,1650
K1OM 141755Z AUTO 27011KT 10SM CLR 22/13 A2992 RMK AO2 SLP111 T02150134 10215 20141 58002 $,K1OM,2025-08-14T17:55:00Z,47.328,-108.927,21.5,13.4,270,11,,10+,29.92,1011.1,,TRUE,TRUE,TRUE,,,,,,CLR,,,,,,,,VFR,-0.02,21.5,14.1,,,,,,,,,METAR,1088
K1NW 141755Z AUTO 36007G18KT 10SM CLR 35/04 A2996 RMK AO2 SLP062 T03490044 10351 20186 50002 $,K1NW,2025-08-14T17:55:00Z,40.632,-103.836,34.9,4.4,360,7,18,10+,29.96,1006.2,,TRUE,TRUE,TRUE,,,,,,CLR,,,,,,,,VFR,0.02,35.1,18.6,,,,,,,,,METAR,1461
K1NN 141755Z AUTO 31010G18KT 10SM FEW170 22/10 A2976 RMK AO2 SLP078 T02230101 10231 20192 52020 $,K1NN,2025-08-14T17:55:00Z,48.76,-101.59,22.3,10.1,310,10,18,10+,29.76,1007.8,,TRUE,TRUE,TRUE,,,,,,FEW,17000,,,,,,,VFR,0.2,23.1,19.2,,,,,,,,,METAR,516
K1NM 141755Z AUTO 27005KT 10SM CLR 21/13 A2993 RMK AO2 SLP110 T02060131 10206 20143 55005 $,K1NM,2025-08-14T17:55:00Z,47.059,-109.031,20.6,13.1,270,5,,10+,29.93,1011,,TRUE,TRUE,TRUE,,,,,,CLR,,,,,,,,VFR,-0.05,20.6,14.3,,,,,,,,,METAR,1169
K1MW 141755Z AUTO 02007KT 10SM CLR 36/10 A2994 RMK AO2 SLP064 T03560099 10369 20149 50001 $,K1MW,2025-08-14T17:55:00Z,40.704,-103.477,35.6,9.9,20,7,,10+,29.94,1006.4,,TRUE,TRUE,TRUE,,,,,,CLR,,,,,,,,VFR,0.01,36.9,14.9,,,,,,,,,METAR,1338
K1MN 141755Z AUTO 31012KT 10SM CLR 21/16 A2977 RMK AO2 SLP080 T02070157 10219 20179 52020 $,K1MN,2025-08-14T17:55:00Z,48.67,-101.88,20.7,15.7,310,12,,10+,29.77,1008,,TRUE,TRUE,TRUE,,,,,,CLR,,,,,,,,VFR,0.2,21.9,17.9,,,,,,,,,METAR,569
K1LN 141755Z AUTO 33015KT 10SM CLR 22/15 A2979 RMK AO2 SLP085 T02210154 10221 20173 52021 $,K1LN,2025-08-14T17:55:00Z,48.79,-102.27,22.1,15.4,330,15,,10+,29.79,1008.5,,TRUE,TRUE,TRUE,,,,,,CLR,,,,,,,,VFR,0.21,22.1,17.3,,,,,,,,,METAR,601
K1KW 141755Z AUTO 35012KT 10SM CLR 35/05 A2996 RMK AO2 SLP064 T03450050 10345 20156 50006 $,K1KW,2025-08-14T17:55:00Z,41.137,-103.488,34.5,5,350,12,,10+,29.96,1006.4,,TRUE,TRUE,TRUE,,,,,,CLR,,,,,,,,VFR,0.06,34.5,15.6,,,,,,,,,METAR,1443
K1KN 141755Z AUTO 31010KT 10SM BKN160 OVC180 19/16 A2980 RMK AO2 SLP086 T01940156 10207 20176 52021 $,K1KN,2025-08-14T17:55:00Z,48.55,-102.12,19.4,15.6,310,10,,10+,29.80,1008.6,,TRUE,TRUE,TRUE,,,,,,BKN,16000,OVC,18000,,,,,VFR,0.21,20.7,17.6,,,,,,,,,METAR,693
K1KM 141755Z AUTO 19010KT 10SM CLR 25/11 A2994 RMK AO2 SLP089 T02510105 10253 20143 58002 $,K1KM,2025-08-14T17:55:00Z,46.444,-109.801,25.1,10.5,190,10,,10+,29.94,1008.9,,TRUE,TRUE,TRUE,,,,,,CLR,,,,,,,,VFR,-0.02,25.3,14.3,,,,,,,,,METAR,1332
K1JW 141755Z AUTO 01006KT 10SM CLR 33/12 A2994 RMK AO2 SLP061 T03340124 10334 20159 51005 $,K1JW,2025-08-14T17:55:00Z,40.961,-103.199,33.4,12.4,10,6,,10+,29.94,1006.1,,TRUE,TRUE,TRUE,,,,,,CLR,,,,,,,,VFR,0.05,33.4,15.9,,,,,,,,,METAR,1382
K1JN 141755Z AUTO 30012KT 10SM OVC160 20/15 A2980 RMK AO2 SLP087 T02020154 10228 20186 52026 $,K1JN,2025-08-14T17:55:00Z,48.41,-101.89,20.2,15.4,300,12,,10+,29.80,1008.7,,TRUE,TRUE,TRUE,,,,,,OVC,16000,,,,,,,VFR,0.26,22.8,18.6,,,,,,,,,METAR,670
K1JM 141755Z AUTO 00000KT 10SM M 17/11 A2994 RMK AO2 SLP126 T01730111 10175 20135 57011 $,K1JM,2025-08-14T17:55:00Z,47.751,-111.547,17.3,11.1,0,0,,10+,29.94,1012.6,,TRUE,TRUE,TRUE,,,,,,,,,,,,,,VFR,-0.11,17.5,13.5,,,,,,,,,METAR,1154
K1IN 141755Z AUTO 33011KT 10SM BKN160 20/15 A2979 RMK AO2 SLP084 T02040154 10219 20181 52024 PWINO $,K1IN,2025-08-14T17:55:00Z,48.34,-102.3,20.4,15.4,330,11,,10+,29.79,1008.4,,TRUE,TRUE,TRUE,,,,TRUE,,BKN,16000,,,,,,,VFR,0.24,21.9,18.1,,,,,,,,,METAR,678
K1HW 141755Z AUTO 35010KT 10SM CLR 34/10 A2990 RMK AO2 SLP061 T03350101 10335 20129 50006 $,K1HW,2025-08-14T17:55:00Z,41.325,-102.83,33.5,10.1,350,10,,10+,29.90,1006.1,,TRUE,TRUE,TRUE,,,,,,CLR,,,,,,,,VFR,0.06,33.5,12.9,,,,,,,,,METAR,1265
K1HM 141755Z AUTO 15004KT 10SM SCT025 19/12 A2993 RMK AO2 SLP114 T01920115 10192 20131 57013 $,K1HM,2025-08-14T17:55:00Z,47.698,-111.943,19.2,11.5,150,4,,10+,29.93,1011.4,,TRUE,TRUE,TRUE,,,,,,SCT,2500,,,,,,,VFR,-0.13,19.2,13.1,,,,,,,,,METAR,1181
K1GW 141755Z AUTO 05010KT 10SM CLR 34/07 A2997 RMK AO2 SLP083 T03440074 10344 20128 50004 $,K1GW,2025-08-14T17:55:00Z,41.208,-103.097,34.4,7.4,50,10,,10+,29.97,1008.3,,TRUE,TRUE,TRUE,,,,,,CLR,,,,,,,,VFR,0.04,34.4,12.8,,,,,,,,,METAR,1335
K1GM 141755Z AUTO 35005KT 10SM CLR 20/12 A2990 RMK AO2 SLP091 T02020124 10202 20133 57015 $,K1GM,2025-08-14T17:55:00Z,47.325,-112.093,20.2,12.4,350,5,,10+,29.90,1009.1,,TRUE,TRUE,TRUE,,,,,,CLR,,,,,,,,VFR,-0.15,20.2,13.3,,,,,,,,,METAR,1317
K1EW 141755Z AUTO 36010KT 10SM CLR 33/05 A3001 RMK AO2 SLP079 T03320048 10332 20171 50004 $,K1EW,2025-08-14T17:55:00Z,41.103,-103.983,33.2,4.8,360,10,,10+,30.01,1007.9,,TRUE,TRUE,TRUE,,,,,,CLR,,,,,,,,VFR,0.04,33.2,17.1,,,,,,,,,METAR,1609
K1EM 141755Z AUTO 29007KT 10SM CLR 20/11 A2994 RMK AO2 SLP111 T02040113 10204 20128 57006 $,K1EM,2025-08-14T17:55:00Z,47.454,-109.416,20.4,11.3,290,7,,10+,29.94,1011.1,,TRUE,TRUE,TRUE,,,,,,CLR,,,,,,,,VFR,-0.06,20.4,12.8,,,,,,,,,METAR,1118
K1CW 141755Z AUTO 32010KT 10SM CLR 33/07 A2996 RMK AO2 SLP078 T03320072 10332 20149 50002 PWINO $,K1CW,2025-08-14T17:55:00Z,41.581,-103.573,33.2,7.2,320,10,,10+,29.96,1007.8,,TRUE,TRUE,TRUE,,,,TRUE,,CLR,,,,,,,,VFR,0.02,33.2,14.9,,,,,,,,,METAR,1370
K1CM 141755Z AUTO 00000KT 10SM CLR 21/11 M RMK AO2 SLPNO T02050114 10206 20127 $,K1CM,2025-08-14T17:55:00Z,47.096,-110.164,20.5,11.4,0,0,,10+,0.00,,,TRUE,TRUE,TRUE,,,,,,CLR,,,,,,,,VFR,,20.6,12.7,,,,,,,,,METAR,1338
K1BW 141755Z AUTO 35012KT 10SM CLR 32/05 A3005 RMK AO2 SLP097 T03240050 10324 20155 50004 $,K1BW,2025-08-14T17:55:00Z,41.511,-103.995,32.4,5,350,12,,10+,30.05,1009.7,,TRUE,TRUE,TRUE,,,,,,CLR,,,,,,,,VFR,0.04,32.4,15.5,,,,,,,,,METAR,1606
K1BM 141755Z AUTO 35003KT 10SM FEW030 21/12 M RMK AO2 SLPNO T02070121 10213 20135 $,K1BM,2025-08-14T17:55:00Z,47.285,-110.359,20.7,12.1,350,3,,10+,0.00,,,TRUE,TRUE,TRUE,,,,,,FEW,3000,,,,,,,VFR,,21.3,13.5,,,,,,,,,METAR,1234
K1AW 141755Z AUTO 32013KT 10SM CLR 33/04 A3005 RMK AO2 SLP091 T03290037 10329 20183 50002 $,K1AW,2025-08-14T17:55:00Z,41.329,-104.265,32.9,3.7,320,13,,10+,30.05,1009.1,,TRUE,TRUE,TRUE,,,,,,CLR,,,,,,,,VFR,0.02,32.9,18.3,,,,,,,,,METAR,1670
K1AM 141755Z AUTO 04004KT 10SM CLR 20/12 M RMK AO2 SLPNO T01960121 10196 20138 $,K1AM,2025-08-14T17:55:00Z,47.281,-110.801,19.6,12.1,40,4,,10+,0.00,,,TRUE,TRUE,TRUE,,,,,,CLR,,,,,,,,VFR,,19.6,13.8,,,,,,,,,METAR,1228
FJDG 141755Z 11011KT 9000 BR SCT019 BKN050 BKN090 26/23 A2987 RMK SLP112 8/870 T02610233 10261 20256 402670239 51010,FJDG,2025-08-14T17:55:00Z,-7.313,72.411,26.1,23.3,110,11,,5.59,29.87,1011.2,,,,,,,,,BR,SCT,1900,BKN,5000,BKN,9000,,,VFR,0.1,26.1,25.6,,,,,,,,,METAR,3
ETOU 141755Z AUTO 00000KT 9999 CLR 33/14 A3003 RMK AO2 SLP168 T03320138 10349 20329 55003,ETOU,2025-08-14T17:55:00Z,50.048,8.329,33.2,13.8,0,0,,6+,30.03,1016.8,,TRUE,TRUE,,,,,,,CLR,,,,,,,,VFR,-0.03,34.9,32.9,,,,,,,,,METAR,141
ETIK 141755Z AUTO 00000KT 9999 CLR 31/16 A3006 RMK AO2 SLP174 T03100158 10345 20310 55001,ETIK,2025-08-14T17:55:00Z,49.472,10.39,31,15.8,0,0,,6+,30.06,1017.4,,TRUE,TRUE,,,,,,,CLR,,,,,,,,VFR,-0.01,34.5,31,,,,,,,,,METAR,326
ETIH 141755Z AUTO 27003KT 9999 CLR 29/16 A3008 RMK AO2 SLP179 T02920164 10338 20291 53001,ETIH,2025-08-14T17:55:00Z,49.216,11.839,29.2,16.4,270,3,,6+,30.08,1017.9,,TRUE,TRUE,,,,,,,CLR,,,,,,,,VFR,0.01,33.8,29.1,,,,,,,,,METAR,436
ETIC 141755Z AUTO 00000KT 9999 CLR 31/17 A3005 RMK AO2 SLP171 T03050168 10359 20305 55002,ETIC,2025-08-14T17:55:00Z,49.696,11.941,30.5,16.8,0,0,,6+,30.05,1017.1,,TRUE,TRUE,,,,,,,CLR,,,,,,,,VFR,-0.02,35.9,30.5,,,,,,,,,METAR,414
ETEB 141755Z 05001KT 9999 CLR 32/14 A3009 RMK AO2A SLP172 T03150136 10338 20295 55000 PWINO $,ETEB,2025-08-14T17:55:00Z,49.308,10.639,31.5,13.6,50,1,,6+,30.09,1017.2,,,TRUE,TRUE,,,,TRUE,,CLR,,,,,,,,VFR,,33.8,29.5,,,,,,,,,METAR,466
ETAR 141755Z AUTO 00000KT 9999 CLR 32/16 A3002 RMK AO2 SLP164 60000 T03210164 10351 20321 53001,ETAR,2025-08-14T17:55:00Z,49.437,7.6,32.1,16.4,0,0,,6+,30.02,1016.4,,TRUE,TRUE,,,,,,,CLR,,,,,,,,VFR,0.01,35.1,32.1,,,,,0.005,,,,METAR,231
ETAD 141755Z AUTO 31003KT 9999 CLR 30/16 A3007 RMK AO2 SLP166 60000 T03020155 10321 20288 55001,ETAD,2025-08-14T17:55:00Z,49.979,6.698,30.2,15.5,310,3,,6+,30.07,1016.6,,TRUE,TRUE,,,,,,,CLR,,,,,,,,VFR,-0.01,32.1,28.8,,,,,0.005,,,,METAR,365
EGVA 141755Z AUTO 27015KT 9999 CLR 24/15 A3011 RMK AO2 SLP199 T02350145 10265 20230 52012 $,EGVA,2025-08-14T17:55:00Z,51.682,-1.79,23.5,14.5,270,15,,6+,30.11,1019.9,,TRUE,TRUE,TRUE,,,,,,CLR,,,,,,,,VFR,0.12,26.5,23,,,,,,,,,METAR,84
EGUN 141755Z 25005KT 9999 BKN075 26/13 A3006 RMK AO2A SLP182 T02620130 10278 20252 53004 $,EGUN,2025-08-14T17:55:00Z,52.362,0.486,26.2,13,250,5,,6+,30.06,1018.2,,,TRUE,TRUE,,,,,,BKN,7500,,,,,,,VFR,0.04,27.8,25.2,,,,,,,,,METAR,10
EGUL 141755Z AUTO 24006KT 9999 SCT075 27/13 A3005 RMK AO2 VIS 2800 RWY05 SLP179 60000 T02660126 10299 20236 53003 FZRANO $,EGUL,2025-08-14T17:55:00Z,52.409,0.561,26.6,12.6,240,6,,6+,30.05,1017.9,,TRUE,TRUE,TRUE,,,TRUE,,,SCT,7500,,,,,,,VFR,0.03,29.9,23.6,,,,,0.005,,,,METAR,8
BGTL 141755Z AUTO 30004KT 9999 OVC085 05/01 A2982 RMK AO2 SLP080 T00460006 10048 20036 57027 TSNO $,BGTL,2025-08-14T17:55:00Z,76.527,-68.758,4.6,0.6,300,4,,6+,29.82,1008,,TRUE,TRUE,TRUE,,TRUE,,,,OVC,8500,,,,,,,VFR,-0.27,4.8,3.6,,,,,,,,,METAR,79
PHOG 141754Z 01008KT 10SM FEW035 SCT055 27/19 A3002 RMK AO2 SLP171 T02670194 10267 20239 50007 $,PHOG,2025-08-14T17:54:00Z,20.8887,-156.435,26.7,19.4,10,8,,10+,30.02,1017.1,,,TRUE,TRUE,,,,,,FEW,3500,SCT,5500,,,,,VFR,0.07,26.7,23.9,,,,,,,,,METAR,14
PHMK 141754Z 03007KT 10SM CLR 26/21 A3004 RMK AO2 SLP175 60000 T02560206 10256 20217 52005 $,PHMK,2025-08-14T17:54:00Z,21.1545,-157.096,25.6,20.6,30,7,,10+,30.04,1017.5,,,TRUE,TRUE,,,,,,CLR,,,,,,,,VFR,0.05,25.6,21.7,,,,,0.005,,,,METAR,135
PGUM 141754Z 07004KT 10SM CLR 26/23 A2983 RMK AO2 SLP091 T02610233 10267 20250 56013,PGUM,2025-08-14T17:54:00Z,13.4796,144.796,26.1,23.3,70,4,,10+,29.83,1009.1,,,TRUE,,,,,,,CLR,,,,,,,,VFR,-0.13,26.7,25,,,,,,,,,METAR,74
PGSN 141754Z 060004KT 10SM SCT015 SCT090 26/24 A2981,PGSN,2025-08-14T17:54:00Z,15.116,145.72,26,24,60,4,,10+,29.81,,,,,,,,,,,SCT,1500,SCT,9000,,,,,VFR,,,,,,,,,,,,METAR,65
PAHN 141754Z AUTO 10SM OVC085 15/11 A2977 RMK AO2 SLP084 T01500111 10150 20094 58010 TSNO,PAHN,2025-08-14T17:54:00Z,59.243,-135.511,15,11.1,,,,10+,29.77,1008.4,,TRUE,TRUE,,,TRUE,,,,OVC,8500,,,,,,,VFR,-0.1,15,9.4,,,,,,,,,METAR,15
KWLD 141754Z AUTO 17012G17KT 10SM CLR 32/21 A2998 RMK AO2 SLP139 T03170211 10317 20211 58009,KWLD,2025-08-14T17:54:00Z,37.1649,-97.035,31.7,21.1,170,12,17,10+,29.98,1013.9,,TRUE,TRUE,,,,,,,CLR,,,,,,,,VFR,-0.09,31.7,21.1,,,,,,,,,METAR,351
KVTA 141754Z AUTO 02005KT 10SM SCT043 BKN060 29/19 A3004 RMK AO2 SLP163 T02940194 10294 20189 58004,KVTA,2025-08-14T17:54:00Z,40.0263,-82.4635,29.4,19.4,20,5,,10+,30.04,1016.3,,TRUE,TRUE,,,,,,,SCT,4300,BKN,6000,,,,,VFR,-0.04,29.4,18.9,,,,,,,,,METAR,268
KVSF 141754Z AUTO VRB03KT 10SM CLR 28/21 A2995 RMK AO2 RAE1658 SLP139 P0000 60009 T02830211 10289 20200 56001,KVSF,2025-08-14T17:54:00Z,43.3421,-72.5213,28.3,21.1,VRB,3,,10+,29.95,1013.9,,TRUE,TRUE,,,,,,,CLR,,,,,,,,VFR,-0.01,28.9,20,,,0.005,,0.09,,,,METAR,176
KVAY 141754Z AUTO 00000KT 10SM CLR 29/22 A2993 RMK AO2 SLP133 T02940222 10294 20233 53003 $,KVAY,2025-08-14T17:54:00Z,39.9408,-74.8407,29.4,22.2,0,0,,10+,29.93,1013.3,,TRUE,TRUE,TRUE,,,,,,CLR,,,,,,,,VFR,0.03,29.4,23.3,,,,,,,,,METAR,15
KUZA 141754Z AUTO 00000KT 10SM FEW048 SCT055 BKN070 29/24 A3000 RMK AO2 SLP143 T02940239 10300 20228 58005,KUZA,2025-08-14T17:54:00Z,34.9836,-81.0562,29.4,23.9,0,0,,10+,30.00,1014.3,,TRUE,TRUE,,,,,,,FEW,4800,SCT,5500,BKN,7000,,,VFR,-0.05,30,22.8,,,,,,,,,METAR,198
KUIN 141754Z AUTO 13008KT 10SM FEW042 28/17 A3002 RMK AO2 SLP160 T02780172 10283 20167 58005,KUIN,2025-08-14T17:54:00Z,39.9371,-91.1966,27.8,17.2,130,8,,10+,30.02,1016,,TRUE,TRUE,,,,,,,FEW,4200,,,,,,,VFR,-0.05,28.3,16.7,,,,,,,,,METAR,233
KTQE 141754Z AUTO 14011KT 10SM CLR 26/21 A2991 RMK AO2 SLP117 60001 T02610211 10267 20217 58008,KTQE,2025-08-14T17:54:00Z,41.763,-96.1797,26.1,21.1,140,11,,10+,29.91,1011.7,,TRUE,TRUE,,,,,,,CLR,,,,,,,,VFR,-0.08,26.7,21.7,,,,,0.01,,,,METAR,312
KTAD 141754Z AUTO 00000KT 10SM CLR 33/04 A3009 RMK AO2 SLP085 T03330044 10339 20161 58003,KTAD,2025-08-14T17:54:00Z,37.2618,-104.332,33.3,4.4,0,0,,10+,30.09,1008.5,,TRUE,TRUE,,,,,,,CLR,,,,,,,,VFR,-0.03,33.9,16.1,,,,,,,,,METAR,1751
KSYR 141754Z 32007KT 10SM SCT035 BKN085 30/19 A2999 RMK AO2 SLP150 T03000189 10300 20211 51001,KSYR,2025-08-14T17:54:00Z,43.1111,-76.1038,30,18.9,320,7,,10+,29.99,1015,,,TRUE,,,,,,,SCT,3500,BKN,8500,,,,,VFR,0.01,30,21.1,,,,,,,,,METAR,125
KSUS 141754Z 31003KT 10SM SCT040 31/21 A2999 RMK AO2 SLP147 T03060211 10306 20211 58005,KSUS,2025-08-14T17:54:00Z,38.6575,-90.6557,30.6,21.1,310,3,,10+,29.99,1014.7,,,TRUE,,,,,,,SCT,4000,,,,,,,VFR,-0.05,30.6,21.1,,,,,,,,,METAR,140
KSLC 141754Z 21008KT 10SM FEW120 SCT170 SCT230 33/06 A2998 RMK AO2 SLP085 VIRGA ACC SE AND NW T03280056 10328 20239 50001,KSLC,2025-08-14T17:54:00Z,40.7707,-111.965,32.8,5.6,210,8,,10+,29.98,1008.5,,,TRUE,,,,,,,FEW,12000,SCT,17000,SCT,23000,,,VFR,0.01,32.8,23.9,,,,,,,,,METAR,1286
KSJN 141754Z AUTO 34010G14KT 10SM 29/04 A3019 RMK AO2 SLP110 T02940039 10294 20172 58005,KSJN,2025-08-14T17:54:00Z,34.5184,-109.38,29.4,3.9,340,10,14,10+,30.19,1011,,TRUE,TRUE,,,,,,,,,,,,,,,VFR,-0.05,29.4,17.2,,,,,,,,,METAR,1747
KSET 141754Z AUTO 00000KT 10SM CLR 29/21 A3000 RMK AO2 SLP155 T02940211 10294 20211 58004,KSET,2025-08-14T17:54:00Z,38.9304,-90.4329,29.4,21.1,0,0,,10+,30.00,1015.5,,TRUE,TRUE,,,,,,,CLR,,,,,,,,VFR,-0.04,29.4,21.1,,,,,,,,,METAR,133
KSBN 141754Z 32007KT 10SM SCT045 BKN055 27/16 A3006 RMK AO2 SLP175 T02720161 10289 20178 55002,KSBN,2025-08-14T17:54:00Z,41.7072,-86.3163,27.2,16.1,320,7,,10+,30.06,1017.5,,,TRUE,,,,,,,SCT,4500,BKN,5500,,,,,VFR,-0.02,28.9,17.8,,,,,,,,,METAR,236
KRST 141754Z 19008KT 9SM SCT120 22/17 A3003 RMK AO2 SLP164 T02220172 10244 20167 53009,KRST,2025-08-14T17:54:00Z,43.904,-92.4921,22.2,17.2,190,8,,9,30.03,1016.4,,,TRUE,,,,,,,SCT,12000,,,,,,,VFR,0.09,24.4,16.7,,,,,,,,,METAR,398
KROC 141754Z 04012KT 10SM FEW028 27/16 A3004 RMK AO2 SLP173 T02670161 10272 20211 50004 $,KROC,2025-08-14T17:54:00Z,43.1172,-77.6754,26.7,16.1,40,12,,10+,30.04,1017.3,,,TRUE,TRUE,,,,,,FEW,2800,,,,,,,VFR,0.04,27.2,21.1,,,,,,,,,METAR,166
KROA 141754Z 31004KT 10SM FEW041 SCT070 BKN100 29/20 A3002 RMK AO2 LTG DSNT NE SLP152 T02940200 10311 20233 50000,KROA,2025-08-14T17:54:00Z,37.3172,-79.9737,29.4,20,310,4,,10+,30.02,1015.2,,,TRUE,,,,,,,FEW,4100,SCT,7000,BKN,10000,,,VFR,,31.1,23.3,,,,,,,,,METAR,349
KRKS 141754Z AUTO 25020G33KT 10SM FEW110 27/01 A3020 RMK AO2 PK WND 24033/1754 SLP127 T02720006 10294 20150 53001,KRKS,2025-08-14T17:54:00Z,41.5947,-109.053,27.2,0.6,250,20,33,10+,30.20,1012.7,,TRUE,TRUE,,,,,,,FEW,11000,,,,,,,VFR,0.01,29.4,15,,,,,,,,,METAR,2062
KRIC 141754Z 00000KT 10SM SCT041 BKN049 BKN120 BKN200 31/22 A2994 RMK AO2 SLP141 T03110217 10322 20250 50000,KRIC,2025-08-14T17:54:00Z,37.5115,-77.3234,31.1,21.7,0,0,,10+,29.94,1014.1,,,TRUE,,,,,,,SCT,4100,BKN,4900,BKN,12000,BKN,20000,VFR,,32.2,25,,,,,,,,,METAR,51
KRFD 141754Z 12006G15KT 10SM SCT044 SCT250 27/17 A3007 RMK AO2 SLP177 T02670167 10267 20167 58004,KRFD,2025-08-14T17:54:00Z,42.1915,-89.0876,26.7,16.7,120,6,15,10+,30.07,1017.7,,,TRUE,,,,,,,SCT,4400,SCT,25000,,,,,VFR,-0.04,26.7,16.7,,,,,,,,,METAR,222
KRDG 141754Z 00000KT 10SM FEW049 BKN085 30/21 A2994 RMK AO2 SLP139 T03000211 10311 20239 55000,KRDG,2025-08-14T17:54:00Z,40.3734,-75.9593,30,21.1,0,0,,10+,29.94,1013.9,,,TRUE,,,,,,,FEW,4900,BKN,8500,,,,,VFR,,31.1,23.9,,,,,,,,,METAR,101
KRBL 141754Z AUTO 00000KT 10SM CLR 26/15 A2991 RMK AO2 SLP125 T02610150 10261 20183 58007,KRBL,2025-08-14T17:54:00Z,40.1519,-122.255,26.1,15,0,0,,10+,29.91,1012.5,,TRUE,TRUE,,,,,,,CLR,,,,,,,,VFR,-0.07,26.1,18.3,,,,,,,,,METAR,107
KPTW 141754Z AUTO 00000KT 10SM CLR 31/22 A2997 RMK AO2 SLP142 T03060217 10306 20217 53001,KPTW,2025-08-14T17:54:00Z,40.238,-75.5549,30.6,21.7,0,0,,10+,29.97,1014.2,,TRUE,TRUE,,,,,,,CLR,,,,,,,,VFR,0.01,30.6,21.7,,,,,,,,,METAR,88
KPSF 141754Z AUTO 32009G18KT 10SM CLR 28/18 A2996 RMK AO2 SLP118 T02830178 10283 20200 55001,KPSF,2025-08-14T17:54:00Z,42.4268,-73.2891,28.3,17.8,320,9,18,10+,29.96,1011.8,,TRUE,TRUE,,,,,,,CLR,,,,,,,,VFR,-0.01,28.3,20,,,,,,,,,METAR,352
KPNE 141754Z 10SM FEW041 31/23 A2994 RMK AO2 SLP137 T03110228 10311 20244 53001,KPNE,2025-08-14T17:54:00Z,40.0789,-75.0133,31.1,22.8,,,,10+,29.94,1013.7,,,TRUE,,,,,,,FEW,4100,,,,,,,VFR,0.01,31.1,24.4,,,,,,,,,METAR,32
KPLN 141754Z AUTO VRB03KT 10SM BKN047 OVC055 25/15 A3010 RMK AO2 SLP191 T02500150 10256 20133 58003,KPLN,2025-08-14T17:54:00Z,45.5644,-84.7929,25,15,VRB,3,,10+,30.10,1019.1,,TRUE,TRUE,,,,,,,BKN,4700,OVC,5500,,,,,VFR,-0.03,25.6,13.3,,,,,,,,,METAR,215
KPIA 141754Z VRB04KT 10SM CLR 28/16 A3004 RMK AO2 SLP167 T02830156 10283 20183 58003,KPIA,2025-08-14T17:54:00Z,40.6675,-89.6842,28.3,15.6,VRB,4,,10+,30.04,1016.7,,,TRUE,,,,,,,CLR,,,,,,,,VFR,-0.03,28.3,18.3,,,,,,,,,METAR,200
KPHL 141754Z VRB05KT 10SM SCT034 SCT160 BKN300 31/22 A2992 RMK AO2 SLP132 T03110222 10317 20250 53002 $,KPHL,2025-08-14T17:54:00Z,39.8733,-75.2268,31.1,22.2,VRB,5,,10+,29.92,1013.2,,,TRUE,TRUE,,,,,,SCT,3400,SCT,16000,BKN,30000,,,VFR,0.02,31.7,25,,,,,,,,,METAR,2
KPHF 141754Z VRB04KT 10SM CLR 30/22 A2994 RMK AO2 SLP139 T03000222 10306 20261 50003,KPHF,2025-08-14T17:54:00Z,37.1322,-76.494,30,22.2,VRB,4,,10+,29.94,1013.9,,,TRUE,,,,,,,CLR,,,,,,,,VFR,0.03,30.6,26.1,,,,,,,,,METAR,12
KORH 141754Z VRB04KT 10SM BKN032 BKN039 OVC047 28/21 A2995 RMK AO2 SLP135 T02780211 10283 20228 53001,KORH,2025-08-14T17:54:00Z,42.2706,-71.8731,27.8,21.1,VRB,4,,10+,29.95,1013.5,,,TRUE,,,,,,,BKN,3200,BKN,3900,OVC,4700,,,VFR,0.01,28.3,22.8,,,,,,,,,METAR,306
KOLS 141754Z AUTO 10SM FEW110 30/13 A3012 RMK AO2 SLP130 T03000128 10306 20200 58002,KOLS,2025-08-14T17:54:00Z,31.4208,-110.847,30,12.8,,,,10+,30.12,1013,,TRUE,TRUE,,,,,,,FEW,11000,,,,,,,VFR,-0.02,30.6,20,,,,,,,,,METAR,1194
KOLM 141754Z 21008G17KT 10SM OVC032 19/10 A3005 RMK AO2 SLP176 T01890100 10194 20139 51002,KOLM,2025-08-14T17:54:00Z,46.9737,-122.905,18.9,10,210,8,17,10+,30.05,1017.6,,,TRUE,,,,,,,OVC,3200,,,,,,,VFR,0.02,19.4,13.9,,,,,,,,,METAR,58
KOFP 141754Z AUTO 00000KT 10SM SCT038 SCT048 31/22 A2996 RMK AO2 LTG DSNT N SLP142 T03110217 10311 20233 58000,KOFP,2025-08-14T17:54:00Z,37.7093,-77.4349,31.1,21.7,0,0,,10+,29.96,1014.2,,TRUE,TRUE,,,,,,,SCT,3800,SCT,4800,,,,,VFR,,31.1,23.3,,,,,,,,,METAR,63
KNXP 141754Z COR 02004KT 10SM SKC 36/03 A2997 RMK SLP104 T03560028 10356 20239 58003,KNXP,2025-08-14T17:54:00Z,34.294,-116.147,35.6,2.8,20,4,,10+,29.97,1010.4,TRUE,,,,,,,,,SKC,,,,,,,,VFR,-0.03,35.6,23.9,,,,,,,,,METAR,610
KNAK 141754Z AUTO 13009KT 10SM SCT029 28/24 A2994 RMK AO2 SLP139 T02830244 10300 20250 53001,KNAK,2025-08-14T17:54:00Z,38.9913,-76.4891,28.3,24.4,130,9,,10+,29.94,1013.9,,TRUE,TRUE,,,,,,,SCT,2900,,,,,,,VFR,0.01,30,25,,,,,,,,,METAR,2
KN60 141754Z AUTO 29011G23KT 23/18 A2980 RMK AO1 SLP084 T02330178 10256 20194 53035,KN60,2025-08-14T17:54:00Z,47.654,-101.436,23.3,17.8,290,11,23,,29.80,1008.4,,TRUE,TRUE,,,,,,,,,,,,,,,,0.35,25.6,19.4,,,,,,,,,METAR,582
KMTP 141754Z AUTO VRB03KT 29/23 A2992 RMK AO1 SLP131 T02940228 10306 20250 51002,KMTP,2025-08-14T17:54:00Z,41.073,-71.9235,29.4,22.8,VRB,3,,,29.92,1013.1,,TRUE,TRUE,,,,,,,,,,,,,,,,0.02,30.6,25,,,,,,,,,METAR,2
KMTN 141754Z COR 18007KT 10SM SCT041 30/21 A2994,KMTN,2025-08-14T17:54:00Z,39.3214,-76.4065,30,21,180,7,,10+,29.94,,TRUE,,,,,,,,,SCT,4100,,,,,,,VFR,,,,,,,,,,,,METAR,2
KMRY 141754Z 33006KT 10SM OVC011 17/14 A3000 RMK AO2 SLP171 T01670139 10172 20144 51002,KMRY,2025-08-14T17:54:00Z,36.5904,-121.849,16.7,13.9,330,6,,10+,30.00,1017.1,,,TRUE,,,,,,,OVC,1100,,,,,,,MVFR,0.02,17.2,14.4,,,,,,,,,METAR,51
KMOT 141754Z 31007KT 10SM -RA FEW018 SCT060 SCT080 22/17 A2975 RMK AO2 RAB52 SLP070 P0000 60000 T02170172 10239 20200 51021,KMOT,2025-08-14T17:54:00Z,48.252,-101.269,21.7,17.2,310,7,,10+,29.75,1007,,,TRUE,,,,,,-RA,FEW,1800,SCT,6000,SCT,8000,,,VFR,0.21,23.9,20,,,0.005,,0.005,,,,METAR,507
KMKC 141754Z 15009KT 10SM CLR 31/19 A2999 RMK AO2 SLP146 T03060189 10311 20217 50000,KMKC,2025-08-14T17:54:00Z,39.1279,-94.5892,30.6,18.9,150,9,,10+,29.99,1014.6,,,TRUE,,,,,,,CLR,,,,,,,,VFR,,31.1,21.7,,,,,,,,,METAR,228
KMIV 141754Z AUTO VRB03KT 10SM CLR 31/23 A2992 RMK AO2 SLP130 T03110228 10311 20239 50002 $,KMIV,2025-08-14T17:54:00Z,39.3662,-75.0778,31.1,22.8,VRB,3,,10+,29.92,1013,,TRUE,TRUE,TRUE,,,,,,CLR,,,,,,,,VFR,0.02,31.1,23.9,,,,,,,,,METAR,18
KMGJ 141754Z AUTO 00000KT 10SM CLR 29/20 A2993 RMK AO2 SLP133 6//// T02940200 10300 20206 55004 PNO $,KMGJ,2025-08-14T17:54:00Z,41.509,-74.2645,29.4,20,0,0,,10+,29.93,1013.3,,TRUE,TRUE,TRUE,,,,,,CLR,,,,,,,,VFR,-0.04,30,20.6,,,,,,,,,METAR,106
KMFI 141754Z AUTO VRB03KT 10SM FEW040 25/16 A3005 RMK AO2 SLP172 T02500156 10250 20144 58002,KMFI,2025-08-14T17:54:00Z,44.6379,-90.1875,25,15.6,VRB,3,,10+,30.05,1017.2,,TRUE,TRUE,,,,,,,FEW,4000,,,,,,,VFR,-0.02,25,14.4,,,,,,,,,METAR,383
KMEM 141754Z 28003KT 10SM SCT047 33/22 A2999 RMK AO2 SLP151 T03330222 10344 20239 58012 $,KMEM,2025-08-14T17:54:00Z,35.0564,-89.9864,33.3,22.2,280,3,,10+,29.99,1015.1,,,TRUE,TRUE,,,,,,SCT,4700,,,,,,,VFR,-0.12,34.4,23.9,,,,,,,,,METAR,78
KLYH 141754Z 00000KT 10SM BKN040 31/21 A2999 RMK AO2 LTG DSNT NW SLP142 T03110206 10311 20228 58001,KLYH,2025-08-14T17:54:00Z,37.3213,-79.2065,31.1,20.6,0,0,,10+,29.99,1014.2,,,TRUE,,,,,,,BKN,4000,,,,,,,VFR,-0.01,31.1,22.8,,,,,,,,,METAR,282
KLWT 141754Z AUTO 05005KT 10SM CLR 18/12 A2999 RMK AO2 SLP127 T01830117 10183 20133 58009,KLWT,2025-08-14T17:54:00Z,47.0544,-109.457,18.3,11.7,50,5,,10+,29.99,1012.7,,TRUE,TRUE,,,,,,,CLR,,,,,,,,VFR,-0.09,18.3,13.3,,,,,,,,,METAR,1254
KLWM 141754Z 00000KT 10SM SCT035 29/21 A2991 RMK AO2 SLP126 T02940206 10300 20228 57004,KLWM,2025-08-14T17:54:00Z,42.7125,-71.1256,29.4,20.6,0,0,,10+,29.91,1012.6,,,TRUE,,,,,,,SCT,3500,,,,,,,VFR,-0.04,30,22.8,,,,,,,,,METAR,42
KLNK 141754Z 18019G27KT 10SM CLR 29/22 A2992 RMK AO2 PK WND 18027/1751 SLP118 T02940217 10300 20211 58010,KLNK,2025-08-14T17:54:00Z,40.8478,-96.7647,29.4,21.7,180,19,27,10+,29.92,1011.8,,,TRUE,,,,,,,CLR,,,,,,,,VFR,-0.1,30,21.1,,,,,,,,,METAR,357
KLEX 141754Z VRB05KT 10SM FEW100 31/19 A3003 RMK AO2 SLP157 T03110194 10311 20206 58008,KLEX,2025-08-14T17:54:00Z,38.0339,-84.6114,31.1,19.4,VRB,5,,10+,30.03,1015.7,,,TRUE,,,,,,,FEW,10000,,,,,,,VFR,-0.08,31.1,20.6,,,,,,,,,METAR,294
KLAF 141754Z VRB03KT 10SM BKN050 29/17 A3004 RMK AO2 SLP168 T02890172 10289 20183 58005,KLAF,2025-08-14T17:54:00Z,40.4124,-86.9474,28.9,17.2,VRB,3,,10+,30.04,1016.8,,,TRUE,,,,,,,BKN,5000,,,,,,,VFR,-0.05,28.9,18.3,,,,,,,,,METAR,182
KJST 141754Z AUTO 30007KT 10SM FEW027 FEW075 26/18 A3008 RMK AO2 SLP169 60000 T02610183 10261 20194 58001,KJST,2025-08-14T17:54:00Z,40.3149,-78.8307,26.1,18.3,300,7,,10+,30.08,1016.9,,TRUE,TRUE,,,,,,,FEW,2700,FEW,7500,,,,,VFR,-0.01,26.1,19.4,,,,,0.005,,,,METAR,695
KJAN 141754Z 00000KT 10SM SCT028 SCT090 34/24 A3001 RMK AO2 SLP155 T03390244 10344 20250 58012,KJAN,2025-08-14T17:54:00Z,32.3198,-90.0778,33.9,24.4,0,0,,10+,30.01,1015.5,,,TRUE,,,,,,,SCT,2800,SCT,9000,,,,,VFR,-0.12,34.4,25,,,,,,,,,METAR,92
KIZG 141754Z AUTO 09006KT 10SM FEW090 27/21 A2991 RMK AO2 LTG DSNT SE AND S RAE1655 SLP125 P0000 60026 T02720206 10311 20233 55000,KIZG,2025-08-14T17:54:00Z,43.9899,-70.9501,27.2,20.6,90,6,,10+,29.91,1012.5,,TRUE,TRUE,,,,,,,FEW,9000,,,,,,,VFR,,31.1,23.3,,,0.005,,0.26,,,,METAR,138
KISW 141754Z AUTO 23009KT 200V270 10SM SCT050 27/13 A3005 RMK AO2 SLP171 T02720133 10283 20133 56007,KISW,2025-08-14T17:54:00Z,44.3591,-89.837,27.2,13.3,230,9,,10+,30.05,1017.1,,TRUE,TRUE,,,,,,,SCT,5000,,,,,,,VFR,-0.07,28.3,13.3,,,,,,,,,METAR,311
KIPT 141754Z 27005KT 10SM SCT090 31/19 A2995 RMK AO2 SLP136 T03060194 10311 20233 58007 $,KIPT,2025-08-14T17:54:00Z,41.243,-76.9217,30.6,19.4,270,5,,10+,29.95,1013.6,,,TRUE,TRUE,,,,,,SCT,9000,,,,,,,VFR,-0.07,31.1,23.3,,,,,,,,,METAR,160
KINT 141754Z 00000KT 10SM FEW020 OVC100 29/22 A3001 RMK AO2 SLP150 T02940222 10294 20228 58001,KINT,2025-08-14T17:54:00Z,36.1335,-80.2244,29.4,22.2,0,0,,10+,30.01,1015,,,TRUE,,,,,,,FEW,2000,OVC,10000,,,,,VFR,-0.01,29.4,22.8,,,,,,,,,METAR,292
KINL 141754Z AUTO 15012G20KT 10SM FEW036 BKN095 24/17 A2986 RMK AO2 SLP113 T02440167 10250 20133 58017,KINL,2025-08-14T17:54:00Z,48.5594,-93.3955,24.4,16.7,150,12,20,10+,29.86,1011.3,,TRUE,TRUE,,,,,,,FEW,3600,BKN,9500,,,,,VFR,-0.17,25,13.3,,,,,,,,,METAR,353
KIND 141754Z 00000KT 10SM BKN055 BKN070 31/17 A3004 RMK AO2 SLP163 T03110167 10311 20217 58005,KIND,2025-08-14T17:54:00Z,39.7252,-86.2816,31.1,16.7,0,0,,10+,30.04,1016.3,,,TRUE,,,,,,,BKN,5500,BKN,7000,,,,,VFR,-0.05,31.1,21.7,,,,,,,,,METAR,242
KIMT 141754Z AUTO 15008KT 10SM SCT024 BKN031 BKN035 23/17 A3007 RMK AO2 SLP179 T02330172 10233 20161 58009,KIMT,2025-08-14T17:54:00Z,45.8134,-88.1129,23.3,17.2,150,8,,10+,30.07,1017.9,,TRUE,TRUE,,,,,,,SCT,2400,BKN,3100,BKN,3500,,,VFR,-0.09,23.3,16.1,,,,,,,,,METAR,343
KILN 141754Z AUTO 05004KT 10SM CLR 29/19 A3005 RMK AO2 SLP163 T02890194 10289 20211 58003,KILN,2025-08-14T17:54:00Z,39.4308,-83.777,28.9,19.4,50,4,,10+,30.05,1016.3,,TRUE,TRUE,,,,,,,CLR,,,,,,,,VFR,-0.03,28.9,21.1,,,,,,,,,METAR,325
KHWD 141754Z A2997 RMK AO2 SLPNO 53004 $,KHWD,2025-08-14T17:54:00Z,37.6589,-122.121,,,,,,,29.97,,,,TRUE,TRUE,,,,,,,,,,,,,,,0.04,,,,,,,,,,,METAR,9
KGYY 141754Z 05006KT 10SM CLR 28/19 A3006,KGYY,2025-08-14T17:54:00Z,41.6121,-87.4091,28,19,50,6,,10+,30.06,,,,,,,,,,,CLR,,,,,,,,VFR,,,,,,,,,,,,METAR,179
KGSO 141754Z 00000KT 10SM FEW025 BKN100 BKN160 28/23 A3000 RMK AO2 SLP146 CB DSNT NW MOV SE T02830233 10283 20222 58000,KGSO,2025-08-14T17:54:00Z,36.0969,-79.9432,28.3,23.3,0,0,,10+,30.00,1014.6,,,TRUE,,,,,,,FEW,2500,BKN,10000,BKN,16000,,,VFR,,28.3,22.2,,,,,,,,,METAR,275
KGED 141754Z AUTO VRB05KT 6SM HZ SCT039 31/23 A2993 RMK AO2 SLP133 T03110228 10317 20244 50004,KGED,2025-08-14T17:54:00Z,38.6898,-75.3625,31.1,22.8,VRB,5,,6,29.93,1013.3,,TRUE,TRUE,,,,,,HZ,SCT,3900,,,,,,,VFR,0.04,31.7,24.4,,,,,,,,,METAR,15
KGCN 141754Z 17006KT 10SM BKN110 25/07 A3030 RMK AO2 SLP157 60000 T02500072 10261 20156 58001,KGCN,2025-08-14T17:54:00Z,35.9458,-112.155,25,7.2,170,6,,10+,30.30,1015.7,,,TRUE,,,,,,,BKN,11000,,,,,,,VFR,-0.01,26.1,15.6,,,,,0.005,,,,METAR,1993
KGCK 141754Z 18019G28KT 10SM CLR 33/18 A2993 RMK AO2 PK WND 18029/1658 SLP093 T03330178 10333 20200 56006,KGCK,2025-08-14T17:54:00Z,37.9221,-100.723,33.3,17.8,180,19,28,10+,29.93,1009.3,,,TRUE,,,,,,,CLR,,,,,,,,VFR,-0.06,33.3,20,,,,,,,,,METAR,877
KFZY 141754Z AUTO 36010KT 8SM CLR 28/17 A3002 RMK AO2 SLP161 T02830167 10289 20217 51006 $,KFZY,2025-08-14T17:54:00Z,43.3504,-76.3831,28.3,16.7,360,10,,8,30.02,1016.1,,TRUE,TRUE,TRUE,,,,,,CLR,,,,,,,,VFR,0.06,28.9,21.7,,,,,,,,,METAR,143
KFWA 141754Z 08003KT 10SM FEW042 28/13 A3006 RMK AO2 SLP172 T02830133 10294 20183 58002,KFWA,2025-08-14T17:54:00Z,40.9725,-85.2064,28.3,13.3,80,3,,10+,30.06,1017.2,,,TRUE,,,,,,,FEW,4200,,,,,,,VFR,-0.02,29.4,18.3,,,,,,,,,METAR,243
KFIG 141754Z AUTO 34009KT 10SM SCT043 29/17 A3003 RMK AO2 LTG DSNT SE SLP158 6//// T02890167 10294 20211 58001 $,KFIG,2025-08-14T17:54:00Z,41.0465,-78.4112,28.9,16.7,340,9,,10+,30.03,1015.8,,TRUE,TRUE,TRUE,,,,,,SCT,4300,,,,,,,VFR,-0.01,29.4,21.1,,,,,,,,,METAR,461
KFFZ 141754Z 23004KT 10SM CLR 36/12 A2991 RMK AO2 SLP099 T03610122 10361 20300 50001,KFFZ,2025-08-14T17:54:00Z,33.4659,-111.721,36.1,12.2,230,4,,10+,29.91,1009.9,,,TRUE,,,,,,,CLR,,,,,,,,VFR,0.01,36.1,30,,,,,,,,,METAR,420
KEWN 141754Z 24009KT 10SM CLR 32/26 A2997 RMK AO2 LTG DSNT NE-SE SLP147 T03170256 10328 20267 58009,KEWN,2025-08-14T17:54:00Z,35.0684,-77.0478,31.7,25.6,240,9,,10+,29.97,1014.7,,,TRUE,,,,,,,CLR,,,,,,,,VFR,-0.09,32.8,26.7,,,,,,,,,METAR,3
KEVV 141754Z 00000KT 10SM BKN036 32/21 A3000 RMK AO2 SLP153 T03170206 10322 20239 58009 $,KEVV,2025-08-14T17:54:00Z,38.0502,-87.5147,31.7,20.6,0,0,,10+,30.00,1015.3,,,TRUE,TRUE,,,,,,BKN,3600,,,,,,,VFR,-0.09,32.2,23.9,,,,,,,,,METAR,123
KECG 141754Z 24006KT 10SM CLR 31/25 A2995 RMK AO2 SLP141 T03060250 10311 20261 50002,KECG,2025-08-14T17:54:00Z,36.2571,-76.1716,30.6,25,240,6,,10+,29.95,1014.1,,,TRUE,,,,,,,CLR,,,,,,,,VFR,0.02,31.1,26.1,,,,,,,,,METAR,2
KDYL 141754Z AUTO VRB04KT 10SM BKN085 32/22 A2994 RMK AO2 SLP132 T03170217 10317 20233 53000,KDYL,2025-08-14T17:54:00Z,40.3302,-75.1228,31.7,21.7,VRB,4,,10+,29.94,1013.2,,TRUE,TRUE,,,,,,,BKN,8500,,,,,,,VFR,,31.7,23.3,,,,,,,,,METAR,121
KDSV 141754Z AUTO 31009KT 10SM FEW043 30/17 A3002 RMK AO2 SLP168 T03000172 10311 20211 58001,KDSV,2025-08-14T17:54:00Z,42.5699,-77.7142,30,17.2,310,9,,10+,30.02,1016.8,,TRUE,TRUE,,,,,,,FEW,4300,,,,,,,VFR,-0.01,31.1,21.1,,,,,,,,,METAR,195
KDSM 141754Z 19011KT 10SM FEW120 SCT150 SCT220 27/18 A3002 RMK AO2 SLP159 ACC NE-S 60000 T02670183 10267 20189 50007,KDSM,2025-08-14T17:54:00Z,41.534,-93.6531,26.7,18.3,190,11,,10+,30.02,1015.9,,,TRUE,,,,,,,FEW,12000,SCT,15000,SCT,22000,,,VFR,0.07,26.7,18.9,,,,,0.005,,,,METAR,286
KDEC 141754Z 09004KT 10SM SCT041 SCT050 OVC060 31/21 A3004 RMK AO2 SLP166 T03060206 10306 20200 58003,KDEC,2025-08-14T17:54:00Z,39.8308,-88.8719,30.6,20.6,90,4,,10+,30.04,1016.6,,,TRUE,,,,,,,SCT,4100,SCT,5000,OVC,6000,,,VFR,-0.03,30.6,20,,,,,,,,,METAR,205
KDDH 141754Z AUTO 36004KT 10SM FEW044 29/19 A2996 RMK AO2 SLP139 T02940189 10294 20206 55002,KDDH,2025-08-14T17:54:00Z,42.8935,-73.2488,29.4,18.9,360,4,,10+,29.96,1013.9,,TRUE,TRUE,,,,,,,FEW,4400,,,,,,,VFR,-0.02,29.4,20.6,,,,,,,,,METAR,241
KCRW 141754Z 06006KT 10SM SCT030 28/21 A3004 RMK AO2 SLP163 CB DSNT ALQDS T02830211 10283 20217 56003,KCRW,2025-08-14T17:54:00Z,38.3795,-81.5911,28.3,21.1,60,6,,10+,30.04,1016.3,,,TRUE,,,,,,,SCT,3000,,,,,,,VFR,-0.03,28.3,21.7,,,,,,,,,METAR,278
KCOU 141754Z VRB03KT 10SM CLR 31/18 A3002 RMK AO2 SLP156 T03060178 10306 20189 58005 $,KCOU,2025-08-14T17:54:00Z,38.8171,-92.2148,30.6,17.8,VRB,3,,10+,30.02,1015.6,,,TRUE,TRUE,,,,,,CLR,,,,,,,,VFR,-0.05,30.6,18.9,,,,,,,,,METAR,272
KCOS 141754Z 11005KT 10SM SCT120 SCT170 BKN250 32/02 A3013 RMK AO2 SLP096 T03170017 10328 20189 50002 $,KCOS,2025-08-14T17:54:00Z,38.8095,-104.689,31.7,1.7,110,5,,10+,30.13,1009.6,,,TRUE,TRUE,,,,,,SCT,12000,SCT,17000,BKN,25000,,,VFR,0.02,32.8,18.9,,,,,,,,,METAR,1886
KCAR 141754Z AUTO 33009KT 290V350 10SM FEW039 26/15 A2991 RMK AO2 SLP130 T02560150 10261 20206 52006,KCAR,2025-08-14T17:54:00Z,46.8705,-68.0172,25.6,15,330,9,,10+,29.91,1013,,TRUE,TRUE,,,,,,,FEW,3900,,,,,,,VFR,0.06,26.1,20.6,,,,,,,,,METAR,189
KBWI 141754Z VRB04KT 10SM SCT039TCU SCT100 BKN160 BKN250 32/22 A2992 RMK AO2 SLP130 TCU ALQDS T03220222 10322 20244 58003 $,KBWI,2025-08-14T17:54:00Z,39.1733,-76.684,32.2,22.2,VRB,4,,10+,29.92,1013,,,TRUE,TRUE,,,,,,SCT,3900,SCT,10000,BKN,16000,BKN,25000,VFR,-0.03,32.2,24.4,,,,,,,,,METAR,42
KBUY 141754Z AUTO VRB03KT 10SM BKN110 28/23 A2999 RMK AO2 SLP148 T02830233 10283 20233 50002,KBUY,2025-08-14T17:54:00Z,36.0475,-79.4737,28.3,23.3,VRB,3,,10+,29.99,1014.8,,TRUE,TRUE,,,,,,,BKN,11000,,,,,,,VFR,0.02,28.3,23.3,,,,,,,,,METAR,185
KBUF 141754Z 02009KT 10SM BKN042 28/17 A3003 RMK AO2 SLP165 T02780172 10283 20217 50000 $,KBUF,2025-08-14T17:54:00Z,42.94,-78.7361,27.8,17.2,20,9,,10+,30.03,1016.5,,,TRUE,TRUE,,,,,,BKN,4200,,,,,,,VFR,,28.3,21.7,,,,,,,,,METAR,217
KBTV 141754Z 01013KT 10SM FEW045 28/16 A3000 RMK AO2 SLP155 60000 T02780161 10278 20217 51004,KBTV,2025-08-14T17:54:00Z,44.4683,-73.1499,27.8,16.1,10,13,,10+,30.00,1015.5,,,TRUE,,,,,,,FEW,4500,,,,,,,VFR,0.04,27.8,21.7,,,,,0.005,,,,METAR,101
KBOS 141754Z COR 11009KT 10SM FEW035TCU SCT090 BKN250 28/21 A2989 RMK AO2 SLP121 TCU SE AND SW-NW T02780211 10289 20250 58001,KBOS,2025-08-14T17:54:00Z,42.3606,-71.0097,27.8,21.1,110,9,,10+,29.89,1012.1,TRUE,,TRUE,,,,,,,FEW,3500,SCT,9000,BKN,25000,,,VFR,-0.01,28.9,25,,,,,,,,,METAR,4
KBFL 141754Z 24005KT 10SM CLR 29/13 A2990 RMK AO2 SLP119 T02940133 10294 20211 58007,KBFL,2025-08-14T17:54:00Z,35.4342,-119.055,29.4,13.3,240,5,,10+,29.90,1011.9,,,TRUE,,,,,,,CLR,,,,,,,,VFR,-0.07,29.4,21.1,,,,,,,,,METAR,146
KAVP 141754Z 30008KT 10SM FEW036 29/19 A2997 RMK AO2 SLP140 60002 T02940194 10300 20217 56003,KAVP,2025-08-14T17:54:00Z,41.3335,-75.7227,29.4,19.4,300,8,,10+,29.97,1014,,,TRUE,,,,,,,FEW,3600,,,,,,,VFR,-0.03,30,21.7,,,,,0.02,,,,METAR,290
KAVL 141754Z 35010G21KT 10SM CLR 29/19 A3007 RMK AO2 LTG DSNT S AND SW SLP153 T02940194 10300 20211 58004,KAVL,2025-08-14T17:54:00Z,35.4318,-82.5379,29.4,19.4,350,10,21,10+,30.07,1015.3,,,TRUE,,,,,,,CLR,,,,,,,,VFR,-0.04,30,21.1,,,,,,,,,METAR,646
KAUW 141754Z AUTO 17006KT 10SM FEW038 25/14 A3005 RMK AO2 SLP176 T02500144 10256 20156 56008,KAUW,2025-08-14T17:54:00Z,44.9265,-89.6248,25,14.4,170,6,,10+,30.05,1017.6,,TRUE,TRUE,,,,,,,FEW,3800,,,,,,,VFR,-0.08,25.6,15.6,,,,,,,,,METAR,367
KAPN 141754Z AUTO 09007KT 10SM BKN036 BKN044 24/16 A3010 RMK AO2 SLP193 T02390156 10250 20156 58001,KAPN,2025-08-14T17:54:00Z,45.0716,-83.5645,23.9,15.6,90,7,,10+,30.10,1019.3,,TRUE,TRUE,,,,,,,BKN,3600,BKN,4400,,,,,VFR,-0.01,25,15.6,,,,,,,,,METAR,208
KALO 141754Z 17009KT 10SM FEW034 SCT060 BKN095 25/17 A3003 RMK AO2 SLP164 T02500172 10261 20183 53005,KALO,2025-08-14T17:54:00Z,42.5544,-92.4013,25,17.2,170,9,,10+,30.03,1016.4,,,TRUE,,,,,,,FEW,3400,SCT,6000,BKN,9500,,,VFR,0.05,26.1,18.3,,,,,,,,,METAR,264
KAKR 141754Z AUTO 00000KT 10SM FEW065 28/15 A3005 RMK AO2 SLP166 T02830150 10294 20211 58002 $,KAKR,2025-08-14T17:54:00Z,41.0373,-81.4634,28.3,15,0,0,,10+,30.05,1016.6,,TRUE,TRUE,TRUE,,,,,,FEW,6500,,,,,,,VFR,-0.02,29.4,21.1,,,,,,,,,METAR,319
KAKQ 141754Z AUTO 21004KT 10SM FEW025 31/25 A2994 RMK AO2 SLP137 T03110250 10317 20250 50000,KAKQ,2025-08-14T17:54:00Z,36.9827,-77.0014,31.1,25,210,4,,10+,29.94,1013.7,,TRUE,TRUE,,,,,,,FEW,2500,,,,,,,VFR,,31.7,25,,,,,,,,,METAR,34
KAKH 141754Z AUTO 17005KT 10SM FEW033 FEW041 BKN050 29/24 A2999 RMK AO2 SLP147 T02940239 10300 20222 58004,KAKH,2025-08-14T17:54:00Z,35.1968,-81.1555,29.4,23.9,170,5,,10+,29.99,1014.7,,TRUE,TRUE,,,,,,,FEW,3300,FEW,4100,BKN,5000,,,VFR,-0.04,30,22.2,,,,,,,,,METAR,242
KACY 141754Z 13006KT 10SM BKN034 30/24 A2992 RMK AO2 SLP132 T03000239 10311 20239 51003,KACY,2025-08-14T17:54:00Z,39.452,-74.567,30,23.9,130,6,,10+,29.92,1013.2,,,TRUE,,,,,,,BKN,3400,,,,,,,VFR,0.03,31.1,23.9,,,,,,,,,METAR,18
KAAO 141754Z AUTO 18010G19KT 10SM CLR 32/21 A2997 RMK AO2 SLP133 T03170211 10317 20211 58009,KAAO,2025-08-14T17:54:00Z,37.7496,-97.2191,31.7,21.1,180,10,19,10+,29.97,1013.3,,TRUE,TRUE,,,,,,,CLR,,,,,,,,VFR,-0.09,31.7,21.1,,,,,,,,,METAR,429
K1V4 141754Z AUTO 24/21 A2996 RMK AO1 SLP135 P0017 60017 T02440211 10278 20206 53004,K1V4,2025-08-14T17:54:00Z,44.42,-72.019,24.4,21.1,,,,,29.96,1013.5,,TRUE,TRUE,,,,,,,,,,,,,,,,0.04,27.8,20.6,,,0.17,,0.17,,,,METAR,213
K12N 141754Z AUTO 00000KT 31/21 A2995 RMK AO1 SLP134 6//// T03060211 10306 20211 55002 PNO $,K12N,2025-08-14T17:54:00Z,41.0093,-74.7363,30.6,21.1,0,0,,,29.95,1013.4,,TRUE,TRUE,TRUE,,,,,,,,,,,,,,,-0.02,30.6,21.1,,,,,,,,,METAR,178
TJNR 141753Z AUTO A2999 RMK AO2 SLP157 58014 PWINO $,TJNR,2025-08-14T17:53:00Z,18.253,-65.638,,,,,,,29.99,1015.7,,TRUE,TRUE,TRUE,,,,TRUE,,,,,,,,,,,-0.14,,,,,,,,,,,METAR,7
TISX 141753Z 12014G21KT 10SM HZ FEW020 SCT030 32/23 A2997 RMK AO2 SLP146 6//// T03170228 10333 20294 58015 PNO $,TISX,2025-08-14T17:53:00Z,17.6997,-64.8126,31.7,22.8,120,14,21,10+,29.97,1014.6,,,TRUE,TRUE,,,,,HZ,FEW,2000,SCT,3000,,,,,VFR,-0.15,33.3,29.4,,,,,,,,,METAR,16
TIST 141753Z 14013G22KT 10SM SCT039 32/23 A2996 RMK AO2 SLP146 T03220233 10344 20300 58013 $,TIST,2025-08-14T17:53:00Z,18.3362,-64.9799,32.2,23.3,140,13,22,10+,29.96,1014.6,,,TRUE,TRUE,,,,,,SCT,3900,,,,,,,VFR,-0.13,34.4,30,,,,,,,,,METAR,5
PTTP 141753Z 16004KT 15SM FEW018 FEW300 25/24 A2983 RMK SHRAB20E30 SLP101 60002 8/101 T02450238 10252 20245 52005,PTTP,2025-08-14T17:53:00Z,6.96,158.21,24.5,23.8,160,4,,15,29.83,1010.1,,,,,,,,,,FEW,1800,FEW,30000,,,,,VFR,0.05,25.2,24.5,,,,,0.02,,,,METAR,36
PHTO 141753Z 26003KT 10SM OVC055 25/17 A3003 RMK AO2 SLP167 T02500172 10250 20200 53009,PHTO,2025-08-14T17:53:00Z,19.7191,-155.049,25,17.2,260,3,,10+,30.03,1016.7,,,TRUE,,,,,,,OVC,5500,,,,,,,VFR,0.09,25,20,,,,,,,,,METAR,9
PHNL 141753Z 33004KT 10SM FEW025 FEW035 26/21 A3003 RMK AO2 SLP169 T02610206 10261 20233 50005,PHNL,2025-08-14T17:53:00Z,21.3151,-157.924,26.1,20.6,330,4,,10+,30.03,1016.9,,,TRUE,,,,,,,FEW,2500,FEW,3500,,,,,VFR,0.05,26.1,23.3,,,,,,,,,METAR,2
PHKO 141753Z VRB03KT 10SM CLR 28/20 A3001 RMK AO2 SLP160 T02780200 10278 20239 51009,PHKO,2025-08-14T17:53:00Z,19.7378,-156.048,27.8,20,VRB,3,,10+,30.01,1016,,,TRUE,,,,,,,CLR,,,,,,,,VFR,0.09,27.8,23.9,,,,,,,,,METAR,11
PHJR 141753Z 05005KT 10SM CLR 27/20 A3004 RMK AO2 SLP178 T02670200 10267 20211 51006,PHJR,2025-08-14T17:53:00Z,21.312,-158.07,26.7,20,50,5,,10+,30.04,1017.8,,,TRUE,,,,,,,CLR,,,,,,,,VFR,0.06,26.7,21.1,,,,,,,,,METAR,9
PAYA 141753Z AUTO 01003KT 10SM OVC011 14/11 A2976 RMK AO2 SLP078 T01390111 10139 20117 58011 TSNO $,PAYA,2025-08-14T17:53:00Z,59.512,-139.671,13.9,11.1,10,3,,10+,29.76,1007.8,,TRUE,TRUE,TRUE,,TRUE,,,,OVC,1100,,,,,,,MVFR,-0.11,13.9,11.7,,,,,,,,,METAR,9
PAWD 141753Z AUTO 03007KT 10SM OVC075 14/08 A2978 RMK AO2 SLP086 T01390078 10144 20106 58007 TSNO,PAWD,2025-08-14T17:53:00Z,60.129,-149.418,13.9,7.8,30,7,,10+,29.78,1008.6,,TRUE,TRUE,,,TRUE,,,,OVC,7500,,,,,,,VFR,-0.07,14.4,10.6,,,,,,,,,METAR,3
PATO 141753Z AUTO 00000KT 10SM BKN090 12/08 A2981 RMK AO2 SLP095 T01170083 10117 20072 58003 TSNO $,PATO,2025-08-14T17:53:00Z,60.783,-148.843,11.7,8.3,0,0,,10+,29.81,1009.5,,TRUE,TRUE,TRUE,,TRUE,,,,BKN,9000,,,,,,,VFR,-0.03,11.7,7.2,,,,,,,,,METAR,47
PATK 141753Z 00000KT 10SM -RA FEW050 OVC060 11/10 A2983 RMK AO2 RAB19 SLP103 P0001 60002 T01110100 10111 20100 58003,PATK,2025-08-14T17:53:00Z,62.319,-150.097,11.1,10,0,0,,10+,29.83,1010.3,,,TRUE,,,,,,-RA,FEW,5000,OVC,6000,,,,,VFR,-0.03,11.1,10,,,0.01,,0.02,,,,METAR,107
PASO 141753Z AUTO 00000KT 10SM FEW042 SCT060 BKN075 12/11 A2983 RMK AO2 RAE05 SLP101 P0000 60000 T01220111 10122 20100 58002 TSNO $,PASO,2025-08-14T17:53:00Z,59.443,-151.702,12.2,11.1,0,0,,10+,29.83,1010.1,,TRUE,TRUE,TRUE,,TRUE,,,,FEW,4200,SCT,6000,BKN,7500,,,VFR,-0.02,12.2,10,,,0.005,,0.005,,,,METAR,20
PASI 141753Z 21004KT 10SM OVC008 14/12 A2976 RMK AO2 SLP079 T01440122 10150 20139 58007,PASI,2025-08-14T17:53:00Z,57.047,-135.364,14.4,12.2,210,4,,10+,29.76,1007.9,,,TRUE,,,,,,,OVC,800,,,,,,,IFR,-0.07,15,13.9,,,,,,,,,METAR,2
PAPB 141753Z AUTO 00000KT 5SM -RA BR OVC007 09/08 A3023 RMK AO2 RAB24 SLP223 P0000 60000 T00890083 10089 20083 52014 TSNO $,PAPB,2025-08-14T17:53:00Z,56.576,-169.663,8.9,8.3,0,0,,5,30.23,1022.3,,TRUE,TRUE,TRUE,,TRUE,,,-RA BR,OVC,700,,,,,,,IFR,0.14,8.9,8.3,,,0.005,,0.005,,,,METAR,33
PAOT 141753Z 32018KT 10SM CLR 06/01 A2988 RMK AO2 SLP117 T00610006 10061 20050 51013,PAOT,2025-08-14T17:53:00Z,66.886,-162.607,6.1,0.6,320,18,,10+,29.88,1011.7,,,TRUE,,,,,,,CLR,,,,,,,,VFR,0.13,6.1,5,,,,,,,,,METAR,3
PAOR 141753Z 31004KT 10SM OVC080 16/07 A2973 RMK AO2 SLP066 BINOVC T01610067 10161 20083 57004 $,PAOR,2025-08-14T17:53:00Z,62.962,-141.938,16.1,6.7,310,4,,10+,29.73,1006.6,,,TRUE,TRUE,,,,,,OVC,8000,,,,,,,VFR,-0.04,16.1,8.3,,,,,,,,,METAR,524
PAOM 141753Z 00000KT 10SM CLR 07/03 A3000 RMK AO2 SLP160 T00720028 10072 20022 51008,PAOM,2025-08-14T17:53:00Z,64.5111,-165.44,7.2,2.8,0,0,,10+,30.00,1016,,,TRUE,,,,,,,CLR,,,,,,,,VFR,0.08,7.2,2.2,,,,,,,,,METAR,6
PANC 141753Z VRB03KT 10SM -RA SCT005 BKN070 OVC100 12/11 A2982 RMK SLP097 P0001 60001 T01220111 10122 20111 58002,PANC,2025-08-14T17:53:00Z,61.1691,-150.028,12.2,11.1,VRB,3,,10+,29.82,1009.7,,,,,,,,,-RA,SCT,500,BKN,7000,OVC,10000,,,VFR,-0.02,12.2,11.1,,,0.01,,0.01,,,,METAR,39
PAMC 141753Z VRB06KT 6SM -RA BR SCT015 OVC030 11/09 A2979 RMK AO2 SLP093 P0002 60024 T01060094 10117 20106 51005,PAMC,2025-08-14T17:53:00Z,62.957,-155.61,10.6,9.4,VRB,6,,6,29.79,1009.3,,,TRUE,,,,,,-RA BR,SCT,1500,OVC,3000,,,,,MVFR,0.05,11.7,10.6,,,0.02,,0.24,,,,METAR,101
PALH 141753Z AUTO 02004KT 10SM FEW005 OVC075 12/11 A2983 RMK AO2 RAB1658E50 SLP100 P0001 60001 T01220111 10122 20111 58002 TSNO,PALH,2025-08-14T17:53:00Z,61.179,-149.962,12.2,11.1,20,4,,10+,29.83,1010,,TRUE,TRUE,,,TRUE,,,,FEW,500,OVC,7500,,,,,VFR,-0.02,12.2,11.1,,,0.01,,0.01,,,,METAR,26
PAKV 141753Z AUTO 34004KT 10SM FEW100 10/05 A2988 RMK AO2 SLP121 T01000050 10100 20067 52013 TSNO $,PAKV,2025-08-14T17:53:00Z,64.321,-158.732,10,5,340,4,,10+,29.88,1012.1,,TRUE,TRUE,TRUE,,TRUE,,,,FEW,10000,,,,,,,VFR,0.13,10,6.7,,,,,,,,,METAR,53
PAKT 141753Z 13009KT 10SM BKN020 OVC029 15/12 A2982 RMK AO2 SLP100 HARBOR WIND 13014KT T01500122 10150 20122 58006 $,PAKT,2025-08-14T17:53:00Z,55.3592,-131.722,15,12.2,130,9,,10+,29.82,1010,,,TRUE,TRUE,,,,,,BKN,2000,OVC,2900,,,,,MVFR,-0.06,15,12.2,,,,,,,,,METAR,27
PAJN 141753Z 08006KT 10SM BKN070 BKN095 OVC190 13/09 A2979 RMK AO2 SLP086 T01330094 10144 20083 57005 $,PAJN,2025-08-14T17:53:00Z,58.354,-134.556,13.3,9.4,80,6,,10+,29.79,1008.6,,,TRUE,TRUE,,,,,,BKN,7000,BKN,9500,OVC,19000,,,VFR,-0.05,14.4,8.3,,,,,,,,,METAR,6
PAHO 141753Z 00000KT 10SM SCT060 12/09 A2984 RMK AO2 SLP104 T01220094 10128 20094 58001,PAHO,2025-08-14T17:53:00Z,59.642,-151.491,12.2,9.4,0,0,,10+,29.84,1010.4,,,TRUE,,,,,,,SCT,6000,,,,,,,VFR,-0.01,12.8,9.4,,,,,,,,,METAR,6
PAGY 141753Z AUTO 00000KT 10SM OVC090 13/11 A2976 RMK AO2 SLP077 T01280111 10144 20106 58010 TSNO,PAGY,2025-08-14T17:53:00Z,59.457,-135.322,12.8,11.1,0,0,,10+,29.76,1007.7,,TRUE,TRUE,,,TRUE,,,,OVC,9000,,,,,,,VFR,-0.1,14.4,10.6,,,,,,,,,METAR,7
PACV 141753Z 08004KT 10SM OVC080 13/12 A2977 RMK AO2 SLP082 T01280117 10128 20094 57007,PACV,2025-08-14T17:53:00Z,60.486,-145.445,12.8,11.7,80,4,,10+,29.77,1008.2,,,TRUE,,,,,,,OVC,8000,,,,,,,VFR,-0.07,12.8,9.4,,,,,,,,,METAR,15
PACD 141753Z 32015G23KT 8SM FEW008 SCT019 OVC029 11/09 A3013 RMK AO2 RAB00E12B35E53 SLP204 P0000 60001 T01060094 10106 20100 51014,PACD,2025-08-14T17:53:00Z,55.2207,-162.732,10.6,9.4,320,15,23,8,30.13,1020.4,,,TRUE,,,,,,,FEW,800,SCT,1900,OVC,2900,,,MVFR,0.14,10.6,10,,,0.005,,0.01,,,,METAR,23
PABT 141753Z 31003KT 10SM -RA FEW055 BKN070 OVC085 12/10 A2975 RMK SLP081 P0000 60000 T01220100 10122 20094 58003,PABT,2025-08-14T17:53:00Z,66.9176,-151.519,12.2,10,310,3,,10+,29.75,1008.1,,,,,,,,,-RA,FEW,5500,BKN,7000,OVC,8500,,,VFR,-0.03,12.2,9.4,,,0.005,,0.005,,,,METAR,195
PABI 141753Z 27009KT 10SM BKN095 OVC140 12/08 A2980 RMK AO2 SLP094 T01170083 10128 20106 57001 $,PABI,2025-08-14T17:53:00Z,63.9931,-145.721,11.7,8.3,270,9,,10+,29.80,1009.4,,,TRUE,TRUE,,,,,,BKN,9500,OVC,14000,,,,,VFR,-0.01,12.8,10.6,,,,,,,,,METAR,388
PABE 141753Z 30012KT 10SM OVC023 08/07 A3004 RMK AO2 SLP174 T00830067 10089 20078 53013,PABE,2025-08-14T17:53:00Z,60.785,-161.829,8.3,6.7,300,12,,10+,30.04,1017.4,,,TRUE,,,,,,,OVC,2300,,,,,,,MVFR,0.13,8.9,7.8,,,,,,,,,METAR,28
PAAQ 141753Z 00000KT 10SM FEW003 BKN100 11/10 A2981 RMK AO2 SLP096 60000 T01110100 10111 20094 58003 $,PAAQ,2025-08-14T17:53:00Z,61.5951,-149.092,11.1,10,0,0,,10+,29.81,1009.6,,,TRUE,TRUE,,,,,,FEW,300,BKN,10000,,,,,VFR,-0.03,11.1,9.4,,,,,0.005,,,,METAR,68
MMTP 141753Z 26002KT 8SM SCT200 33/23 A2994 RMK SLP158 57008 904 8/001 TWR HZ DSNTTCUNE,MMTP,2025-08-14T17:53:00Z,14.795,-92.371,33,23,260,2,,8,29.94,1015.8,,,,,,,,,,SCT,20000,,,,,,,VFR,-0.08,,,,,,,,,,,METAR,27
KZZV 141753Z AUTO 34005KT 10SM SCT036 28/19 A3004 RMK AO2 SLP165 T02830194 10289 20200 58005,KZZV,2025-08-14T17:53:00Z,39.9461,-81.8932,28.3,19.4,340,5,,10+,30.04,1016.5,,TRUE,TRUE,,,,,,,SCT,3600,,,,,,,VFR,-0.05,28.9,20,,,,,,,,,METAR,268
KYKM 141753Z 00000KT 10SM CLR 25/08 A2992 RMK AO2 SLP125 T02500083 10250 20144 58004,KYKM,2025-08-14T17:53:00Z,46.564,-120.535,25,8.3,0,0,,10+,29.92,1012.5,,,TRUE,,,,,,,CLR,,,,,,,,VFR,-0.04,25,14.4,,,,,,,,,METAR,319
KYIP 141753Z VRB05KT 10SM CLR 28/16 A3007 RMK AO2 SLP175 T02780161 10278 20194 58003,KYIP,2025-08-14T17:53:00Z,42.242,-83.5214,27.8,16.1,VRB,5,,10+,30.07,1017.5,,,TRUE,,,,,,,CLR,,,,,,,,VFR,-0.03,27.8,19.4,,,,,,,,,METAR,215
KXNA 141753Z 20004KT 10SM SCT046 SCT060 32/20 A3002 RMK AO2 SLP149 T03220200 10333 20211 $,KXNA,2025-08-14T17:53:00Z,36.2897,-94.3115,32.2,20,200,4,,10+,30.02,1014.9,,,TRUE,TRUE,,,,,,SCT,4600,SCT,6000,,,,,VFR,,33.3,21.1,,,,,,,,,METAR,390
KWVI 141753Z AUTO 00000KT 10SM OVC009 16/13 A3000 RMK AO2 SLP157 60000 T01560133 10156 20144 51002,KWVI,2025-08-14T17:53:00Z,36.9394,-121.79,15.6,13.3,0,0,,10+,30.00,1015.7,,TRUE,TRUE,,,,,,,OVC,900,,,,,,,IFR,0.02,15.6,14.4,,,,,0.005,,,,METAR,47
KWST 141753Z AUTO 20006KT 10SM CLR 27/21 A2991 RMK AO2 SLP126 T02720211 10283 20222 51003,KWST,2025-08-14T17:53:00Z,41.3509,-71.8055,27.2,21.1,200,6,,10+,29.91,1012.6,,TRUE,TRUE,,,,,,,CLR,,,,,,,,VFR,0.03,28.3,22.2,,,,,,,,,METAR,20
KWRL 141753Z AUTO 01005KT 10SM CLR 30/07 A2995 RMK AO2 SLP087 T03000072 10300 20133 58002,KWRL,2025-08-14T17:53:00Z,43.9654,-107.95,30,7.2,10,5,,10+,29.95,1008.7,,TRUE,TRUE,,,,,,,CLR,,,,,,,,VFR,-0.02,30,13.3,,,,,,,,,METAR,1281
KVRB 141753Z 09009KT 10SM SCT032 33/24 A3006 RMK AO2 SLP179 6//// T03280244 10344 20267 56005,KVRB,2025-08-14T17:53:00Z,27.6553,-80.4142,32.8,24.4,90,9,,10+,30.06,1017.9,,,TRUE,,,,,,,SCT,3200,,,,,,,VFR,-0.05,34.4,26.7,,,,,,,,,METAR,7
KVLD 141753Z 26007KT 10SM CLR 33/23 A3004 RMK AO2 SLP176 T03330233 10333 20256 56005,KVLD,2025-08-14T17:53:00Z,30.7763,-83.2739,33.3,23.3,260,7,,10+,30.04,1017.6,,,TRUE,,,,,,,CLR,,,,,,,,VFR,-0.05,33.3,25.6,,,,,,,,,METAR,59
KVIH 141753Z AUTO VRB05KT 10SM FEW042 31/18 A3004 RMK AO2 SLP156 T03110183 10311 20211 58005,KVIH,2025-08-14T17:53:00Z,38.1318,-91.7647,31.1,18.3,VRB,5,,10+,30.04,1015.6,,TRUE,TRUE,,,,,,,FEW,4200,,,,,,,VFR,-0.05,31.1,21.1,,,,,,,,,METAR,342
KVGT 141753Z 12010G18KT 10SM CLR 36/00 A2987 RMK AO2 SLP098 T03610000 10367 20272 58001,KVGT,2025-08-14T17:53:00Z,36.2121,-115.194,36.1,0,120,10,18,10+,29.87,1009.8,,,TRUE,,,,,,,CLR,,,,,,,,VFR,-0.01,36.7,27.2,,,,,,,,,METAR,664
KVEL 141753Z AUTO VRB04KT 10SM CLR 31/03 A3008 RMK AO2 SLP102 T03060033 10306 20161 50001,KVEL,2025-08-14T17:53:00Z,40.4429,-109.513,30.6,3.3,VRB,4,,10+,30.08,1010.2,,TRUE,TRUE,,,,,,,CLR,,,,,,,,VFR,0.01,30.6,16.1,,,,,,,,,METAR,1604
KVCB 141753Z AUTO 20003KT 10SM CLR 23/14 A2994 RMK AO2 SLP136 T02280139 10228 20139 50001,KVCB,2025-08-14T17:53:00Z,38.3775,-121.959,22.8,13.9,200,3,,10+,29.94,1013.6,,TRUE,TRUE,,,,,,,CLR,,,,,,,,VFR,0.01,22.8,13.9,,,,,,,,,METAR,30
KUUU 141753Z AUTO 19006KT 10SM CLR 26/22 A2991 RMK AO2 SLP125 T02610217 10278 20228 53000,KUUU,2025-08-14T17:53:00Z,41.5299,-71.2833,26.1,21.7,190,6,,10+,29.91,1012.5,,TRUE,TRUE,,,,,,,CLR,,,,,,,,VFR,,27.8,22.8,,,,,,,,,METAR,45
KUTS 141753Z AUTO 26007KT 10SM FEW040 SCT049 34/24 A3000 RMK AO2 SLP153 T03390244 10339 20261 58010,KUTS,2025-08-14T17:53:00Z,30.7443,-95.5866,33.9,24.4,260,7,,10+,30.00,1015.3,,TRUE,TRUE,,,,,,,FEW,4000,SCT,4900,,,,,VFR,-0.1,33.9,26.1,,,,,,,,,METAR,103
KUNV 141753Z VRB04KT 7SM VCSH SCT026 BKN044 BKN050 21/20 A3003,KUNV,2025-08-14T17:53:00Z,40.8534,-77.8401,21,20,VRB,4,,7,30.03,,,,,,,,,,VCSH,SCT,2600,BKN,4400,BKN,5000,,,VFR,,,,,,,,,,,,METAR,365
KUNO 141753Z AUTO 10SM CLR 33/18 A3004 RMK AO2 SLP156 T03280183 10328 20194 58008,KUNO,2025-08-14T17:53:00Z,36.8791,-91.9052,32.8,18.3,,,,10+,30.04,1015.6,,TRUE,TRUE,,,,,,,CLR,,,,,,,,VFR,-0.08,32.8,19.4,,,,,,,,,METAR,376
KUIL 141753Z AUTO 19007KT 10SM BKN030 17/10 A3003 RMK AO2 SLP169 T01720100 10183 20133 50000,KUIL,2025-08-14T17:53:00Z,47.937,-124.558,17.2,10,190,7,,10+,30.03,1016.9,,TRUE,TRUE,,,,,,,BKN,3000,,,,,,,MVFR,,18.3,13.3,,,,,,,,,METAR,58
KUAO 141753Z 26003KT 10SM BKN027 OVC035 21/13 A3007 RMK AO2 SLP179 T02060128 10206 20183 50003,KUAO,2025-08-14T17:53:00Z,45.2466,-122.771,20.6,12.8,260,3,,10+,30.07,1017.9,,,TRUE,,,,,,,BKN,2700,OVC,3500,,,,,MVFR,0.03,20.6,18.3,,,,,,,,,METAR,60
KTYS 141753Z 17003KT 10SM FEW029 SCT037 SCT250 29/22 A3002 RMK AO2 SLP154 T02890217 10294 20222 58007,KTYS,2025-08-14T17:53:00Z,35.818,-83.9857,28.9,21.7,170,3,,10+,30.02,1015.4,,,TRUE,,,,,,,FEW,2900,SCT,3700,SCT,25000,,,VFR,-0.07,29.4,22.2,,,,,,,,,METAR,300
KTYR 141753Z 21005KT 10SM CLR 33/24 A3000 RMK AO2 SLP150 T03280239 10328 20239 58010,KTYR,2025-08-14T17:53:00Z,32.3587,-95.404,32.8,23.9,210,5,,10+,30.00,1015,,,TRUE,,,,,,,CLR,,,,,,,,VFR,-0.1,32.8,23.9,,,,,,,,,METAR,161
KTXK 141753Z 24007KT 10SM FEW039 34/23 A2999 RMK AO2 SLP148 T03440233 10350 20244 58010,KTXK,2025-08-14T17:53:00Z,33.4561,-93.9878,34.4,23.3,240,7,,10+,29.99,1014.8,,,TRUE,,,,,,,FEW,3900,,,,,,,VFR,-0.1,35,24.4,,,,,,,,,METAR,118
KTWF 141753Z 30012KT 10SM CLR 28/05 A3000 RMK AO2 SLP095 T02830050 10283 20189 58001,KTWF,2025-08-14T17:53:00Z,42.4785,-114.477,28.3,5,300,12,,10+,30.00,1009.5,,,TRUE,,,,,,,CLR,,,,,,,,VFR,-0.01,28.3,18.9,,,,,,,,,METAR,1269
KTVL 141753Z AUTO VRB06KT 10SM CLR 23/01 A3019 RMK AO2 SLP160 T02330006 10233 20033 56004,KTVL,2025-08-14T17:53:00Z,38.8984,-119.996,23.3,0.6,VRB,6,,10+,30.19,1016,,TRUE,TRUE,,,,,,,CLR,,,,,,,,VFR,-0.04,23.3,3.3,,,,,,,,,METAR,1907
KTVC 141753Z 02007KT 9SM FEW050 25/14 A3007 RMK AO2 SLP179 T02500144 10256 20150 57006,KTVC,2025-08-14T17:53:00Z,44.739,-85.5694,25,14.4,20,7,,9,30.07,1017.9,,,TRUE,,,,,,,FEW,5000,,,,,,,VFR,-0.06,25.6,15,,,,,,,,,METAR,188
KTUS 141753Z 24004KT 10SM BKN120 32/14 A3004 RMK AO2 SLP123 T03170139 10317 20256 58001,KTUS,2025-08-14T17:53:00Z,32.1315,-110.956,31.7,13.9,240,4,,10+,30.04,1012.3,,,TRUE,,,,,,,BKN,12000,,,,,,,VFR,-0.01,31.7,25.6,,,,,,,,,METAR,776
KTUP 141753Z 07004KT 10SM FEW031 31/23 A3001 RMK AO2 SLPNO T03110228 58013 $,KTUP,2025-08-14T17:53:00Z,34.2622,-88.7713,31.1,22.8,70,4,,10+,30.01,,,,TRUE,TRUE,,,,,,FEW,3100,,,,,,,VFR,-0.13,,,,,,,,,,,METAR,107
KTUL 141753Z 18005KT 10SM BKN046 BKN250 33/22 A2998 RMK AO2 SLP141 T03280217 10333 20217 58007,KTUL,2025-08-14T17:53:00Z,36.1985,-95.8783,32.8,21.7,180,5,,10+,29.98,1014.1,,,TRUE,,,,,,,BKN,4600,BKN,25000,,,,,VFR,-0.07,33.3,21.7,,,,,,,,,METAR,196
KTTN 141753Z 00000KT 10SM BKN022 BKN090 30/23 A2993 RMK AO2 SLP126 T03000228 10306 20228 55000,KTTN,2025-08-14T17:53:00Z,40.2768,-74.8159,30,22.8,0,0,,10+,29.93,1012.6,,,TRUE,,,,,,,BKN,2200,BKN,9000,,,,,MVFR,,30.6,22.8,,,,,,,,,METAR,58
KTTD 141753Z 00000KT 10SM OVC032 20/12 A3006 RMK AO2 SLP178 T02000122 10200 20178 50004,KTTD,2025-08-14T17:53:00Z,45.551,-122.41,20,12.2,0,0,,10+,30.06,1017.8,,,TRUE,,,,,,,OVC,3200,,,,,,,VFR,0.04,20,17.8,,,,,,,,,METAR,8
KTRL 141753Z AUTO 19007KT 10SM FEW055 33/22 A2998 RMK AO2 SLP144 T03330217 10333 20233 58010,KTRL,2025-08-14T17:53:00Z,32.7131,-96.2688,33.3,21.7,190,7,,10+,29.98,1014.4,,TRUE,TRUE,,,,,,,FEW,5500,,,,,,,VFR,-0.1,33.3,23.3,,,,,,,,,METAR,144
KTRI 141753Z 00000KT 10SM SCT026 SCT038 28/21 A3005 RMK AO2 SLP149 T02830211 10289 20211 58005,KTRI,2025-08-14T17:53:00Z,36.4797,-82.3989,28.3,21.1,0,0,,10+,30.05,1014.9,,,TRUE,,,,,,,SCT,2600,SCT,3800,,,,,VFR,-0.05,28.9,21.1,,,,,,,,,METAR,456
KTPA 141753Z 24010KT 10SM TS SCT030CB SCT100 BKN250 33/27 A3006 RMK AO2 TSB29 SLP180 OCNL LTGIC NE AND S AND DSNT S-SW TS NE AND S MOV E CB DSNT S-SW T03330267 10339 20289 58004,KTPA,2025-08-14T17:53:00Z,27.9633,-82.54,33.3,26.7,240,10,,10+,30.06,1018,,,TRUE,,,,,,TS,SCT,3000,SCT,10000,BKN,25000,,,VFR,-0.04,33.9,28.9,,,,,,,,,METAR,2
KTOR 141753Z AUTO 27007KT 250V310 10SM CLR 34/07 A2993 RMK AO2 SLP073 T03440072 10344 20133 58002 $,KTOR,2025-08-14T17:53:00Z,42.0613,-104.158,34.4,7.2,270,7,,10+,29.93,1007.3,,TRUE,TRUE,TRUE,,,,,,CLR,,,,,,,,VFR,-0.02,34.4,13.3,,,,,,,,,METAR,1285
KTOP 141753Z 17008G17KT 10SM CLR 30/21 A2998 RMK AO2 SLP142 T03000211 10306 20200 58001,KTOP,2025-08-14T17:53:00Z,39.0724,-95.626,30,21.1,170,8,17,10+,29.98,1014.2,,,TRUE,,,,,,,CLR,,,,,,,,VFR,-0.01,30.6,20,,,,,,,,,METAR,268
KTOI 141753Z AUTO 34005KT 10SM BKN037 31/23 A3004 RMK AO2 SLP166 T03110233 10317 20222 58004,KTOI,2025-08-14T17:53:00Z,31.8574,-86.0103,31.1,23.3,340,5,,10+,30.04,1016.6,,TRUE,TRUE,,,,,,,BKN,3700,,,,,,,VFR,-0.04,31.7,22.2,,,,,,,,,METAR,120
KTLH 141753Z 24006KT 10SM BKN043 31/25 A3003 RMK AO2 SLP168 CB DSNT E MOV NE T03110250 10333 20250 58007 $,KTLH,2025-08-14T17:53:00Z,30.3935,-84.3513,31.1,25,240,6,,10+,30.03,1016.8,,,TRUE,TRUE,,,,,,BKN,4300,,,,,,,VFR,-0.07,33.3,25,,,,,,,,,METAR,17
KTKI 141753Z 18004KT 10SM CLR 34/22 A2996 RMK AO2 SLP137 T03440222 10344 20233 58014,KTKI,2025-08-14T17:53:00Z,33.1828,-96.5899,34.4,22.2,180,4,,10+,29.96,1013.7,,,TRUE,,,,,,,CLR,,,,,,,,VFR,-0.14,34.4,23.3,,,,,,,,,METAR,173
KTCS 141753Z AUTO VRB06KT 10SM CLR 31/09 A3014 RMK AO2 LTG DSNT SW AND W SLP108 T03110089 10317 20206 58005 $,KTCS,2025-08-14T17:53:00Z,33.2369,-107.268,31.1,8.9,VRB,6,,10+,30.14,1010.8,,TRUE,TRUE,TRUE,,,,,,CLR,,,,,,,,VFR,-0.05,31.7,20.6,,,,,,,,,METAR,1471
KTCC 141753Z AUTO 23008G15KT 10SM CLR 34/09 A2999 RMK AO2 SLP084 T03440094 10344 20189 58008,KTCC,2025-08-14T17:53:00Z,35.1805,-103.601,34.4,9.4,230,8,15,10+,29.99,1008.4,,TRUE,TRUE,,,,,,,CLR,,,,,,,,VFR,-0.08,34.4,18.9,,,,,,,,,METAR,1233
KSWO 141753Z 16009KT 10SM FEW050 34/19 A2996 RMK AO2 SLP130 T03440194 10344 20211 58010 $,KSWO,2025-08-14T17:53:00Z,36.1624,-97.0832,34.4,19.4,160,9,,10+,29.96,1013,,,TRUE,TRUE,,,,,,FEW,5000,,,,,,,VFR,-0.1,34.4,21.1,,,,,,,,,METAR,293
KSTS 141753Z VRB04KT 10SM SCT013 18/13 A2996 RMK AO2 SLP140 T01830128 10189 20133 50002,KSTS,2025-08-14T17:53:00Z,38.5037,-122.811,18.3,12.8,VRB,4,,10+,29.96,1014,,,TRUE,,,,,,,SCT,1300,,,,,,,VFR,0.02,18.9,13.3,,,,,,,,,METAR,35
KSTP 141753Z 17015G20KT 10SM SCT050 24/17 A2996 RMK AO2 RAE1655 SLP140 P0000 60000 T02440172 10244 20194 50000,KSTP,2025-08-14T17:53:00Z,44.9324,-93.0559,24.4,17.2,170,15,20,10+,29.96,1014,,,TRUE,,,,,,,SCT,5000,,,,,,,VFR,,24.4,19.4,,,0.005,,0.005,,,,METAR,213
KSTJ 141753Z 18007KT 10SM CLR 29/19 A2999 RMK AO2 SLP149 T02890194 10294 20183 58001,KSTJ,2025-08-14T17:53:00Z,39.7683,-94.9095,28.9,19.4,180,7,,10+,29.99,1014.9,,,TRUE,,,,,,,CLR,,,,,,,,VFR,-0.01,29.4,18.3,,,,,,,,,METAR,247
KSTC 141753Z 18017G27KT 10SM CLR 27/18 A2991 RMK AO2 PK WND 15029/1719 SLP132 T02670178 10267 20200 50003 $,KSTC,2025-08-14T17:53:00Z,45.5442,-94.0517,26.7,17.8,180,17,27,10+,29.91,1013.2,,,TRUE,TRUE,,,,,,CLR,,,,,,,,VFR,0.03,26.7,20,,,,,,,,,METAR,302
KSSF 141753Z 13008G14KT 10SM CLR 36/19 A2995 RMK AO2 SLP126 60000 T03610194 10361 20256 58009,KSSF,2025-08-14T17:53:00Z,29.339,-98.472,36.1,19.4,130,8,14,10+,29.95,1012.6,,,TRUE,,,,,,,CLR,,,,,,,,VFR,-0.09,36.1,25.6,,,,,0.005,,,,METAR,175
KSRQ 141753Z AUTO 24008KT 10SM CLR 32/24 A3006 RMK AO2 LTG DSNT N SLP179 T03170239 10322 20272 58003 $,KSRQ,2025-08-14T17:53:00Z,27.4015,-82.5596,31.7,23.9,240,8,,10+,30.06,1017.9,,TRUE,TRUE,TRUE,,,,,,CLR,,,,,,,,VFR,-0.03,32.2,27.2,,,,,,,,,METAR,5
KSPW 141753Z AUTO 16013G21KT 10SM FEW110 26/21 A2993 RMK AO2 SLP128 60000 T02560211 10256 20189 58006,KSPW,2025-08-14T17:53:00Z,43.1682,-95.2101,25.6,21.1,160,13,21,10+,29.93,1012.8,,TRUE,TRUE,,,,,,,FEW,11000,,,,,,,VFR,-0.06,25.6,18.9,,,,,0.005,,,,METAR,407
KSPB 141753Z AUTO 33006KT 10SM OVC034 19/12 A3005 RMK AO2 SLP177 T01940117 10200 20167 50004,KSPB,2025-08-14T17:53:00Z,45.7691,-122.864,19.4,11.7,330,6,,10+,30.05,1017.7,,TRUE,TRUE,,,,,,,OVC,3400,,,,,,,VFR,0.04,20,16.7,,,,,,,,,METAR,15
KSNY 141753Z AUTO 33009KT 10SM CLR 34/08 A2995 RMK AO2 SLP073 T03390078 10339 20128 50003,KSNY,2025-08-14T17:53:00Z,41.0993,-102.986,33.9,7.8,330,9,,10+,29.95,1007.3,,TRUE,TRUE,,,,,,,CLR,,,,,,,,VFR,0.03,33.9,12.8,,,,,,,,,METAR,1307
KSNS 141753Z 32005KT 10SM OVC015 18/13 A2999 RMK AO2 SLP164 60000 T01830133 10183 20144 50003,KSNS,2025-08-14T17:53:00Z,36.6635,-121.609,18.3,13.3,320,5,,10+,29.99,1016.4,,,TRUE,,,,,,,OVC,1500,,,,,,,MVFR,0.03,18.3,14.4,,,,,0.005,,,,METAR,20
KSNA 141753Z VRB04KT 6SM HZ OVC016 22/17 A2994 RMK AO2 SLP137 T02170172 10217 20194 50003,KSNA,2025-08-14T17:53:00Z,33.6798,-117.867,21.7,17.2,VRB,4,,6,29.94,1013.7,,,TRUE,,,,,,HZ,OVC,1600,,,,,,,MVFR,0.03,21.7,19.4,,,,,,,,,METAR,14
KSMQ 141753Z AUTO VRB03KT 8SM OVC090 32/23 A2991 RMK AO2 SLP127 T03170228 10322 20228 55000,KSMQ,2025-08-14T17:53:00Z,40.6241,-74.669,31.7,22.8,VRB,3,,8,29.91,1012.7,,TRUE,TRUE,,,,,,,OVC,9000,,,,,,,VFR,,32.2,22.8,,,,,,,,,METAR,30
KSMF 141753Z 00000KT 10SM FEW250 19/14 A2993 RMK AO2 SLP134 T01940139 10200 20139 50001,KSMF,2025-08-14T17:53:00Z,38.7007,-121.595,19.4,13.9,0,0,,10+,29.93,1013.4,,,TRUE,,,,,,,FEW,25000,,,,,,,VFR,0.01,20,13.9,,,,,,,,,METAR,7
KSJC 141753Z 00000KT 10SM FEW010 SCT030 19/14 A2997 RMK AO2 SLP147 T01940139 10200 20172 50003,KSJC,2025-08-14T17:53:00Z,37.3594,-121.924,19.4,13.9,0,0,,10+,29.97,1014.7,,,TRUE,,,,,,,FEW,1000,SCT,3000,,,,,VFR,0.03,20,17.2,,,,,,,,,METAR,13
KSIY 141753Z AUTO 04004KT 26/08 A3003 RMK AO2 SLP153 T02610083 10261 20139 $,KSIY,2025-08-14T17:53:00Z,41.7737,-122.468,26.1,8.3,40,4,,,30.03,1015.3,,TRUE,TRUE,TRUE,,,,,,,,,,,,,,,,26.1,13.9,,,,,,,,,METAR,807
KSHR 141753Z AUTO 32013KT 10SM CLR 29/08 A2996 RMK AO2 SLP095 T02890083 10294 20150 51009,KSHR,2025-08-14T17:53:00Z,44.7603,-106.974,28.9,8.3,320,13,,10+,29.96,1009.5,,TRUE,TRUE,,,,,,,CLR,,,,,,,,VFR,0.09,29.4,15,,,,,,,,,METAR,1212
KSHN 141753Z AUTO 22012G20KT 10SM OVC030 18/10 A3002 RMK AO2 SLP166 T01830100 10194 20133 51003,KSHN,2025-08-14T17:53:00Z,47.2384,-123.142,18.3,10,220,12,20,10+,30.02,1016.6,,TRUE,TRUE,,,,,,,OVC,3000,,,,,,,MVFR,0.03,19.4,13.3,,,,,,,,,METAR,84
KSGR 141753Z 00000KT 10SM CLR 34/22 A2998 RMK AO2 SLP152 60000 T03440222 10344 20261 58008,KSGR,2025-08-14T17:53:00Z,29.6197,-95.6575,34.4,22.2,0,0,,10+,29.98,1015.2,,,TRUE,,,,,,,CLR,,,,,,,,VFR,-0.08,34.4,26.1,,,,,0.005,,,,METAR,22
KSFF 141753Z 22006KT 10SM FEW100 24/10 A2994 RMK AO2 SLP120 T02390100 10239 20178 50005 $,KSFF,2025-08-14T17:53:00Z,47.6857,-117.321,23.9,10,220,6,,10+,29.94,1012,,,TRUE,TRUE,,,,,,FEW,10000,,,,,,,VFR,0.05,23.9,17.8,,,,,,,,,METAR,593
KSFB 141753Z 28007KT 10SM FEW047 34/23 A3005 RMK AO1 SLP173 T03390233 10344 20272 58007,KSFB,2025-08-14T17:53:00Z,28.7795,-81.2436,33.9,23.3,280,7,,10+,30.05,1017.3,,,TRUE,,,,,,,FEW,4700,,,,,,,VFR,-0.07,34.4,27.2,,,,,,,,,METAR,16
KSEG 141753Z AUTO 34006KT 10SM FEW042 BKN080 29/20 A2997 RMK AO2 SLP144 T02890200 10294 20239 58003,KSEG,2025-08-14T17:53:00Z,40.8193,-76.8658,28.9,20,340,6,,10+,29.97,1014.4,,TRUE,TRUE,,,,,,,FEW,4200,BKN,8000,,,,,VFR,-0.03,29.4,23.9,,,,,,,,,METAR,136
KSEA 141753Z 19007KT 10SM SCT025 OVC032 16/11 A3006 RMK AO2 SLP185 T01610106 10161 20144 51007 $,KSEA,2025-08-14T17:53:00Z,47.4447,-122.314,16.1,10.6,190,7,,10+,30.06,1018.5,,,TRUE,TRUE,,,,,,SCT,2500,OVC,3200,,,,,VFR,0.07,16.1,14.4,,,,,,,,,METAR,115
KSDM 141753Z COR 29006KT 7SM HZ SCT012 23/17 A2995 RMK AO2 SLP138 T02330167 10233 20178 50000,KSDM,2025-08-14T17:53:00Z,32.5758,-116.994,23.3,16.7,290,6,,7,29.95,1013.8,TRUE,,TRUE,,,,,,HZ,SCT,1200,,,,,,,VFR,,23.3,17.8,,,,,,,,,METAR,161
KSDL 141753Z VRB04KT 10SM CLR 36/13 A2993 RMK AO2 SLP105 T03610133 10361 20300 50001,KSDL,2025-08-14T17:53:00Z,33.6124,-111.923,36.1,13.3,VRB,4,,10+,29.93,1010.5,,,TRUE,,,,,,,CLR,,,,,,,,VFR,0.01,36.1,30,,,,,,,,,METAR,438
KSBM 141753Z AUTO 14008KT 10SM FEW033 SCT045 24/18 A3006 RMK AO2 SLP178 T02440178 10261 20156 55002,KSBM,2025-08-14T17:53:00Z,43.7748,-87.849,24.4,17.8,140,8,,10+,30.06,1017.8,,TRUE,TRUE,,,,,,,FEW,3300,SCT,4500,,,,,VFR,-0.02,26.1,15.6,,,,,,,,,METAR,225
KSBA 141753Z COR 14009KT 10SM SCT013 19/16 A2995 RMK AO2 SLP141 T01940156 10200 20133 50005,KSBA,2025-08-14T17:53:00Z,34.4241,-119.842,19.4,15.6,140,9,,10+,29.95,1014.1,TRUE,,TRUE,,,,,,,SCT,1300,,,,,,,VFR,0.05,20,13.3,,,,,,,,,METAR,2
KSAV 141753Z 25010KT 10SM FEW033 SCT050 SCT070 BKN250 32/25 A3000 RMK AO2 RAB32E46 SLP157 P0000 60000 T03170250 10322 20261 55006,KSAV,2025-08-14T17:53:00Z,32.1313,-81.2023,31.7,25,250,10,,10+,30.00,1015.7,,,TRUE,,,,,,,FEW,3300,SCT,5000,SCT,7000,BKN,25000,VFR,-0.06,32.2,26.1,,,0.005,,0.005,,,,METAR,10
KSAF 141753Z 23008KT 10SM CLR 29/03 A3021 RMK AO2 SLP110 T02940028 10300 20161 58006,KSAF,2025-08-14T17:53:00Z,35.611,-106.096,29.4,2.8,230,8,,10+,30.21,1011,,,TRUE,,,,,,,CLR,,,,,,,,VFR,-0.06,30,16.1,,,,,,,,,METAR,1918
KSAC 141753Z VRB03KT 10SM CLR 20/13 A2993 RMK AO2 SLP136 T02000128 10200 20144 58001,KSAC,2025-08-14T17:53:00Z,38.5066,-121.496,20,12.8,VRB,3,,10+,29.93,1013.6,,,TRUE,,,,,,,CLR,,,,,,,,VFR,-0.01,20,14.4,,,,,,,,,METAR,5
KRXE 141753Z AUTO 22008KT 10SM CLR 28/07 A3002 RMK AO2 SLP107 T02780072 10278 20122 58006,KRXE,2025-08-14T17:53:00Z,43.8321,-111.808,27.8,7.2,220,8,,10+,30.02,1010.7,,TRUE,TRUE,,,,,,,CLR,,,,,,,,VFR,-0.06,27.8,12.2,,,,,,,,,METAR,1483
KRWL 141753Z AUTO 29011G17KT 10SM CLR 30/M01 A3019 RMK AO2 SLP110 T03001006 10300 20161 58001,KRWL,2025-08-14T17:53:00Z,41.8065,-107.195,30,-0.6,290,11,17,10+,30.19,1011,,TRUE,TRUE,,,,,,,CLR,,,,,,,,VFR,-0.01,30,16.1,,,,,,,,,METAR,2066
KRWI 141753Z AUTO 20007KT 10SM -RA FEW029 SCT110 28/24 A2998 RMK AO2 RAB47 SLP149 P0000 60000 T02830244 10306 20261 51003,KRWI,2025-08-14T17:53:00Z,35.8502,-77.8951,28.3,24.4,200,7,,10+,29.98,1014.9,,TRUE,TRUE,,,,,,-RA,FEW,2900,SCT,11000,,,,,VFR,0.03,30.6,26.1,,,0.005,,0.005,,,,METAR,46
KRWF 141753Z AUTO 14007KT 10SM BKN110 23/19 A2991 RMK AO2 SLP124 T02280189 10228 20194 51012 $,KRWF,2025-08-14T17:53:00Z,44.5483,-95.0804,22.8,18.9,140,7,,10+,29.91,1012.4,,TRUE,TRUE,TRUE,,,,,,BKN,11000,,,,,,,VFR,0.12,22.8,19.4,,,,,,,,,METAR,312
KRVS 141753Z 16005KT 10SM CLR 33/23 A2997 RMK AO2 SLP151 T03280228 10328 20211 58007 $,KRVS,2025-08-14T17:53:00Z,36.0424,-95.9902,32.8,22.8,160,5,,10+,29.97,1015.1,,,TRUE,TRUE,,,,,,CLR,,,,,,,,VFR,-0.07,32.8,21.1,,,,,,,,,METAR,191
KRUE 141753Z AUTO 24005KT 10SM FEW050 34/20 A2996 RMK AO2 SLP138 T03440200 10356 20222 58015,KRUE,2025-08-14T17:53:00Z,35.2573,-93.095,34.4,20,240,5,,10+,29.96,1013.8,,TRUE,TRUE,,,,,,,FEW,5000,,,,,,,VFR,-0.15,35.6,22.2,,,,,,,,,METAR,119
KRTN 141753Z AUTO 00000KT 10SM CLR A3016 RMK AO2 SLPNO 56003,KRTN,2025-08-14T17:53:00Z,36.7418,-104.508,,,0,0,,10+,30.16,,,TRUE,TRUE,,,,,,,CLR,,,,,,,,VFR,-0.03,,,,,,,,,,,METAR,1939
KRSL 141753Z AUTO 17020G30KT 10SM CLR 33/19 A2990 RMK AO2 PK WND 19032/1738 SLP104 T03280189 10328 20211 58008,KRSL,2025-08-14T17:53:00Z,38.8725,-98.8093,32.8,18.9,170,20,30,10+,29.90,1010.4,,TRUE,TRUE,,,,,,,CLR,,,,,,,,VFR,-0.08,32.8,21.1,,,,,,,,,METAR,569
KRQE 141753Z AUTO 30012G17KT 10SM CLR 29/01 A3025 RMK AO2 SLP092 T02940011 10294 20161 58008,KRQE,2025-08-14T17:53:00Z,35.6571,-109.06,29.4,1.1,300,12,17,10+,30.25,1009.2,,TRUE,TRUE,,,,,,,CLR,,,,,,,,VFR,-0.08,29.4,16.1,,,,,,,,,METAR,2056
KRNT 141753Z 16006KT 10SM FEW025 OVC037 17/11 A3005 RMK AO2 SLP181 T01720111 10183 20167 50008,KRNT,2025-08-14T17:53:00Z,47.4951,-122.214,17.2,11.1,160,6,,10+,30.05,1018.1,,,TRUE,,,,,,,FEW,2500,OVC,3700,,,,,VFR,0.08,18.3,16.7,,,,,,,,,METAR,7
KRNM 141753Z 25004KT 6SM HZ CLR 26/16 A2996 RMK AO2 SLP131 T02560161 10261 20150 58002,KRNM,2025-08-14T17:53:00Z,33.038,-116.916,25.6,16.1,250,4,,6,29.96,1013.1,,,TRUE,,,,,,HZ,CLR,,,,,,,,VFR,-0.02,26.1,15,,,,,,,,,METAR,423
KRMG 141753Z AUTO VRB04KT 10SM FEW029 30/22 A3003 RMK AO2 SLP157 T03000217 10300 20233 58005,KRMG,2025-08-14T17:53:00Z,34.3483,-85.1616,30,21.7,VRB,4,,10+,30.03,1015.7,,TRUE,TRUE,,,,,,,FEW,2900,,,,,,,VFR,-0.05,30,23.3,,,,,,,,,METAR,196
KRME 141753Z 28009KT 10SM OVC085 24/21 A3000 RMK AO2 RAB27E53 SLP156 P0001 60001 T02440211 10311 20206 53006,KRME,2025-08-14T17:53:00Z,43.2242,-75.3956,24.4,21.1,280,9,,10+,30.00,1015.6,,,TRUE,,,,,,,OVC,8500,,,,,,,VFR,0.06,31.1,20.6,,,0.01,,0.01,,,,METAR,146
KRKP 141753Z AUTO 15007G16KT 110V200 8SM CLR 33/25 A2997 RMK AO2 SLP150 T03330250 10339 20283 58001,KRKP,2025-08-14T17:53:00Z,28.0837,-97.0467,33.3,25,150,7,16,8,29.97,1015,,TRUE,TRUE,,,,,,,CLR,,,,,,,,VFR,-0.01,33.9,28.3,,,,,,,,,METAR,8
KRIW 141753Z AUTO 12005KT 10SM CLR 28/06 A3005 RMK AO2 SLP099 T02780061 10278 20144 58002,KRIW,2025-08-14T17:53:00Z,43.0622,-108.447,27.8,6.1,120,5,,10+,30.05,1009.9,,TRUE,TRUE,,,,,,,CLR,,,,,,,,VFR,-0.02,27.8,14.4,,,,,,,,,METAR,1662
KRIL 141753Z AUTO VRB03KT 10SM CLR 28/01 A3010 RMK AO2 SLP111 T02830006 10283 20128 58011,KRIL,2025-08-14T17:53:00Z,39.5279,-107.72,28.3,0.6,VRB,3,,10+,30.10,1011.1,,TRUE,TRUE,,,,,,,CLR,,,,,,,,VFR,-0.11,28.3,12.8,,,,,,,,,METAR,1683
KRHI 141753Z AUTO 18007KT 10SM BKN038 24/14 A3007 RMK AO2 SLP178 T02390144 10244 20144 56007,KRHI,2025-08-14T17:53:00Z,45.6315,-89.4822,23.9,14.4,180,7,,10+,30.07,1017.8,,TRUE,TRUE,,,,,,,BKN,3800,,,,,,,VFR,-0.07,24.4,14.4,,,,,,,,,METAR,493
KRDD 141753Z 18004KT 10SM CLR 28/15 A2989 RMK AO2 SLP115 T02780150 10278 20200 58007,KRDD,2025-08-14T17:53:00Z,40.5146,-122.298,27.8,15,180,4,,10+,29.89,1011.5,,,TRUE,,,,,,,CLR,,,,,,,,VFR,-0.07,27.8,20,,,,,,,,,METAR,152
KRBD 141753Z 16009KT 10SM SCT060 33/21 A2996 RMK AO2 SLP135 T03330211 10344 20239 58010,KRBD,2025-08-14T17:53:00Z,32.6782,-96.8677,33.3,21.1,160,9,,10+,29.96,1013.5,,,TRUE,,,,,,,SCT,6000,,,,,,,VFR,-0.1,34.4,23.9,,,,,,,,,METAR,200
KRAL 141753Z 00000KT 6SM HZ CLR 23/17 A2994 RMK AO2 SLP124 T02330172 10239 20189 58000 $,KRAL,2025-08-14T17:53:00Z,33.9528,-117.435,23.3,17.2,0,0,,6,29.94,1012.4,,,TRUE,TRUE,,,,,HZ,CLR,,,,,,,,VFR,,23.9,18.9,,,,,,,,,METAR,254
KRAC 141753Z AUTO 10006KT 10SM CLR 26/18 A3009 RMK AO2 SLP185 T02560183 10261 20183 51002,KRAC,2025-08-14T17:53:00Z,42.7586,-87.8178,25.6,18.3,100,6,,10+,30.09,1018.5,,TRUE,TRUE,,,,,,,CLR,,,,,,,,VFR,0.02,26.1,18.3,,,,,,,,,METAR,203
KPWA 141753Z 20012KT 10SM CLR 33/21 A2997 RMK AO2 SLP130 T03280206 10328 20217 58007,KPWA,2025-08-14T17:53:00Z,35.5411,-97.6472,32.8,20.6,200,12,,10+,29.97,1013,,,TRUE,,,,,,,CLR,,,,,,,,VFR,-0.07,32.8,21.7,,,,,,,,,METAR,390
KPUW 141753Z AUTO 27010KT 10SM CLR 24/10 A2999 RMK AO2 SLP137 T02390100 10239 20172 51006,KPUW,2025-08-14T17:53:00Z,46.7438,-117.116,23.9,10,270,10,,10+,29.99,1013.7,,TRUE,TRUE,,,,,,,CLR,,,,,,,,VFR,0.06,23.9,17.2,,,,,,,,,METAR,774
KPUC 141753Z AUTO 29007G15KT 10SM CLR 32/01 A3013 RMK AO2 SLP088 T03170011 10317 20194 51007,KPUC,2025-08-14T17:53:00Z,39.6089,-110.755,31.7,1.1,290,7,15,10+,30.13,1008.8,,TRUE,TRUE,,,,,,,CLR,,,,,,,,VFR,0.07,31.7,19.4,,,,,,,,,METAR,1777
KPUB 141753Z VRB04KT 10SM CLR 34/05 A2999 RMK AO2 SLP076 T03440050 10344 20144 58007 $,KPUB,2025-08-14T17:53:00Z,38.2887,-104.506,34.4,5,VRB,4,,10+,29.99,1007.6,,,TRUE,TRUE,,,,,,CLR,,,,,,,,VFR,-0.07,34.4,14.4,,,,,,,,,METAR,1441
KPTK 141753Z 00000KT 7SM SCT038 BKN046 BKN070 27/17 A3008 RMK AO2 SLP179 T02720167 10272 20194 58003,KPTK,2025-08-14T17:53:00Z,42.6632,-83.41,27.2,16.7,0,0,,7,30.08,1017.9,,,TRUE,,,,,,,SCT,3800,BKN,4600,BKN,7000,,,VFR,-0.03,27.2,19.4,,,,,,,,,METAR,295
KPSX 141753Z AUTO 20009KT 10SM CLR 33/25 A2998 RMK AO2 SLP153 T03280250 10328 20294 58002,KPSX,2025-08-14T17:53:00Z,28.7248,-96.2535,32.8,25,200,9,,10+,29.98,1015.3,,TRUE,TRUE,,,,,,,CLR,,,,,,,,VFR,-0.02,32.8,29.4,,,,,,,,,METAR,4
KPSP 141753Z 00000KT 10SM CLR 36/15 A2983 RMK AO2 RAB16E25 SLP096 P0000 60000 T03610150 10361 20278 58004,KPSP,2025-08-14T17:53:00Z,33.8222,-116.504,36.1,15,0,0,,10+,29.83,1009.6,,,TRUE,,,,,,,CLR,,,,,,,,VFR,-0.04,36.1,27.8,,,0.005,,0.005,,,,METAR,123
KPSC 141753Z 21008KT 180V240 10SM CLR 27/12 A2991 RMK AO2 SLP123 T02720117 10272 20156 50002,KPSC,2025-08-14T17:53:00Z,46.2695,-119.118,27.2,11.7,210,8,,10+,29.91,1012.3,,,TRUE,,,,,,,CLR,,,,,,,,VFR,0.02,27.2,15.6,,,,,,,,,METAR,121
KPRC 141753Z 13011G15KT 10SM CLR 30/10 A3018 RMK AO2 SLP120 T03000100 10300 20233 58001,KPRC,2025-08-14T17:53:00Z,34.6491,-112.422,30,10,130,11,15,10+,30.18,1012,,,TRUE,,,,,,,CLR,,,,,,,,VFR,-0.01,30,23.3,,,,,,,,,METAR,1528
KPRB 141753Z AUTO 00000KT 10SM CLR 20/13 A3000 RMK AO2 SLP152 T02000128 10200 20139 58008 $,KPRB,2025-08-14T17:53:00Z,35.6693,-120.629,20,12.8,0,0,,10+,30.00,1015.2,,TRUE,TRUE,TRUE,,,,,,CLR,,,,,,,,VFR,-0.08,20,13.9,,,,,,,,,METAR,249
KPQL 141753Z VRB03KT 10SM FEW035 SCT047 33/24 A3002 RMK AO2 SLP166 T03330244 10339 20239 58008,KPQL,2025-08-14T17:53:00Z,30.4631,-88.5316,33.3,24.4,VRB,3,,10+,30.02,1016.6,,,TRUE,,,,,,,FEW,3500,SCT,4700,,,,,VFR,-0.08,33.9,23.9,,,,,,,,,METAR,4
KPOU 141753Z 35008KT 10SM FEW040 30/20 A2992 RMK AO2 SLP126 T03000200 10306 20217 58001,KPOU,2025-08-14T17:53:00Z,41.6257,-73.8816,30,20,350,8,,10+,29.92,1012.6,,,TRUE,,,,,,,FEW,4000,,,,,,,VFR,-0.01,30.6,21.7,,,,,,,,,METAR,45
KPOF 141753Z AUTO 00000KT 10SM CLR 32/22 A2999 RMK AO2 SLP150 T03220222 10322 20206 58006,KPOF,2025-08-14T17:53:00Z,36.7697,-90.3224,32.2,22.2,0,0,,10+,29.99,1015,,TRUE,TRUE,,,,,,,CLR,,,,,,,,VFR,-0.06,32.2,20.6,,,,,,,,,METAR,99
KPNS 141753Z 25006KT 10SM SCT038 33/24 A3002 RMK AO2 SLP166 T03330239 10333 20272 58009,KPNS,2025-08-14T17:53:00Z,30.478,-87.1869,33.3,23.9,250,6,,10+,30.02,1016.6,,,TRUE,,,,,,,SCT,3800,,,,,,,VFR,-0.09,33.3,27.2,,,,,,,,,METAR,34
KPNC 141753Z AUTO 17011G18KT 10SM FEW055 33/20 A2995 RMK AO2 SLP127 T03330200 10333 20222 58012,KPNC,2025-08-14T17:53:00Z,36.7369,-97.1024,33.3,20,170,11,18,10+,29.95,1012.7,,TRUE,TRUE,,,,,,,FEW,5500,,,,,,,VFR,-0.12,33.3,22.2,,,,,,,,,METAR,304
KPMP 141753Z 11011KT 10SM CLR 33/25 A3007 RMK AO2 SLP182 T03280250 10339 20289 58003 $,KPMP,2025-08-14T17:53:00Z,26.2464,-80.111,32.8,25,110,11,,10+,30.07,1018.2,,,TRUE,TRUE,,,,,,CLR,,,,,,,,VFR,-0.03,33.9,28.9,,,,,,,,,METAR,4
KPMD 141753Z 26014G20KT 10SM CLR 34/01 A2993 RMK AO2 SLP100 T03390011 10344 20206 58007,KPMD,2025-08-14T17:53:00Z,34.6295,-118.083,33.9,1.1,260,14,20,10+,29.93,1010,,,TRUE,,,,,,,CLR,,,,,,,,VFR,-0.07,34.4,20.6,,,,,,,,,METAR,764
KPKD 141753Z AUTO 15014KT 10SM CLR 23/18 A2985 RMK AO2 SLP104 60000 T02330183 10233 20183 58003,KPKD,2025-08-14T17:53:00Z,46.8971,-95.0695,23.3,18.3,150,14,,10+,29.85,1010.4,,TRUE,TRUE,,,,,,,CLR,,,,,,,,VFR,-0.03,23.3,18.3,,,,,0.005,,,,METAR,439
KPKB 141753Z 00000KT 10SM SCT023 27/20 A3005 RMK AO2 SLP167 T02720200 10278 20217 58001,KPKB,2025-08-14T17:53:00Z,39.3395,-81.4438,27.2,20,0,0,,10+,30.05,1016.7,,,TRUE,,,,,,,SCT,2300,,,,,,,VFR,-0.01,27.8,21.7,,,,,,,,,METAR,245
KPIR 141753Z AUTO 18005KT 10SM CLR 31/18 A2975 RMK AO2 SLP058 T03110178 10317 20183 58004,KPIR,2025-08-14T17:53:00Z,44.3819,-100.286,31.1,17.8,180,5,,10+,29.75,1005.8,,TRUE,TRUE,,,,,,,CLR,,,,,,,,VFR,-0.04,31.7,18.3,,,,,,,,,METAR,524
KPIL 141753Z AUTO 13014G21KT 10SM -RA BKN035 BKN044 34/25 A2995 RMK AO2 RAB19E29B51 SLP142 P0000 60000 T03390250 10350 20261 58003,KPIL,2025-08-14T17:53:00Z,26.1597,-97.3378,33.9,25,130,14,21,10+,29.95,1014.2,,TRUE,TRUE,,,,,,-RA,BKN,3500,BKN,4400,,,,,VFR,-0.03,35,26.1,,,0.005,,0.005,,,,METAR,5
KPIH 141753Z 25014KT 10SM CLR 29/06 A3000 RMK AO2 SLP102 T02940061 10300 20139 50004,KPIH,2025-08-14T17:53:00Z,42.9197,-112.572,29.4,6.1,250,14,,10+,30.00,1010.2,,,TRUE,,,,,,,CLR,,,,,,,,VFR,0.04,30,13.9,,,,,,,,,METAR,1357
KPHD 141753Z AUTO 04004KT 10SM SCT041 SCT055 29/18 A3005 RMK AO2 SLP167 T02940183 10294 20206 58004,KPHD,2025-08-14T17:53:00Z,40.4703,-81.4218,29.4,18.3,40,4,,10+,30.05,1016.7,,TRUE,TRUE,,,,,,,SCT,4100,SCT,5500,,,,,VFR,-0.04,29.4,20.6,,,,,,,,,METAR,272
KPGD 141753Z VRB03KT 10SM BKN036 BKN050 BKN090 33/25 A3007 RMK AO2 SLP180 T03280250 10344 20272 58006,KPGD,2025-08-14T17:53:00Z,26.9185,-81.9939,32.8,25,VRB,3,,10+,30.07,1018,,,TRUE,,,,,,,BKN,3600,BKN,5000,BKN,9000,,,VFR,-0.06,34.4,27.2,,,,,,,,,METAR,7
KPGA 141753Z AUTO 10SM CLR 33/06 A3006 RMK AO2 SLP098 T03280056 10333 20256 58004,KPGA,2025-08-14T17:53:00Z,36.9211,-111.449,32.8,5.6,,,,10+,30.06,1009.8,,TRUE,TRUE,,,,,,,CLR,,,,,,,,VFR,-0.04,33.3,25.6,,,,,,,,,METAR,1310
KPEO 141753Z AUTO 34009G15KT 310V010 10SM FEW060 FEW075 28/18 A3003 RMK AO2 SLP160 T02830183 10283 20217 51002,KPEO,2025-08-14T17:53:00Z,42.6441,-77.0528,28.3,18.3,340,9,15,10+,30.03,1016,,TRUE,TRUE,,,,,,,FEW,6000,FEW,7500,,,,,VFR,0.02,28.3,21.7,,,,,,,,,METAR,268
KPDT 141753Z 26014G20KT 10SM CLR 26/12 A2996 RMK AO2 SLP128 T02560117 10256 20183 50001,KPDT,2025-08-14T17:53:00Z,45.6975,-118.834,25.6,11.7,260,14,20,10+,29.96,1012.8,,,TRUE,,,,,,,CLR,,,,,,,,VFR,0.01,25.6,18.3,,,,,,,,,METAR,453
KPDK 141753Z 31005KT 10SM SCT030 29/22 A3005 RMK AO2 SLP154 T02940217 10294 20239 58002,KPDK,2025-08-14T17:53:00Z,33.8783,-84.298,29.4,21.7,310,5,,10+,30.05,1015.4,,,TRUE,,,,,,,SCT,3000,,,,,,,VFR,-0.02,29.4,23.9,,,,,,,,,METAR,299
KPBI 141753Z 12010KT 10SM SCT034 SCT250 33/23 A3007 RMK AO2 SLP182 CB DSNT E S T03330233 10339 20283 58003 $,KPBI,2025-08-14T17:53:00Z,26.6851,-80.0992,33.3,23.3,120,10,,10+,30.07,1018.2,,,TRUE,TRUE,,,,,,SCT,3400,SCT,25000,,,,,VFR,-0.03,33.9,28.3,,,,,,,,,METAR,4
KPBG 141753Z AUTO 03011G20KT 10SM CLR 26/17 A3000 RMK AO2 SLP158 T02610172 10267 20222 53004,KPBG,2025-08-14T17:53:00Z,44.6392,-73.4631,26.1,17.2,30,11,20,10+,30.00,1015.8,,TRUE,TRUE,,,,,,,CLR,,,,,,,,VFR,0.04,26.7,22.2,,,,,,,,,METAR,61
KPBF 141753Z AUTO 21004KT 10SM FEW046 34/22 A2998 RMK AO2 SLP149 T03440217 10356 20233 58016,KPBF,2025-08-14T17:53:00Z,34.1798,-91.9344,34.4,21.7,210,4,,10+,29.98,1014.9,,TRUE,TRUE,,,,,,,FEW,4600,,,,,,,VFR,-0.16,35.6,23.3,,,,,,,,,METAR,63
KPAH 141753Z 00000KT 10SM FEW039 32/23 A2998 RMK AO2 SLP148 T03220228 10322 20233 58010,KPAH,2025-08-14T17:53:00Z,37.0652,-88.7793,32.2,22.8,0,0,,10+,29.98,1014.8,,,TRUE,,,,,,,FEW,3900,,,,,,,VFR,-0.1,32.2,23.3,,,,,,,,,METAR,125
KPAE 141753Z 17009KT 10SM SCT006 BKN012 16/13 A3006 RMK AO2 SLP177 T01560128 10161 20139 51007,KPAE,2025-08-14T17:53:00Z,47.9232,-122.283,15.6,12.8,170,9,,10+,30.06,1017.7,,,TRUE,,,,,,,SCT,600,BKN,1200,,,,,MVFR,0.07,16.1,13.9,,,,,,,,,METAR,166
KP68 141753Z AUTO VRB03KT 29/03 A3010 RMK AO1 SLP092 T02890033 10306 20128 58008,KP68,2025-08-14T17:53:00Z,39.602,-116.006,28.9,3.3,VRB,3,,,30.10,1009.2,,TRUE,TRUE,,,,,,,,,,,,,,,,-0.08,30.6,12.8,,,,,,,,,METAR,1813
KOXB 141753Z AUTO 12007KT 10SM CLR 28/24 A2994 RMK AO2 SLP138 T02830244 10294 20244 51008,KOXB,2025-08-14T17:53:00Z,38.3091,-75.1234,28.3,24.4,120,7,,10+,29.94,1013.8,,TRUE,TRUE,,,,,,,CLR,,,,,,,,VFR,0.08,29.4,24.4,,,,,,,,,METAR,2
KOWD 141753Z 00000KT 10SM BKN045 OVC060 30/21 A2989 RMK AO2 SLP121 T03000206 10306 20244 56002,KOWD,2025-08-14T17:53:00Z,42.1912,-71.1732,30,20.6,0,0,,10+,29.89,1012.1,,,TRUE,,,,,,,BKN,4500,OVC,6000,,,,,VFR,-0.02,30.6,24.4,,,,,,,,,METAR,14
KOVS 141753Z AUTO 18006KT 10SM FEW042 27/17 A3002 RMK AO2 SLP165 T02670167 10272 20161 58006,KOVS,2025-08-14T17:53:00Z,43.1561,-90.6775,26.7,16.7,180,6,,10+,30.02,1016.5,,TRUE,TRUE,,,,,,,FEW,4200,,,,,,,VFR,-0.06,27.2,16.1,,,,,,,,,METAR,205
KOVE 141753Z AUTO 00000KT 10SM CLR 24/15 A2993 RMK AO2 SLP135 T02440150 10244 20161 58004,KOVE,2025-08-14T17:53:00Z,39.4943,-121.622,24.4,15,0,0,,10+,29.93,1013.5,,TRUE,TRUE,,,,,,,CLR,,,,,,,,VFR,-0.04,24.4,16.1,,,,,,,,,METAR,56
KOTM 141753Z AUTO 17005KT 10SM CLR 26/18 A3001 RMK AO2 PRESFR SLP155 T02560183 10256 20150 58007,KOTM,2025-08-14T17:53:00Z,41.1008,-92.4445,25.6,18.3,170,5,,10+,30.01,1015.5,,TRUE,TRUE,,,,,,,CLR,,,,,,,,VFR,-0.07,25.6,15,,,,,,,,,METAR,254
KOSU 141753Z COR 03008 10SM SCT075 29/19 A3004 RMK AO2 SLP164 T02940189 10294 20206 58004,KOSU,2025-08-14T17:53:00Z,40.0784,-83.0782,29.4,18.9,30,8,,10+,30.04,1016.4,TRUE,,TRUE,,,,,,,SCT,7500,,,,,,,VFR,-0.04,29.4,20.6,,,,,,,,,METAR,276
KOSH 141753Z 20005KT 10SM FEW060 26/17 A3005 RMK AO2 SLP164 T02610172 10261 20172 56005,KOSH,2025-08-14T17:53:00Z,43.9669,-88.5582,26.1,17.2,200,5,,10+,30.05,1016.4,,,TRUE,,,,,,,FEW,6000,,,,,,,VFR,-0.05,26.1,17.2,,,,,,,,,METAR,239
KORL 141753Z VRB04KT 10SM FEW043 34/24 A3006 RMK AO2 SLP180 T03440239 10350 20283 58006,KORL,2025-08-14T17:53:00Z,28.5465,-81.3354,34.4,23.9,VRB,4,,10+,30.06,1018,,,TRUE,,,,,,,FEW,4300,,,,,,,VFR,-0.06,35,28.3,,,,,,,,,METAR,32
KOQT 141753Z AUTO 00000KT 10SM FEW041 29/22 A3004 RMK AO2 SLP156 T02940217 10300 20211 58007,KOQT,2025-08-14T17:53:00Z,36.023,-84.2336,29.4,21.7,0,0,,10+,30.04,1015.6,,TRUE,TRUE,,,,,,,FEW,4100,,,,,,,VFR,-0.07,30,21.1,,,,,,,,,METAR,276
KONT 141753Z 00000KT 4SM HZ CLR 23/17 A2995 RMK AO2 SLP128 VIS S-W 2 1/2 T02330172 10233 20189 50001 $,KONT,2025-08-14T17:53:00Z,34.0531,-117.577,23.3,17.2,0,0,,4,29.95,1012.8,,,TRUE,TRUE,,,,,HZ,CLR,,,,,,,,MVFR,0.01,23.3,18.9,,,,,,,,,METAR,279
KONO 141753Z AUTO 33009KT 10SM CLR 29/09 A2994 RMK AO2 SLP116 6//// T02890094 10289 20211 58003,KONO,2025-08-14T17:53:00Z,44.0143,-117.008,28.9,9.4,330,9,,10+,29.94,1011.6,,TRUE,TRUE,,,,,,,CLR,,,,,,,,VFR,-0.03,28.9,21.1,,,,,,,,,METAR,668
KOMK 141753Z AUTO 36009KT 10SM CLR 27/09 A2989 RMK AO2 SLP111 T02720089 10272 20156 58005,KOMK,2025-08-14T17:53:00Z,48.4611,-119.521,27.2,8.9,360,9,,10+,29.89,1011.1,,TRUE,TRUE,,,,,,,CLR,,,,,,,,VFR,-0.05,27.2,15.6,,,,,,,,,METAR,395
KOLF 141753Z AUTO 32010G17KT 10SM CLR 24/13 A2988 RMK AO2 SLP111 T02390128 10244 20172 53011,KOLF,2025-08-14T17:53:00Z,48.0942,-105.578,23.9,12.8,320,10,17,10+,29.88,1011.1,,TRUE,TRUE,,,,,,,CLR,,,,,,,,VFR,0.11,24.4,17.2,,,,,,,,,METAR,605
KOJC 141753Z VRB06KT 10SM CLR 29/22 A3001 RMK AO2 SLP149 T02940217 10294 20200 50000,KOJC,2025-08-14T17:53:00Z,38.85,-94.7395,29.4,21.7,VRB,6,,10+,30.01,1014.9,,,TRUE,,,,,,,CLR,,,,,,,,VFR,,29.4,20,,,,,,,,,METAR,328
KOGD 141753Z VRB04KT 10SM CLR 32/05 A3000 RMK AO2 SLP088 T03220050 10322 20211 53002,KOGD,2025-08-14T17:53:00Z,41.1941,-112.017,32.2,5,VRB,4,,10+,30.00,1008.8,,,TRUE,,,,,,,CLR,,,,,,,,VFR,0.02,32.2,21.1,,,,,,,,,METAR,1356
KOGB 141753Z AUTO 26008KT 10SM OVC060 29/24 A2997 RMK AO2 SLP147 60029 T02890244 10294 20244 56004,KOGB,2025-08-14T17:53:00Z,33.4637,-80.8534,28.9,24.4,260,8,,10+,29.97,1014.7,,TRUE,TRUE,,,,,,,OVC,6000,,,,,,,VFR,-0.04,29.4,24.4,,,,,0.29,,,,METAR,59
KODX 141753Z AUTO 18015G24KT 10SM CLR 29/21 A2985 RMK AO2 PK WND 17027/1725 SLP094 T02940206 10294 20189 58000,KODX,2025-08-14T17:53:00Z,41.6234,-98.9489,29.4,20.6,180,15,24,10+,29.85,1009.4,,TRUE,TRUE,,,,,,,CLR,,,,,,,,VFR,,29.4,18.9,,,,,,,,,METAR,628
KODO 141753Z AUTO 17007KT 10SM CLR 35/14 A3004 RMK AO2 SLP116 T03500139 10350 20228 58007,KODO,2025-08-14T17:53:00Z,31.925,-102.387,35,13.9,170,7,,10+,30.04,1011.6,,TRUE,TRUE,,,,,,,CLR,,,,,,,,VFR,-0.07,35,22.8,,,,,,,,,METAR,912
KOAK 141753Z 24004KT 10SM FEW006 FEW018 19/13 A2997 RMK AO2 SLP149 T01940133 10194 20150 50002,KOAK,2025-08-14T17:53:00Z,37.7178,-122.233,19.4,13.3,240,4,,10+,29.97,1014.9,,,TRUE,,,,,,,FEW,600,FEW,1800,,,,,VFR,0.02,19.4,15,,,,,,,,,METAR,3
KNUW 141753Z 20005KT 10SM OVC020 16/11 A3004 RMK AO2 SLP177 T01560111 10161 20133 51004,KNUW,2025-08-14T17:53:00Z,48.355,-122.664,15.6,11.1,200,5,,10+,30.04,1017.7,,,TRUE,,,,,,,OVC,2000,,,,,,,MVFR,0.04,16.1,13.3,,,,,,,,,METAR,14
KNUI 141753Z AUTO 24006KT 10SM FEW043 29/23 A2993 RMK AO2 SLP134 T02940228 10300 20244 52002,KNUI,2025-08-14T17:53:00Z,38.152,-76.432,29.4,22.8,240,6,,10+,29.93,1013.4,,TRUE,TRUE,,,,,,,FEW,4300,,,,,,,VFR,0.02,30,24.4,,,,,,,,,METAR,4
KNSI 141753Z 33020KT 10SM BKN004 17/13 A2997 RMK AO2 SLP144 T01720133 10178 20139 51007 $ ,KNSI,2025-08-14T17:53:00Z,33.2337,-119.456,17.2,13.3,330,20,,10+,29.97,1014.4,,,TRUE,TRUE,,,,,,BKN,400,,,,,,,LIFR,0.07,17.8,13.9,,,,,,,,,METAR,161
KNRS 141753Z 23007KT 10SM OVC013 21/17 A2996 RMK AO2 SLP145 T02060167 10206 20178 53004 $,KNRS,2025-08-14T17:53:00Z,32.563,-117.111,20.6,16.7,230,7,,10+,29.96,1014.5,,,TRUE,TRUE,,,,,,OVC,1300,,,,,,,MVFR,0.04,20.6,17.8,,,,,,,,,METAR,15
KNQX 141753Z 17009KT 10SM SCT023TCU SCT250 32/25 A3006 RMK AO2 SLP178 TCU S T03170250 10322 20289 58004 $,KNQX,2025-08-14T17:53:00Z,24.5801,-81.6829,31.7,25,170,9,,10+,30.06,1017.8,,,TRUE,TRUE,,,,,,SCT,2300,SCT,25000,,,,,VFR,-0.04,32.2,28.9,,,,,,,,,METAR,2
KNIP 141753Z 27013KT 10SM SCT046 BKN250 33/23 A3003 RMK AO2 SLP166 CB DSNT N T2 SET T03280233 10350 20272 58006,KNIP,2025-08-14T17:53:00Z,30.2346,-81.6746,32.8,23.3,270,13,,10+,30.03,1016.6,,,TRUE,,,,,,,SCT,4600,BKN,25000,,,,,VFR,-0.06,35,27.2,,,,,,,,,METAR,3
KNEW 141753Z 34005KT 10SM CLR 33/26 A3004 RMK AO1 SLP166 T03280261 10328 20278 58004,KNEW,2025-08-14T17:53:00Z,30.0494,-90.029,32.8,26.1,340,5,,10+,30.04,1016.6,,,TRUE,,,,,,,CLR,,,,,,,,VFR,-0.04,32.8,27.8,,,,,,,,,METAR,1
KNEN 141753Z AUTO 24007KT 10SM CLR 31/24 A3005 RMK AO2 RAB01E20 SLP238 P0003 60003 T03110244 10333 20261 56007 TSNO $,KNEN,2025-08-14T17:53:00Z,30.3501,-81.8693,31.1,24.4,240,7,,10+,30.05,1023.8,,TRUE,TRUE,TRUE,,TRUE,,,,CLR,,,,,,,,VFR,-0.07,33.3,26.1,,,0.03,,0.03,,,,METAR,30
KMYV 141753Z AUTO 15004KT 10SM CLR 23/14 A2992 RMK AO2 SLP136 T02330144 10233 20150 58003,KMYV,2025-08-14T17:53:00Z,39.102,-121.569,23.3,14.4,150,4,,10+,29.92,1013.6,,TRUE,TRUE,,,,,,,CLR,,,,,,,,VFR,-0.03,23.3,15,,,,,,,,,METAR,18
KMYF 141753Z VRB04KT 7SM FEW016 22/17 A2995 RMK AO2 SLP138 T02170167 10222 20189 50002,KMYF,2025-08-14T17:53:00Z,32.8145,-117.137,21.7,16.7,VRB,4,,7,29.95,1013.8,,,TRUE,,,,,,,FEW,1600,,,,,,,VFR,0.02,22.2,18.9,,,,,,,,,METAR,128
KMWT 141753Z AUTO VRB04KT 10SM SCT039 BKN055 33/21 A2999 RMK AO2 SLP139 T03280206 10339 20222 58009,KMWT,2025-08-14T17:53:00Z,34.5466,-93.5779,32.8,20.6,VRB,4,,10+,29.99,1013.9,,TRUE,TRUE,,,,,,,SCT,3900,BKN,5500,,,,,VFR,-0.09,33.9,22.2,,,,,,,,,METAR,220
KMWL 141753Z AUTO 11007KT 10SM CLR 34/23 A2995 RMK AO2 SLP127 T03440233 10344 20228 58011,KMWL,2025-08-14T17:53:00Z,32.7816,-98.0602,34.4,23.3,110,7,,10+,29.95,1012.7,,TRUE,TRUE,,,,,,,CLR,,,,,,,,VFR,-0.11,34.4,22.8,,,,,,,,,METAR,288
KMVY 141753Z 21009KT 10SM OVC011 27/23 A2991 RMK AO2 SLP128 60000 T02670228 10278 20222 52002,KMVY,2025-08-14T17:53:00Z,41.393,-70.6159,26.7,22.8,210,9,,10+,29.91,1012.8,,,TRUE,,,,,,,OVC,1100,,,,,,,MVFR,0.02,27.8,22.2,,,,,0.005,,,,METAR,18
KMTO 141753Z AUTO VRB04KT 10SM FEW033 BKN080 29/21 A3002 RMK AO2 SLP159 T02940206 10294 20189 58003,KMTO,2025-08-14T17:53:00Z,39.4744,-88.2724,29.4,20.6,VRB,4,,10+,30.02,1015.9,,TRUE,TRUE,,,,,,,FEW,3300,BKN,8000,,,,,VFR,-0.03,29.4,18.9,,,,,,,,,METAR,216
KMTJ 141753Z AUTO 35005KT 10SM CLR 28/07 A3013 RMK AO2 SLP111 T02780067 10278 20156 58006,KMTJ,2025-08-14T17:53:00Z,38.5054,-107.898,27.8,6.7,350,5,,10+,30.13,1011.1,,TRUE,TRUE,,,,,,,CLR,,,,,,,,VFR,-0.06,27.8,15.6,,,,,,,,,METAR,1755
KMTH 141753Z AUTO 12007KT 7SM FEW024 31/25 A3006 RMK AO2 SLP178 T03110250 10322 20294 58005,KMTH,2025-08-14T17:53:00Z,24.7262,-81.0477,31.1,25,120,7,,7,30.06,1017.8,,TRUE,TRUE,,,,,,,FEW,2400,,,,,,,VFR,-0.05,32.2,29.4,,,,,,,,,METAR,1
KMSY 141753Z VRB06KT 10SM SCT035 SCT250 34/25 A3002 RMK AO2 SLP169 CB DSNT SE S AND SW AND W T03390250 10339 20267 58005,KMSY,2025-08-14T17:53:00Z,29.9974,-90.2777,33.9,25,VRB,6,,10+,30.02,1016.9,,,TRUE,,,,,,,SCT,3500,SCT,25000,,,,,VFR,-0.05,33.9,26.7,,,,,,,,,METAR,
KMSS 141753Z AUTO VRB06KT 10SM FEW085 27/14 A3003 RMK AO2 SLP166 T02720144 10283 20206 55000 $,KMSS,2025-08-14T17:53:00Z,44.9334,-74.8484,27.2,14.4,VRB,6,,10+,30.03,1016.6,,TRUE,TRUE,TRUE,,,,,,FEW,8500,,,,,,,VFR,,28.3,20.6,,,,,,,,,METAR,60
KMSP 141753Z 16015G24KT 10SM SCT044 BKN140 OVC250 26/16 A2995 RMK AO2 PK WND 17027/1742 SLP138 T02560161 10256 20200 58000,KMSP,2025-08-14T17:53:00Z,44.8852,-93.2313,25.6,16.1,160,15,24,10+,29.95,1013.8,,,TRUE,,,,,,,SCT,4400,BKN,14000,OVC,25000,,,VFR,,25.6,20,,,,,,,,,METAR,255
KMSO 141753Z 10SM CLR 26/07 A2993 RMK AO2 SLP109 T02610067 10261 20111 58010 $,KMSO,2025-08-14T17:53:00Z,46.9208,-114.094,26.1,6.7,,,,10+,29.93,1010.9,,,TRUE,TRUE,,,,,,CLR,,,,,,,,VFR,-0.1,26.1,11.1,,,,,,,,,METAR,974
KMSN 141753Z 19008KT 10SM SCT050 27/16 A3005 RMK AO2 SLP170 T02670156 10267 20156 58004,KMSN,2025-08-14T17:53:00Z,43.1407,-89.3452,26.7,15.6,190,8,,10+,30.05,1017,,,TRUE,,,,,,,SCT,5000,,,,,,,VFR,-0.04,26.7,15.6,,,,,,,,,METAR,262
KMSL 141753Z AUTO 00000KT 10SM CLR 31/22 A3003 RMK AO2 SLP160 T03060222 10311 20222 58008,KMSL,2025-08-14T17:53:00Z,34.7439,-87.5997,30.6,22.2,0,0,,10+,30.03,1016,,TRUE,TRUE,,,,,,,CLR,,,,,,,,VFR,-0.08,31.1,22.2,,,,,,,,,METAR,170
KMRB 141753Z VRB06KT 10SM FEW040 SCT055 BKN070 31/21 A2995 RMK AO2 SLP137 T03110206 10322 20222 58006,KMRB,2025-08-14T17:53:00Z,39.4037,-77.975,31.1,20.6,VRB,6,,10+,29.95,1013.7,,,TRUE,,,,,,,FEW,4000,SCT,5500,BKN,7000,,,VFR,-0.06,32.2,22.2,,,,,,,,,METAR,165
KMPO 141753Z AUTO 02007KT 10SM FEW043 BKN075 BKN110 27/17 A3002 RMK AO2 SLP152 60000 T02670172 10294 20211 53001,KMPO,2025-08-14T17:53:00Z,41.1368,-75.3771,26.7,17.2,20,7,,10+,30.02,1015.2,,TRUE,TRUE,,,,,,,FEW,4300,BKN,7500,BKN,11000,,,VFR,0.01,29.4,21.1,,,,,0.005,,,,METAR,576
KMOD 141753Z 36007KT 10SM CLR 23/14 A2992 RMK AO2 SLP130 T02330139 10233 20156 50003,KMOD,2025-08-14T17:53:00Z,37.6254,-120.955,23.3,13.9,360,7,,10+,29.92,1013,,,TRUE,,,,,,,CLR,,,,,,,,VFR,0.03,23.3,15.6,,,,,,,,,METAR,25
KMNN 141753Z AUTO 07006KT 10SM CLR 30/19 A3005 RMK AO2 SLP171 T03000194 10306 20189 58003,KMNN,2025-08-14T17:53:00Z,40.6158,-83.0673,30,19.4,70,6,,10+,30.05,1017.1,,TRUE,TRUE,,,,,,,CLR,,,,,,,,VFR,-0.03,30.6,18.9,,,,,,,,,METAR,301
KMMK 141753Z AUTO 00000KT 10SM FEW045 32/19 A2990 RMK AO2 SLP122 T03170194 10322 20233 58001,KMMK,2025-08-14T17:53:00Z,41.5097,-72.8278,31.7,19.4,0,0,,10+,29.90,1012.2,,TRUE,TRUE,,,,,,,FEW,4500,,,,,,,VFR,-0.01,32.2,23.3,,,,,,,,,METAR,30
KMLU 141753Z 00000KT 10SM BKN035 34/24 A2998 RMK AO2 LTG DSNT ALQDS SLP150 T03390239 10344 20250 58014,KMLU,2025-08-14T17:53:00Z,32.5155,-92.03,33.9,23.9,0,0,,10+,29.98,1015,,,TRUE,,,,,,,BKN,3500,,,,,,,VFR,-0.14,34.4,25,,,,,,,,,METAR,22
KMLT 141753Z AUTO 34009KT 10SM FEW075 31/13 A2989 RMK AO2 SLP125 T03060133 10306 20233 55003,KMLT,2025-08-14T17:53:00Z,45.6478,-68.6925,30.6,13.3,340,9,,10+,29.89,1012.5,,TRUE,TRUE,,,,,,,FEW,7500,,,,,,,VFR,-0.03,30.6,23.3,,,,,,,,,METAR,121
KMLS 141753Z AUTO 01010G17KT 10SM CLR 25/13 A2991 RMK AO2 SLP106 60000 T02500128 10250 20183 51013,KMLS,2025-08-14T17:53:00Z,46.4265,-105.883,25,12.8,10,10,17,10+,29.91,1010.6,,TRUE,TRUE,,,,,,,CLR,,,,,,,,VFR,0.13,25,18.3,,,,,0.005,,,,METAR,800
KMLP 141753Z AUTO 10SM FEW030 16/07 A3009 RMK AO2 SLP091 T01560067 10156 20117 53006,KMLP,2025-08-14T17:53:00Z,47.4548,-115.671,15.6,6.7,,,,10+,30.09,1009.1,,TRUE,TRUE,,,,,,,FEW,3000,,,,,,,VFR,0.06,15.6,11.7,,,,,,,,,METAR,1837
KMLC 141753Z AUTO 00000KT 10SM CLR 33/22 A2999 RMK AO2 SLP143 T03330217 10333 20217,KMLC,2025-08-14T17:53:00Z,34.8824,-95.7815,33.3,21.7,0,0,,10+,29.99,1014.3,,TRUE,TRUE,,,,,,,CLR,,,,,,,,VFR,,33.3,21.7,,,,,,,,,METAR,231
KMLB 141753Z 09009KT 10SM CLR 33/24 A3005 RMK AO2 SLP174 T03280244 10333 20267 58005,KMLB,2025-08-14T17:53:00Z,28.0997,-80.6356,32.8,24.4,90,9,,10+,30.05,1017.4,,,TRUE,,,,,,,CLR,,,,,,,,VFR,-0.05,33.3,26.7,,,,,,,,,METAR,7
KMKO 141753Z AUTO VRB05KT 10SM CLR 33/22 A2999 RMK AO2 SLP148 T03280222 10333 20222 58010,KMKO,2025-08-14T17:53:00Z,35.6576,-95.3658,32.8,22.2,VRB,5,,10+,29.99,1014.8,,TRUE,TRUE,,,,,,,CLR,,,,,,,,VFR,-0.1,33.3,22.2,,,,,,,,,METAR,184
KMKL 141753Z VRB03KT 10SM FEW031 33/24 A3001 RMK AO1 SLP157 T03280239 10328 20217 58010,KMKL,2025-08-14T17:53:00Z,35.5933,-88.917,32.8,23.9,VRB,3,,10+,30.01,1015.7,,,TRUE,,,,,,,FEW,3100,,,,,,,VFR,-0.1,32.8,21.7,,,,,,,,,METAR,130
KMIW 141753Z AUTO 19008G19KT 10SM CLR 24/18 A3003 RMK AO2 SLP165 T02440178 10250 20167 51012,KMIW,2025-08-14T17:53:00Z,42.1106,-92.9163,24.4,17.8,190,8,19,10+,30.03,1016.5,,TRUE,TRUE,,,,,,,CLR,,,,,,,,VFR,0.12,25,16.7,,,,,,,,,METAR,296
KMIE 141753Z COR 00000KT 10SM CLR 29/19 A3005 RMK AO2 SLP167 T02890189 10289 20189 58001,KMIE,2025-08-14T17:53:00Z,40.2345,-85.3936,28.9,18.9,0,0,,10+,30.05,1016.7,TRUE,,TRUE,,,,,,,CLR,,,,,,,,VFR,-0.01,28.9,18.9,,,,,,,,,METAR,286
KMIC 141753Z 17012G20KT 10SM CLR 24/16 A2993 RMK AO2 SLP132 T02440161 10256 20200 51000,KMIC,2025-08-14T17:53:00Z,45.0623,-93.3511,24.4,16.1,170,12,20,10+,29.93,1013.2,,,TRUE,,,,,,,CLR,,,,,,,,VFR,,25.6,20,,,,,,,,,METAR,263
KMHT 141753Z 25003KT 10SM SCT035 BKN100 BKN200 31/19 A2988 RMK AO2 SLP126 T03110189 56003 $,KMHT,2025-08-14T17:53:00Z,42.9245,-71.4377,31.1,18.9,250,3,,10+,29.88,1012.6,,,TRUE,TRUE,,,,,,SCT,3500,BKN,10000,BKN,20000,,,VFR,-0.03,,,,,,,,,,,METAR,68
KMHE 141753Z AUTO 19013G21KT 10SM CLR 28/20 A2980 RMK AO2 PK WND 21027/1656 SLP080 60000 T02830200 10289 20194 56013,KMHE,2025-08-14T17:53:00Z,43.7743,-98.0384,28.3,20,190,13,21,10+,29.80,1008,,TRUE,TRUE,,,,,,,CLR,,,,,,,,VFR,-0.13,28.9,19.4,,,,,0.005,,,,METAR,397
KMGY 141753Z AUTO 13003KT 9SM BKN070 28/19 A3003 RMK AO2 SLP161 T02830194 10289 20217 58003,KMGY,2025-08-14T17:53:00Z,39.5918,-84.2263,28.3,19.4,130,3,,9,30.03,1016.1,,TRUE,TRUE,,,,,,,BKN,7000,,,,,,,VFR,-0.03,28.9,21.7,,,,,,,,,METAR,290
KMGW 141753Z VRB03KT 10SM SCT036 BKN080 27/19 A3006 RMK AO2 SLP167 T02720194 10283 20217 58002,KMGW,2025-08-14T17:53:00Z,39.6498,-79.9206,27.2,19.4,VRB,3,,10+,30.06,1016.7,,,TRUE,,,,,,,SCT,3600,BKN,8000,,,,,VFR,-0.02,28.3,21.7,,,,,,,,,METAR,375
KMGM 141753Z 32005KT 10SM FEW027 31/23 A3003 RMK AO2 SLP166 T03060233 10306 20228 58005,KMGM,2025-08-14T17:53:00Z,32.2997,-86.4074,30.6,23.3,320,5,,10+,30.03,1016.6,,,TRUE,,,,,,,FEW,2700,,,,,,,VFR,-0.05,30.6,22.8,,,,,,,,,METAR,64
KMFR 141753Z 30007KT 10SM CLR 24/13 A3003 RMK AO2 SLP156 60000 T02440128 10244 20156 58002 $,KMFR,2025-08-14T17:53:00Z,42.375,-122.877,24.4,12.8,300,7,,10+,30.03,1015.6,,,TRUE,TRUE,,,,,,CLR,,,,,,,,VFR,-0.02,24.4,15.6,,,,,0.005,,,,METAR,397
KMFE 141753Z 13013G17KT 10SM CLR 38/21 A2993 RMK AO2 SLP131 T03780206 10378 20267 58011 $,KMFE,2025-08-14T17:53:00Z,26.1791,-98.2445,37.8,20.6,130,13,17,10+,29.93,1013.1,,,TRUE,TRUE,,,,,,CLR,,,,,,,,VFR,-0.11,37.8,26.7,,,,,,,,,METAR,29
KMDW 141753Z 10007KT 10SM FEW045 FEW250 28/16 A3006 RMK AO2 SLP167 T02780161 10283 20217 50002,KMDW,2025-08-14T17:53:00Z,41.7841,-87.7551,27.8,16.1,100,7,,10+,30.06,1016.7,,,TRUE,,,,,,,FEW,4500,FEW,25000,,,,,VFR,0.02,28.3,21.7,,,,,,,,,METAR,186
KMCW 141753Z AUTO 17013KT 10SM BKN070 23/18 A3001 RMK AO2 SLP151 T02280178 10228 20178 50007,KMCW,2025-08-14T17:53:00Z,43.1543,-93.3262,22.8,17.8,170,13,,10+,30.01,1015.1,,TRUE,TRUE,,,,,,,BKN,7000,,,,,,,VFR,0.07,22.8,17.8,,,,,,,,,METAR,363
KMCO 141753Z 02004KT 10SM BKN045 BKN300 34/23 A3008 RMK AO2 RAB1654E09 SLP185 P0000 60000 T03390233 10339 20278 50004 $,KMCO,2025-08-14T17:53:00Z,28.4182,-81.3241,33.9,23.3,20,4,,10+,30.08,1018.5,,,TRUE,TRUE,,,,,,BKN,4500,BKN,30000,,,,,VFR,0.04,33.9,27.8,,,0.005,,0.005,,,,METAR,27
KMCN 141753Z VRB04KT 10SM SCT029 31/24 A3001 RMK AO2 SLP158 T03110239 10317 20233 58003,KMCN,2025-08-14T17:53:00Z,32.6889,-83.6529,31.1,23.9,VRB,4,,10+,30.01,1015.8,,,TRUE,,,,,,,SCT,2900,,,,,,,VFR,-0.03,31.7,23.3,,,,,,,,,METAR,104
KMCK 141753Z AUTO 19015KT 10SM 32/18 A2986 RMK AO2 SLP080 T03170183 10317 20206 58010,KMCK,2025-08-14T17:53:00Z,40.204,-100.59,31.7,18.3,190,15,,10+,29.86,1008,,TRUE,TRUE,,,,,,,,,,,,,,,VFR,-0.1,31.7,20.6,,,,,,,,,METAR,780
KMCI 141753Z 18010KT 10SM FEW150 BKN250 30/19 A3000 RMK AO2 SLP148 T03000194 10306 20189 50002 $,KMCI,2025-08-14T17:53:00Z,39.2975,-94.7309,30,19.4,180,10,,10+,30.00,1014.8,,,TRUE,TRUE,,,,,,FEW,15000,BKN,25000,,,,,VFR,0.02,30.6,18.9,,,,,,,,,METAR,308
KMCE 141753Z AUTO VRB06KT 10SM CLR 25/14 A2991 RMK AO2 SLP129 T02500139 10250 20161 50002,KMCE,2025-08-14T17:53:00Z,37.286,-120.518,25,13.9,VRB,6,,10+,29.91,1012.9,,TRUE,TRUE,,,,,,,CLR,,,,,,,,VFR,0.02,25,16.1,,,,,,,,,METAR,49
KMCB 141753Z AUTO 20005KT 10SM FEW038 32/24 A3003 RMK AO2 SLP161 6//// T03220239 10328 20233 58008,KMCB,2025-08-14T17:53:00Z,31.1823,-90.4721,32.2,23.9,200,5,,10+,30.03,1016.1,,TRUE,TRUE,,,,,,,FEW,3800,,,,,,,VFR,-0.08,32.8,23.3,,,,,,,,,METAR,124
KMBS 141753Z VRB06KT 10SM FEW048 26/14 A3010 RMK AO2 SLP187 T02610144 10261 20183 58001,KMBS,2025-08-14T17:53:00Z,43.5281,-84.0813,26.1,14.4,VRB,6,,10+,30.10,1018.7,,,TRUE,,,,,,,FEW,4800,,,,,,,VFR,-0.01,26.1,18.3,,,,,,,,,METAR,201
KMAI 141753Z AUTO 26007KT 10SM CLR 32/25 A3002 RMK AO2 LTG DSNT SW SLP162 T03220250 10328 20256 58005,KMAI,2025-08-14T17:53:00Z,30.837,-85.1835,32.2,25,260,7,,10+,30.02,1016.2,,TRUE,TRUE,,,,,,,CLR,,,,,,,,VFR,-0.05,32.8,25.6,,,,,,,,,METAR,33
KMAF 141753Z 20008KT 10SM CLR 36/14 A3002 RMK AO2 SLP110 T03610139 10361 20233 58007 $,KMAF,2025-08-14T17:53:00Z,31.9475,-102.209,36.1,13.9,200,8,,10+,30.02,1011,,,TRUE,TRUE,,,,,,CLR,,,,,,,,VFR,-0.07,36.1,23.3,,,,,,,,,METAR,874
KMAE 141753Z AUTO 31007KT 10SM CLR 27/13 A2992 RMK AO2 SLP129 T02720133 10272 20150 50001,KMAE,2025-08-14T17:53:00Z,36.9851,-120.111,27.2,13.3,310,7,,10+,29.92,1012.9,,TRUE,TRUE,,,,,,,CLR,,,,,,,,VFR,0.01,27.2,15,,,,,,,,,METAR,77
KLXV 141753Z AUTO VRB05KT 10SM CLR 22/M06 A3049 RMK AO2 SLP129 T02221061 10233 20033 58005,KLXV,2025-08-14T17:53:00Z,39.228,-106.316,22.2,-6.1,VRB,5,,10+,30.49,1012.9,,TRUE,TRUE,,,,,,,CLR,,,,,,,,VFR,-0.05,23.3,3.3,,,,,,,,,METAR,3027
KLXT 141753Z AUTO 10SM CLR 29/19 A3002 RMK AO2 SLPNO T02940189 53002,KLXT,2025-08-14T17:53:00Z,38.9577,-94.3712,29.4,18.9,,,,10+,30.02,,,TRUE,TRUE,,,,,,,CLR,,,,,,,,VFR,0.02,,,,,,,,,,,METAR,306
KLWV 141753Z AUTO 36004KT 10SM BKN034 OVC046 29/22 A3002 RMK AO2 SLP160 T02940217 10306 20222 58005,KLWV,2025-08-14T17:53:00Z,38.7604,-87.599,29.4,21.7,360,4,,10+,30.02,1016,,TRUE,TRUE,,,,,,,BKN,3400,OVC,4600,,,,,VFR,-0.05,30.6,22.2,,,,,,,,,METAR,128
KLWD 141753Z AUTO 17006KT 10SM CLR 26/19 A3003 RMK AO2 SLP160 T02560194 10267 20183 50006,KLWD,2025-08-14T17:53:00Z,40.6306,-93.9005,25.6,19.4,170,6,,10+,30.03,1016,,TRUE,TRUE,,,,,,,CLR,,,,,,,,VFR,0.06,26.7,18.3,,,,,,,,,METAR,345
KLVS 141753Z AUTO VRB05KT 10SM CLR 31/04 A3023 RMK AO2 SLP100 T03060039 10306 20167 58003,KLVS,2025-08-14T17:53:00Z,35.6558,-105.139,30.6,3.9,VRB,5,,10+,30.23,1010,,TRUE,TRUE,,,,,,,CLR,,,,,,,,VFR,-0.03,30.6,16.7,,,,,,,,,METAR,2095
KLVM 141753Z AUTO VRB04KT 10SM CLR 28/03 A2997 RMK AO2 SLP092 T02830033 10283 20100 58006,KLVM,2025-08-14T17:53:00Z,45.6984,-110.442,28.3,3.3,VRB,4,,10+,29.97,1009.2,,TRUE,TRUE,,,,,,,CLR,,,,,,,,VFR,-0.06,28.3,10,,,,,,,,,METAR,1418
KLVK 141753Z 30005KT 10SM CLR 21/14 A2995 RMK AO2 SLP140 T02060139 10206 20150 50001,KLVK,2025-08-14T17:53:00Z,37.6931,-121.815,20.6,13.9,300,5,,10+,29.95,1014,,,TRUE,,,,,,,CLR,,,,,,,,VFR,0.01,20.6,15,,,,,,,,,METAR,120
KLUK 141753Z 07006KT 10SM FEW080 32/19 A3001 RMK AO2 SLP157 T03170189 10317 20217 58006,KLUK,2025-08-14T17:53:00Z,39.106,-84.4161,31.7,18.9,70,6,,10+,30.01,1015.7,,,TRUE,,,,,,,FEW,8000,,,,,,,VFR,-0.06,31.7,21.7,,,,,,,,,METAR,144
KLSE 141753Z 24011KT 10SM CLR 27/17 A3000 RMK AO2 SLP151 T02720167 10283 20167 56003,KLSE,2025-08-14T17:53:00Z,43.8792,-91.253,27.2,16.7,240,11,,10+,30.00,1015.1,,,TRUE,,,,,,,CLR,,,,,,,,VFR,-0.03,28.3,16.7,,,,,,,,,METAR,198
KLPR 141753Z AUTO 02006KT 10SM CLR 28/16 A3007 RMK AO2 SLP176 T02830156 10283 20211 50001,KLPR,2025-08-14T17:53:00Z,41.3463,-82.1788,28.3,15.6,20,6,,10+,30.07,1017.6,,TRUE,TRUE,,,,,,,CLR,,,,,,,,VFR,0.01,28.3,21.1,,,,,,,,,METAR,241
KLOZ 141753Z AUTO 04007KT 10SM SCT030 29/21 A3005 RMK AO2 LTG DSNT NW SLP161 T02940211 10294 20211 58008,KLOZ,2025-08-14T17:53:00Z,37.0896,-84.0688,29.4,21.1,40,7,,10+,30.05,1016.1,,TRUE,TRUE,,,,,,,SCT,3000,,,,,,,VFR,-0.08,29.4,21.1,,,,,,,,,METAR,361
KLOU 141753Z VRB06KT 10SM SCT045 31/21 A3000 RMK AO2 SLP152 T03060211 10322 20228 58009,KLOU,2025-08-14T17:53:00Z,38.2302,-85.6629,30.6,21.1,VRB,6,,10+,30.00,1015.2,,,TRUE,,,,,,,SCT,4500,,,,,,,VFR,-0.09,32.2,22.8,,,,,,,,,METAR,165
KLOL 141753Z AUTO VRB05KT 10SM CLR 30/01 A3001 RMK AO2 SLP113 T03000011 10300 20117 58004,KLOL,2025-08-14T17:53:00Z,40.0685,-118.57,30,1.1,VRB,5,,10+,30.01,1011.3,,TRUE,TRUE,,,,,,,CLR,,,,,,,,VFR,-0.04,30,11.7,,,,,,,,,METAR,1191
KLND 141753Z AUTO 31004KT 10SM CLR 27/07 A3006 RMK AO2 SLP097 T02670067 10267 20156 58001,KLND,2025-08-14T17:53:00Z,42.8154,-108.726,26.7,6.7,310,4,,10+,30.06,1009.7,,TRUE,TRUE,,,,,,,CLR,,,,,,,,VFR,-0.01,26.7,15.6,,,,,,,,,METAR,1700
KLMT 141753Z VRB03KT 10SM CLR 23/08 A3008 RMK AO2 SLP141 T02280078 10228 20083 58003,KLMT,2025-08-14T17:53:00Z,42.147,-121.726,22.8,7.8,VRB,3,,10+,30.08,1014.1,,,TRUE,,,,,,,CLR,,,,,,,,VFR,-0.03,22.8,8.3,,,,,,,,,METAR,1246
KLKV 141753Z AUTO VRB04KT 10SM CLR 24/08 A3011 RMK AO2 SLP149 T02440083 10244 20072 58005,KLKV,2025-08-14T17:53:00Z,42.1538,-120.403,24.4,8.3,VRB,4,,10+,30.11,1014.9,,TRUE,TRUE,,,,,,,CLR,,,,,,,,VFR,-0.05,24.4,7.2,,,,,,,,,METAR,1440
KLIT 141753Z COR 24006KT 10SM BKN050 BKN110 34/20 A2998 RMK AO2 SLP151 T03390200 10339 20239 58012,KLIT,2025-08-14T17:53:00Z,34.7273,-92.2358,33.9,20,240,6,,10+,29.98,1015.1,TRUE,,TRUE,,,,,,,BKN,5000,BKN,11000,,,,,VFR,-0.12,33.9,23.9,,,,,,,,,METAR,77
KLHQ 141753Z AUTO 08006KT 10SM FEW035 FEW050 29/21 A3004 RMK AO2 SLP165 T02940206 10294 20200 58003,KLHQ,2025-08-14T17:53:00Z,39.7573,-82.6633,29.4,20.6,80,6,,10+,30.04,1016.5,,TRUE,TRUE,,,,,,,FEW,3500,FEW,5000,,,,,VFR,-0.03,29.4,20,,,,,,,,,METAR,259
KLGB 141753Z 19005KT 10SM OVC015 21/17 A2994 RMK AO2 SLP136 T02110172 10211 20200 50004,KLGB,2025-08-14T17:53:00Z,33.8118,-118.147,21.1,17.2,190,5,,10+,29.94,1013.6,,,TRUE,,,,,,,OVC,1500,,,,,,,MVFR,0.04,21.1,20,,,,,,,,,METAR,10
KLFK 141753Z AUTO 00000KT 10SM SCT039 32/23 A3000 RMK AO2 SLP153 T03220233 10339 20244 58010,KLFK,2025-08-14T17:53:00Z,31.2359,-94.7546,32.2,23.3,0,0,,10+,30.00,1015.3,,TRUE,TRUE,,,,,,,SCT,3900,,,,,,,VFR,-0.1,33.9,24.4,,,,,,,,,METAR,87
KLEE 141753Z 27004KT 10SM FEW035 BKN048 BKN070 32/24 A3007 RMK AO2 SLP181 T03170239 10333 20272 58004,KLEE,2025-08-14T17:53:00Z,28.8214,-81.8006,31.7,23.9,270,4,,10+,30.07,1018.1,,,TRUE,,,,,,,FEW,3500,BKN,4800,BKN,7000,,,VFR,-0.04,33.3,27.2,,,,,,,,,METAR,21
KLEB 141753Z 33007G15KT 300V010 10SM FEW042 31/19 A2994 RMK AO2 SLP125 T03110189 10311 20217 55003,KLEB,2025-08-14T17:53:00Z,43.6271,-72.3054,31.1,18.9,330,7,15,10+,29.94,1012.5,,,TRUE,,,,,,,FEW,4200,,,,,,,VFR,-0.03,31.1,21.7,,,,,,,,,METAR,169
KLCH 141753Z 21004KT 10SM CLR 31/25 A3001 RMK AO2 LTG DSNT E AND SE TSB01E20 SLP170 T03110250 10328 20261 58004,KLCH,2025-08-14T17:53:00Z,30.1255,-93.2277,31.1,25,210,4,,10+,30.01,1017,,,TRUE,,,,,,,CLR,,,,,,,,VFR,-0.04,32.8,26.1,,,,,,,,,METAR,2
KLBF 141753Z AUTO 19010KT 10SM CLR 29/20 A2986 RMK AO2 SLP080 T02890200 10294 20200 58001 $,KLBF,2025-08-14T17:53:00Z,41.122,-100.669,28.9,20,190,10,,10+,29.86,1008,,TRUE,TRUE,TRUE,,,,,,CLR,,,,,,,,VFR,-0.01,29.4,20,,,,,,,,,METAR,843
KLBB 141753Z 18011KT 10SM SCT250 35/17 A3003 RMK AO2 SLP106 T03500167 10350 20217 58009,KLBB,2025-08-14T17:53:00Z,33.6658,-101.823,35,16.7,180,11,,10+,30.03,1010.6,,,TRUE,,,,,,,SCT,25000,,,,,,,VFR,-0.09,35,21.7,,,,,,,,,METAR,996
KLAX 141753Z 25007KT 5SM HZ FEW009 BKN012 20/17 A2994 RMK AO2 SLP138 T02000172 10206 20194 50004 $,KLAX,2025-08-14T17:53:00Z,33.9382,-118.387,20,17.2,250,7,,5,29.94,1013.8,,,TRUE,TRUE,,,,,HZ,FEW,900,BKN,1200,,,,,MVFR,0.04,20.6,19.4,,,,,,,,,METAR,30
KLAW 141753Z 15009G17KT 10SM CLR 34/19 A2996 RMK AO2 SLP129 T03440194 10344 20217 58012,KLAW,2025-08-14T17:53:00Z,34.5577,-98.4172,34.4,19.4,150,9,17,10+,29.96,1012.9,,,TRUE,,,,,,,CLR,,,,,,,,VFR,-0.12,34.4,21.7,,,,,,,,,METAR,328
KLAR 141753Z AUTO 31011G18KT 270V350 10SM CLR 29/M01 A3021 RMK AO2 SLP096 T02891011 10289 20100 58001,KLAR,2025-08-14T17:53:00Z,41.3165,-105.673,28.9,-1.1,310,11,18,10+,30.21,1009.6,,TRUE,TRUE,,,,,,,CLR,,,,,,,,VFR,-0.01,28.9,10,,,,,,,,,METAR,2217
KLAN 141753Z VRB06KT 10SM FEW040 BKN085 27/17 A3008 RMK AO2 SLP180 T02670167 10278 20183 56003 $,KLAN,2025-08-14T17:53:00Z,42.7761,-84.5997,26.7,16.7,VRB,6,,10+,30.08,1018,,,TRUE,TRUE,,,,,,FEW,4000,BKN,8500,,,,,VFR,-0.03,27.8,18.3,,,,,,,,,METAR,261
KLAA 141753Z AUTO 00000KT 10SM CLR 35/10 A2992 RMK AO2 SLP069 T03500100 10356 20167 58005,KLAA,2025-08-14T17:53:00Z,38.0718,-102.687,35,10,0,0,,10+,29.92,1006.9,,TRUE,TRUE,,,,,,,CLR,,,,,,,,VFR,-0.05,35.6,16.7,,,,,,,,,METAR,1129
KJLN 141753Z 25007KT 10SM SCT055 33/19 A2999 RMK AO2 SLP144 T03280194 10328 20206 58006,KJLN,2025-08-14T17:53:00Z,37.1522,-94.4952,32.8,19.4,250,7,,10+,29.99,1014.4,,,TRUE,,,,,,,SCT,5500,,,,,,,VFR,-0.06,32.8,20.6,,,,,,,,,METAR,297
KJKL 141753Z AUTO 00000KT 10SM FEW028 SCT055 BKN080 28/21 A3006 RMK AO2 SLP162 T02830206 10289 20211 58004,KJKL,2025-08-14T17:53:00Z,37.5913,-83.3137,28.3,20.6,0,0,,10+,30.06,1016.2,,TRUE,TRUE,,,,,,,FEW,2800,SCT,5500,BKN,8000,,,VFR,-0.04,28.9,21.1,,,,,,,,,METAR,414
KJER 141753Z AUTO 24011KT 10SM CLR 26/07 A3000 RMK AO2 SLP114 T02560072 10256 20194 50002,KJER,2025-08-14T17:53:00Z,42.7274,-114.455,25.6,7.2,240,11,,10+,30.00,1011.4,,TRUE,TRUE,,,,,,,CLR,,,,,,,,VFR,0.02,25.6,19.4,,,,,,,,,METAR,1226
KJEF 141753Z 15006KT 10SM CLR 30/19 A3000,KJEF,2025-08-14T17:53:00Z,38.5945,-92.1567,30,19,150,6,,10+,30.00,,,,,,,,,,,CLR,,,,,,,,VFR,,,,,,,,,,,,METAR,167
KJBR 141753Z AUTO 00000KT 10SM FEW095 32/23 A2999 RMK AO2 SLP153 T03170228 10328 20233 58008 $,KJBR,2025-08-14T17:53:00Z,35.8357,-90.6442,31.7,22.8,0,0,,10+,29.99,1015.3,,TRUE,TRUE,TRUE,,,,,,FEW,9500,,,,,,,VFR,-0.08,32.8,23.3,,,,,,,,,METAR,79
KIXD 141753Z 16007KT 10SM CLR 30/21 A3001 RMK AO2 SLP150 T03000211 10300 20200 58000,KIXD,2025-08-14T17:53:00Z,38.8221,-94.8902,30,21.1,160,7,,10+,30.01,1015,,,TRUE,,,,,,,CLR,,,,,,,,VFR,,30,20,,,,,,,,,METAR,322
KIWI 141753Z AUTO VRB03KT 10SM FEW049 BKN065 32/19 A2989 RMK AO2 SLP120 T03170194 10317 20228 55002,KIWI,2025-08-14T17:53:00Z,43.9639,-69.7114,31.7,19.4,VRB,3,,10+,29.89,1012,,TRUE,TRUE,,,,,,,FEW,4900,BKN,6500,,,,,VFR,-0.02,31.7,22.8,,,,,,,,,METAR,16
KITR 141753Z AUTO 20007KT 10SM CLR 32/14 A2996 RMK AO2 SLP079 T03170144 10317 20167 50002,KITR,2025-08-14T17:53:00Z,39.2415,-102.282,31.7,14.4,200,7,,10+,29.96,1007.9,,TRUE,TRUE,,,,,,,CLR,,,,,,,,VFR,0.02,31.7,16.7,,,,,,,,,METAR,1285
KIPL 141753Z AUTO 00000KT 10SM SCT100 37/20 A2977 RMK AO2 SLP080 T03670200 10367 20283 58003,KIPL,2025-08-14T17:53:00Z,32.8346,-115.577,36.7,20,0,0,,10+,29.77,1008,,TRUE,TRUE,,,,,,,SCT,10000,,,,,,,VFR,-0.03,36.7,28.3,,,,,,,,,METAR,-16
KIML 141753Z AUTO 20004KT 10SM CLR 30/17 A2989 RMK AO2 SLP082 T03000172 10300 20167 50002,KIML,2025-08-14T17:53:00Z,40.5106,-101.624,30,17.2,200,4,,10+,29.89,1008.2,,TRUE,TRUE,,,,,,,CLR,,,,,,,,VFR,0.02,30,16.7,,,,,,,,,METAR,997
KIDA 141753Z 22013KT 10SM CLR 30/05 A3002 RMK AO2 SLP107 T03000050 10306 20139 55002,KIDA,2025-08-14T17:53:00Z,43.5204,-112.068,30,5,220,13,,10+,30.02,1010.7,,,TRUE,,,,,,,CLR,,,,,,,,VFR,-0.02,30.6,13.9,,,,,,,,,METAR,1444
KICT 141753Z 17013G18KT 10SM BKN250 32/21 A2996 RMK AO2 SLP128 T03220211 10322 20222 58009,KICT,2025-08-14T17:53:00Z,37.6475,-97.43,32.2,21.1,170,13,18,10+,29.96,1012.8,,,TRUE,,,,,,,BKN,25000,,,,,,,VFR,-0.09,32.2,22.2,,,,,,,,,METAR,428
KICR 141753Z AUTO 21006KT 10SM CLR 31/19 A2981 RMK AO2 SLP076 T03060189 10306 20206 58002,KICR,2025-08-14T17:53:00Z,43.391,-99.8462,30.6,18.9,210,6,,10+,29.81,1007.6,,TRUE,TRUE,,,,,,,CLR,,,,,,,,VFR,-0.02,30.6,20.6,,,,,,,,,METAR,618
KIAH 141753Z 09005KT 10SM SCT045 SCT250 35/22 A2998 RMK AO2 SLP152 LTG DSNT E CB AND SHRA DSNT E TCU DSNT SE S T03500222 10361 20267 58008 $,KIAH,2025-08-14T17:53:00Z,29.9844,-95.3607,35,22.2,90,5,,10+,29.98,1015.2,,,TRUE,TRUE,,,,,,SCT,4500,SCT,25000,,,,,VFR,-0.08,36.1,26.7,,,,,,,,,METAR,27
KIAG 141753Z 04009G15KT 9SM SCT038 BKN047 28/18 A3003 RMK AO2 SLP163 T02830178 10283 20217 51002,KIAG,2025-08-14T17:53:00Z,43.1083,-78.9382,28.3,17.8,40,9,15,9,30.03,1016.3,,,TRUE,,,,,,,SCT,3800,BKN,4700,,,,,VFR,0.02,28.3,21.7,,,,,,,,,METAR,179
KHZY 141753Z AUTO 10SM CLR 26/14 A3007 RMK AO2 SLP175 T02610144 10267 20189 50003,KHZY,2025-08-14T17:53:00Z,41.7794,-80.6968,26.1,14.4,,,,10+,30.07,1017.5,,TRUE,TRUE,,,,,,,CLR,,,,,,,,VFR,0.03,26.7,18.9,,,,,,,,,METAR,279
KHYR 141753Z AUTO 13009G17KT 10SM BKN110 25/16 A3001 RMK AO2 SLP160 T02500161 10250 20150 58001,KHYR,2025-08-14T17:53:00Z,46.0303,-91.4426,25,16.1,130,9,17,10+,30.01,1016,,TRUE,TRUE,,,,,,,BKN,11000,,,,,,,VFR,-0.01,25,15,,,,,,,,,METAR,369
KHVR 141753Z AUTO VRB03KT 10SM CLR 18/09 A2996 RMK AO2 SLP134 T01830094 10189 20139 58003,KHVR,2025-08-14T17:53:00Z,48.5425,-109.764,18.3,9.4,VRB,3,,10+,29.96,1013.4,,TRUE,TRUE,,,,,,,CLR,,,,,,,,VFR,-0.03,18.9,13.9,,,,,,,,,METAR,789
KHVN 141753Z 22014G18KT 10SM SCT030 BKN120 29/23 A2991 RMK AO2 SLP127 T02940233 10300 20250 50003,KHVN,2025-08-14T17:53:00Z,41.259,-72.8891,29.4,23.3,220,14,18,10+,29.91,1012.7,,,TRUE,,,,,,,SCT,3000,BKN,12000,,,,,VFR,0.03,30,25,,,,,,,,,METAR,4
KHUL 141753Z AUTO 36010KT 10SM FEW043 OVC070 26/17 A2988 RMK AO2 SLP118 60001 T02610172 10278 20206 53002,KHUL,2025-08-14T17:53:00Z,46.1185,-67.7929,26.1,17.2,360,10,,10+,29.88,1011.8,,TRUE,TRUE,,,,,,,FEW,4300,OVC,7000,,,,,VFR,0.02,27.8,20.6,,,,,0.01,,,,METAR,148
KHUF 141753Z 34004KT 10SM BKN039 OVC050 29/24 A3003 RMK AO2 SLP165 T02890239 10306 20206 58002,KHUF,2025-08-14T17:53:00Z,39.4429,-87.3221,28.9,23.9,340,4,,10+,30.03,1016.5,,,TRUE,,,,,,,BKN,3900,OVC,5000,,,,,VFR,-0.02,30.6,20.6,,,,,,,,,METAR,174
KHTL 141753Z AUTO 00000KT 10SM CLR 26/12 A3011 RMK AO2 SLP193 T02610117 10261 20139 56004,KHTL,2025-08-14T17:53:00Z,44.359,-84.6739,26.1,11.7,0,0,,10+,30.11,1019.3,,TRUE,TRUE,,,,,,,CLR,,,,,,,,VFR,-0.04,26.1,13.9,,,,,,,,,METAR,350
KHSV 141753Z 36004KT 10SM SCT036 SCT160 SCT250 32/22 A3003 RMK AO2 SLP160 T03220222 10322 20222 58008 $,KHSV,2025-08-14T17:53:00Z,34.6441,-86.7861,32.2,22.2,360,4,,10+,30.03,1016,,,TRUE,TRUE,,,,,,SCT,3600,SCT,16000,SCT,25000,,,VFR,-0.08,32.2,22.2,,,,,,,,,METAR,190
KHSI 141753Z AUTO 18015G26KT 10SM CLR 30/21 A2989 RMK AO2 PK WND 18027/1730 SLP101 T03000206 10300 20200 58005,KHSI,2025-08-14T17:53:00Z,40.6002,-98.4264,30,20.6,180,15,26,10+,29.89,1010.1,,TRUE,TRUE,,,,,,,CLR,,,,,,,,VFR,-0.05,30,20,,,,,,,,,METAR,592
KHRO 141753Z AUTO 00000KT 10SM FEW050 BKN085 33/19 A3003 RMK AO2 SLP151 T03280189 10328 20200 58007,KHRO,2025-08-14T17:53:00Z,36.2673,-93.1566,32.8,18.9,0,0,,10+,30.03,1015.1,,TRUE,TRUE,,,,,,,FEW,5000,BKN,8500,,,,,VFR,-0.07,32.8,20,,,,,,,,,METAR,417
KHRI 141753Z AUTO 25018G27KT 10SM CLR 26/10 A2994 RMK AO2 PK WND 24027/1732 SLP132 T02560100 10256 20194 51005,KHRI,2025-08-14T17:53:00Z,45.8259,-119.261,25.6,10,250,18,27,10+,29.94,1013.2,,TRUE,TRUE,,,,,,,CLR,,,,,,,,VFR,0.05,25.6,19.4,,,,,,,,,METAR,194
KHQM 141753Z AUTO 26006KT 10SM BKN034 18/11 A3005 RMK AO2 SLP181 T01830106 10183 20144 50000,KHQM,2025-08-14T17:53:00Z,46.9729,-123.931,18.3,10.6,260,6,,10+,30.05,1018.1,,TRUE,TRUE,,,,,,,BKN,3400,,,,,,,VFR,,18.3,14.4,,,,,,,,,METAR,4
KHOU 141753Z 22005KT 10SM SCT040 SCT250 34/24 A2998 RMK AO2 SLP155 T03390239 10344 20267 58009,KHOU,2025-08-14T17:53:00Z,29.6458,-95.2821,33.9,23.9,220,5,,10+,29.98,1015.5,,,TRUE,,,,,,,SCT,4000,SCT,25000,,,,,VFR,-0.09,34.4,26.7,,,,,,,,,METAR,13
KHOT 141753Z AUTO 27006KT 10SM FEW044 33/21 A3000 RMK AO2 SLP150 T03330211 10333 20222 58010 $,KHOT,2025-08-14T17:53:00Z,34.4755,-93.1041,33.3,21.1,270,6,,10+,30.00,1015,,TRUE,TRUE,TRUE,,,,,,FEW,4400,,,,,,,VFR,-0.1,33.3,22.2,,,,,,,,,METAR,153
KHLN 141753Z VRB03KT 10SM CLR 23/09 A2994 RMK AO2 SLP118 T02330089 10233 20144 58014 $,KHLN,2025-08-14T17:53:00Z,46.6045,-111.989,23.3,8.9,VRB,3,,10+,29.94,1011.8,,,TRUE,TRUE,,,,,,CLR,,,,,,,,VFR,-0.14,23.3,14.4,,,,,,,,,METAR,1178
KHLG 141753Z VRB03KT 10SM FEW027 27/19 A3006 RMK AO2 SLP171 T02720194 10272 20206 58004,KHLG,2025-08-14T17:53:00Z,40.1699,-80.6441,27.2,19.4,VRB,3,,10+,30.06,1017.1,,,TRUE,,,,,,,FEW,2700,,,,,,,VFR,-0.04,27.2,20.6,,,,,,,,,METAR,365
KHLC 141753Z AUTO 18016G26KT 10SM CLR 33/19 A2988 RMK AO2 PK WND 19031/1659 SLP090 T03280189 10328 20200 58005,KHLC,2025-08-14T17:53:00Z,39.3741,-99.8299,32.8,18.9,180,16,26,10+,29.88,1009,,TRUE,TRUE,,,,,,,CLR,,,,,,,,VFR,-0.05,32.8,20,,,,,,,,,METAR,667
KHKY 141753Z 00000KT 10SM -RA BKN100 31/21 A3001 RMK AO2 SLP139 P0000 60000 T03060211 10311 20222 58002,KHKY,2025-08-14T17:53:00Z,35.742,-81.3822,30.6,21.1,0,0,,10+,30.01,1013.9,,,TRUE,,,,,,-RA,BKN,10000,,,,,,,VFR,-0.02,31.1,22.2,,,0.005,,0.005,,,,METAR,357
KHKS 141753Z VRB03KT 10SM CLR 33/26 A3001 RMK AO2 LTG DSNT SE SLP153 T03280256 10333 20250 58010,KHKS,2025-08-14T17:53:00Z,32.3376,-90.2214,32.8,25.6,VRB,3,,10+,30.01,1015.3,,,TRUE,,,,,,,CLR,,,,,,,,VFR,-0.1,33.3,25,,,,,,,,,METAR,103
KHKA 141753Z AUTO 19011KT 9SM -RA SCT040 BKN060 OVC080 31/24 A2999 RMK AO2 RAB51 SLP151 P0000 60000 T03060239 10328 20233 58008 $,KHKA,2025-08-14T17:53:00Z,35.9378,-89.8332,30.6,23.9,190,11,,9,29.99,1015.1,,TRUE,TRUE,TRUE,,,,,-RA,SCT,4000,BKN,6000,OVC,8000,,,VFR,-0.08,32.8,23.3,,,0.005,,0.005,,,,METAR,78
KHJO 141753Z AUTO VRB03KT 10SM CLR 28/13 A2991 RMK AO2 SLP129 T02780133 10283 20189 58003,KHJO,2025-08-14T17:53:00Z,36.3114,-119.623,27.8,13.3,VRB,3,,10+,29.91,1012.9,,TRUE,TRUE,,,,,,,CLR,,,,,,,,VFR,-0.03,28.3,18.9,,,,,,,,,METAR,73
KHIO 141753Z 28003KT 10SM OVC033 20/12 A3006 RMK AO2 SLP175 T02000122 10200 20156 50002,KHIO,2025-08-14T17:53:00Z,45.5476,-122.956,20,12.2,280,3,,10+,30.06,1017.5,,,TRUE,,,,,,,OVC,3300,,,,,,,VFR,0.02,20,15.6,,,,,,,,,METAR,62
KHHR 141753Z 28006KT 5SM HZ OVC017 21/17 A2994 RMK AO2 SLP137 T02110172 10211 20194 50002,KHHR,2025-08-14T17:53:00Z,33.9235,-118.333,21.1,17.2,280,6,,5,29.94,1013.7,,,TRUE,,,,,,HZ,OVC,1700,,,,,,,MVFR,0.02,21.1,19.4,,,,,,,,,METAR,21
KHGR 141753Z 04014KT 10SM SCT037 BKN050 BKN075 28/22 A2997 RMK AO2 WSHFT 1731 LTG DSNT E AND SE SLP152 T02830217 10328 20228 55000,KHGR,2025-08-14T17:53:00Z,39.7062,-77.7304,28.3,21.7,40,14,,10+,29.97,1015.2,,,TRUE,,,,,,,SCT,3700,BKN,5000,BKN,7500,,,VFR,,32.8,22.8,,,,,,,,,METAR,206
KHFD 141753Z 35005KT 10SM CLR 31/20 A2990 RMK AO2 SLP123 T03060200 10306 20233 58001,KHFD,2025-08-14T17:53:00Z,41.7352,-72.6512,30.6,20,350,5,,10+,29.90,1012.3,,,TRUE,,,,,,,CLR,,,,,,,,VFR,-0.01,30.6,23.3,,,,,,,,,METAR,3
KHEI 141753Z AUTO 01010KT 10SM CLR 31/12 A2982 RMK AO2 SLP076 T03110117 10311 20117 51015,KHEI,2025-08-14T17:53:00Z,46.0108,-102.652,31.1,11.7,10,10,,10+,29.82,1007.6,,TRUE,TRUE,,,,,,,CLR,,,,,,,,VFR,0.15,31.1,11.7,,,,,,,,,METAR,824
KHBR 141753Z AUTO 18010G21KT 10SM CLR 35/19 A2997 RMK AO2 SLP126 T03500194 10356 20217 58009,KHBR,2025-08-14T17:53:00Z,34.9891,-99.0528,35,19.4,180,10,21,10+,29.97,1012.6,,TRUE,TRUE,,,,,,,CLR,,,,,,,,VFR,-0.09,35.6,21.7,,,,,,,,,METAR,475
KHAO 141753Z AUTO 00000KT 10SM FEW070 SCT090 30/19 A3003 RMK AO2 SLP165 T03000189 10306 20211 58004,KHAO,2025-08-14T17:53:00Z,39.3612,-84.5206,30,18.9,0,0,,10+,30.03,1016.5,,TRUE,TRUE,,,,,,,FEW,7000,SCT,9000,,,,,VFR,-0.04,30.6,21.1,,,,,,,,,METAR,185
KGZH 141753Z AUTO VRB04KT 10SM BKN034 33/23 A3003 RMK AO2 SLP166 T03280233 10339 20228 58007,KGZH,2025-08-14T17:53:00Z,31.4191,-87.0484,32.8,23.3,VRB,4,,10+,30.03,1016.6,,TRUE,TRUE,,,,,,,BKN,3400,,,,,,,VFR,-0.07,33.9,22.8,,,,,,,,,METAR,77
KGWO 141753Z AUTO 23005KT 10SM CLR 34/24 A2999 RMK AO2 SLP152 T03440244 10350 20239 58012,KGWO,2025-08-14T17:53:00Z,33.4961,-90.0894,34.4,24.4,230,5,,10+,29.99,1015.2,,TRUE,TRUE,,,,,,,CLR,,,,,,,,VFR,-0.12,35,23.9,,,,,,,,,METAR,42
KGVL 141753Z AUTO VRB03KT 10SM CLR 31/22 A3006 RMK AO2 SLP159 T03060222 10306 20239 58001,KGVL,2025-08-14T17:53:00Z,34.2721,-83.8305,30.6,22.2,VRB,3,,10+,30.06,1015.9,,TRUE,TRUE,,,,,,,CLR,,,,,,,,VFR,-0.01,30.6,23.9,,,,,,,,,METAR,387
KGUP 141753Z AUTO 24008KT 10SM CLR 29/03 A3025 RMK AO2 SLP035 T02890028 10289 20156 58009,KGUP,2025-08-14T17:53:00Z,35.5086,-108.793,28.9,2.8,240,8,,10+,30.25,1003.5,,TRUE,TRUE,,,,,,,CLR,,,,,,,,VFR,-0.09,28.9,15.6,,,,,,,,,METAR,1972
KGSP 141753Z VRB03KT 10SM FEW028 30/22 A3000 RMK AO2 LTG DSNT W AND NW SLP147 T03000222 10306 20228 58004,KGSP,2025-08-14T17:53:00Z,34.8842,-82.2209,30,22.2,VRB,3,,10+,30.00,1014.7,,,TRUE,,,,,,,FEW,2800,,,,,,,VFR,-0.04,30.6,22.8,,,,,,,,,METAR,285
KGSH 141753Z AUTO 19003KT 10SM FEW040 27/17 A3005 RMK AO2 SLP171 T02670172 10278 20150 55003 $,KGSH,2025-08-14T17:53:00Z,41.5265,-85.7872,26.7,17.2,190,3,,10+,30.05,1017.1,,TRUE,TRUE,TRUE,,,,,,FEW,4000,,,,,,,VFR,-0.03,27.8,15,,,,,,,,,METAR,252
KGRR 141753Z 16004KT 10SM FEW034 SCT070 SCT250 27/18 A3007 RMK AO2 SLP177 T02670183 10272 20183 56004 $,KGRR,2025-08-14T17:53:00Z,42.8821,-85.523,26.7,18.3,160,4,,10+,30.07,1017.7,,,TRUE,TRUE,,,,,,FEW,3400,SCT,7000,SCT,25000,,,VFR,-0.04,27.2,18.3,,,,,,,,,METAR,239
KGRI 141753Z 18019G28KT 10SM CLR 31/20 A2988 RMK AO2 PK WND 17030/1719 SLP103 T03110200 10311 20206 58003,KGRI,2025-08-14T17:53:00Z,40.9615,-98.313,31.1,20,180,19,28,10+,29.88,1010.3,,,TRUE,,,,,,,CLR,,,,,,,,VFR,-0.03,31.1,20.6,,,,,,,,,METAR,562
KGRB 141753Z 16009KT 10SM FEW046 SCT060 26/18 A3005 RMK AO2 SLP173 T02610178 10267 20172 58006,KGRB,2025-08-14T17:53:00Z,44.4796,-88.137,26.1,17.8,160,9,,10+,30.05,1017.3,,,TRUE,,,,,,,FEW,4600,SCT,6000,,,,,VFR,-0.06,26.7,17.2,,,,,,,,,METAR,209
KGPT 141753Z 24006KT 10SM FEW040 SCT050 33/23 A3002 RMK AO2 SLP164 T03330228 10339 20239 58006,KGPT,2025-08-14T17:53:00Z,30.4121,-89.0809,33.3,22.8,240,6,,10+,30.02,1016.4,,,TRUE,,,,,,,FEW,4000,SCT,5000,,,,,VFR,-0.06,33.9,23.9,,,,,,,,,METAR,5
KGOK 141753Z AUTO 17009G17KT 10SM CLR 33/21 A2996 RMK AO2 SLP132 T03330206 10339 20211 58010,KGOK,2025-08-14T17:53:00Z,35.8517,-97.4142,33.3,20.6,170,9,17,10+,29.96,1013.2,,TRUE,TRUE,,,,,,,CLR,,,,,,,,VFR,-0.1,33.9,21.1,,,,,,,,,METAR,326
KGNV 141753Z 24007KT 10SM FEW040 34/25 A3007 RMK AO2 LTG DSNT SE SLP178 60000 T03390250 10339 20261 57006,KGNV,2025-08-14T17:53:00Z,29.6917,-82.276,33.9,25,240,7,,10+,30.07,1017.8,,,TRUE,,,,,,,FEW,4000,,,,,,,VFR,-0.06,33.9,26.1,,,,,0.005,,,,METAR,41
KGMU 141753Z 02007KT 10SM CLR 31/23 A3002 RMK AO2 LTG DSNT NW SLP152 T03110228 10311 20233 58004,KGMU,2025-08-14T17:53:00Z,34.8487,-82.3501,31.1,22.8,20,7,,10+,30.02,1015.2,,,TRUE,,,,,,,CLR,,,,,,,,VFR,-0.04,31.1,23.3,,,,,,,,,METAR,309
KGLR 141753Z AUTO 10SM OVC055 24/11 A3011 RMK AO2 SLP192 T02440111 10250 20150 58004,KGLR,2025-08-14T17:53:00Z,45.0166,-84.6894,24.4,11.1,,,,10+,30.11,1019.2,,TRUE,TRUE,,,,,,,OVC,5500,,,,,,,VFR,-0.04,25,15,,,,,,,,,METAR,403
KGLH 141753Z 00000KT 10SM SCT043 BKN050 34/24 A2998 RMK AO2 SLP157 T03390239 10344 20244 58012,KGLH,2025-08-14T17:53:00Z,33.4772,-90.9847,33.9,23.9,0,0,,10+,29.98,1015.7,,,TRUE,,,,,,,SCT,4300,BKN,5000,,,,,VFR,-0.12,34.4,24.4,,,,,,,,,METAR,40
KGLD 141753Z AUTO 21010KT 10SM CLR 32/17 A2993 RMK AO2 SLP081 T03170167 10317 20183 51002,KGLD,2025-08-14T17:53:00Z,39.3673,-101.693,31.7,16.7,210,10,,10+,29.93,1008.1,,TRUE,TRUE,,,,,,,CLR,,,,,,,,VFR,0.02,31.7,18.3,,,,,,,,,METAR,1111
KGKY 141753Z 19005KT 10SM CLR 35/22 A2996 RMK AO2 SLP136 T03500222 10350 20233 58010,KGKY,2025-08-14T17:53:00Z,32.6583,-97.0951,35,22.2,190,5,,10+,29.96,1013.6,,,TRUE,,,,,,,CLR,,,,,,,,VFR,-0.1,35,23.3,,,,,,,,,METAR,189
KGKJ 141753Z AUTO 34008KT 10SM FEW055 28/14 A3007 RMK AO2 SLP172 T02780139 10278 20194 50001,KGKJ,2025-08-14T17:53:00Z,41.6258,-80.2123,27.8,13.9,340,8,,10+,30.07,1017.2,,TRUE,TRUE,,,,,,,FEW,5500,,,,,,,VFR,0.01,27.8,19.4,,,,,,,,,METAR,428
KGIF 141753Z AUTO 18004KT 10SM FEW047 34/24 A3007 RMK AO1 LTG DSNT W AND NW SLP180 T03390239 10344 20272 58007,KGIF,2025-08-14T17:53:00Z,28.0614,-81.7568,33.9,23.9,180,4,,10+,30.07,1018,,TRUE,TRUE,,,,,,,FEW,4700,,,,,,,VFR,-0.07,34.4,27.2,,,,,,,,,METAR,44
KGGW 141753Z AUTO 31009G21KT 10SM CLR 23/11 A2990 RMK AO2 SLP113 T02280106 10228 20161 50015 TSNO ,KGGW,2025-08-14T17:53:00Z,48.2142,-106.621,22.8,10.6,310,9,21,10+,29.90,1011.3,,TRUE,TRUE,,,TRUE,,,,CLR,,,,,,,,VFR,0.15,22.8,16.1,,,,,,,,,METAR,698
KGGG 141753Z VRB04KT 10SM BKN035 35/24 A2997 RMK AO2 SLP142 T03500239 10350 20228 58013,KGGG,2025-08-14T17:53:00Z,32.3909,-94.714,35,23.9,VRB,4,,10+,29.97,1014.2,,,TRUE,,,,,,,BKN,3500,,,,,,,VFR,-0.13,35,22.8,,,,,,,,,METAR,107
KGFL 141753Z AUTO 10SM CLR 29/19 A2994 RMK AO2 SLP134 T02940194 10300 20217 56005,KGFL,2025-08-14T17:53:00Z,43.3385,-73.6102,29.4,19.4,,,,10+,29.94,1013.4,,TRUE,TRUE,,,,,,,CLR,,,,,,,,VFR,-0.05,30,21.7,,,,,,,,,METAR,99
KGFK 141753Z 18012G21KT 10SM BKN024 OVC100 26/19 A2972 RMK AO2 SLP061 T02610194 10267 20178 58003,KGFK,2025-08-14T17:53:00Z,47.9428,-97.1829,26.1,19.4,180,12,21,10+,29.72,1006.1,,,TRUE,,,,,,,BKN,2400,OVC,10000,,,,,MVFR,-0.03,26.7,17.8,,,,,,,,,METAR,256
KGEZ 141753Z AUTO 00000KT 10SM CLR 29/20 A3004 RMK AO2 SLP165 T02890200 10289 20194 58001,KGEZ,2025-08-14T17:53:00Z,39.5854,-85.7998,28.9,20,0,0,,10+,30.04,1016.5,,TRUE,TRUE,,,,,,,CLR,,,,,,,,VFR,-0.01,28.9,19.4,,,,,,,,,METAR,245
KGEY 141753Z AUTO 00000KT 10SM CLR 28/08 A2993 RMK AO2 SLP087 T02830083 10289 20172 58004,KGEY,2025-08-14T17:53:00Z,44.5173,-108.075,28.3,8.3,0,0,,10+,29.93,1008.7,,TRUE,TRUE,,,,,,,CLR,,,,,,,,VFR,-0.04,28.9,17.2,,,,,,,,,METAR,1191
KGEG 141753Z COR 23005KT 10SM FEW020 FEW110 FEW260 22/07 A2995 RMK AO2 SLP125 VIRGA FU FEW020 ACC NE-SE FU PLUME DSNT NW T02220067 10222 20150 51009 $,KGEG,2025-08-14T17:53:00Z,47.6217,-117.528,22.2,6.7,230,5,,10+,29.95,1012.5,TRUE,,TRUE,TRUE,,,,,,FEW,2000,FEW,11000,FEW,26000,,,VFR,0.09,22.2,15,,,,,,,,,METAR,718
KGCC 141753Z AUTO 33012G21KT 10SM CLR 32/07 A2995 RMK AO2 PK WND 34026/1727 SLP079 T03220067 10328 20217 50009,KGCC,2025-08-14T17:53:00Z,44.3398,-105.542,32.2,6.7,330,12,21,10+,29.95,1007.9,,TRUE,TRUE,,,,,,,CLR,,,,,,,,VFR,0.09,32.8,21.7,,,,,,,,,METAR,1328
KGAG 141753Z AUTO 18017G26KT 10SM CLR 34/18 A2995 RMK AO2 PK WND 17027/1728 SLP109 T03440183 10344 20222 58009,KGAG,2025-08-14T17:53:00Z,36.2966,-99.7686,34.4,18.3,180,17,26,10+,29.95,1010.9,,TRUE,TRUE,,,,,,,CLR,,,,,,,,VFR,-0.09,34.4,22.2,,,,,,,,,METAR,670
KFYV 141753Z 20009KT 110V220 10SM SCT050 BKN065 33/21 A3002 RMK AO2 SLP148 T03330211 10333 20211 58007,KFYV,2025-08-14T17:53:00Z,36.0103,-94.1624,33.3,21.1,200,9,,10+,30.02,1014.8,,,TRUE,,,,,,,SCT,5000,BKN,6500,,,,,VFR,-0.07,33.3,21.1,,,,,,,,,METAR,377
KFXE 141753Z 11010KT 10SM CLR 34/24 A3006 RMK AO2 SLP182 T03390239 10350 20294 58003 $,KFXE,2025-08-14T17:53:00Z,26.199,-80.1776,33.9,23.9,110,10,,10+,30.06,1018.2,,,TRUE,TRUE,,,,,,CLR,,,,,,,,VFR,-0.03,35,29.4,,,,,,,,,METAR,3
KFWN 141753Z AUTO VRB03KT 10SM FEW041 31/21 A2993 RMK AO2 SLP131 60000 T03110206 10317 20217 55004,KFWN,2025-08-14T17:53:00Z,41.1993,-74.6259,31.1,20.6,VRB,3,,10+,29.93,1013.1,,TRUE,TRUE,,,,,,,FEW,4100,,,,,,,VFR,-0.04,31.7,21.7,,,,,0.005,,,,METAR,129
KFVE 141753Z AUTO 32011KT 10SM CLR 23/10 A2995 RMK AO2 SLP137 T02280100 10233 20178 51009 $,KFVE,2025-08-14T17:53:00Z,47.2852,-68.3072,22.8,10,320,11,,10+,29.95,1013.7,,TRUE,TRUE,TRUE,,,,,,CLR,,,,,,,,VFR,0.09,23.3,17.8,,,,,,,,,METAR,299
KFUL 141753Z VRB04KT 10SM OVC018 22/17 A2993 RMK AO2 SLP134 T02220172 10228 20206 50004,KFUL,2025-08-14T17:53:00Z,33.8715,-117.986,22.2,17.2,VRB,4,,10+,29.93,1013.4,,,TRUE,,,,,,,OVC,1800,,,,,,,MVFR,0.04,22.8,20.6,,,,,,,,,METAR,23
KFTY 141753Z 31007KT 10SM SCT029 BKN035 BKN045 29/22 A3004 RMK AO2 SLP161 T02890222 10300 20239 58004,KFTY,2025-08-14T17:53:00Z,33.7776,-84.5247,28.9,22.2,310,7,,10+,30.04,1016.1,,,TRUE,,,,,,,SCT,2900,BKN,3500,BKN,4500,,,VFR,-0.04,30,23.9,,,,,,,,,METAR,245
KFTW 141753Z VRB03KT 10SM SCT043 34/22 A2995 RMK AO2 SLP129 T03440217 10356 20250 58011 $,KFTW,2025-08-14T17:53:00Z,32.8248,-97.364,34.4,21.7,VRB,3,,10+,29.95,1012.9,,,TRUE,TRUE,,,,,,SCT,4300,,,,,,,VFR,-0.11,35.6,25,,,,,,,,,METAR,213
KFSM 141753Z 06004KT 10SM FEW043 34/22 A2997 RMK AO2 SLP142 T03440222 10350 20244 58014,KFSM,2025-08-14T17:53:00Z,35.3335,-94.3653,34.4,22.2,60,4,,10+,29.97,1014.2,,,TRUE,,,,,,,FEW,4300,,,,,,,VFR,-0.14,35,24.4,,,,,,,,,METAR,136
KFRG 141753Z 36006KT 10SM CLR 31/21 A2992 RMK AO2 SLP129 T03060206 10306 20239 58001,KFRG,2025-08-14T17:53:00Z,40.7344,-73.4164,30.6,20.6,360,6,,10+,29.92,1012.9,,,TRUE,,,,,,,CLR,,,,,,,,VFR,-0.01,30.6,23.9,,,,,,,,,METAR,23
KFPR 141753Z 11009KT 10SM SCT038 SCT050 34/26 A3006 RMK AO2 SLP178 T03390256 10344 20261 58005,KFPR,2025-08-14T17:53:00Z,27.4981,-80.3763,33.9,25.6,110,9,,10+,30.06,1017.8,,,TRUE,,,,,,,SCT,3800,SCT,5000,,,,,VFR,-0.05,34.4,26.1,,,,,,,,,METAR,7
KFOK 141753Z 17006KT 10SM BKN038 BKN047 28/23 A2993 RMK AO2 SLP134 T02780233 10289 20233 51003,KFOK,2025-08-14T17:53:00Z,40.8506,-72.6193,27.8,23.3,170,6,,10+,29.93,1013.4,,,TRUE,,,,,,,BKN,3800,BKN,4700,,,,,VFR,0.03,28.9,23.3,,,,,,,,,METAR,13
KFOE 141753Z 16011KT 10SM CLR 31/22 A2998 RMK AO2 SLP142 T03060217 10306 20194 58002 $,KFOE,2025-08-14T17:53:00Z,38.9414,-95.6513,30.6,21.7,160,11,,10+,29.98,1014.2,,,TRUE,TRUE,,,,,,CLR,,,,,,,,VFR,-0.02,30.6,19.4,,,,,,,,,METAR,315
KFNT 141753Z 10006KT 9SM FEW044 27/16 A3008 RMK AO2 SLP183 T02670161 10267 20189 58004 $,KFNT,2025-08-14T17:53:00Z,42.9669,-83.75,26.7,16.1,100,6,,9,30.08,1018.3,,,TRUE,TRUE,,,,,,FEW,4400,,,,,,,VFR,-0.04,26.7,18.9,,,,,,,,,METAR,235
KFNB 141753Z AUTO 16009KT 10SM CLR 29/21 A2997 RMK AO2 SLP139 T02940211 10294 20194 50001,KFNB,2025-08-14T17:53:00Z,40.0791,-95.5893,29.4,21.1,160,9,,10+,29.97,1013.9,,TRUE,TRUE,,,,,,,CLR,,,,,,,,VFR,0.01,29.4,19.4,,,,,,,,,METAR,301
KFMY 141753Z 32004KT 7SM SCT031 BKN050 OVC 070 29/25 A3005 RMK VA23 ATIS J,KFMY,2025-08-14T17:53:00Z,26.584,-81.8615,29,25,320,4,,7,30.05,,,,,,,,,,,SCT,3100,BKN,5000,OVC,7000,,,VFR,,,,,,,,,,,,METAR,4
KFMN 141753Z 25004KT 10SM CLR 29/02 A3015 RMK AO2 SLP132 T02940017 10294 20161 58005,KFMN,2025-08-14T17:53:00Z,36.7435,-108.229,29.4,1.7,250,4,,10+,30.15,1013.2,,,TRUE,,,,,,,CLR,,,,,,,,VFR,-0.05,29.4,16.1,,,,,,,,,METAR,1677
KFLL 141753Z 13011KT 10SM SCT028 SCT250 32/24 A3007 RMK AO2 SLP179 T03220244 10328 20283 58003 $,KFLL,2025-08-14T17:53:00Z,26.0787,-80.1622,32.2,24.4,130,11,,10+,30.07,1017.9,,,TRUE,TRUE,,,,,,SCT,2800,SCT,25000,,,,,VFR,-0.03,32.8,28.3,,,,,,,,,METAR,1
KFLD 141753Z AUTO 16008KT 10SM FEW047 FEW060 26/17 A3006 RMK AO2 SLP175 T02610167 10267 20167 55004,KFLD,2025-08-14T17:53:00Z,43.7695,-88.4907,26.1,16.7,160,8,,10+,30.06,1017.5,,TRUE,TRUE,,,,,,,FEW,4700,FEW,6000,,,,,VFR,-0.04,26.7,16.7,,,,,,,,,METAR,242
KFFC 141753Z AUTO 34009KT 10SM FEW034 BKN043 30/22 A3005 RMK AO2 SLP167 T03000217 10300 20233 58004 $,KFFC,2025-08-14T17:53:00Z,33.3543,-84.5689,30,21.7,340,9,,10+,30.05,1016.7,,TRUE,TRUE,TRUE,,,,,,FEW,3400,BKN,4300,,,,,VFR,-0.04,30,23.3,,,,,,,,,METAR,242
KFDY 141753Z AUTO 06003KT 10SM FEW034 FEW085 27/20 A3004 RMK AO2 RAE25 SLP163 P0001 60021 T02720200 10289 20200 58002,KFDY,2025-08-14T17:53:00Z,41.0137,-83.6681,27.2,20,60,3,,10+,30.04,1016.3,,TRUE,TRUE,,,,,,,FEW,3400,FEW,8500,,,,,VFR,-0.02,28.9,20,,,0.01,,0.21,,,,METAR,247
KFDR 141753Z AUTO 16012G17KT 10SM CLR 35/21 A2993 RMK AO2 SLP114 T03500206 10350 20222 58011,KFDR,2025-08-14T17:53:00Z,34.3531,-98.9876,35,20.6,160,12,17,10+,29.93,1011.4,,TRUE,TRUE,,,,,,,CLR,,,,,,,,VFR,-0.11,35,22.2,,,,,,,,,METAR,378
KFCM 141753Z 15014KT 10SM CLR 24/17 A2994 RMK AO2 SLP135 60000 T02390167 10256 20200 55002,KFCM,2025-08-14T17:53:00Z,44.8321,-93.4705,23.9,16.7,150,14,,10+,29.94,1013.5,,,TRUE,,,,,,,CLR,,,,,,,,VFR,-0.02,25.6,20,,,,,0.005,,,,METAR,276
KFAY 141753Z 22005KT 10SM -RA FEW050 FEW070 OVC100 28/24 A2999 RMK AO2 RAB06E15B44 SLP148 P0000 60000 T02780239 10289 20261 58001,KFAY,2025-08-14T17:53:00Z,34.9895,-78.8801,27.8,23.9,220,5,,10+,29.99,1014.8,,,TRUE,,,,,,-RA,FEW,5000,FEW,7000,OVC,10000,,,VFR,-0.01,28.9,26.1,,,0.005,,0.005,,,,METAR,57
KFAT 141753Z 32006KT 10SM FEW070 28/13 A2991 RMK AO2 SLP124 T02780128 10278 20194 58001 $,KFAT,2025-08-14T17:53:00Z,36.78,-119.72,27.8,12.8,320,6,,10+,29.91,1012.4,,,TRUE,TRUE,,,,,,FEW,7000,,,,,,,VFR,-0.01,27.8,19.4,,,,,,,,,METAR,102
KFAR 141753Z 17010G19KT 10SM FU BKN035 27/21 A2975 RMK AO2 SLP071 T02720211 10272 20200 58006 $,KFAR,2025-08-14T17:53:00Z,46.9242,-96.8119,27.2,21.1,170,10,19,10+,29.75,1007.1,,,TRUE,TRUE,,,,,FU,BKN,3500,,,,,,,VFR,-0.06,27.2,20,,,,,,,,,METAR,276
KEYW 141753Z 13007KT 10SM SCT025 32/27 A3007 RMK AO2 SLP187 T03170267 10317 20294 58004,KEYW,2025-08-14T17:53:00Z,24.5571,-81.7554,31.7,26.7,130,7,,10+,30.07,1018.7,,,TRUE,,,,,,,SCT,2500,,,,,,,VFR,-0.04,31.7,29.4,,,,,,,,,METAR,1
KEYE 141753Z AUTO VRB03KT 10SM CLR 29/17 A3004 RMK AO2 SLP164 T02890172 10294 20206 58004,KEYE,2025-08-14T17:53:00Z,39.8248,-86.2958,28.9,17.2,VRB,3,,10+,30.04,1016.4,,TRUE,TRUE,,,,,,,CLR,,,,,,,,VFR,-0.04,29.4,20.6,,,,,,,,,METAR,248
KEWB 141753Z VRB06KT 10SM BKN032 BKN040 28/21 A2989 RMK AO2 SLP121 T02830211 10294 20233 57002,KEWB,2025-08-14T17:53:00Z,41.6791,-70.9591,28.3,21.1,VRB,6,,10+,29.89,1012.1,,,TRUE,,,,,,,BKN,3200,BKN,4000,,,,,VFR,-0.02,29.4,23.3,,,,,,,,,METAR,22
KEVW 141753Z AUTO 26011G17KT 10SM CLR 28/01 A3021 RMK AO2 SLP117 T02780011 10278 20144 58003,KEVW,2025-08-14T17:53:00Z,41.2727,-111.031,27.8,1.1,260,11,17,10+,30.21,1011.7,,TRUE,TRUE,,,,,,,CLR,,,,,,,,VFR,-0.03,27.8,14.4,,,,,,,,,METAR,2178
KEQY 141753Z AUTO 00000KT 10SM FEW045 SCT060 BKN110 31/22 A2998 RMK AO2 SLP146 T03110222 10311 20233 58007,KEQY,2025-08-14T17:53:00Z,35.0147,-80.6242,31.1,22.2,0,0,,10+,29.98,1014.6,,TRUE,TRUE,,,,,,,FEW,4500,SCT,6000,BKN,11000,,,VFR,-0.07,31.1,23.3,,,,,,,,,METAR,205
KEPH 141753Z AUTO 10SM CLR 27/09 A2989 RMK AO2 SLP113 T02720094 10272 20183 50002,KEPH,2025-08-14T17:53:00Z,47.3078,-119.516,27.2,9.4,,,,10+,29.89,1011.3,,TRUE,TRUE,,,,,,,CLR,,,,,,,,VFR,0.02,27.2,18.3,,,,,,,,,METAR,382
KENW 141753Z 08010KT 10SM CLR 27/17 A3007,KENW,2025-08-14T17:53:00Z,42.5953,-87.9383,27,17,80,10,,10+,30.07,,,,,,,,,,,CLR,,,,,,,,VFR,,,,,,,,,,,,METAR,222
KEMP 141753Z AUTO 16011KT 10SM CLR 31/21 A2999 RMK AO2 SLP143 T03060211 10311 20194 58005,KEMP,2025-08-14T17:53:00Z,38.3291,-96.1945,30.6,21.1,160,11,,10+,29.99,1014.3,,TRUE,TRUE,,,,,,,CLR,,,,,,,,VFR,-0.05,31.1,19.4,,,,,,,,,METAR,366
KELY 141753Z AUTO 00000KT 10SM CLR 29/M01 A3014 RMK AO2 SLP082 T02941006 10306 20111 58008,KELY,2025-08-14T17:53:00Z,39.2954,-114.847,29.4,-0.6,0,0,,10+,30.14,1008.2,,TRUE,TRUE,,,,,,,CLR,,,,,,,,VFR,-0.08,30.6,11.1,,,,,,,,,METAR,1906
KELN 141753Z AUTO 32014G22KT 10SM CLR 24/09 A2994 RMK AO2 PK WND 31026/1727 SLP127 T02390094 10239 20156 58002,KELN,2025-08-14T17:53:00Z,47.0338,-120.531,23.9,9.4,320,14,22,10+,29.94,1012.7,,TRUE,TRUE,,,,,,,CLR,,,,,,,,VFR,-0.02,23.9,15.6,,,,,,,,,METAR,532
KELM 141753Z 35012G22KT 10SM FEW100 29/17 A2999 RMK AO2 SLP148 T02940167 10300 20200 50000,KELM,2025-08-14T17:53:00Z,42.1601,-76.89,29.4,16.7,350,12,22,10+,29.99,1014.8,,,TRUE,,,,,,,FEW,10000,,,,,,,VFR,,30,20,,,,,,,,,METAR,287
KELD 141753Z AUTO 00000KT 10SM CLR 31/24 A3000 RMK AO2 RAB1657E25 TSE24 SLP154 P0029 60029 T03110239 10328 20228 58009,KELD,2025-08-14T17:53:00Z,33.2207,-92.814,31.1,23.9,0,0,,10+,30.00,1015.4,,TRUE,TRUE,,,,,,,CLR,,,,,,,,VFR,-0.09,32.8,22.8,,,0.29,,0.29,,,,METAR,76
KEET 141753Z AUTO 02004KT 10SM SCT032 30/22 A3004 RMK AO2 SLP164 T03000222 10306 20239 58006,KEET,2025-08-14T17:53:00Z,33.1783,-86.7818,30,22.2,20,4,,10+,30.04,1016.4,,TRUE,TRUE,,,,,,,SCT,3200,,,,,,,VFR,-0.06,30.6,23.9,,,,,,,,,METAR,172
KEEO 141753Z AUTO 19004KT 10SM CLR 31/M02 A3015 RMK AO2 SLP101 T03111017 10311 20106 58011,KEEO,2025-08-14T17:53:00Z,40.0444,-107.888,31.1,-1.7,190,4,,10+,30.15,1010.1,,TRUE,TRUE,,,,,,,CLR,,,,,,,,VFR,-0.11,31.1,10.6,,,,,,,,,METAR,1957
KECP 141753Z 20011KT 10SM VCTS SCT039 SCT046 33/27 A3001 RMK AO2 LTG DSNT NE AND SE SLP173 60024 T03330267 10333 20261 58007,KECP,2025-08-14T17:53:00Z,30.3487,-85.7884,33.3,26.7,200,11,,10+,30.01,1017.3,,,TRUE,,,,,,VCTS,SCT,3900,SCT,4600,,,,,VFR,-0.07,33.3,26.1,,,,,0.24,,,,METAR,17
KDXR 141753Z VRB06KT 10SM CLR 31/20 A2994 RMK AO2 SLP133 T03110200 10317 20228 51001,KDXR,2025-08-14T17:53:00Z,41.3722,-73.4834,31.1,20,VRB,6,,10+,29.94,1013.3,,,TRUE,,,,,,,CLR,,,,,,,,VFR,0.01,31.7,22.8,,,,,,,,,METAR,138
KDWH 141753Z 00000KT 10SM BKN043 BKN049 32/24 A2999 RMK AO2 SLP153 T03170244 10333 20244 58007 $,KDWH,2025-08-14T17:53:00Z,30.068,-95.5563,31.7,24.4,0,0,,10+,29.99,1015.3,,,TRUE,TRUE,,,,,,BKN,4300,BKN,4900,,,,,VFR,-0.07,33.3,24.4,,,,,,,,,METAR,46
KDVT 141753Z VRB03KT 10SM CLR 36/15 A2992 RMK AO2 SLP103 6//// T03560150 10356 20289 50000 PNO,KDVT,2025-08-14T17:53:00Z,33.6902,-112.066,35.6,15,VRB,3,,10+,29.92,1010.3,,,TRUE,,,,,,,CLR,,,,,,,,VFR,,35.6,28.9,,,,,,,,,METAR,454
KDUJ 141753Z AUTO 31005KT 10SM SCT035 SCT070 27/17 A3005 RMK AO2 SLP162 T02720167 10272 20194 58006,KDUJ,2025-08-14T17:53:00Z,41.1795,-78.8933,27.2,16.7,310,5,,10+,30.05,1016.2,,TRUE,TRUE,,,,,,,SCT,3500,SCT,7000,,,,,VFR,-0.06,27.2,19.4,,,,,,,,,METAR,552
KDTW 141753Z 10004KT 8SM FEW040 SCT250 28/17 A3007 RMK AO2 SLP178 T02830167 10283 20200 58002,KDTW,2025-08-14T17:53:00Z,42.2311,-83.3312,28.3,16.7,100,4,,8,30.07,1017.8,,,TRUE,,,,,,,FEW,4000,SCT,25000,,,,,VFR,-0.02,28.3,20,,,,,,,,,METAR,192
KDTS 141753Z 22006KT 10SM CLR 32/25 A3002 RMK AO2 SLP164 T03170250 10328 20278 58006,KDTS,2025-08-14T17:53:00Z,30.3933,-86.4674,31.7,25,220,6,,10+,30.02,1016.4,,,TRUE,,,,,,,CLR,,,,,,,,VFR,-0.06,32.8,27.8,,,,,,,,,METAR,5
KDTO 141753Z 17006KT 10SM SCT049 35/22 A2995 RMK AO2 SLP133 T03500222 10350 20222 58013,KDTO,2025-08-14T17:53:00Z,33.2088,-97.1992,35,22.2,170,6,,10+,29.95,1013.3,,,TRUE,,,,,,,SCT,4900,,,,,,,VFR,-0.13,35,22.2,,,,,,,,,METAR,199
KDRT 141753Z AUTO 13009KT 10SM CLR 35/21 A2994 RMK AO2 SLP126 T03500206 10350 20267 58010,KDRT,2025-08-14T17:53:00Z,29.3784,-100.927,35,20.6,130,9,,10+,29.94,1012.6,,TRUE,TRUE,,,,,,,CLR,,,,,,,,VFR,-0.1,35,26.7,,,,,,,,,METAR,303
KDRO 141753Z AUTO VRB05KT 10SM CLR 27/02 A3025 RMK AO2 SLP137 T02720017 10278 20111 58004,KDRO,2025-08-14T17:53:00Z,37.1431,-107.76,27.2,1.7,VRB,5,,10+,30.25,1013.7,,TRUE,TRUE,,,,,,,CLR,,,,,,,,VFR,-0.04,27.8,11.1,,,,,,,,,METAR,2021
KDRA 141753Z AUTO 26012G20KT 10SM CLR 35/00 A2994 RMK AO2 PK WND 22026/1720 SLP077 T03500000 10350 20217 58004,KDRA,2025-08-14T17:53:00Z,36.621,-116.029,35,0,260,12,20,10+,29.94,1007.7,,TRUE,TRUE,,,,,,,CLR,,,,,,,,VFR,-0.04,35,21.7,,,,,,,,,METAR,988
KDNL 141753Z AUTO 33008KT 10SM FEW027 31/23 A2999 RMK AO2 SLP150 60000 T03110228 10311 20244 50001,KDNL,2025-08-14T17:53:00Z,33.4668,-82.0385,31.1,22.8,330,8,,10+,29.99,1015,,TRUE,TRUE,,,,,,,FEW,2700,,,,,,,VFR,0.01,31.1,24.4,,,,,0.005,,,,METAR,126
KDMO 141753Z AUTO 04004KT 10SM CLR 30/18 A3002 RMK AO2 SLP157 T03000183 10300 20183 58004,KDMO,2025-08-14T17:53:00Z,38.712,-93.1747,30,18.3,40,4,,10+,30.02,1015.7,,TRUE,TRUE,,,,,,,CLR,,,,,,,,VFR,-0.04,30,18.3,,,,,,,,,METAR,271
KDMN 141753Z AUTO VRB05KT 10SM CLR 34/11 A3012 RMK AO2 SLP110 T03390106 10339 20206 58004,KDMN,2025-08-14T17:53:00Z,32.2592,-107.721,33.9,10.6,VRB,5,,10+,30.12,1011,,TRUE,TRUE,,,,,,,CLR,,,,,,,,VFR,-0.04,33.9,20.6,,,,,,,,,METAR,1310
KDMH 141753Z AUTO 32/23 A2992 RMK AO1 SLP133 T03220233 10339 20267 58005,KDMH,2025-08-14T17:53:00Z,39.281,-76.611,32.2,23.3,,,,,29.92,1013.3,,TRUE,TRUE,,,,,,,,,,,,,,,,-0.05,33.9,26.7,,,,,,,,,METAR,4
KDLS 141753Z AUTO 31015G27KT 10SM CLR 24/12 A2996 RMK AO2 PK WND 33032/1722 SLP143 T02440117 10250 20189 51002,KDLS,2025-08-14T17:53:00Z,45.619,-121.166,24.4,11.7,310,15,27,10+,29.96,1014.3,,TRUE,TRUE,,,,,,,CLR,,,,,,,,VFR,0.02,25,18.9,,,,,,,,,METAR,71
KDLN 141753Z AUTO VRB04KT 10SM CLR 28/02 A2999 RMK AO2 SLP093 T02780017 10278 20106 58012,KDLN,2025-08-14T17:53:00Z,45.2584,-112.555,27.8,1.7,VRB,4,,10+,29.99,1009.3,,TRUE,TRUE,,,,,,,CLR,,,,,,,,VFR,-0.12,27.8,10.6,,,,,,,,,METAR,1586
KDKK 141753Z AUTO 29007KT 10SM CLR 26/17 A3005 RMK AO2 SLP172 T02560172 10261 20200 50003,KDKK,2025-08-14T17:53:00Z,42.4932,-79.2762,25.6,17.2,290,7,,10+,30.05,1017.2,,TRUE,TRUE,,,,,,,CLR,,,,,,,,VFR,0.03,26.1,20,,,,,,,,,METAR,205
KDHT 141753Z AUTO 19012G20KT 10SM CLR 36/11 A3000 RMK AO2 SLP087 6//// T03560106 10356 20194 58003 PWINO,KDHT,2025-08-14T17:53:00Z,36.0252,-102.549,35.6,10.6,190,12,20,10+,30.00,1008.7,,TRUE,TRUE,,,,,TRUE,,CLR,,,,,,,,VFR,-0.03,35.6,19.4,,,,,,,,,METAR,1217
KDHN 141753Z 30005KT 10SM BKN030 BKN035 BKN047 32/25 A3006 RMK AO1 SLP172 T03170250 10322 20250 58007,KDHN,2025-08-14T17:53:00Z,31.3177,-85.4432,31.7,25,300,5,,10+,30.06,1017.2,,,TRUE,,,,,,,BKN,3000,BKN,3500,BKN,4700,,,MVFR,-0.07,32.2,25,,,,,,,,,METAR,113
KDGW 141753Z AUTO 30013G21KT 10SM CLR 33/01 A2998 RMK AO2 SLP078 T03330011 10339 20133 58001,KDGW,2025-08-14T17:53:00Z,42.796,-105.38,33.3,1.1,300,13,21,10+,29.98,1007.8,,TRUE,TRUE,,,,,,,CLR,,,,,,,,VFR,-0.01,33.9,13.3,,,,,,,,,METAR,1503
KDFW 141753Z 17008KT 10SM FEW050 SCT080 35/20 A2994 RMK AO2 SLP128 T03500200 10350 20256 58012 $,KDFW,2025-08-14T17:53:00Z,32.8974,-97.0219,35,20,170,8,,10+,29.94,1012.8,,,TRUE,TRUE,,,,,,FEW,5000,SCT,8000,,,,,VFR,-0.12,35,25.6,,,,,,,,,METAR,168
KDFI 141753Z AUTO VRB04KT 10SM FEW060 SCT085 28/21 A3004 RMK AO2 SLP167 T02780206 10289 20206 58005,KDFI,2025-08-14T17:53:00Z,41.3357,-84.4285,27.8,20.6,VRB,4,,10+,30.04,1016.7,,TRUE,TRUE,,,,,,,FEW,6000,SCT,8500,,,,,VFR,-0.05,28.9,20.6,,,,,,,,,METAR,215
KDEW 141753Z AUTO VRB03KT 10SM CLR 22/08 A2994 RMK AO2 SLP127 T02170078 10222 20150 51006,KDEW,2025-08-14T17:53:00Z,47.9742,-117.429,21.7,7.8,VRB,3,,10+,29.94,1012.7,,TRUE,TRUE,,,,,,,CLR,,,,,,,,VFR,0.06,22.2,15,,,,,,,,,METAR,672
KDET 141753Z 12009G15KT 8SM CLR 28/16 A3007 RMK AO2 SLP177 T02780161 10278 20200 58001,KDET,2025-08-14T17:53:00Z,42.4072,-83.009,27.8,16.1,120,9,15,8,30.07,1017.7,,,TRUE,,,,,,,CLR,,,,,,,,VFR,-0.01,27.8,20,,,,,,,,,METAR,190
KDEQ 141753Z AUTO VRB04KT 10SM CLR 32/22 A2997 RMK AO2 SLP143 T03220222 10328 20211 58012,KDEQ,2025-08-14T17:53:00Z,34.048,-94.4016,32.2,22.2,VRB,4,,10+,29.97,1014.3,,TRUE,TRUE,,,,,,,CLR,,,,,,,,VFR,-0.12,32.8,21.1,,,,,,,,,METAR,107
KDEN 141753Z 06007KT 10SM FEW120 BKN220 34/02 A3004 RMK AO2 SLP070 T03390022 10339 20200 58001,KDEN,2025-08-14T17:53:00Z,39.8466,-104.656,33.9,2.2,60,7,,10+,30.04,1007,,,TRUE,,,,,,,FEW,12000,BKN,22000,,,,,VFR,-0.01,33.9,20,,,,,,,,,METAR,1656
KDCU 141753Z AUTO VRB05KT 10SM FEW029 33/23 A3003 RMK AO2 SLP162 T03280228 10328 20217 58007 $,KDCU,2025-08-14T17:53:00Z,34.658,-86.9434,32.8,22.8,VRB,5,,10+,30.03,1016.2,,TRUE,TRUE,TRUE,,,,,,FEW,2900,,,,,,,VFR,-0.07,32.8,21.7,,,,,,,,,METAR,180
KDBQ 141753Z 16008KT 10SM CLR 26/18 A3005 RMK AO2 SLP172 T02610178 10261 20167 58004,KDBQ,2025-08-14T17:53:00Z,42.3984,-90.7092,26.1,17.8,160,8,,10+,30.05,1017.2,,,TRUE,,,,,,,CLR,,,,,,,,VFR,-0.04,26.1,16.7,,,,,,,,,METAR,317
KDAN 141753Z AUTO VRB04KT 10SM FEW030 SCT120 29/24 A2998 RMK AO2 SLP142 T02940239 10300 20228 50001,KDAN,2025-08-14T17:53:00Z,36.5729,-79.335,29.4,23.9,VRB,4,,10+,29.98,1014.2,,TRUE,TRUE,,,,,,,FEW,3000,SCT,12000,,,,,VFR,0.01,30,22.8,,,,,,,,,METAR,170
KDAL 141753Z 14009KT 10SM FEW060 34/21 A2995 RMK AO2 SLP133 T03440211 10344 20261 58012,KDAL,2025-08-14T17:53:00Z,32.8384,-96.8358,34.4,21.1,140,9,,10+,29.95,1013.3,,,TRUE,,,,,,,FEW,6000,,,,,,,VFR,-0.12,34.4,26.1,,,,,,,,,METAR,148
KDAB 141753Z 23004KT 10SM SCT043 SCT050 BKN200 33/23 A3005 RMK AO2 SLP175 T03330233 10339 20261 58006,KDAB,2025-08-14T17:53:00Z,29.1735,-81.0719,33.3,23.3,230,4,,10+,30.05,1017.5,,,TRUE,,,,,,,SCT,4300,SCT,5000,BKN,20000,,,VFR,-0.06,33.9,26.1,,,,,,,,,METAR,8
KCYS 141753Z 34008KT 10SM CLR 31/01 A3011 RMK AO2 SLP091 T03110006 10311 20161 50001,KCYS,2025-08-14T17:53:00Z,41.1579,-104.808,31.1,0.6,340,8,,10+,30.11,1009.1,,,TRUE,,,,,,,CLR,,,,,,,,VFR,0.01,31.1,16.1,,,,,,,,,METAR,1868
KCXO 141753Z 14004KT 10SM BKN040 34/23 A3000 RMK AO2 SLP154 T03390233 10344 20239 58009,KCXO,2025-08-14T17:53:00Z,30.3611,-95.4176,33.9,23.3,140,4,,10+,30.00,1015.4,,,TRUE,,,,,,,BKN,4000,,,,,,,VFR,-0.09,34.4,23.9,,,,,,,,,METAR,69
KCUT 141753Z AUTO VRB06G18KT 10SM CLR 29/04 A3004 RMK AO2 SLP098 T02940044 10294 20122 50002,KCUT,2025-08-14T17:53:00Z,43.7331,-103.615,29.4,4.4,VRB,6,18,10+,30.04,1009.8,,TRUE,TRUE,,,,,,,CLR,,,,,,,,VFR,0.02,29.4,12.2,,,,,,,,,METAR,1700
KCSV 141753Z AUTO 26003KT 10SM FEW049 FEW070 28/22 A3009 RMK AO2 SLP166 T02780217 10289 20189 58008,KCSV,2025-08-14T17:53:00Z,35.951,-85.0814,27.8,21.7,260,3,,10+,30.09,1016.6,,TRUE,TRUE,,,,,,,FEW,4900,FEW,7000,,,,,VFR,-0.08,28.9,18.9,,,,,,,,,METAR,569
KCSM 141753Z 16015KT 10SM CLR 34/19 A2998 RMK AO2 SLP123 T03440189 10344 20222 58009,KCSM,2025-08-14T17:53:00Z,35.3568,-99.2041,34.4,18.9,160,15,,10+,29.98,1012.3,,,TRUE,,,,,,,CLR,,,,,,,,VFR,-0.09,34.4,22.2,,,,,,,,,METAR,586
KCRS 141753Z AUTO 14005KT 10SM FEW039 34/24 A2999 RMK AO2 SLP148 T03390244 10339 20250 58008,KCRS,2025-08-14T17:53:00Z,32.0316,-96.3994,33.9,24.4,140,5,,10+,29.99,1014.8,,TRUE,TRUE,,,,,,,FEW,3900,,,,,,,VFR,-0.08,33.9,25,,,,,,,,,METAR,136
KCRE 141753Z 18010KT 10SM CLR 29/26 A2997 RMK AO1 LTG DSNT SW SLP150 T02940256 10300 20267 56008,KCRE,2025-08-14T17:53:00Z,33.8162,-78.7204,29.4,25.6,180,10,,10+,29.97,1015,,,TRUE,,,,,,,CLR,,,,,,,,VFR,-0.08,30,26.7,,,,,,,,,METAR,9
KCPS 141753Z 17005KT 10SM OVC030 31/23 A3000 RMK AO2 SLP155 T03110233 10311 20211 58004,KCPS,2025-08-14T17:53:00Z,38.57,-90.156,31.1,23.3,170,5,,10+,30.00,1015.5,,,TRUE,,,,,,,OVC,3000,,,,,,,MVFR,-0.04,31.1,21.1,,,,,,,,,METAR,125
KCPR 141753Z 28011G18KT 10SM CLR 33/01 A3002 RMK AO2 SLP081 T03280011 10328 20139 58001,KCPR,2025-08-14T17:53:00Z,42.8978,-106.474,32.8,1.1,280,11,18,10+,30.02,1008.1,,,TRUE,,,,,,,CLR,,,,,,,,VFR,-0.01,32.8,13.9,,,,,,,,,METAR,1623
KCOT 141753Z AUTO VRB06KT 10SM CLR 36/21 A2994 RMK AO2 SLP131 T03610206 10361 20256 58007,KCOT,2025-08-14T17:53:00Z,28.4585,-99.2228,36.1,20.6,VRB,6,,10+,29.94,1013.1,,TRUE,TRUE,,,,,,,CLR,,,,,,,,VFR,-0.07,36.1,25.6,,,,,,,,,METAR,144
KCNY 141753Z AUTO 00000KT 10SM CLR 34/M01 A3000 RMK AO2 SLP086 T03391006 10344 20183 58002,KCNY,2025-08-14T17:53:00Z,38.7501,-109.763,33.9,-0.6,0,0,,10+,30.00,1008.6,,TRUE,TRUE,,,,,,,CLR,,,,,,,,VFR,-0.02,34.4,18.3,,,,,,,,,METAR,1392
KCNM 141753Z AUTO 10SM CLR 34/12 A3006 RMK AO2 SLP115 T03440117 10344 20200 50004,KCNM,2025-08-14T17:53:00Z,32.3335,-104.258,34.4,11.7,,,,10+,30.06,1011.5,,TRUE,TRUE,,,,,,,CLR,,,,,,,,VFR,0.04,34.4,20,,,,,,,,,METAR,993
KCMX 141753Z AUTO 10011KT 10SM CLR 22/12 A3006 RMK AO2 SLP177 T02220122 10228 20139 58009,KCMX,2025-08-14T17:53:00Z,47.1705,-88.4854,22.2,12.2,100,11,,10+,30.06,1017.7,,TRUE,TRUE,,,,,,,CLR,,,,,,,,VFR,-0.09,22.8,13.9,,,,,,,,,METAR,326
KCMI 141753Z 07003KT 10SM BKN031 29/19 A3005 RMK AO2 SLP168 T02940189 10300 20206 58004,KCMI,2025-08-14T17:53:00Z,40.0324,-88.2755,29.4,18.9,70,3,,10+,30.05,1016.8,,,TRUE,,,,,,,BKN,3100,,,,,,,VFR,-0.04,30,20.6,,,,,,,,,METAR,227
KCLM 141753Z AUTO 30007KT 280V340 10SM OVC021 16/10 A3003 RMK AO2 SLP169 6//// T01560100 10161 20111 51001,KCLM,2025-08-14T17:53:00Z,48.1219,-123.507,15.6,10,300,7,,10+,30.03,1016.9,,TRUE,TRUE,,,,,,,OVC,2100,,,,,,,MVFR,0.01,16.1,11.1,,,,,,,,,METAR,81
KCLL 141753Z 21006KT 10SM FEW040 33/23 A2999 RMK AO2 SLP149 T03330228 10333 20244 58008 $,KCLL,2025-08-14T17:53:00Z,30.5912,-96.3631,33.3,22.8,210,6,,10+,29.99,1014.9,,,TRUE,TRUE,,,,,,FEW,4000,,,,,,,VFR,-0.08,33.3,24.4,,,,,,,,,METAR,96
KCKB 141753Z 00000KT 10SM FEW028 29/21 A3004 RMK AO2 SLP157 60000 T02890206 10294 20211 58003,KCKB,2025-08-14T17:53:00Z,39.3022,-80.2239,28.9,20.6,0,0,,10+,30.04,1015.7,,,TRUE,,,,,,,FEW,2800,,,,,,,VFR,-0.03,29.4,21.1,,,,,0.005,,,,METAR,368
KCHA 141753Z 00000KT 10SM SCT033 SCT250 31/22 A3003 RMK AO2 SLP160 T03060217 10311 20228 58008,KCHA,2025-08-14T17:53:00Z,35.0336,-85.2004,30.6,21.7,0,0,,10+,30.03,1016,,,TRUE,,,,,,,SCT,3300,SCT,25000,,,,,VFR,-0.08,31.1,22.8,,,,,,,,,METAR,203
KCGI 141753Z VRB03KT 10SM CLR 32/22 A2999 RMK AO2 SLP150 T03170222 10317 20211 58008,KCGI,2025-08-14T17:53:00Z,37.2254,-89.5785,31.7,22.2,VRB,3,,10+,29.99,1015,,,TRUE,,,,,,,CLR,,,,,,,,VFR,-0.08,31.7,21.1,,,,,,,,,METAR,103
KCEZ 141753Z AUTO 21014G18KT 10SM CLR 30/02 A3018 RMK AO2 SLP129 T03000017 10300 20128 58003,KCEZ,2025-08-14T17:53:00Z,37.3071,-108.626,30,1.7,210,14,18,10+,30.18,1012.9,,TRUE,TRUE,,,,,,,CLR,,,,,,,,VFR,-0.03,30,12.8,,,,,,,,,METAR,1801
KCEW 141753Z AUTO 25006KT 10SM FEW037 33/23 A3004 RMK AO2 SLP170 T03280233 10328 20244 58007,KCEW,2025-08-14T17:53:00Z,30.7771,-86.5194,32.8,23.3,250,6,,10+,30.04,1017,,TRUE,TRUE,,,,,,,FEW,3700,,,,,,,VFR,-0.07,32.8,24.4,,,,,,,,,METAR,47
KCDW 141753Z 00000KT 10SM SCT100 32/21 A2993 RMK AO2 SLP138 60000 T03170211 10317 20233 58001,KCDW,2025-08-14T17:53:00Z,40.8764,-74.2829,31.7,21.1,0,0,,10+,29.93,1013.8,,,TRUE,,,,,,,SCT,10000,,,,,,,VFR,-0.01,31.7,23.3,,,,,0.005,,,,METAR,52
KCDS 141753Z AUTO 10SM 33/21 A2997 RMK AO2 SLP117 T03330206 10333 20217 58009,KCDS,2025-08-14T17:53:00Z,34.4275,-100.284,33.3,20.6,,,,10+,29.97,1011.7,,TRUE,TRUE,,,,,,,,,,,,,,,VFR,-0.09,33.3,21.7,,,,,,,,,METAR,595
KCDR 141753Z AUTO 09003KT 10SM CLR 34/08 A2986 RMK AO2 SLP082 T03390078 10344 20122 58002,KCDR,2025-08-14T17:53:00Z,42.8374,-103.098,33.9,7.8,90,3,,10+,29.86,1008.2,,TRUE,TRUE,,,,,,,CLR,,,,,,,,VFR,-0.02,34.4,12.2,,,,,,,,,METAR,1002
KCDC 141753Z AUTO 23013KT 10SM CLR 28/07 A3016 RMK AO2 SLP120 T02830067 10289 20211 50001,KCDC,2025-08-14T17:53:00Z,37.7067,-113.097,28.3,6.7,230,13,,10+,30.16,1012,,TRUE,TRUE,,,,,,,CLR,,,,,,,,VFR,0.01,28.9,21.1,,,,,,,,,METAR,1703
KCCR 141753Z 19007KT 10SM CLR 22/14 A2994 RMK AO2 SLP126 T02220139 10222 20156 58001,KCCR,2025-08-14T17:53:00Z,37.9916,-122.053,22.2,13.9,190,7,,10+,29.94,1012.6,,,TRUE,,,,,,,CLR,,,,,,,,VFR,-0.01,22.2,15.6,,,,,,,,,METAR,6
KCAG 141753Z AUTO VRB04KT 10SM CLR 29/00 A3014 RMK AO2 SLP125 T02890000 10289 20083 58010,KCAG,2025-08-14T17:53:00Z,40.493,-107.524,28.9,0,VRB,4,,10+,30.14,1012.5,,TRUE,TRUE,,,,,,,CLR,,,,,,,,VFR,-0.1,28.9,8.3,,,,,,,,,METAR,1888
KBYI 141753Z AUTO 30008KT 10SM CLR 27/08 A3000 RMK AO2 SLP105 T02670078 10272 20178 50001,KBYI,2025-08-14T17:53:00Z,42.5452,-113.769,26.7,7.8,300,8,,10+,30.00,1010.5,,TRUE,TRUE,,,,,,,CLR,,,,,,,,VFR,0.01,27.2,17.8,,,,,,,,,METAR,1263
KBYG 141753Z AUTO 35014KT 10SM CLR 27/07 A3002 RMK AO2 SLP090 T02720067 10278 20189 51012,KBYG,2025-08-14T17:53:00Z,44.3812,-106.719,27.2,6.7,350,14,,10+,30.02,1009,,TRUE,TRUE,,,,,,,CLR,,,,,,,,VFR,0.12,27.8,18.9,,,,,,,,,METAR,1503
KBWG 141753Z AUTO 12006KT 10SM BKN110 29/23 A3000 RMK AO2 LTG DSNT W AND NW RAB1658E32 SLP153 P0088 60088 T02890228 10317 20233 58009,KBWG,2025-08-14T17:53:00Z,36.9647,-86.4238,28.9,22.8,120,6,,10+,30.00,1015.3,,TRUE,TRUE,,,,,,,BKN,11000,,,,,,,VFR,-0.09,31.7,23.3,,,,,,,,,METAR,159
KBVY 141753Z 14005KT 10SM SCT040 SCT050 29/22 A2988 RMK AO2 SLP114 T02940217 10294 20233 56002,KBVY,2025-08-14T17:53:00Z,42.5841,-70.9153,29.4,21.7,140,5,,10+,29.88,1011.4,,,TRUE,,,,,,,SCT,4000,SCT,5000,,,,,VFR,-0.02,29.4,23.3,,,,,,,,,METAR,28
KBVO 141753Z AUTO 10SM FEW048 34/22 A2997 RMK AO2 SLP139 T03390222 10339 20183 58009,KBVO,2025-08-14T17:53:00Z,36.7664,-96.0129,33.9,22.2,,,,10+,29.97,1013.9,,TRUE,TRUE,,,,,,,FEW,4800,,,,,,,VFR,-0.09,33.9,18.3,,,,,,,,,METAR,210
KBUR 141753Z 20005KT 5SM HZ CLR 23/17 A2994 RMK AO2 SLP127 T02330167 10233 20183 58001,KBUR,2025-08-14T17:53:00Z,34.1996,-118.365,23.3,16.7,200,5,,5,29.94,1012.7,,,TRUE,,,,,,HZ,CLR,,,,,,,,MVFR,-0.01,23.3,18.3,,,,,,,,,METAR,221
KBTR 141753Z COR VRB03KT 10SM BKN032 33/23 A3001 RMK AO2 LTG DSNT SW SLP162 T03280233 10339 20244 58006,KBTR,2025-08-14T17:53:00Z,30.5378,-91.1468,32.8,23.3,VRB,3,,10+,30.01,1016.2,TRUE,,TRUE,,,,,,,BKN,3200,,,,,,,VFR,-0.06,33.9,24.4,,,,,,,,,METAR,20
KBTM 141753Z AUTO 27016G25KT 10SM FEW100 27/01 A3002 RMK AO2 SLP102 T02670011 10267 20078 56012,KBTM,2025-08-14T17:53:00Z,45.9644,-112.501,26.7,1.1,270,16,25,10+,30.02,1010.2,,TRUE,TRUE,,,,,,,FEW,10000,,,,,,,VFR,-0.12,26.7,7.8,,,,,,,,,METAR,1680
KBTL 141753Z 35006KT 10SM FEW031 BKN060 OVC075 25/19 A3006 RMK AO2 SLP174 T02500194 10267 20178 55002,KBTL,2025-08-14T17:53:00Z,42.3119,-85.2415,25,19.4,350,6,,10+,30.06,1017.4,,,TRUE,,,,,,,FEW,3100,BKN,6000,OVC,7500,,,VFR,-0.02,26.7,17.8,,,,,,,,,METAR,282
KBRO 141753Z 15013G20KT 10SM FEW045 37/22 A2995 RMK AO2 SLP140 T03670222 56006 $,KBRO,2025-08-14T17:53:00Z,25.9146,-97.4231,36.7,22.2,150,13,20,10+,29.95,1014,,,TRUE,TRUE,,,,,,FEW,4500,,,,,,,VFR,-0.06,,,,,,,,,,,METAR,6
KBRL 141753Z AUTO 18007KT 10SM CLR 28/18 A3003 RMK AO2 SLP164 T02780183 10278 20167 58006,KBRL,2025-08-14T17:53:00Z,40.7729,-91.1255,27.8,18.3,180,7,,10+,30.03,1016.4,,TRUE,TRUE,,,,,,,CLR,,,,,,,,VFR,-0.06,27.8,16.7,,,,,,,,,METAR,208
KBRD 141753Z AUTO 17013KT 10SM SCT031 25/17 A2989 RMK AO2 PK WND 19032/1742 SLP116 T02500172 10261 20194 56007,KBRD,2025-08-14T17:53:00Z,46.4021,-94.1273,25,17.2,170,13,,10+,29.89,1011.6,,TRUE,TRUE,,,,,,,SCT,3100,,,,,,,VFR,-0.07,26.1,19.4,,,,,,,,,METAR,372
KBPK 141753Z AUTO 14005KT 10SM CLR 34/19 A3001 RMK AO2 SLP149 T03440189 10344 20211 58008,KBPK,2025-08-14T17:53:00Z,36.3705,-92.4719,34.4,18.9,140,5,,10+,30.01,1014.9,,TRUE,TRUE,,,,,,,CLR,,,,,,,,VFR,-0.08,34.4,21.1,,,,,,,,,METAR,279
KBPI 141753Z AUTO 10SM CLR 27/02 A3019 RMK AO2 SLP106 T02720017 10272 20128 58007,KBPI,2025-08-14T17:53:00Z,42.578,-110.11,27.2,1.7,,,,10+,30.19,1010.6,,TRUE,TRUE,,,,,,,CLR,,,,,,,,VFR,-0.07,27.2,12.8,,,,,,,,,METAR,2120
KBOI 141753Z 30009KT 10SM CLR 28/09 A2995 RMK AO2 SLP109 T02780089 10283 20172 50000,KBOI,2025-08-14T17:53:00Z,43.567,-116.241,27.8,8.9,300,9,,10+,29.95,1010.9,,,TRUE,,,,,,,CLR,,,,,,,,VFR,,28.3,17.2,,,,,,,,,METAR,860
KBNO 141753Z AUTO 26008G16KT 10SM CLR 25/06 A3005 RMK AO2 SLP135 T02500056 10250 20061 58007 $,KBNO,2025-08-14T17:53:00Z,43.5949,-118.958,25,5.6,260,8,16,10+,30.05,1013.5,,TRUE,TRUE,TRUE,,,,,,CLR,,,,,,,,VFR,-0.07,25,6.1,,,,,,,,,METAR,1263
KBNA 141753Z 27004KT 10SM SCT038TCU SCT250 33/21 A3002 RMK AO2 SLP158 TCU NE AND SE AND W-NW T03280206 10328 20228 58011 $,KBNA,2025-08-14T17:53:00Z,36.1105,-86.6881,32.8,20.6,270,4,,10+,30.02,1015.8,,,TRUE,TRUE,,,,,,SCT,3800,SCT,25000,,,,,VFR,-0.11,32.8,22.8,,,,,,,,,METAR,168
KBMQ 141753Z AUTO 10SM CLR 33/20 A3001 RMK AO2 SLP143 T03280200 10333 20239 58006,KBMQ,2025-08-14T17:53:00Z,30.7407,-98.2354,32.8,20,,,,10+,30.01,1014.3,,TRUE,TRUE,,,,,,,CLR,,,,,,,,VFR,-0.06,33.3,23.9,,,,,,,,,METAR,387
KBMG 141753Z 12005KT 10SM FEW080 30/20 A3004 RMK AO2 SLP162 T03000200 10306 20217 58004,KBMG,2025-08-14T17:53:00Z,39.1432,-86.6168,30,20,120,5,,10+,30.04,1016.2,,,TRUE,,,,,,,FEW,8000,,,,,,,VFR,-0.04,30.6,21.7,,,,,,,,,METAR,254
KBLI 141753Z 17009G17KT 10SM BKN022 BKN029 17/12 A3002 RMK AO2 SLP170 T01670117 10172 20150 51003,KBLI,2025-08-14T17:53:00Z,48.7991,-122.541,16.7,11.7,170,9,17,10+,30.02,1017,,,TRUE,,,,,,,BKN,2200,BKN,2900,,,,,MVFR,0.03,17.2,15,,,,,,,,,METAR,46
KBKV 141753Z 31005KT 10SM FEW035 FEW044 33/25 A3007 RMK AO2 LTG DSNT SE AND S SLP181 T03280250 10328 20261 58002,KBKV,2025-08-14T17:53:00Z,28.4739,-82.4537,32.8,25,310,5,,10+,30.07,1018.1,,,TRUE,,,,,,,FEW,3500,FEW,4400,,,,,VFR,-0.02,32.8,26.1,,,,,,,,,METAR,21
KBKL 141753Z 02012KT 10SM CLR 26/19 A3005 RMK AO2 SLP173 T02610194 10267 20233 50003,KBKL,2025-08-14T17:53:00Z,41.5173,-81.6832,26.1,19.4,20,12,,10+,30.05,1017.3,,,TRUE,,,,,,,CLR,,,,,,,,VFR,0.03,26.7,23.3,,,,,,,,,METAR,177
KBKE 141753Z AUTO 33008KT 10SM CLR 23/11 A3001 RMK AO2 SLP139 T02330111 10233 20106 58004,KBKE,2025-08-14T17:53:00Z,44.843,-117.81,23.3,11.1,330,8,,10+,30.01,1013.9,,TRUE,TRUE,,,,,,,CLR,,,,,,,,VFR,-0.04,23.3,10.6,,,,,,,,,METAR,1025
KBIL 141753Z 06011KT 10SM FEW090 23/13 A2998 RMK AO2 SLP115 ACC NE T02330128 10233 20183 50006,KBIL,2025-08-14T17:53:00Z,45.8072,-108.546,23.3,12.8,60,11,,10+,29.98,1011.5,,,TRUE,,,,,,,FEW,9000,,,,,,,VFR,0.06,23.3,18.3,,,,,,,,,METAR,1089
KBHM 141753Z 00000KT 10SM FEW028 SCT170 SCT230 31/23 A3006 RMK AO2 SLP170 T03110228 10311 20239 58006,KBHM,2025-08-14T17:53:00Z,33.5655,-86.7449,31.1,22.8,0,0,,10+,30.06,1017,,,TRUE,,,,,,,FEW,2800,SCT,17000,SCT,23000,,,VFR,-0.06,31.1,23.9,,,,,,,,,METAR,191
KBGR 141753Z VRB05KT 10SM SCT045TCU BKN060 30/18 A2987 RMK AO2 SLP112 TCU NE PRESENT WX VCSH T03000183 10300 20217 55004,KBGR,2025-08-14T17:53:00Z,44.7979,-68.8195,30,18.3,VRB,5,,10+,29.87,1011.2,,,TRUE,,,,,,,SCT,4500,BKN,6000,,,,,VFR,-0.04,30,21.7,,,,,,,,,METAR,45
KBGM 141753Z 36009KT 10SM FEW039 SCT095 27/18 A3002 RMK AO2 SLP152 T02720183 10278 20189 58000,KBGM,2025-08-14T17:53:00Z,42.2068,-75.9799,27.2,18.3,360,9,,10+,30.02,1015.2,,,TRUE,,,,,,,FEW,3900,SCT,9500,,,,,VFR,,27.8,18.9,,,,,,,,,METAR,485
KBFM 141753Z 14008KT 10SM SCT034 32/26 A3003 RMK AO2 SLP170 T03220261 10328 20244 58008,KBFM,2025-08-14T17:53:00Z,30.6147,-88.063,32.2,26.1,140,8,,10+,30.03,1017,,,TRUE,,,,,,,SCT,3400,,,,,,,VFR,-0.08,32.8,24.4,,,,,,,,,METAR,7
KBFF 141753Z AUTO 26007KT 10SM CLR 32/10 A2992 RMK AO2 SLP079 T03220100 10328 20133 58002,KBFF,2025-08-14T17:53:00Z,41.8747,-103.601,32.2,10,260,7,,10+,29.92,1007.9,,TRUE,TRUE,,,,,,,CLR,,,,,,,,VFR,-0.02,32.8,13.3,,,,,,,,,METAR,1204
KBFD 141753Z AUTO 36008KT 10SM BKN047 OVC055 26/15 A3008 RMK AO2 SLP170 T02610150 10267 20183 50000,KBFD,2025-08-14T17:53:00Z,41.7984,-78.6354,26.1,15,360,8,,10+,30.08,1017,,TRUE,TRUE,,,,,,,BKN,4700,OVC,5500,,,,,VFR,,26.7,18.3,,,,,,,,,METAR,642
KBEH 141753Z AUTO VRB05KT 10SM CLR 26/18 A3006 RMK AO2 SLP176 T02560178 10261 20161 50001,KBEH,2025-08-14T17:53:00Z,42.129,-86.4152,25.6,17.8,VRB,5,,10+,30.06,1017.6,,TRUE,TRUE,,,,,,,CLR,,,,,,,,VFR,0.01,26.1,16.1,,,,,,,,,METAR,196
KBDE 141753Z AUTO 17012G22KT 10SM CLR 26/18 A2980 RMK AO2 PK WND 14027/1735 SLP091 T02560183 10261 20139 58015,KBDE,2025-08-14T17:53:00Z,48.7261,-94.6122,25.6,18.3,170,12,22,10+,29.80,1009.1,,TRUE,TRUE,,,,,,,CLR,,,,,,,,VFR,-0.15,26.1,13.9,,,,,,,,,METAR,330
KBCT 141753Z 13009KT 10SM SCT030 35/24 A3007,KBCT,2025-08-14T17:53:00Z,26.379,-80.106,35,24,130,9,,10+,30.07,,,,,,,,,,,SCT,3000,,,,,,,VFR,,,,,,,,,,,,METAR,3
KBCE 141753Z AUTO 26012KT 10SM BKN110 26/02 A3033 RMK AO2 SLP122 T02560017 10267 20072 53003,KBCE,2025-08-14T17:53:00Z,37.7013,-112.149,25.6,1.7,260,12,,10+,30.33,1012.2,,TRUE,TRUE,,,,,,,BKN,11000,,,,,,,VFR,0.03,26.7,7.2,,,,,,,,,METAR,2311
KBBW 141753Z AUTO 20010G17KT 10SM CLR 29/20 A2987 RMK AO2 SLP088 T02890200 10289 20211 51005,KBBW,2025-08-14T17:53:00Z,41.4365,-99.6385,28.9,20,200,10,17,10+,29.87,1008.8,,TRUE,TRUE,,,,,,,CLR,,,,,,,,VFR,0.05,28.9,21.1,,,,,,,,,METAR,771
KBAF 141753Z VRB03KT 10SM SCT044 31/20 A2991 RMK AO2 SLP124 T03110200 10317 20211 57004,KBAF,2025-08-14T17:53:00Z,42.16,-72.7124,31.1,20,VRB,3,,10+,29.91,1012.4,,,TRUE,,,,,,,SCT,4400,,,,,,,VFR,-0.04,31.7,21.1,,,,,,,,,METAR,80
KAXN 141753Z AUTO 18015G24KT 10SM FEW024 FEW029 BKN090 25/19 A2989 RMK AO2 SLP115 T02500194 10267 20194 53004,KAXN,2025-08-14T17:53:00Z,45.868,-95.394,25,19.4,180,15,24,10+,29.89,1011.5,,TRUE,TRUE,,,,,,,FEW,2400,FEW,2900,BKN,9000,,,VFR,0.04,26.7,19.4,,,,,,,,,METAR,433
KAWM 141753Z AUTO 00000KT 10SM FEW090 SCT110 33/23 A2998 RMK AO2 RAB31E38 SLP146 P0000 60000 T03280233 10328 20233 58011 $,KAWM,2025-08-14T17:53:00Z,35.1401,-90.2359,32.8,23.3,0,0,,10+,29.98,1014.6,,TRUE,TRUE,TRUE,,,,,,FEW,9000,SCT,11000,,,,,VFR,-0.11,32.8,23.3,,,0.005,,0.005,,,,METAR,64
KAUS 141753Z 18009G16KT 10SM FEW100 34/21 A2997 RMK AO2 SLP134 T03440206 10350 20244 58010,KAUS,2025-08-14T17:53:00Z,30.2099,-97.6806,34.4,20.6,180,9,16,10+,29.97,1013.4,,,TRUE,,,,,,,FEW,10000,,,,,,,VFR,-0.1,35,24.4,,,,,,,,,METAR,148
KATY 141753Z AUTO 18010G20KT 10SM CLR 26/19 A2982 RMK AO2 SLP086 T02560189 10256 20194 56005,KATY,2025-08-14T17:53:00Z,44.9045,-97.1496,25.6,18.9,180,10,20,10+,29.82,1008.6,,TRUE,TRUE,,,,,,,CLR,,,,,,,,VFR,-0.05,25.6,19.4,,,,,,,,,METAR,531
KASX 141753Z AUTO VRB04KT 10SM SCT070 25/18 A3000 RMK AO2 SLP159 T02500178 10261 20100 56005,KASX,2025-08-14T17:53:00Z,46.5468,-90.9184,25,17.8,VRB,4,,10+,30.00,1015.9,,TRUE,TRUE,,,,,,,SCT,7000,,,,,,,VFR,-0.05,26.1,10,,,,,,,,,METAR,249
KASE 141753Z 01006KT 10SM CLR 26/M01 A3027 RMK AO2 SLP108 T02561006 10256 20111 58009,KASE,2025-08-14T17:53:00Z,39.2299,-106.871,25.6,-0.6,10,6,,10+,30.27,1010.8,,,TRUE,,,,,,,CLR,,,,,,,,VFR,-0.09,25.6,11.1,,,,,,,,,METAR,2384
KASD 141753Z AUTO 00000KT 10SM CLR 32/23 A3002 RMK AO2 SLP166 T03220228 10328 20228 58004,KASD,2025-08-14T17:53:00Z,30.3436,-89.8224,32.2,22.8,0,0,,10+,30.02,1016.6,,TRUE,TRUE,,,,,,,CLR,,,,,,,,VFR,-0.04,32.8,22.8,,,,,,,,,METAR,8
KARB 141753Z 09006KT 7SM FEW047 27/17 A3006 RMK AO2 SLP174 T02720172 10278 20183 58004,KARB,2025-08-14T17:53:00Z,42.2239,-83.7398,27.2,17.2,90,6,,7,30.06,1017.4,,,TRUE,,,,,,,FEW,4700,,,,,,,VFR,-0.04,27.8,18.3,,,,,,,,,METAR,251
KARA 141753Z 18007KT 10SM SCT042 31/24 A3003 RMK AO2 SLP169T03060244,KARA,2025-08-14T17:53:00Z,30.0292,-91.8845,31,24,180,7,,10+,30.03,1016.9,,,TRUE,,,,,,,SCT,4200,,,,,,,VFR,,,,,,,,,,,,METAR,5
KAPF 141753Z 23010KT 10SM SCT033 33/24 A3006 RMK AO2 SLP176 T03280244 10333 20278 58004,KAPF,2025-08-14T17:53:00Z,26.155,-81.7751,32.8,24.4,230,10,,10+,30.06,1017.6,,,TRUE,,,,,,,SCT,3300,,,,,,,VFR,-0.04,33.3,27.8,,,,,,,,,METAR,2
KAPA 141753Z 00000KT 10SM FEW140 BKN220 33/01 A3008 RMK AO2 SLP088 T03330006 10333 20200 58002 $,KAPA,2025-08-14T17:53:00Z,39.5599,-104.848,33.3,0.6,0,0,,10+,30.08,1008.8,,,TRUE,TRUE,,,,,,FEW,14000,BKN,22000,,,,,VFR,-0.02,33.3,20,,,,,,,,,METAR,1791
KAOO 141753Z AUTO 10SM CLR 27/21 A3003 RMK AO2 SLP158 T02720206 10272 20211 58005,KAOO,2025-08-14T17:53:00Z,40.2999,-78.3168,27.2,20.6,,,,10+,30.03,1015.8,,TRUE,TRUE,,,,,,,CLR,,,,,,,,VFR,-0.05,27.2,21.1,,,,,,,,,METAR,450
KAOH 141753Z AUTO 08006KT 10SM CLR 28/19 A3005 RMK AO2 SLP168 T02830194 10283 20206 58002,KAOH,2025-08-14T17:53:00Z,40.7081,-84.0214,28.3,19.4,80,6,,10+,30.05,1016.8,,TRUE,TRUE,,,,,,,CLR,,,,,,,,VFR,-0.02,28.3,20.6,,,,,,,,,METAR,294
KANB 141753Z AUTO 00000KT 10SM FEW035 30/22 A3005 RMK AO2 SLP164 T03000217 10306 20228 58005,KANB,2025-08-14T17:53:00Z,33.5904,-85.8479,30,21.7,0,0,,10+,30.05,1016.4,,TRUE,TRUE,,,,,,,FEW,3500,,,,,,,VFR,-0.05,30.6,22.8,,,,,,,,,METAR,187
KAMW 141753Z AUTO 17013KT 10SM CLR 26/18 A3001 RMK AO2 SLP152 T02610183 10261 20167 50005,KAMW,2025-08-14T17:53:00Z,41.9905,-93.6185,26.1,18.3,170,13,,10+,30.01,1015.2,,TRUE,TRUE,,,,,,,CLR,,,,,,,,VFR,0.05,26.1,16.7,,,,,,,,,METAR,282
KAMG 141753Z AUTO 29006KT 10SM FEW050 32/23 A3002 RMK AO2 SLP161 T03220233 10328 20250 58004,KAMG,2025-08-14T17:53:00Z,31.5401,-82.5074,32.2,23.3,290,6,,10+,30.02,1016.1,,TRUE,TRUE,,,,,,,FEW,5000,,,,,,,VFR,-0.04,32.8,25,,,,,,,,,METAR,61
KAMA 141753Z 20016G25KT 10SM CLR 34/14 A3003 RMK AO2 PK WND 19027/1712 SLP106 T03390139 10339 20200 58004,KAMA,2025-08-14T17:53:00Z,35.2203,-101.717,33.9,13.9,200,16,25,10+,30.03,1010.6,,,TRUE,,,,,,,CLR,,,,,,,,VFR,-0.04,33.9,20,,,,,,,,,METAR,1102
KALW 141753Z 23012G20KT 10SM FEW065 25/10 A2995 RMK AO2 SLP134 T02500100 10256 20189 51003,KALW,2025-08-14T17:53:00Z,46.0946,-118.286,25,10,230,12,20,10+,29.95,1013.4,,,TRUE,,,,,,,FEW,6500,,,,,,,VFR,0.03,25.6,18.9,,,,,,,,,METAR,355
KALI 141753Z AUTO VRB06G17KT 10SM CLR 36/21 A2994 RMK AO2 SLP136 T03610211 10361 20233 58007,KALI,2025-08-14T17:53:00Z,27.7413,-98.0251,36.1,21.1,VRB,6,17,10+,29.94,1013.6,,TRUE,TRUE,,,,,,,CLR,,,,,,,,VFR,-0.07,36.1,23.3,,,,,,,,,METAR,52
KAKO 141753Z AUTO 02010KT 10SM CLR 33/09 A2999 RMK AO2 SLP080 T03280089 10328 20189 50008,KAKO,2025-08-14T17:53:00Z,40.1743,-103.215,32.8,8.9,20,10,,10+,29.99,1008,,TRUE,TRUE,,,,,,,CLR,,,,,,,,VFR,0.08,32.8,18.9,,,,,,,,,METAR,1431
KAIA 141753Z AUTO VRB06KT 10SM CLR 33/12 A2991 RMK AO2 SLP073 T03280122 10328 20100 50005,KAIA,2025-08-14T17:53:00Z,42.0573,-102.802,32.8,12.2,VRB,6,,10+,29.91,1007.3,,TRUE,TRUE,,,,,,,CLR,,,,,,,,VFR,0.05,32.8,10,,,,,,,,,METAR,1198
KAGS 141753Z 32004KT 10SM SCT023 BKN045 30/24 A2997 RMK AO2 SLP146 6//// T03000239 10306 20250 50001 PNO $,KAGS,2025-08-14T17:53:00Z,33.3652,-81.9635,30,23.9,320,4,,10+,29.97,1014.6,,,TRUE,TRUE,,,,,,SCT,2300,BKN,4500,,,,,VFR,0.01,30.6,25,,,,,,,,,METAR,40
KAGC 141753Z VRB05KT 9SM FEW025 FEW031 27/21 A3005 RMK AO2 SLP171 T02670206 10272 20217 50002,KAGC,2025-08-14T17:53:00Z,40.3551,-79.9215,26.7,20.6,VRB,5,,9,30.05,1017.1,,,TRUE,,,,,,,FEW,2500,FEW,3100,,,,,VFR,0.02,27.2,21.7,,,,,,,,,METAR,380
KAFW 141753Z 14010G16KT 10SM FEW050 34/22 A2995 RMK AO2 SLP123 T03440217 10356 20256 58012,KAFW,2025-08-14T17:53:00Z,32.99,-97.32,34.4,21.7,140,10,16,10+,29.95,1012.3,,,TRUE,,,,,,,FEW,5000,,,,,,,VFR,-0.12,35.6,25.6,,,,,,,,,METAR,208
KAEX 141753Z VRB03KT 10SM FEW035 33/24 A2999 RMK AO2 LTG DSNT W SLP156 T03330239 10333 20244 58008,KAEX,2025-08-14T17:53:00Z,31.3346,-92.5585,33.3,23.9,VRB,3,,10+,29.99,1015.6,,,TRUE,,,,,,,FEW,3500,,,,,,,VFR,-0.08,33.3,24.4,,,,,,,,,METAR,25
KADG 141753Z AUTO 10007KT 10SM CLR 27/17 A3007 RMK AO2 SLP176 T02720172 10272 20189 58003,KADG,2025-08-14T17:53:00Z,41.8678,-84.0794,27.2,17.2,100,7,,10+,30.07,1017.6,,TRUE,TRUE,,,,,,,CLR,,,,,,,,VFR,-0.03,27.2,18.9,,,,,,,,,METAR,244
KACK 141753Z 19007KT 10SM SCT016 27/23 A2992 RMK AO2 SLP132 60000 T02670228 10267 20217 51002,KACK,2025-08-14T17:53:00Z,41.2541,-70.0589,26.7,22.8,190,7,,10+,29.92,1013.2,,,TRUE,,,,,,,SCT,1600,,,,,,,VFR,0.02,26.7,21.7,,,,,0.005,,,,METAR,12
KABY 141753Z 33009KT 10SM SCT036 33/24 A3004 RMK AO2 SLP168 T03330239 10333 20256 58004,KABY,2025-08-14T17:53:00Z,31.5364,-84.1958,33.3,23.9,330,9,,10+,30.04,1016.8,,,TRUE,,,,,,,SCT,3600,,,,,,,VFR,-0.04,33.3,25.6,,,,,,,,,METAR,60
KABR 141753Z AUTO 19013KT 10SM CLR 27/21 A2976 RMK AO2 SLP070 T02670206 10272 20183 56004,KABR,2025-08-14T17:53:00Z,45.4436,-98.4138,26.7,20.6,190,13,,10+,29.76,1007,,TRUE,TRUE,,,,,,,CLR,,,,,,,,VFR,-0.04,27.2,18.3,,,,,,,,,METAR,397
KAAF 141753Z AUTO 00000KT 9SM -RA SCT042 BKN055 OVC110 26/24 A3005 RMK AO2 TSB03E18 SLP175 P0019 60068 T02610244 10306 20256 50000,KAAF,2025-08-14T17:53:00Z,29.7268,-85.0248,26.1,24.4,0,0,,9,30.05,1017.5,,TRUE,TRUE,,,,,,-RA,SCT,4200,BKN,5500,OVC,11000,,,VFR,,30.6,25.6,,,0.19,,,,,,METAR,5
PKMR 141752Z 08007KT 15SM FEW015 BKN300 28/23 A2980 RMK SLP093 8/101 T02810234 10284 20281 55000,PKMR,2025-08-14T17:52:00Z,7.09,171.383,28.1,23.4,80,7,,15,29.80,1009.3,,,,,,,,,,FEW,1500,BKN,30000,,,,,VFR,,28.4,28.1,,,,,,,,,METAR,7
KVTN 141752Z AUTO VRB03KT 10SM CLR 29/18 A2984 RMK AO2 SLP083 T02940183 10300 20206 51001,KVTN,2025-08-14T17:52:00Z,42.8585,-100.551,29.4,18.3,VRB,3,,10+,29.84,1008.3,,TRUE,TRUE,,,,,,,CLR,,,,,,,,VFR,0.01,30,20.6,,,,,,,,,METAR,790
KTRM 141752Z AUTO 00000KT 10SM CLR 36/20 A2978 RMK AO2 SLP086 T03560200 10356 20228 58007 TSNO,KTRM,2025-08-14T17:52:00Z,33.6317,-116.164,35.6,20,0,0,,10+,29.78,1008.6,,TRUE,TRUE,,,TRUE,,,,CLR,,,,,,,,VFR,-0.07,35.6,22.8,,,,,,,,,METAR,-39
KTOL 141752Z 08008KT 040V130 10SM OVC075 29/16 A3005 RMK AO2 SLP170 T02890156 10294 20200 58001 $,KTOL,2025-08-14T17:52:00Z,41.5871,-83.8054,28.9,15.6,80,8,,10+,30.05,1017,,,TRUE,TRUE,,,,,,OVC,7500,,,,,,,VFR,-0.01,29.4,20,,,,,,,,,METAR,206
KTAN 141752Z AUTO 18005KT 10SM FEW070 29/23 A2989 RMK AO2 SLP122 60000 T02890228 10300 20239 57001,KTAN,2025-08-14T17:52:00Z,41.8756,-71.0208,28.9,22.8,180,5,,10+,29.89,1012.2,,TRUE,TRUE,,,,,,,FEW,7000,,,,,,,VFR,-0.01,30,23.9,,,,,0.005,,,,METAR,8
KSUX 141752Z 17014G21KT 10SM CLR 29/22 A2988 RMK AO2 SLP109 T02890217 10289 20200 58012 $,KSUX,2025-08-14T17:52:00Z,42.3917,-96.3795,28.9,21.7,170,14,21,10+,29.88,1010.9,,,TRUE,TRUE,,,,,,CLR,,,,,,,,VFR,-0.12,28.9,20,,,,,,,,,METAR,332
KSPS 141752Z 18008KT 10SM CLR 33/22 A2995 RMK AO2 SLP126 T03330217 10333 20222 58010 $,KSPS,2025-08-14T17:52:00Z,33.9785,-98.493,33.3,21.7,180,8,,10+,29.95,1012.6,,,TRUE,TRUE,,,,,,CLR,,,,,,,,VFR,-0.1,33.3,22.2,,,,,,,,,METAR,310
KSPI 141752Z 00000KT 10SM FEW039 29/20 A3003 RMK AO2 SLP163 T02890200 10294 20183 58003 $,KSPI,2025-08-14T17:52:00Z,39.8453,-89.684,28.9,20,0,0,,10+,30.03,1016.3,,,TRUE,TRUE,,,,,,FEW,3900,,,,,,,VFR,-0.03,29.4,18.3,,,,,,,,,METAR,179
KSGF 141752Z 19007KT 10SM FEW055 SCT075 34/18 A3001 RMK AO2 SLP144 T03390183 10339 20206 58006,KSGF,2025-08-14T17:52:00Z,37.2398,-93.39,33.9,18.3,190,7,,10+,30.01,1014.4,,,TRUE,,,,,,,FEW,5500,SCT,7500,,,,,VFR,-0.06,33.9,20.6,,,,,,,,,METAR,387
KREO 141752Z AUTO 33006KT 28/03 A3002 RMK AO1 SLP125 T02780028 10278 20117 58001,KREO,2025-08-14T17:52:00Z,42.5902,-117.865,27.8,2.8,330,6,,,30.02,1012.5,,TRUE,TRUE,,,,,,,,,,,,,,,,-0.01,27.8,11.7,,,,,,,,,METAR,1237
KRAP 141752Z 15005KT 10SM CLR 34/11 A2985 RMK AO2 SLP075 T03390106 10344 20139 53003,KRAP,2025-08-14T17:52:00Z,44.0458,-103.054,33.9,10.6,150,5,,10+,29.85,1007.5,,,TRUE,,,,,,,CLR,,,,,,,,VFR,0.03,34.4,13.9,,,,,,,,,METAR,965
KPYM 141752Z AUTO 22004KT 10SM -RA FEW038 BKN055 OVC070 27/24 A2990 RMK AO2 RAB23 SLP125 P0005 60005 T02670244 10300 20233 55000,KPYM,2025-08-14T17:52:00Z,41.9085,-70.7278,26.7,24.4,220,4,,10+,29.90,1012.5,,TRUE,TRUE,,,,,,-RA,FEW,3800,BKN,5500,OVC,7000,,,VFR,,30,23.3,,,0.05,,0.05,,,,METAR,42
KPWK 141752Z 06008KT 10SM CLR 28/15 A3007 RMK AO2 SLP179 T02830150 10283 20200 50002,KPWK,2025-08-14T17:52:00Z,42.1208,-87.9048,28.3,15,60,8,,10+,30.07,1017.9,,,TRUE,,,,,,,CLR,,,,,,,,VFR,0.02,28.3,20,,,,,,,,,METAR,194
KPPF 141752Z AUTO 10SM CLR 32/21 A2999 RMK AO2 SLP143 T03170211 10317 20211 58009 PWINO,KPPF,2025-08-14T17:52:00Z,37.3281,-95.5044,31.7,21.1,,,,10+,29.99,1014.3,,TRUE,TRUE,,,,,TRUE,,CLR,,,,,,,,VFR,-0.09,31.7,21.1,,,,,,,,,METAR,265
KORE 141752Z AUTO 35010G17KT 10SM FEW049 32/17 A2992 RMK AO2 SLP130 T03220172 10322 20206 58002,KORE,2025-08-14T17:52:00Z,42.57,-72.287,32.2,17.2,350,10,17,10+,29.92,1013,,TRUE,TRUE,,,,,,,FEW,4900,,,,,,,VFR,-0.02,32.2,20.6,,,,,,,,,METAR,165
KOMA 141752Z 16014KT 10SM FEW120 FEW160 SCT250 28/20 A2993 RMK AO2 SLP128 ACC NE 60000 T02830200 10283 20222 58008,KOMA,2025-08-14T17:52:00Z,41.3119,-95.9018,28.3,20,160,14,,10+,29.93,1012.8,,,TRUE,,,,,,,FEW,12000,FEW,16000,SCT,25000,,,VFR,-0.08,28.3,22.2,,,,,0.005,,,,METAR,299
KOKC 141752Z 18009G17KT 150V210 10SM FEW048 SCT250 33/21 A2999 RMK AO2 SLP137 T03280206 10328 20211 58007,KOKC,2025-08-14T17:52:00Z,35.3843,-97.6003,32.8,20.6,180,9,17,10+,29.99,1013.7,,,TRUE,,,,,,,FEW,4800,SCT,25000,,,,,VFR,-0.07,32.8,21.1,,,,,,,,,METAR,391
KOKB 141752Z AUTO 19005KT 5SM HZ OVC013 21/17 A2994 RMK AO2 SLP139 T02110172 10211 20194 53003,KOKB,2025-08-14T17:52:00Z,33.2195,-117.35,21.1,17.2,190,5,,5,29.94,1013.9,,TRUE,TRUE,,,,,,HZ,OVC,1300,,,,,,,MVFR,0.03,21.1,19.4,,,,,,,,,METAR,7
KNHK 141752Z 10007KT 10SM SCT020TCU BKN250 30/23 A2993 RMK AO2 SLP137 TCU VC S T2 SET T03000233 10306 20244 51003,KNHK,2025-08-14T17:52:00Z,38.284,-76.408,30,23.3,100,7,,10+,29.93,1013.7,,,TRUE,,,,,,,SCT,2000,BKN,25000,,,,,VFR,0.03,30.6,24.4,,,,,,,,,METAR,5
KNFW 141752Z 14004KT 10SM CLR 34/23 A2995 RMK AO2 SLP127 T03440228 10350 20250 58012 $,KNFW,2025-08-14T17:52:00Z,32.781,-97.436,34.4,22.8,140,4,,10+,29.95,1012.7,,,TRUE,TRUE,,,,,,CLR,,,,,,,,VFR,-0.12,35,25,,,,,,,,,METAR,188
KNFG 141752Z 00000KT 10SM OVC016 22/18 A2995 RMK AO2 SLP140 T02170178 10217 20194 53002 $,KNFG,2025-08-14T17:52:00Z,33.304,-117.355,21.7,17.8,0,0,,10+,29.95,1014,,,TRUE,TRUE,,,,,,OVC,1600,,,,,,,MVFR,0.02,21.7,19.4,,,,,,,,,METAR,21
KMWH 141752Z 21008KT 10SM CLR 27/10 A2991 RMK AO2 SLP119 T02670100 10267 20178 50004,KMWH,2025-08-14T17:52:00Z,47.193,-119.315,26.7,10,210,8,,10+,29.91,1011.9,,,TRUE,,,,,,,CLR,,,,,,,,VFR,0.04,26.7,17.8,,,,,,,,,METAR,355
KMLI 141752Z 11007KT 080V150 10SM FEW042 27/17 A3003 RMK AO2 SLP165 T02720172 10272 20156 58003,KMLI,2025-08-14T17:52:00Z,41.4482,-90.5237,27.2,17.2,110,7,,10+,30.03,1016.5,,,TRUE,,,,,,,FEW,4200,,,,,,,VFR,-0.03,27.2,15.6,,,,,,,,,METAR,174
KMLF 141752Z AUTO 20018G27KT 10SM CLR 32/05 A3008 RMK AO2 PK WND 22027/1747 SLP102 T03170050 10317 20183 50001,KMLF,2025-08-14T17:52:00Z,38.4225,-113.011,31.7,5,200,18,27,10+,30.08,1010.2,,TRUE,TRUE,,,,,,,CLR,,,,,,,,VFR,0.01,31.7,18.3,,,,,,,,,METAR,1537
KMKE 141752Z 08007KT 10SM FEW040 SCT050 26/17 A3006 RMK AO2 SLP174 T02560172 10261 20194 50000,KMKE,2025-08-14T17:52:00Z,42.9549,-87.9045,25.6,17.2,80,7,,10+,30.06,1017.4,,,TRUE,,,,,,,FEW,4000,SCT,5000,,,,,VFR,,26.1,19.4,,,,,,,,,METAR,203
KMHK 141752Z 20011KT 10SM CLR 32/22 A2995 RMK AO2 SLP129 T03170222 10317 20211 58007,KMHK,2025-08-14T17:52:00Z,39.1346,-96.6789,31.7,22.2,200,11,,10+,29.95,1012.9,,,TRUE,,,,,,,CLR,,,,,,,,VFR,-0.07,31.7,21.1,,,,,,,,,METAR,320
KMFD 141752Z 35006KT 10SM CLR 27/18 A3007 RMK AO2 SLP175 T02720178 10278 20206 58001,KMFD,2025-08-14T17:52:00Z,40.8204,-82.5177,27.2,17.8,350,6,,10+,30.07,1017.5,,,TRUE,,,,,,,CLR,,,,,,,,VFR,-0.01,27.8,20.6,,,,,,,,,METAR,394
KMEB 141752Z AUTO 35003KT 10SM OVC060 27/24 A3000 RMK AO2 RAE1654 SLP155 P0000 60001 T02670239 10267 20256 58003,KMEB,2025-08-14T17:52:00Z,34.7913,-79.3683,26.7,23.9,350,3,,10+,30.00,1015.5,,TRUE,TRUE,,,,,,,OVC,6000,,,,,,,VFR,-0.03,26.7,25.6,,,0.005,,0.01,,,,METAR,65
KMBG 141752Z AUTO 21010KT 10SM CLR 31/18 A2974 RMK AO2 SLP058 T03060178 10306 20161 53001,KMBG,2025-08-14T17:52:00Z,45.543,-100.404,30.6,17.8,210,10,,10+,29.74,1005.8,,TRUE,TRUE,,,,,,,CLR,,,,,,,,VFR,0.01,30.6,16.1,,,,,,,,,METAR,515
KLWC 141752Z AUTO 14008KT 10SM CLR 31/22 A2999 RMK AO1 SLP146 T03060217 10306 20178 58002,KLWC,2025-08-14T17:52:00Z,39.0078,-95.2115,30.6,21.7,140,8,,10+,29.99,1014.6,,TRUE,TRUE,,,,,,,CLR,,,,,,,,VFR,-0.02,30.6,17.8,,,,,,,,,METAR,252
KIOW 141752Z AUTO 15007KT 10SM CLR 26/17 A3004 RMK AO2 SLP170 T02560172 10267 20172 55003,KIOW,2025-08-14T17:52:00Z,41.6394,-91.5445,25.6,17.2,150,7,,10+,30.04,1017,,TRUE,TRUE,,,,,,,CLR,,,,,,,,VFR,-0.03,26.7,17.2,,,,,,,,,METAR,199
KIJD 141752Z AUTO VRB04KT 10SM FEW030 SCT037 SCT043 29/22 A2992 RMK AO2 SLP128 T02940217 10300 20239 53003,KIJD,2025-08-14T17:52:00Z,41.7425,-72.1825,29.4,21.7,VRB,4,,10+,29.92,1012.8,,TRUE,TRUE,,,,,,,FEW,3000,SCT,3700,SCT,4300,,,VFR,0.03,30,23.9,,,,,,,,,METAR,73
KIEN 141752Z AUTO VRB05KT CLR 33/12 A2987 RMK AO2 SLP078 6//// T03330122 10333 20144 50003 $,KIEN,2025-08-14T17:52:00Z,43.0261,-102.52,33.3,12.2,VRB,5,,,29.87,1007.8,,TRUE,TRUE,TRUE,,,,,,CLR,,,,,,,,,0.03,33.3,14.4,,,,,,,,,METAR,1002
KIAD 141752Z 32006KT 10SM SCT033TCU SCT150 BKN250 31/21 A2995 RMK AO2 SLP138 TCU OHD T03060211 10317 20239 50000,KIAD,2025-08-14T17:52:00Z,38.9348,-77.4473,30.6,21.1,320,6,,10+,29.95,1013.8,,,TRUE,,,,,,,SCT,3300,SCT,15000,BKN,25000,,,VFR,,31.7,23.9,,,,,,,,,METAR,90
KHUT 141752Z 19016G23KT 10SM CLR 32/21 A2995 RMK AO2 SLP116 T03220206 10322 20211 58009,KHUT,2025-08-14T17:52:00Z,38.0682,-97.8607,32.2,20.6,190,16,23,10+,29.95,1011.6,,,TRUE,,,,,,,CLR,,,,,,,,VFR,-0.09,32.2,21.1,,,,,,,,,METAR,464
KHRL 141752Z 14013G19KT 10SM CLR 37/22 A2993 RMK AO2 SLP134 T03670217 10367 20239 58007,KHRL,2025-08-14T17:52:00Z,26.2303,-97.6556,36.7,21.7,140,13,19,10+,29.93,1013.4,,,TRUE,,,,,,,CLR,,,,,,,,VFR,-0.07,36.7,23.9,,,,,,,,,METAR,9
KHIE 141752Z AUTO 00000KT 10SM SCT030 BKN035 BKN042 26/18 A2998 RMK AO2 SLP147 60000 T02610183 10283 20211 51006,KHIE,2025-08-14T17:52:00Z,44.3659,-71.5522,26.1,18.3,0,0,,10+,29.98,1014.7,,TRUE,TRUE,,,,,,,SCT,3000,BKN,3500,BKN,4200,,,VFR,0.06,28.3,21.1,,,,,0.005,,,,METAR,321
KFIT 141752Z AUTO 36007KT 10SM BKN049 BKN060 BKN090 30/19 A2991 RMK AO2 SLP126 T03000189 10317 20228 55001,KFIT,2025-08-14T17:52:00Z,42.5549,-71.757,30,18.9,360,7,,10+,29.91,1012.6,,TRUE,TRUE,,,,,,,BKN,4900,BKN,6000,BKN,9000,,,VFR,-0.01,31.7,22.8,,,,,,,,,METAR,102
KEST 141752Z AUTO 19017KT 10SM FEW075 SCT110 23/19 A2994 RMK AO2 PK WND 17027/1738 SLP131 T02330189 10233 20189 58007,KEST,2025-08-14T17:52:00Z,43.4008,-94.7476,23.3,18.9,190,17,,10+,29.94,1013.1,,TRUE,TRUE,,,,,,,FEW,7500,SCT,11000,,,,,VFR,-0.07,23.3,18.9,,,,,,,,,METAR,401
KDVN 141752Z AUTO 12007KT 10SM CLR 27/17 A3005 RMK AO2 SLP170 T02670172 10278 20167 58003,KDVN,2025-08-14T17:52:00Z,41.6133,-90.5948,26.7,17.2,120,7,,10+,30.05,1017,,TRUE,TRUE,,,,,,,CLR,,,,,,,,VFR,-0.03,27.8,16.7,,,,,,,,,METAR,227
KDPA 141752Z 10SM CLR 28/14 A3005 RMK AO2 SLP170 T02830144 10289 20178 58003,KDPA,2025-08-14T17:52:00Z,41.8964,-88.2512,28.3,14.4,,,,10+,30.05,1017,,,TRUE,,,,,,,CLR,,,,,,,,VFR,-0.03,28.9,17.8,,,,,,,,,METAR,228
KDDC 141752Z AUTO 17024G34KT 7SM CLR 33/19 A2995 RMK AO2 PK WND 17034/1750 SLP106 T03280189 10333 20211 58008,KDDC,2025-08-14T17:52:00Z,37.7711,-99.9692,32.8,18.9,170,24,34,7,29.95,1010.6,,TRUE,TRUE,,,,,,,CLR,,,,,,,,VFR,-0.08,33.3,21.1,,,,,,,,,METAR,786
KCVG 141752Z 33007KT 10SM FEW041 FEW095 30/20 A3003 RMK AO2 SLP157 TCU DSNT SW MDT CU DSNT NE-E T03000200 10300 20222 58005,KCVG,2025-08-14T17:52:00Z,39.0444,-84.6724,30,20,330,7,,10+,30.03,1015.7,,,TRUE,,,,,,,FEW,4100,FEW,9500,,,,,VFR,-0.05,30,22.2,,,,,,,,,METAR,264
KCQX 141752Z AUTO 20005KT 10SM SCT006 BKN070 27/23 A2993 RMK AO2 SLP135 T02720228 10272 20228 53003 PWINO,KCQX,2025-08-14T17:52:00Z,41.6878,-69.9932,27.2,22.8,200,5,,10+,29.93,1013.5,,TRUE,TRUE,,,,,TRUE,,SCT,600,BKN,7000,,,,,VFR,0.03,27.2,22.8,,,,,,,,,METAR,17
KCNU 141752Z AUTO 17008KT 10SM CLR 32/22 A2999 RMK AO2 SLP144 T03170217 10317 20211 58008,KCNU,2025-08-14T17:52:00Z,37.6705,-95.4846,31.7,21.7,170,8,,10+,29.99,1014.4,,TRUE,TRUE,,,,,,,CLR,,,,,,,,VFR,-0.08,31.7,21.1,,,,,,,,,METAR,301
KCLT 141752Z 30005KT 10SM SCT020TCU BKN060 BKN090 BKN250 31/23 A2999 RMK AO2 SLP159 TCU ALQDS 60000 T03060228 10317 20228 58006,KCLT,2025-08-14T17:52:00Z,35.2225,-80.9543,30.6,22.8,300,5,,10+,29.99,1015.9,,,TRUE,,,,,,,SCT,2000,BKN,6000,BKN,9000,BKN,25000,VFR,-0.06,31.7,22.8,,,,,0.005,,,,METAR,223
KCKV 141752Z AUTO 21006KT 10SM SCT040 BKN060 BKN075 33/21 A2999 RMK AO2 SLP150 T03330211 10333 20228 58013,KCKV,2025-08-14T17:52:00Z,36.6169,-87.4118,33.3,21.1,210,6,,10+,29.99,1015,,TRUE,TRUE,,,,,,,SCT,4000,BKN,6000,BKN,7500,,,VFR,-0.13,33.3,22.8,,,,,,,,,METAR,166
KCID 141752Z 14006KT 10SM CLR 24/18 A3003 RMK AO2 SLP164 T02390178 10261 20161 55001 $,KCID,2025-08-14T17:52:00Z,41.8829,-91.7246,23.9,17.8,140,6,,10+,30.03,1016.4,,,TRUE,TRUE,,,,,,CLR,,,,,,,,VFR,-0.01,26.1,16.1,,,,,,,,,METAR,257
KCFV 141752Z AUTO 21006KT 10SM 33/21 A2996 RMK AO2 SLPNO T03330211 58011 $,KCFV,2025-08-14T17:52:00Z,37.0912,-95.5726,33.3,21.1,210,6,,10+,29.96,,,TRUE,TRUE,TRUE,,,,,,,,,,,,,,VFR,-0.11,,,,,,,,,,,METAR,228
KBML 141752Z AUTO 00000KT 10SM BKN065 OVC080 25/20 A2998 RMK AO2 RAB1653E26 SLP146 P0000 60053 T02500200 10272 20200 53004 $,KBML,2025-08-14T17:52:00Z,44.576,-71.1782,25,20,0,0,,10+,29.98,1014.6,,TRUE,TRUE,TRUE,,,,,,BKN,6500,OVC,8000,,,,,VFR,0.04,27.2,20,,,0.005,,,,,,METAR,344
KBLU 141752Z AUTO 21007KT 10SM CLR 23/M01 A3017 RMK AO2 SLP121 T02331011 10233 20172 50003,KBLU,2025-08-14T17:52:00Z,39.2762,-120.709,23.3,-1.1,210,7,,10+,30.17,1012.1,,TRUE,TRUE,,,,,,,CLR,,,,,,,,VFR,0.03,23.3,17.2,,,,,,,,,METAR,1605
KBLH 141752Z AUTO 17019G24KT 10SM CLR 38/14 A2980 RMK AO2 SLP084 T03830144 10389 20300 58004,KBLH,2025-08-14T17:52:00Z,33.6188,-114.715,38.3,14.4,170,19,24,10+,29.80,1008.4,,TRUE,TRUE,,,,,,,CLR,,,,,,,,VFR,-0.04,38.9,30,,,,,,,,,METAR,119
KBLF 141752Z AUTO 36007KT 10SM SCT027 25/19 A3013 RMK AO2 SLP166 T02500189 10250 20200 50002,KBLF,2025-08-14T17:52:00Z,37.2978,-81.2036,25,18.9,360,7,,10+,30.13,1016.6,,TRUE,TRUE,,,,,,,SCT,2700,,,,,,,VFR,0.02,25,20,,,,,,,,,METAR,871
KBIS 141752Z 28020G27KT 10SM CLR 31/18 A2977 RMK AO2 PK WND 26027/1750 SLP072 T03060178 10306 20189 53020,KBIS,2025-08-14T17:52:00Z,46.7823,-100.757,30.6,17.8,280,20,27,10+,29.77,1007.2,,,TRUE,,,,,,,CLR,,,,,,,,VFR,0.2,30.6,18.9,,,,,,,,,METAR,506
KBDR 141752Z 22009KT 10SM FEW044 28/22 A2991 RMK AO2 SLP128 T02780222 10289 20228 51002,KBDR,2025-08-14T17:52:00Z,41.1642,-73.1266,27.8,22.2,220,9,,10+,29.91,1012.8,,,TRUE,,,,,,,FEW,4400,,,,,,,VFR,0.02,28.9,22.8,,,,,,,,,METAR,5
KBAN 141752Z AUTO 10SM CLR 27/M11 A3017 RMK AO2 SLP100 6//// T02721111 10272 20050 58014 PNO $,KBAN,2025-08-14T17:52:00Z,38.355,-119.522,27.2,-11.1,,,,10+,30.17,1010,,TRUE,TRUE,TRUE,,,,,,CLR,,,,,,,,VFR,-0.14,27.2,5,,,,,,,,,METAR,2067
KATL 141752Z 27007KT 10SM SCT025 BKN038 BKN250 30/22 A3005 RMK AO2 SLP165 MDT CU ALQDS T03000222 10311 20244 58002 $,KATL,2025-08-14T17:52:00Z,33.6297,-84.4422,30,22.2,270,7,,10+,30.05,1016.5,,,TRUE,TRUE,,,,,,SCT,2500,BKN,3800,BKN,25000,,,VFR,-0.02,31.1,24.4,,,,,,,,,METAR,309
KARR 141752Z 00000KT 7SM BKN055 29/14 A3005 RMK AO2 SLP171 T02890144 10294 20150 58003,KARR,2025-08-14T17:52:00Z,41.7713,-88.4815,28.9,14.4,0,0,,7,30.05,1017.1,,,TRUE,,,,,,,BKN,5500,,,,,,,VFR,-0.03,29.4,15,,,,,,,,,METAR,213
KAQW 141752Z AUTO VRB03KT 10SM FEW047 29/18 A2995 RMK AO2 SLP136 T02940183 10294 20206 55004,KAQW,2025-08-14T17:52:00Z,42.6973,-73.1696,29.4,18.3,VRB,3,,10+,29.95,1013.6,,TRUE,TRUE,,,,,,,FEW,4700,,,,,,,VFR,-0.04,29.4,20.6,,,,,,,,,METAR,196
KAPG 141752Z 34004KT 10SM BKN025 BKN060 31/24 A2992,KAPG,2025-08-14T17:52:00Z,39.474,-76.166,31,24,340,4,,10+,29.92,,,,,,,,,,,BKN,2500,BKN,6000,,,,,MVFR,,,,,,,,,,,,METAR,18
KALS 141752Z AUTO 00000KT 10SM CLR 23/03 A3029 RMK AO2 SLP158 T02330033 10233 20100 58006,KALS,2025-08-14T17:52:00Z,37.4393,-105.862,23.3,3.3,0,0,,10+,30.29,1015.8,,TRUE,TRUE,,,,,,,CLR,,,,,,,,VFR,-0.06,23.3,10,,,,,,,,,METAR,2299
KAFN 141752Z AUTO 34006KT 10SM FEW049 31/18 A2995 RMK AO2 SLP139 T03060178 10306 20217 55001,KAFN,2025-08-14T17:52:00Z,42.8067,-72.0013,30.6,17.8,340,6,,10+,29.95,1013.9,,TRUE,TRUE,,,,,,,FEW,4900,,,,,,,VFR,-0.01,30.6,21.7,,,,,,,,,METAR,308
KABQ 141752Z VRB06KT 10SM FEW100 SCT150 SCT250 31/04 A3016 RMK AO2 SLP114 T03060044 10306 20194 58006 $,KABQ,2025-08-14T17:52:00Z,35.0419,-106.615,30.6,4.4,VRB,6,,10+,30.16,1011.4,,,TRUE,TRUE,,,,,,FEW,10000,SCT,15000,SCT,25000,,,VFR,-0.06,30.6,19.4,,,,,,,,,METAR,1620
KABI 141752Z 23005G15KT 10SM CLR 36/19 A2998 RMK AO2 SLP121 T03610189 10367 20239 58010,KABI,2025-08-14T17:52:00Z,32.4106,-99.6821,36.1,18.9,230,5,15,10+,29.98,1012.1,,,TRUE,,,,,,,CLR,,,,,,,,VFR,-0.1,36.7,23.9,,,,,,,,,METAR,543
PHBK 141751Z AUTO 15003KT 10SM CLR 27/17 A3003 RMK AO2 SLP171 T02670167 10272 20222 53006 $,PHBK,2025-08-14T17:51:00Z,22.034,-159.783,26.7,16.7,150,3,,10+,30.03,1017.1,,TRUE,TRUE,TRUE,,,,,,CLR,,,,,,,,VFR,0.06,27.2,22.2,,,,,,,,,METAR,5
MUGM 141751Z 13015KT 10SM FEW030 SCT060 BKN250 32/26 A2998 RMK AO2 SLP153 T03220261 58012 $,MUGM,2025-08-14T17:51:00Z,19.909,-75.206,32.2,26.1,130,15,,10+,29.98,1015.3,,,TRUE,TRUE,,,,,,FEW,3000,SCT,6000,BKN,25000,,,VFR,-0.12,,,,,,,,,,,METAR,21
MMPS 141751Z 18006KT 12SM FEW070 BKN200 31/26 A3003 RMK 8/033 TCU N HZY,MMPS,2025-08-14T17:51:00Z,15.876,-97.093,31,26,180,6,,12,30.03,,,,,,,,,,,FEW,7000,BKN,20000,,,,,VFR,,,,,,,,,,,,METAR,65
MMGL 141751Z 00000KT 8SM SCT025 BKN090 24/17 A3026 RMK SLP139 57005 911 8/130,MMGL,2025-08-14T17:51:00Z,20.523,-103.312,24,17,0,0,,8,30.26,1013.9,,,,,,,,,,SCT,2500,BKN,9000,,,,,VFR,-0.05,,,,,,,,,,,METAR,1531
KYNG 141751Z 04008G17KT 10SM SCT036 28/16 A3007 RMK AO2 SLP172 T02780156 10283 20200 50001 $,KYNG,2025-08-14T17:51:00Z,41.2548,-80.6736,27.8,15.6,40,8,17,10+,30.07,1017.2,,,TRUE,TRUE,,,,,,SCT,3600,,,,,,,VFR,0.01,28.3,20,,,,,,,,,METAR,356
KXWA 141751Z AUTO 32010G19KT 10SM CLR 22/14 A2986 RMK AO2 SLP107 T02220144 10222 20167 53015,KXWA,2025-08-14T17:51:00Z,48.2542,-103.747,22.2,14.4,320,10,19,10+,29.86,1010.7,,TRUE,TRUE,,,,,,,CLR,,,,,,,,VFR,0.15,22.2,16.7,,,,,,,,,METAR,717
KVNY 141751Z VRB04KT 5SM HZ CLR 23/17 A2993 RMK AO2 SLP128 T02280167 10233 20178 58001,KVNY,2025-08-14T17:51:00Z,34.2121,-118.491,22.8,16.7,VRB,4,,5,29.93,1012.8,,,TRUE,,,,,,HZ,CLR,,,,,,,,MVFR,-0.01,23.3,17.8,,,,,,,,,METAR,241
KVCT 141751Z 17007G18KT 10SM FEW050 36/22 A2998 RMK AO2 SLP148 T03560217 10361 20256 58006,KVCT,2025-08-14T17:51:00Z,28.8624,-96.9301,35.6,21.7,170,7,18,10+,29.98,1014.8,,,TRUE,,,,,,,FEW,5000,,,,,,,VFR,-0.06,36.1,25.6,,,,,,,,,METAR,33
KUGN 141751Z COR 09008KT 10SM FEW050 27/18 A3006 RMK AO2 SLP170 T02720183 10283 20194 51003,KUGN,2025-08-14T17:51:00Z,42.4255,-87.8634,27.2,18.3,90,8,,10+,30.06,1017,TRUE,,TRUE,,,,,,,FEW,5000,,,,,,,VFR,0.03,28.3,19.4,,,,,,,,,METAR,217
KTPL 141751Z AUTO VRB05KT CLR 34/22 A2999 RMK AO2 SLP142 T03440222 10350 20244 58009 PWINO RVRNO $,KTPL,2025-08-14T17:51:00Z,31.157,-97.4094,34.4,22.2,VRB,5,,,29.99,1014.2,,TRUE,TRUE,TRUE,,,,TRUE,,CLR,,,,,,,,,-0.09,35,24.4,,,,,,,,,METAR,206
KTEB 141751Z VRB05KT 10SM FEW040 32/21 A2991 RMK AO2 SLP126 60000 T03170211 10317 20244 58002,KTEB,2025-08-14T17:51:00Z,40.859,-74.0562,31.7,21.1,VRB,5,,10+,29.91,1012.6,,,TRUE,,,,,,,FEW,4000,,,,,,,VFR,-0.02,31.7,24.4,,,,,0.005,,,,METAR,3
KSTL 141751Z VRB03KT 10SM BKN037 BKN080 BKN250 29/21 A3002 RMK AO2 SLP151 T02940211 10300 20217 58003 $,KSTL,2025-08-14T17:51:00Z,38.7524,-90.3734,29.4,21.1,VRB,3,,10+,30.02,1015.1,,,TRUE,TRUE,,,,,,BKN,3700,BKN,8000,BKN,25000,,,VFR,-0.03,30,21.7,,,,,,,,,METAR,163
KSNT 141751Z AUTO VRB05KT 25/01 A3013 RMK AO1 SLP098 T02500011 10250 20028 58009,KSNT,2025-08-14T17:51:00Z,44.1708,-114.927,25,1.1,VRB,5,,,30.13,1009.8,,TRUE,TRUE,,,,,,,,,,,,,,,,-0.09,25,2.8,,,,,,,,,METAR,1980
KSMO 141751Z 21005KT 6SM HZ OVC014 21/17 A2994 RMK AO2 SLP138 T02060172 10206 20189 50003,KSMO,2025-08-14T17:51:00Z,34.021,-118.447,20.6,17.2,210,5,,6,29.94,1013.8,,,TRUE,,,,,,HZ,OVC,1400,,,,,,,MVFR,0.03,20.6,18.9,,,,,,,,,METAR,56
KSLK 141751Z AUTO VRB06KT 9SM FEW075 25/13 A3005 RMK AO2 SLP166 T02500133 10256 20189 53003,KSLK,2025-08-14T17:51:00Z,44.3928,-74.2029,25,13.3,VRB,6,,9,30.05,1016.6,,TRUE,TRUE,,,,,,,FEW,7500,,,,,,,VFR,0.03,25.6,18.9,,,,,,,,,METAR,502
KSJT 141751Z VRB04KT 10SM CLR 36/17 A2999 RMK AO2 SLP124 T03560167 10356 20228 58009,KSJT,2025-08-14T17:51:00Z,31.3517,-100.495,35.6,16.7,VRB,4,,10+,29.99,1012.4,,,TRUE,,,,,,,CLR,,,,,,,,VFR,-0.09,35.6,22.8,,,,,,,,,METAR,582
KSEE 141751Z 00000KT 10SM SKC 24/16 A2994,KSEE,2025-08-14T17:51:00Z,32.8273,-116.974,24,16,0,0,,10+,29.94,,,,,,,,,,,SKC,,,,,,,,VFR,,,,,,,,,,,,METAR,113
KSBD 141751Z 00000KT 3SM HZ CLR 26/15 A2995,KSBD,2025-08-14T17:51:00Z,34.09,-117.247,26,15,0,0,,3,29.95,,,,,,,,,,HZ,CLR,,,,,,,,MVFR,,,,,,,,,,,,METAR,353
KSAT 141751Z 14008KT 10SM FEW050 FEW250 35/19 A2998 RMK AO2 SLP131 T03500194 10350 20261 58008,KSAT,2025-08-14T17:51:00Z,29.5443,-98.4839,35,19.4,140,8,,10+,29.98,1013.1,,,TRUE,,,,,,,FEW,5000,FEW,25000,,,,,VFR,-0.08,35,26.1,,,,,,,,,METAR,246
KSAN 141751Z 23007KT 210V270 10SM OVC014 21/17 A2997 RMK AO2 SLP147 T02060167 10211 20189 53004,KSAN,2025-08-14T17:51:00Z,32.7365,-117.197,20.6,16.7,230,7,,10+,29.97,1014.7,,,TRUE,,,,,,,OVC,1400,,,,,,,MVFR,0.04,21.1,18.9,,,,,,,,,METAR,3
KSAD 141751Z AUTO 20007KT 10SM CLR 31/12 A3003 RMK AO2 SLP109 T03110117 10322 20233 58002,KSAD,2025-08-14T17:51:00Z,32.8565,-109.636,31.1,11.7,200,7,,10+,30.03,1010.9,,TRUE,TRUE,,,,,,,CLR,,,,,,,,VFR,-0.02,32.2,23.3,,,,,,,,,METAR,937
KROW 141751Z AUTO VRB03KT 10SM CLR 34/09 A3003 RMK AO2 SLPNO T03440094 58011,KROW,2025-08-14T17:51:00Z,33.3074,-104.508,34.4,9.4,VRB,3,,10+,30.03,,,TRUE,TRUE,,,,,,,CLR,,,,,,,,VFR,-0.11,,,,,,,,,,,METAR,1105
KRDU 141751Z 22006KT 10SM SCT020 BKN140 OVC250 28/24 A2999 RMK AO2 SLP149 T02830244 10283 20250 50001,KRDU,2025-08-14T17:51:00Z,35.8923,-78.782,28.3,24.4,220,6,,10+,29.99,1014.9,,,TRUE,,,,,,,SCT,2000,BKN,14000,OVC,25000,,,VFR,0.01,28.3,25,,,,,,,,,METAR,121
KPVD 141751Z 14007KT 10SM SCT015TCU SCT070 SCT120 BKN220 BKN250 29/21 A2990 RMK AO2 SLP124 VIRGA SW-NW-NE-E TCU ALQDS T02890211 10300 20239 58002,KPVD,2025-08-14T17:51:00Z,41.7225,-71.4325,28.9,21.1,140,7,,10+,29.90,1012.4,,,TRUE,,,,,,,SCT,1500,SCT,7000,SCT,12000,BKN,22000,VFR,-0.02,30,23.9,,,,,,,,,METAR,15
KPIT 141751Z 07006KT 10SM SCT016 BKN029 27/19 A3005 RMK AO2 SLP174 T02720194 10272 20211 58001 $,KPIT,2025-08-14T17:51:00Z,40.4814,-80.2083,27.2,19.4,70,6,,10+,30.05,1017.4,,,TRUE,TRUE,,,,,,SCT,1600,BKN,2900,,,,,MVFR,-0.01,27.2,21.1,,,,,,,,,METAR,339
KPHX 141751Z 05005KT 10SM FEW130 FEW190 SCT250 37/13 A2988 RMK AO2 SLP096 T03670133 10367 20317 50001,KPHX,2025-08-14T17:51:00Z,33.4278,-112.004,36.7,13.3,50,5,,10+,29.88,1009.6,,,TRUE,,,,,,,FEW,13000,FEW,19000,SCT,25000,,,VFR,0.01,36.7,31.7,,,,,,,,,METAR,338
KP59 141751Z AUTO 17007G16KT 140V210 22/14 A3006 RMK AO1 SLP174 T02170139 10222 20156 58005,KP59,2025-08-14T17:51:00Z,47.467,-87.875,21.7,13.9,170,7,16,,30.06,1017.4,,TRUE,TRUE,,,,,,,,,,,,,,,,-0.05,22.2,15.6,,,,,,,,,METAR,185
KOXR 141751Z 26004KT 10SM OVC013 19/15 A2995 RMK AO2 SLP142 T01890150 10194 20161 50003,KOXR,2025-08-14T17:51:00Z,34.2001,-119.204,18.9,15,260,4,,10+,29.95,1014.2,,,TRUE,,,,,,,OVC,1300,,,,,,,MVFR,0.03,19.4,16.1,,,,,,,,,METAR,12
KORF 141751Z AUTO 28004KT 10SM CLR 31/23 A2994 RMK AO2 SLP137 T03060228 10306 20261 50001,KORF,2025-08-14T17:51:00Z,36.9037,-76.1927,30.6,22.8,280,4,,10+,29.94,1013.7,,TRUE,TRUE,,,,,,,CLR,,,,,,,,VFR,0.01,30.6,26.1,,,,,,,,,METAR,5
KORD 141751Z 08009KT 10SM FEW055 28/14 A3005 RMK AO2 SLP171 T02780139 10283 20200 50000,KORD,2025-08-14T17:51:00Z,41.9602,-87.9316,27.8,13.9,80,9,,10+,30.05,1017.1,,,TRUE,,,,,,,FEW,5500,,,,,,,VFR,,28.3,20,,,,,,,,,METAR,202
KNYC 141751Z AUTO 06005KT 10SM FEW120 31/19 A2995 RMK AO2 SLP131 T03060194 10317 20239 58001,KNYC,2025-08-14T17:51:00Z,40.779,-73.9692,30.6,19.4,60,5,,10+,29.95,1013.1,,TRUE,TRUE,,,,,,,FEW,12000,,,,,,,VFR,-0.01,31.7,23.9,,,,,,,,,METAR,33
KMYL 141751Z AUTO 19004KT 10SM CLR 24/03 A3006 RMK AO2 SLP129 T02390028 10239 20083 50001,KMYL,2025-08-14T17:51:00Z,44.8943,-116.1,23.9,2.8,190,4,,10+,30.06,1012.9,,TRUE,TRUE,,,,,,,CLR,,,,,,,,VFR,0.01,23.9,8.3,,,,,,,,,METAR,1532
KMPV 141751Z AUTO 35010G18KT 10SM FEW028 26/18 A3004 RMK AO2 SLP167 T02610178 10261 20200 53005,KMPV,2025-08-14T17:51:00Z,44.205,-72.5655,26.1,17.8,350,10,18,10+,30.04,1016.7,,TRUE,TRUE,,,,,,,FEW,2800,,,,,,,VFR,0.05,26.1,20,,,,,,,,,METAR,336
KLGU 141751Z AUTO 02007KT 10SM CLR 29/08 A3001 RMK AO2 SLP099 T02940078 10294 20156 51003,KLGU,2025-08-14T17:51:00Z,41.7865,-111.852,29.4,7.8,20,7,,10+,30.01,1009.9,,TRUE,TRUE,,,,,,,CLR,,,,,,,,VFR,0.03,29.4,15.6,,,,,,,,,METAR,1359
KLGA 141751Z 05004KT 10SM FEW035 SCT110 BKN150 BKN250 30/19 A2991 RMK AO2 SLP128 60000 T03000189 10311 20244 58000 $,KLGA,2025-08-14T17:51:00Z,40.7794,-73.8803,30,18.9,50,4,,10+,29.91,1012.8,,,TRUE,TRUE,,,,,,FEW,3500,SCT,11000,BKN,15000,BKN,25000,VFR,,31.1,24.4,,,,,0.005,,,,METAR,9
KJFK 141751Z 22007KT 10SM FEW035 FEW110 BKN160 BKN250 29/23 A2992 RMK AO2 SLP131 T02940233 51001 $,KJFK,2025-08-14T17:51:00Z,40.6392,-73.7639,29.4,23.3,220,7,,10+,29.92,1013.1,,,TRUE,TRUE,,,,,,FEW,3500,FEW,11000,BKN,16000,BKN,25000,VFR,0.01,,,,,,,,,,,METAR,3
KJCT 141751Z AUTO 26007KT 10SM CLR 35/21 A3000 RMK AO2 SLP119 T03500206 10350 20217 58009,KJCT,2025-08-14T17:51:00Z,30.5105,-99.7665,35,20.6,260,7,,10+,30.00,1011.9,,TRUE,TRUE,,,,,,,CLR,,,,,,,,VFR,-0.09,35,21.7,,,,,,,,,METAR,522
KILG 141751Z 02004KT 10SM FEW032 SCT041 BKN065 32/23 A2993 RMK AO2 RAB29E39 SLP135 P0000 60000 T03220233 10322 20239 51002,KILG,2025-08-14T17:51:00Z,39.6744,-75.6057,32.2,23.3,20,4,,10+,29.93,1013.5,,,TRUE,,,,,,,FEW,3200,SCT,4100,BKN,6500,,,VFR,0.02,32.2,23.9,,,0.005,,0.005,,,,METAR,22
KIGM 141751Z AUTO 24018G23KT 10SM CLR 36/10 A3001 RMK AO2 SLP079 T03560100 10356 20233 58002,KIGM,2025-08-14T17:51:00Z,35.2575,-113.934,35.6,10,240,18,23,10+,30.01,1007.9,,TRUE,TRUE,,,,,,,CLR,,,,,,,,VFR,-0.02,35.6,23.3,,,,,,,,,METAR,1045
KHSE 141751Z AUTO 22009G18KT 10SM CLR 31/27 A2997 RMK AO2 LTG DSNT N SLP148 T03060267 10311 20272 $,KHSE,2025-08-14T17:51:00Z,35.2324,-75.6223,30.6,26.7,220,9,18,10+,29.97,1014.8,,TRUE,TRUE,TRUE,,,,,,CLR,,,,,,,,VFR,,31.1,27.2,,,,,,,,,METAR,4
KEWR 141751Z 15003KT 10SM SCT035 SCT095 BKN160 BKN250 32/19 A2991 RMK AO2 SLP129 60000 T03170194 10317 20244 58002,KEWR,2025-08-14T17:51:00Z,40.6828,-74.1692,31.7,19.4,150,3,,10+,29.91,1012.9,,,TRUE,,,,,,,SCT,3500,SCT,9500,BKN,16000,BKN,25000,VFR,-0.02,31.7,24.4,,,,,0.005,,,,METAR,2
KERI 141751Z 33008KT 7SM CLR 26/19 A3006 RMK AO2 SLP174 T02560189 10256 20228 50005,KERI,2025-08-14T17:51:00Z,42.0803,-80.1824,25.6,18.9,330,8,,7,30.06,1017.4,,,TRUE,,,,,,,CLR,,,,,,,,VFR,0.05,25.6,22.8,,,,,,,,,METAR,222
KELP 141751Z 15006KT 10SM FEW075 FEW250 33/13 A3009 RMK AO2 SLP103 TCU DSNT N T03330128 10333 20250 58005 $,KELP,2025-08-14T17:51:00Z,31.8123,-106.377,33.3,12.8,150,6,,10+,30.09,1010.3,,,TRUE,TRUE,,,,,,FEW,7500,FEW,25000,,,,,VFR,-0.05,33.3,25,,,,,,,,,METAR,1205
KEKN 141751Z AUTO VRB03KT 10SM FEW022 27/21 A3009 RMK AO2 SLP178 60002 T02670206 10272 20211 58002,KEKN,2025-08-14T17:51:00Z,38.8899,-79.8554,26.7,20.6,VRB,3,,10+,30.09,1017.8,,TRUE,TRUE,,,,,,,FEW,2200,,,,,,,VFR,-0.02,27.2,21.1,,,,,0.02,,,,METAR,596
KDAW 141751Z AUTO 15005KT 10SM BKN043 OVC080 29/21 A2989 RMK AO2 LTG DSNT N SLP116 T02940206 10322 20239 55003 $,KDAW,2025-08-14T17:51:00Z,43.2794,-70.9243,29.4,20.6,150,5,,10+,29.89,1011.6,,TRUE,TRUE,TRUE,,,,,,BKN,4300,OVC,8000,,,,,VFR,-0.03,32.2,23.9,,,,,,,,,METAR,100
KCRP 141751Z 13010KT 10SM FEW037 FEW044 SCT055 SCT250 35/23 A2995 RMK AO2 SLP142 CB DSNT NE TCU DSNT E T03500233 10361 20261 58005,KCRP,2025-08-14T17:51:00Z,27.7733,-97.513,35,23.3,130,10,,10+,29.95,1014.2,,,TRUE,,,,,,,FEW,3700,FEW,4400,SCT,5500,SCT,25000,VFR,-0.05,36.1,26.1,,,,,,,,,METAR,11
KCON 141751Z AUTO VRB04KT 10SM SCT048 32/19 A2989 RMK AO2 SLP120 T03220189 10333 20228 56006 $,KCON,2025-08-14T17:51:00Z,43.2049,-71.5026,32.2,18.9,VRB,4,,10+,29.89,1012,,TRUE,TRUE,TRUE,,,,,,SCT,4800,,,,,,,VFR,-0.06,33.3,22.8,,,,,,,,,METAR,102
KCMH 141751Z 35008KT 10SM SCT047 SCT080 30/19 A3003 RMK AO2 SLP161 T03000189 10300 20211 58004,KCMH,2025-08-14T17:51:00Z,39.9907,-82.8771,30,18.9,350,8,,10+,30.03,1016.1,,,TRUE,,,,,,,SCT,4700,SCT,8000,,,,,VFR,-0.04,30,21.1,,,,,,,,,METAR,257
KCLE 141751Z 36009KT 10SM FEW030 27/18 A3005 RMK AO2 SLP186 T02720178 10272 20228 50003 $,KCLE,2025-08-14T17:51:00Z,41.4057,-81.8519,27.2,17.8,360,9,,10+,30.05,1018.6,,,TRUE,TRUE,,,,,,FEW,3000,,,,,,,VFR,0.03,27.2,22.8,,,,,,,,,METAR,237
KCAK 141751Z 05005KT 10SM SCT040 28/17 A3005 RMK AO2 SLP168 T02830172 10289 20206 58002,KCAK,2025-08-14T17:51:00Z,40.9181,-81.4434,28.3,17.2,50,5,,10+,30.05,1016.8,,,TRUE,,,,,,,SCT,4000,,,,,,,VFR,-0.02,28.9,20.6,,,,,,,,,METAR,369
KBHK 141751Z AUTO 36013G19KT 10SM CLR 24/16 A2990 RMK AO2 SLP102 T02440156 10244 20139 51022,KBHK,2025-08-14T17:51:00Z,46.3521,-104.261,24.4,15.6,360,13,19,10+,29.90,1010.2,,TRUE,TRUE,,,,,,,CLR,,,,,,,,VFR,0.22,24.4,13.9,,,,,,,,,METAR,904
KBGD 141751Z AUTO 18016G24KT 10SM CLR 36/14 A2997 RMK AO2 SLP097 T03560139 10356 20228 58009,KBGD,2025-08-14T17:51:00Z,35.695,-101.396,35.6,13.9,180,16,24,10+,29.97,1009.7,,TRUE,TRUE,,,,,,,CLR,,,,,,,,VFR,-0.09,35.6,22.8,,,,,,,,,METAR,928
KBED 141751Z VRB03KT 10SM SCT035 31/20 A2988 RMK AO2 SLP127 T03060200 10322 20239 58004,KBED,2025-08-14T17:51:00Z,42.4681,-71.2946,30.6,20,VRB,3,,10+,29.88,1012.7,,,TRUE,,,,,,,SCT,3500,,,,,,,VFR,-0.04,32.2,23.9,,,,,,,,,METAR,39
KBDL 141751Z 36006KT 10SM FEW035 SCT170 SCT220 31/22 A2991 RMK AO2 SLP127 T03060217 10306 20222 58003,KBDL,2025-08-14T17:51:00Z,41.9374,-72.682,30.6,21.7,360,6,,10+,29.91,1012.7,,,TRUE,,,,,,,FEW,3500,SCT,17000,SCT,22000,,,VFR,-0.03,30.6,22.2,,,,,,,,,METAR,52
KBAZ 141751Z 21010G16KT 10SM CLR 35/20 A2996 RMK AO2 SLP136 T03500200 10350 20233 58008,KBAZ,2025-08-14T17:51:00Z,29.7089,-98.0459,35,20,210,10,16,10+,29.96,1013.6,,,TRUE,,,,,,,CLR,,,,,,,,VFR,-0.08,35,23.3,,,,,,,,,METAR,199
KATT 141751Z AUTO 10SM CLR 34/20 A2999 RMK AO2 SLP137 T03440200 10361 20250 58008,KATT,2025-08-14T17:51:00Z,30.3208,-97.7604,34.4,20,,,,10+,29.99,1013.7,,TRUE,TRUE,,,,,,,CLR,,,,,,,,VFR,-0.08,36.1,25,,,,,,,,,METAR,203
KALB 141751Z 29006KT 10SM SCT039 SCT050 30/19 A2994 RMK AO2 SLP137 T03000194 10300 20228 58004,KALB,2025-08-14T17:51:00Z,42.7473,-73.7991,30,19.4,290,6,,10+,29.94,1013.7,,,TRUE,,,,,,,SCT,3900,SCT,5000,,,,,VFR,-0.04,30,22.8,,,,,,,,,METAR,82
KAHN 141751Z 00000KT 10SM FEW032 FEW045 32/23 A3001 RMK AO2 SLP153 T03170233 10317 20239 58003 $,KAHN,2025-08-14T17:51:00Z,33.9477,-83.3274,31.7,23.3,0,0,,10+,30.01,1015.3,,,TRUE,TRUE,,,,,,FEW,3200,FEW,4500,,,,,VFR,-0.03,31.7,23.9,,,,,,,,,METAR,241
KACT 141751Z 18006KT 10SM CLR 34/24 A2997 RMK AO2 SLP141 T03390239 10339 20250 58009 $,KACT,2025-08-14T17:51:00Z,31.618,-97.2283,33.9,23.9,180,6,,10+,29.97,1014.1,,,TRUE,TRUE,,,,,,CLR,,,,,,,,VFR,-0.09,33.9,25,,,,,,,,,METAR,150
KABE 141751Z 04005KT 10SM FEW041 31/21 A2994 RMK AO2 SLP135 60000 T03110206 10311 20222 55002 $,KABE,2025-08-14T17:51:00Z,40.658,-75.4347,31.1,20.6,40,5,,10+,29.94,1013.5,,,TRUE,TRUE,,,,,,FEW,4100,,,,,,,VFR,-0.02,31.1,22.2,,,,,0.005,,,,METAR,117
K6R6 141751Z AUTO 14005KT 35/18 A3002 RMK AO1 SLP123 T03500178 10356 20239 58007,K6R6,2025-08-14T17:51:00Z,30.0482,-102.213,35,17.8,140,5,,,30.02,1012.3,,TRUE,TRUE,,,,,,,,,,,,,,,,-0.07,35.6,23.9,,,,,,,,,METAR,702
TJBQ 141750Z 07016KT 10SM CLR 31/25 A2999,TJBQ,2025-08-14T17:50:00Z,18.494,-67.128,31,25,70,16,,10+,29.99,,,,,,,,,,,CLR,,,,,,,,VFR,,,,,,,,,,,,METAR,69
PTRO 141750Z 00000KT 13SM SCT015CB BKN110 BKN290 26/24 A2980 RMK CB ALQDS,PTRO,2025-08-14T17:50:00Z,7.367,134.544,26,24,0,0,,13,29.80,,,,,,,,,,,SCT,1500,BKN,11000,BKN,29000,,,VFR,,,,,,,,,,,,METAR,30
PTKK 141750Z 00000KT 15SM FEW014 SCT280 26/24 A2980 RMK SLP093 8/101 T02570240 10270 20257 56005,PTKK,2025-08-14T17:50:00Z,7.462,151.843,25.7,24,0,0,,15,29.80,1009.3,,,,,,,,,,FEW,1400,SCT,28000,,,,,VFR,-0.05,27,25.7,,,,,,,,,METAR,3
OOSH 141750Z AUTO 08006KT //// ////// 32/30 Q0998 RMK QFE0994 RH088? PR000.0,OOSH,2025-08-14T17:50:00Z,24.388,56.624,32,30,80,6,,,29.47,,,TRUE,,,,,,,,,,,,,,,,,,,,,,,,,,,,METAR,35
OOSA 141750Z 18005KT 9999 SCT010 OVC020 25/24 Q1004 NOSIG,OOSA,2025-08-14T17:50:00Z,17.044,54.102,25,24,180,5,,6+,29.65,,,,,,TRUE,,,,,SCT,1000,OVC,2000,,,,,MVFR,,,,,,,,,,,,METAR,20
OOMS 141750Z VRB02KT 9000 NSC 32/30 Q0997 NOSIG,OOMS,2025-08-14T17:50:00Z,23.595,58.298,32,30,VRB,2,,5.59,29.44,,,,,,TRUE,,,,,CLR,,,,,,,,VFR,,,,,,,,,,,,METAR,8
OOKB 141750Z AUTO VRB02KT CAVOK ////// 38/24 Q0997 NOSIG,OOKB,2025-08-14T17:50:00Z,26.168,56.239,38,24,VRB,2,,6+,29.44,,,TRUE,,,TRUE,,,,,CAVOK,,,,,,,,VFR,,,,,,,,,,,,METAR,30
OODQ 141750Z AUTO 21027KT //// R22///// NCD 24/22 Q0999 NOSIG RMK RH87? 0,OODQ,2025-08-14T17:50:00Z,19.511,57.657,24,22,210,27,,,29.50,,,TRUE,,,TRUE,,,,,CLR,,,,,,,,,,,,,,,,,,,,METAR,116
NZSP 141750Z 04013KT 2400 IC BR DRSN SKC M59/ A2857 RMK CLN AIR 03016KT ALL WNDS GRID,NZSP,2025-08-14T17:50:00Z,-89.98,180,-59,,40,13,,1.49,28.57,,,,,,,,,,IC BR DRSN,SKC,,,,,,,,IFR,,,,,,,,,,,,METAR,2830
NSTU 141750Z 14014KT 12SM SCT021 BKN040 27/23 A2989 RMK SLP124 8/800 T02690225 10270 20267 50010,NSTU,2025-08-14T17:50:00Z,-14.337,-170.721,26.9,22.5,140,14,,12,29.89,1012.4,,,,,,,,,,SCT,2100,BKN,4000,,,,,VFR,0.1,27,26.7,,,,,,,,,METAR,8
MUVR 141750Z VRB04KT 9000 FEW018CB SCT020 33/25 Q1018,MUVR,2025-08-14T17:50:00Z,23.033,-81.435,33,25,VRB,4,,5.59,30.06,,,,,,,,,,,FEW,1800,SCT,2000,,,,,VFR,,,,,,,,,,,,METAR,65
MUSC 141750Z 09008KT 030V150 9000 BKN025 33/22 Q1018,MUSC,2025-08-14T17:50:00Z,22.494,-79.931,33,22,90,8,,5.59,30.06,,,,,,,,,,,BKN,2500,,,,,,,MVFR,,,,,,,,,,,,METAR,97
MUHG 141750Z 06010KT 020V090 9000 FEW020TCU SCT030 35/22 Q1015 RMK TCU AT II QUAD,MUHG,2025-08-14T17:50:00Z,20.786,-76.316,35,22,60,10,,5.59,29.97,,,,,,,,,,,FEW,2000,SCT,3000,,,,,VFR,,,,,,,,,,,,METAR,100
MUHA 141750Z 36006KT 290V360 9000 FEW025TCU BKN030 33/24 Q1018,MUHA,2025-08-14T17:50:00Z,22.991,-82.41,33,24,360,6,,5.59,30.06,,,,,,,,,,,FEW,2500,BKN,3000,,,,,MVFR,,,,,,,,,,,,METAR,61
MUCU 141750Z 15008KT 120V200 9000 SCT020 33/24 Q1015,MUCU,2025-08-14T17:50:00Z,19.971,-75.837,33,24,150,8,,5.59,29.97,,,,,,,,,,,SCT,2000,,,,,,,VFR,,,,,,,,,,,,METAR,70
MUCM 141750Z 06011KT 040V110 9999 SCT025 34/22 Q1016,MUCM,2025-08-14T17:50:00Z,21.42,-77.85,34,22,60,11,,6+,30.00,,,,,,,,,,,SCT,2500,,,,,,,VFR,,,,,,,,,,,,METAR,125
MUCL 141750Z 10008KT 060V140 9000 FEW020 32/25 Q1017,MUCL,2025-08-14T17:50:00Z,21.621,-81.552,32,25,100,8,,5.59,30.03,,,,,,,,,,,FEW,2000,,,,,,,VFR,,,,,,,,,,,,METAR,5
MUCF 141750Z AUTO 08005KT 34/23 Q1017,MUCF,2025-08-14T17:50:00Z,22.159,-80.41,34,23,80,5,,,30.03,,,TRUE,,,,,,,,,,,,,,,,,,,,,,,,,,,,METAR,35
MUCC 141750Z 08010KT 050V120 9000 SCT020 34/26 Q1017,MUCC,2025-08-14T17:50:00Z,22.456,-78.339,34,26,80,10,,5.59,30.03,,,,,,,,,,,SCT,2000,,,,,,,VFR,,,,,,,,,,,,METAR,7
MSSM 141750Z 06002KT CAVOK 34/22 Q//// A////,MSSM,2025-08-14T17:50:00Z,13.45,-88.123,34,22,60,2,,6+,0.00,,,,,,,,,,,CAVOK,,,,,,,,VFR,,,,,,,,,,,,METAR,92
MSSA 141750Z 00000KT CAVOK 31/23 Q1020 A3012,MSSA,2025-08-14T17:50:00Z,13.982,-89.549,31,23,0,0,,6+,30.12,,,,,,,,,,,CAVOK,,,,,,,,VFR,,,,,,,,,,,,METAR,656
MSLU 141750Z 10004KT CAVOK 33/23 Q1010 A2983,MSLU,2025-08-14T17:50:00Z,13.332,-87.882,33,23,100,4,,6+,29.82,,,,,,,,,,,CAVOK,,,,,,,,VFR,,,,,,,,,,,,METAR,5
MSAC 141750Z 26003KT CAVOK 31/18 Q1012 A2988,MSAC,2025-08-14T17:50:00Z,13.576,-89.833,31,18,260,3,,6+,29.88,,,,,,,,,,,CAVOK,,,,,,,,VFR,,,,,,,,,,,,METAR,14
LTFO 141750Z 13004KT CAVOK 25/18 Q1016,LTFO,2025-08-14T17:50:00Z,41.179,40.845,25,18,130,4,,6+,30.00,,,,,,,,,,,CAVOK,,,,,,,,VFR,,,,,,,,,,,,METAR,5
LTFH 141750Z 00000KT 9999 FEW036 21/17 Q1017 NOSIG,LTFH,2025-08-14T17:50:00Z,41.255,36.567,21,17,0,0,,6+,30.03,,,,,,TRUE,,,,,FEW,3600,,,,,,,VFR,,,,,,,,,,,,METAR,7
LTFG 141750Z 22003KT CAVOK 30/27 Q1008,LTFG,2025-08-14T17:50:00Z,36.299,32.3,30,27,220,3,,6+,29.76,,,,,,,,,,,CAVOK,,,,,,,,VFR,,,,,,,,,,,,METAR,26
LTFD 141750Z 08015KT CAVOK 28/16 Q1012,LTFD,2025-08-14T17:50:00Z,39.559,27.025,28,16,80,15,,6+,29.88,,,,,,,,,,,CAVOK,,,,,,,,VFR,,,,,,,,,,,,METAR,15
LTDA 141750Z 25018KT CAVOK 33/19 Q1006 NOSIG SKC,LTDA,2025-08-14T17:50:00Z,36.361,36.283,33,19,250,18,,6+,29.70,,,,,,TRUE,,,,,SKC,,,,,,,,VFR,,,,,,,,,,,,METAR,80
LTCW 141750Z 07009KT 9999 FEW040 24/05 Q1021,LTCW,2025-08-14T17:50:00Z,37.55,44.238,24,5,70,9,,6+,30.15,,,,,,,,,,,FEW,4000,,,,,,,VFR,,,,,,,,,,,,METAR,1852
LTCV 141750Z 32012KT CAVOK 37/01 Q1005,LTCV,2025-08-14T17:50:00Z,37.365,42.06,37,1,320,12,,6+,29.68,,,,,,,,,,,CAVOK,,,,,,,,VFR,,,,,,,,,,,,METAR,620
LTCT 141750Z 19005KT 080V230 CAVOK 26/11 Q1016,LTCT,2025-08-14T17:50:00Z,39.977,43.878,26,11,190,5,,6+,30.00,,,,,,,,,,,CAVOK,,,,,,,,VFR,,,,,,,,,,,,METAR,936
LTCR 141750Z 33007KT 290V010 CAVOK 38/M05 Q1006,LTCR,2025-08-14T17:50:00Z,37.232,40.638,38,-5,330,7,,6+,29.70,,,,,,,,,,,CAVOK,,,,,,,,VFR,,,,,,,,,,,,METAR,529
LTCN 141750Z 29012KT CAVOK 35/08 Q1009,LTCN,2025-08-14T17:50:00Z,37.539,36.953,35,8,290,12,,6+,29.79,,,,,,,,,,,CAVOK,,,,,,,,VFR,,,,,,,,,,,,METAR,505
LTCI 141750Z 09006KT CAVOK 22/07 Q1018 NOSIG,LTCI,2025-08-14T17:50:00Z,38.469,43.337,22,7,90,6,,6+,30.06,,,,,,TRUE,,,,,CAVOK,,,,,,,,VFR,,,,,,,,,,,,METAR,1654
LTCF 141750Z 07007KT CAVOK 16/06 Q1023 NOSIG,LTCF,2025-08-14T17:50:00Z,40.562,43.115,16,6,70,7,,6+,30.21,,,,,,TRUE,,,,,CAVOK,,,,,,,,VFR,,,,,,,,,,,,METAR,1794
LTCD 141750Z 26013KT CAVOK 25/02 Q1016 NOSIG,LTCD,2025-08-14T17:50:00Z,39.71,39.527,25,2,260,13,,6+,30.00,,,,,,TRUE,,,,,CAVOK,,,,,,,,VFR,,,,,,,,,,,,METAR,1146
LTCB 141750Z 16006KT 9999 FEW035 24/18 Q1017 NOSIG,LTCB,2025-08-14T17:50:00Z,40.967,38.081,24,18,160,6,,6+,30.03,,,,,,TRUE,,,,,FEW,3500,,,,,,,VFR,,,,,,,,,,,,METAR,5
LTCA 141750Z 31012KT CAVOK 31/M08 Q1011 NOSIG,LTCA,2025-08-14T17:50:00Z,38.607,39.291,31,-8,310,12,,6+,29.85,,,,,,TRUE,,,,,CAVOK,,,,,,,,VFR,,,,,,,,,,,,METAR,887
LTBY 141750Z 26010KT CAVOK 26/14 Q1014,LTBY,2025-08-14T17:50:00Z,39.81,30.519,26,14,260,10,,6+,29.94,,,,,,,,,,,CAVOK,,,,,,,,VFR,,,,,,,,,,,,METAR,788
LTBQ 141750Z 08005KT 020V130 CAVOK 23/17 Q1015 NOSIG,LTBQ,2025-08-14T17:50:00Z,40.735,30.083,23,17,80,5,,6+,29.97,,,,,,TRUE,,,,,CAVOK,,,,,,,,VFR,,,,,,,,,,,,METAR,51
LTBO 141750Z 30008KT 280V340 9999 SCT040 29/14 Q1015,LTBO,2025-08-14T17:50:00Z,38.68,29.483,29,14,300,8,,6+,29.97,,,,,,,,,,,SCT,4000,,,,,,,VFR,,,,,,,,,,,,METAR,868
LTBH 141750Z 05015KT CAVOK 27/16 Q1013,LTBH,2025-08-14T17:50:00Z,40.14,26.425,27,16,50,15,,6+,29.91,,,,,,,,,,,CAVOK,,,,,,,,VFR,,,,,,,,,,,,METAR,8
LTBF 141750Z 33007KT 300V360 CAVOK 26/17 Q1013 NOSIG,LTBF,2025-08-14T17:50:00Z,39.619,27.926,26,17,330,7,,6+,29.91,,,,,,TRUE,,,,,CAVOK,,,,,,,,VFR,,,,,,,,,,,,METAR,95
LTBD 141750Z 26009KT CAVOK 27/18 Q1010,LTBD,2025-08-14T17:50:00Z,37.816,27.886,27,18,260,9,,6+,29.82,,,,,,,,,,,CAVOK,,,,,,,,VFR,,,,,,,,,,,,METAR,29
LTAY 141750Z 28010KT CAVOK 28/13 Q1015 NOSIG,LTAY,2025-08-14T17:50:00Z,37.785,29.701,28,13,280,10,,6+,29.97,,,,,,TRUE,,,,,CAVOK,,,,,,,,VFR,,,,,,,,,,,,METAR,851
LTAW 141750Z 06005KT CAVOK 23/11 Q1017,LTAW,2025-08-14T17:50:00Z,40.308,36.368,23,11,60,5,,6+,30.03,,,,,,,,,,,CAVOK,,,,,,,,VFR,,,,,,,,,,,,METAR,561
LTAR 141750Z 35007KT CAVOK 17/09 Q1023,LTAR,2025-08-14T17:50:00Z,39.798,36.894,17,9,350,7,,6+,30.21,,,,,,,,,,,CAVOK,,,,,,,,VFR,,,,,,,,,,,,METAR,1601
LTAP 141750Z 03020KT CAVOK 22/14 Q1016 NOSIG,LTAP,2025-08-14T17:50:00Z,40.826,35.52,22,14,30,20,,6+,30.00,,,,,,TRUE,,,,,CAVOK,,,,,,,,VFR,,,,,,,,,,,,METAR,536
LTAN 141750Z VRB02KT CAVOK 28/07 Q1016 NOSIG,LTAN,2025-08-14T17:50:00Z,37.979,32.562,28,7,VRB,2,,6+,30.00,,,,,,TRUE,,,,,CAVOK,,,,,,,,VFR,,,,,,,,,,,,METAR,1029
LTAE 141750Z 35004KT 320V020 CAVOK 26/06 Q1015 NOSIG RMK RWY21 VRB02KT,LTAE,2025-08-14T17:50:00Z,40.079,32.566,26,6,350,4,,6+,29.97,,,,,,TRUE,,,,,CAVOK,,,,,,,,VFR,,,,,,,,,,,,METAR,836
LOXZ 141750Z 34004KT 330V030 9999 FEW080 SCT100 25/16 Q1021 NOSIG,LOXZ,2025-08-14T17:50:00Z,47.203,14.744,25,16,340,4,,6+,30.15,,,,,,TRUE,,,,,FEW,8000,SCT,10000,,,,,VFR,,,,,,,,,,,,METAR,678
LLHA 141750Z 32004KT CAVOK 30/27 Q1008,LLHA,2025-08-14T17:50:00Z,32.809,35.043,30,27,320,4,,6+,29.76,,,,,,,,,,,CAVOK,,,,,,,,VFR,,,,,,,,,,,,METAR,3
LLER 141750Z AUTO 36019KT CAVOK 42/13 Q1005,LLER,2025-08-14T17:50:00Z,29.722,35.012,42,13,360,19,,6+,29.68,,,TRUE,,,,,,,,CAVOK,,,,,,,,VFR,,,,,,,,,,,,METAR,88
LIRU 141750Z 26003KT 230V290 CAVOK 32/11 Q1014,LIRU,2025-08-14T17:50:00Z,41.953,12.5,32,11,260,3,,6+,29.94,,,,,,,,,,,CAVOK,,,,,,,,VFR,,,,,,,,,,,,METAR,16
LIRI 141750Z VRB01KT CAVOK 25/21 Q1014,LIRI,2025-08-14T17:50:00Z,40.62,14.911,25,21,VRB,1,,6+,29.94,,,,,,,,,,,CAVOK,,,,,,,,VFR,,,,,,,,,,,,METAR,31
LIQN 141750Z VRB02KT 9999 VCSH NSC 28/18 Q1017,LIQN,2025-08-14T17:50:00Z,42.427,12.85,28,18,VRB,2,,6+,30.03,,,,,,,,,,VCSH,CLR,,,,,,,,VFR,,,,,,,,,,,,METAR,387
LIPK 141750Z 08005KT CAVOK 31/20 Q1014,LIPK,2025-08-14T17:50:00Z,44.196,12.07,31,20,80,5,,6+,29.94,,,,,,,,,,,CAVOK,,,,,,,,VFR,,,,,,,,,,,,METAR,24
LIPB 141750Z 18003KT 140V200 9999 FEW100 32/14 Q1015,LIPB,2025-08-14T17:50:00Z,46.46,11.326,32,14,180,3,,6+,29.97,,,,,,,,,,,FEW,10000,,,,,,,VFR,,,,,,,,,,,,METAR,239
LIMP 141750Z 08003KT CAVOK 33/15 Q1014,LIMP,2025-08-14T17:50:00Z,44.825,10.296,33,15,80,3,,6+,29.94,,,,,,,,,,,CAVOK,,,,,,,,VFR,,,,,,,,,,,,METAR,41
LIMG 141750Z 26004KT 9999 SCT050CB 27/16 Q1015,LIMG,2025-08-14T17:50:00Z,44.046,8.126,27,16,260,4,,6+,29.97,,,,,,,,,,,SCT,5000,,,,,,,VFR,,,,,,,,,,,,METAR,41
LIBG 141750Z VRB02KT CAVOK 31/18 Q1013,LIBG,2025-08-14T17:50:00Z,40.517,17.403,31,18,VRB,2,,6+,29.91,,,,,,,,,,,CAVOK,,,,,,,,VFR,,,,,,,,,,,,METAR,64
LIBF 141750Z 08003KT 010V120 CAVOK 31/12 Q1014,LIBF,2025-08-14T17:50:00Z,41.433,15.535,31,12,80,3,,6+,29.94,,,,,,,,,,,CAVOK,,,,,,,,VFR,,,,,,,,,,,,METAR,81
LIBC 141750Z 20006KT CAVOK 28/22 Q1014,LIBC,2025-08-14T17:50:00Z,38.997,17.079,28,22,200,6,,6+,29.94,,,,,,,,,,,CAVOK,,,,,,,,VFR,,,,,,,,,,,,METAR,158
LGRX 141750Z 00000KT 9999 FEW090 27/18 Q1013,LGRX,2025-08-14T17:50:00Z,38.151,21.426,27,18,0,0,,6+,29.91,,,,,,,,,,,FEW,9000,,,,,,,VFR,,,,,,,,,,,,METAR,16
LGPZ 141750Z VRB03KT 9999 SCT030 SCT080 27/23 Q1013,LGPZ,2025-08-14T17:50:00Z,38.921,20.761,27,23,VRB,3,,6+,29.91,,,,,,,,,,,SCT,3000,SCT,8000,,,,,VFR,,,,,,,,,,,,METAR,3
LGKC 141750Z VRB03KT 9999 FEW018 23/19 Q1015,LGKC,2025-08-14T17:50:00Z,36.274,23.017,23,19,VRB,3,,6+,29.97,,,,,,,,,,,FEW,1800,,,,,,,VFR,,,,,,,,,,,,METAR,313
LGHI 141750Z 08002KT 9999 FEW020 27/21 Q1010,LGHI,2025-08-14T17:50:00Z,38.343,26.141,27,21,80,2,,6+,29.82,,,,,,,,,,,FEW,2000,,,,,,,VFR,,,,,,,,,,,,METAR,6
LGBL 141750Z 25004KT 9999 FEW030 27/16 Q1014,LGBL,2025-08-14T17:50:00Z,39.22,22.794,27,16,250,4,,6+,29.94,,,,,,,,,,,FEW,3000,,,,,,,VFR,,,,,,,,,,,,METAR,13
KWDG 141750Z 20010G17KT 10SM SCT160 34/21 A2995,KWDG,2025-08-14T17:50:00Z,36.3781,-97.7888,34,21,200,10,17,10+,29.95,,,,,,,,,,,SCT,16000,,,,,,,VFR,,,,,,,,,,,,METAR,352
KVQQ 141750Z 29008KT 10SM SCT065 33/26 A3004,KVQQ,2025-08-14T17:50:00Z,30.2035,-81.8725,33,26,290,8,,10+,30.04,,,,,,,,,,,SCT,6500,,,,,,,VFR,,,,,,,,,,,,METAR,21
KTOA 141750Z 26005KT 7SM FEW011 OVC014 21/17 A2994,KTOA,2025-08-14T17:50:00Z,33.803,-118.336,21,17,260,5,,7,29.94,,,,,,,,,,,FEW,1100,OVC,1400,,,,,MVFR,,,,,,,,,,,,METAR,30
KRYY 141750Z 30003KT 10SM SCT020 BKN028 28/22 A3007,KRYY,2025-08-14T17:50:00Z,34.0146,-84.5964,28,22,300,3,,10+,30.07,,,,,,,,,,,SCT,2000,BKN,2800,,,,,MVFR,,,,,,,,,,,,METAR,306
KOQU 141750Z AUTO 19010KT 10SM SCT040TCU 27/24 A2987 RMK AO2 TCU W-NE,KOQU,2025-08-14T17:50:00Z,41.5995,-71.4111,27,24,190,10,,10+,29.87,,,TRUE,TRUE,,,,,,,SCT,4000,,,,,,,VFR,,,,,,,,,,,,METAR,6
KOMN 141750Z 21004KT 7SM SCT043 34/27 A3004,KOMN,2025-08-14T17:50:00Z,29.3009,-81.111,34,27,210,4,,7,30.04,,,,,,,,,,,SCT,4300,,,,,,,VFR,,,,,,,,,,,,METAR,7
KOLV 141750Z 00000KT 10SM SCT035 34/22 A2999,KOLV,2025-08-14T17:50:00Z,34.9808,-89.7851,34,22,0,0,,10+,29.99,,,,,,,,,,,SCT,3500,,,,,,,VFR,,,,,,,,,,,,METAR,124
KNQA 141750Z 14005KT 10SM SCT036 BKN042 33/24 A2998,KNQA,2025-08-14T17:50:00Z,35.3619,-89.8612,33,24,140,5,,10+,29.98,,,,,,,,,,,SCT,3600,BKN,4200,,,,,VFR,,,,,,,,,,,,METAR,90
KLAL 141750Z 00000KT 10SM VCSH BKN045 34/24 A3007,KLAL,2025-08-14T17:50:00Z,27.9866,-82.0193,34,24,0,0,,10+,30.07,,,,,,,,,,VCSH,BKN,4500,,,,,,,VFR,,,,,,,,,,,,METAR,39
KJWN 141750Z 23004KT 10SM SCT035 32/22 A3000,KJWN,2025-08-14T17:50:00Z,36.1852,-86.8833,32,22,230,4,,10+,30.00,,,,,,,,,,,SCT,3500,,,,,,,VFR,,,,,,,,,,,,METAR,149
KJQF 141750Z 00000KT 10SM BKN025 BKN034 OVC090 29/23 A3002,KJQF,2025-08-14T17:50:00Z,35.3896,-80.7074,29,23,0,0,,10+,30.02,,,,,,,,,,,BKN,2500,BKN,3400,OVC,9000,,,MVFR,,,,,,,,,,,,METAR,204
KHXD 141750Z 24005G13KT 10SM SCT034 SCT046 BKN060 33/24 A3000,KHXD,2025-08-14T17:50:00Z,32.2263,-80.6949,33,24,240,5,13,10+,30.00,,,,,,,,,,,SCT,3400,SCT,4600,BKN,6000,,,VFR,,,,,,,,,,,,METAR,5
KHSA 141750Z 27006KT 10SM SCT050 A3002,KHSA,2025-08-14T17:50:00Z,30.3765,-89.4554,,,270,6,,10+,30.02,,,,,,,,,,,SCT,5000,,,,,,,VFR,,,,,,,,,,,,METAR,6
KHQZ 141750Z 12004KT 10SM SCT050 34/21 A2997,KHQZ,2025-08-14T17:50:00Z,32.7514,-96.5291,34,21,120,4,,10+,29.97,,,,,,,,,,,SCT,5000,,,,,,,VFR,,,,,,,,,,,,METAR,136
KHOB 141750Z 20011G17KT 10SM CLR 35/10 A3007,KHOB,2025-08-14T17:50:00Z,32.6797,-103.222,35,10,200,11,17,10+,30.07,,,,,,,,,,,CLR,,,,,,,,VFR,,,,,,,,,,,,METAR,1112
KGYI 141750Z 14005KT 10SM SCT045 BKN055 34/22 A2999,KGYI,2025-08-14T17:50:00Z,33.7231,-96.6714,34,22,140,5,,10+,29.99,,,,,,,,,,,SCT,4500,BKN,5500,,,,,VFR,,,,,,,,,,,,METAR,227
KFWS 141750Z 16009KT 10SM FEW040 34/24 A2997,KFWS,2025-08-14T17:50:00Z,32.558,-97.308,34,24,160,9,,10+,29.97,,,,,,,,,,,FEW,4000,,,,,,,VFR,,,,,,,,,,,,METAR,211
KFIN 141750Z 25006KT 10SM SCT045 33/24 A3005,KFIN,2025-08-14T17:50:00Z,29.467,-81.207,33,24,250,6,,10+,30.05,,,,,,,,,,,SCT,4500,,,,,,,VFR,,,,,,,,,,,,METAR,10
KDPG 141750Z 24002KT 20SM FEW160 FEW190 34/03 A3000 RMK FU DSNT W SLP093 T03410025 10348 20182 57002,KDPG,2025-08-14T17:50:00Z,40.187,-112.934,34.1,2.5,240,2,,20,30.00,1009.3,,,,,,,,,,FEW,16000,FEW,19000,,,,,VFR,-0.02,34.8,18.2,,,,,,,,,METAR,1324
KDAG 141750Z AUTO 30012G21KT 10SM CLR 35/01 A2988 RMK AO2 SLP086 T03500006 10356 20261 58003,KDAG,2025-08-14T17:50:00Z,34.8537,-116.787,35,0.6,300,12,21,10+,29.88,1008.6,,TRUE,TRUE,,,,,,,CLR,,,,,,,,VFR,-0.03,35.6,26.1,,,,,,,,,METAR,584
KCWA 141750Z 14005KT 10SM SCT034 24/17 A3005,KCWA,2025-08-14T17:50:00Z,44.7795,-89.671,24,17,140,5,,10+,30.05,,,,,,,,,,,SCT,3400,,,,,,,VFR,,,,,,,,,,,,METAR,387
KCIC 141750Z VRB04KT 10SM CLR 25/14 A2993,KCIC,2025-08-14T17:50:00Z,39.7988,-121.858,25,14,VRB,4,,10+,29.93,,,,,,,,,,,CLR,,,,,,,,VFR,,,,,,,,,,,,METAR,72
KALN 141750Z VRB03KT 10SM SCT065 29/21 A3002,KALN,2025-08-14T17:50:00Z,38.8897,-90.0316,29,21,VRB,3,,10+,30.02,,,,,,,,,,,SCT,6500,,,,,,,VFR,,,,,,,,,,,,METAR,159
KAEG 141750Z 15006G14KT 10SM CLR 31/03 A3020,KAEG,2025-08-14T17:50:00Z,35.15,-106.793,31,3,150,6,14,10+,30.20,,,,,,,,,,,CLR,,,,,,,,VFR,,,,,,,,,,,,METAR,1771
KADM 141750Z 11007KT 10SM CLR 34/21 A2996,KADM,2025-08-14T17:50:00Z,34.3007,-97.0089,34,21,110,7,,10+,29.96,,,,,,,,,,,CLR,,,,,,,,VFR,,,,,,,,,,,,METAR,223
ETNG 141750Z AUTO 30005KT 9999 // BKN240/// BKN360/// 31/17 Q1018,ETNG,2025-08-14T17:50:00Z,50.964,6.032,31,17,300,5,,6+,30.06,,,TRUE,,,,,,,,BKN,24000,BKN,36000,,,,,VFR,,,,,,,,,,,,METAR,76
EGYE 141750Z AUTO 26007KT //// BKN051/// OVC081/// 24/15 Q1018,EGYE,2025-08-14T17:50:00Z,52.962,-0.562,24,15,260,7,,,30.06,,,TRUE,,,,,,,,BKN,5100,OVC,8100,,,,,,,,,,,,,,,,,METAR,105
EGXC 141750Z 26009KT CAVOK 26/14 Q1018 RMK BLU,EGXC,2025-08-14T17:50:00Z,53.094,-0.173,26,14,260,9,,6+,30.06,,,,,,,,,,,CAVOK,,,,,,,,VFR,,,,,,,,,,,,METAR,9
EGWC 141750Z AUTO 29009KT //// ///////// ///// Q////,EGWC,2025-08-14T17:50:00Z,52.64,-2.311,,,290,9,,,0.00,,,TRUE,,,,,,,,,,,,,,,,,,,,,,,,,,,,METAR,79
EGQS 141750Z 05007KT CAVOK 20/15 Q1016 NOSIG RMK BLU BLU,EGQS,2025-08-14T17:50:00Z,57.711,-3.324,20,15,50,7,,6+,30.00,,,,,,TRUE,,,,,CAVOK,,,,,,,,VFR,,,,,,,,,,,,METAR,6
EGQL 141750Z 22005KT 9999 VCSH FEW018CB SCT110 BKN210CB 21/18 Q1015 RMK BLU,EGQL,2025-08-14T17:50:00Z,56.377,-2.862,21,18,220,5,,6+,29.97,,,,,,,,,,VCSH,FEW,1800,SCT,11000,BKN,21000,,,VFR,,,,,,,,,,,,METAR,11
EGNV 141750Z 29012KT 9999 FEW042 25/15 Q1017,EGNV,2025-08-14T17:50:00Z,54.511,-1.418,25,15,290,12,,6+,30.03,,,,,,,,,,,FEW,4200,,,,,,,VFR,,,,,,,,,,,,METAR,36
EGNO 141750Z 29007KT 270V330 9999 FEW004 20/16 Q1019,EGNO,2025-08-14T17:50:00Z,53.746,-2.889,20,16,290,7,,6+,30.09,,,,,,,,,,,FEW,400,,,,,,,VFR,,,,,,,,,,,,METAR,12
EGJA 141750Z 30007KT 9999 FEW015 19/17 Q1021,EGJA,2025-08-14T17:50:00Z,49.706,-2.215,19,17,300,7,,6+,30.15,,,,,,,,,,,FEW,1500,,,,,,,VFR,,,,,,,,,,,,METAR,83
EEEI 141750Z 36003KT CAVOK 20/16 Q1024 NOSIG,EEEI,2025-08-14T17:50:00Z,59.26,24.209,20,16,360,3,,6+,30.24,,,,,,TRUE,,,,,CAVOK,,,,,,,,VFR,,,,,,,,,,,,METAR,19
BGKK 141750Z 34004KT 280V050 9000 -RA FEW044 BKN065 05/04 Q1015,BGKK,2025-08-14T17:50:00Z,65.575,-37.133,5,4,340,4,,5.59,29.97,,,,,,,,,,-RA,FEW,4400,BKN,6500,,,,,VFR,,,,,,,,,,,,METAR,37
BGJN 141750Z 02012KT 9999 BKN100 06/M03 Q0991 RMK 7AS,BGJN,2025-08-14T17:50:00Z,69.24,-51.064,6,-3,20,12,,6+,29.26,,,,,,,,,,,BKN,10000,,,,,,,VFR,,,,,,,,,,,,METAR,22
KTRK 141749Z 00000KT 10SM CLR 23/M02 A3019,KTRK,2025-08-14T17:49:00Z,39.3154,-120.137,23,-2,0,0,,10+,30.19,,,,,,,,,,,CLR,,,,,,,,VFR,,,,,,,,,,,,METAR,1800
KBKB 141749Z AUTO 10SM CLR 33/23 A2998 RMK AO2 SLP175 T03330228 10339 20239 58008,KBKB,2025-08-14T17:49:00Z,31.022,-92.911,33.3,22.8,,,,10+,29.98,1017.5,,TRUE,TRUE,,,,,,,CLR,,,,,,,,VFR,-0.08,33.9,23.9,,,,,,,,,METAR,74
MMTJ 141748Z 30005KT 8SM SKC 23/17 A2997 RMK SLP155 52001 900 HZY ST W,MMTJ,2025-08-14T17:48:00Z,32.544,-116.982,23,17,300,5,,8,29.97,1015.5,,,,,,,,,,SKC,,,,,,,,VFR,0.01,,,,,,,,,,,METAR,150
MMDO 141748Z 09004KT 10SM FEW020 FEW090 24/12 A3032 RMK SLP136 54000 909 8/130 DSNT TCU S,MMDO,2025-08-14T17:48:00Z,24.124,-104.532,24,12,90,4,,10+,30.32,1013.6,,,,,,,,,,FEW,2000,FEW,9000,,,,,VFR,,,,,,,,,,,,METAR,1863
MMCL 141748Z 09003KT 7SM SCT020 BKN100 OVC200 29/25 A2997 RMK SLP145 52010 924 8/463 OCNL RA CB 3TH 4TH QUAD,MMCL,2025-08-14T17:48:00Z,24.766,-107.476,29,25,90,3,,7,29.97,1014.5,,,,,,,,,,SCT,2000,BKN,10000,OVC,20000,,,VFR,0.1,,,,,,,,,,,METAR,35
KJDN 141748Z AUTO 31007KT 290V350 22/13 A2993 RMK AO1 SLP122 T02220128 10222 20167 50007,KJDN,2025-08-14T17:48:00Z,47.3259,-106.949,22.2,12.8,310,7,,,29.93,1012.2,,TRUE,TRUE,,,,,,,,,,,,,,,,0.07,22.2,16.7,,,,,,,,,METAR,802
KASG 141748Z 28004G11KT 10SM BKN048 BKN055 BKN090 33/26 A3003,KASG,2025-08-14T17:48:00Z,36.1802,-94.1176,33,26,280,4,11,10+,30.03,,,,,,,,,,,BKN,4800,BKN,5500,BKN,9000,,,VFR,,,,,,,,,,,,METAR,410
MMSD 141747Z 15010KT 10SM FEW040 33/22 A2993 RMK SLP121 54000 920 8/100 CI,MMSD,2025-08-14T17:47:00Z,23.157,-109.72,33,22,150,10,,10+,29.93,1012.1,,,,,,,,,,FEW,4000,,,,,,,VFR,,,,,,,,,,,,METAR,107
KTZR 141747Z 29006KT 10SM SCT043 BKN060 28/19 A3005,KTZR,2025-08-14T17:47:00Z,39.8988,-83.1357,28,19,290,6,,10+,30.05,,,,,,,,,,,SCT,4300,BKN,6000,,,,,VFR,,,,,,,,,,,,METAR,275
KTIX 141747Z 08005KT 7SM BKN040 35/25 A3007,KTIX,2025-08-14T17:47:00Z,28.508,-80.798,35,25,80,5,,7,30.07,,,,,,,,,,,BKN,4000,,,,,,,VFR,,,,,,,,,,,,METAR,10
KSUN 141747Z 12010G18KT 10SM FEW100 27/08 A3006,KSUN,2025-08-14T17:47:00Z,43.4969,-114.292,27,8,120,10,18,10+,30.06,,,,,,,,,,,FEW,10000,,,,,,,VFR,,,,,,,,,,,,METAR,1619
KSUA 141747Z 10008KT 7SM SCT015 SCT026 33/27 A3006,KSUA,2025-08-14T17:47:00Z,27.1815,-80.2252,33,27,100,8,,7,30.06,,,,,,,,,,,SCT,1500,SCT,2600,,,,,VFR,,,,,,,,,,,,METAR,4
KSQL 141747Z 02003KT 10SM FEW020 21/14 A2998,KSQL,2025-08-14T17:47:00Z,37.5119,-122.248,21,14,20,3,,10+,29.98,,,,,,,,,,,FEW,2000,,,,,,,VFR,,,,,,,,,,,,METAR,1
KSAW 141747Z 18007KT 10SM SCT033 BKN039 22/14 A3009,KSAW,2025-08-14T17:47:00Z,46.341,-87.395,22,14,180,7,,10+,30.09,,,,,,,,,,,SCT,3300,BKN,3900,,,,,VFR,,,,,,,,,,,,METAR,359
KPOC 141747Z 00000KT 3SM CLR 26/17 A2996 HZ,KPOC,2025-08-14T17:47:00Z,34.0928,-117.779,26,17,0,0,,3,29.96,,,,,,,,,,HZ,CLR,,,,,,,,MVFR,,,,,,,,,,,,METAR,304
KPAO 141747Z 04005KT 10SM BKN020 20/15 A2997,KPAO,2025-08-14T17:47:00Z,37.458,-122.112,20,15,40,5,,10+,29.97,,,,,,,,,,,BKN,2000,,,,,,,MVFR,,,,,,,,,,,,METAR,2
KLBE 141747Z 31011KT 10SM SCT026 SCT036 28/21 A3005,KLBE,2025-08-14T17:47:00Z,40.2767,-79.4039,28,21,310,11,,10+,30.05,,,,,,,,,,,SCT,2600,SCT,3600,,,,,VFR,,,,,,,,,,,,METAR,345
KIFP 141747Z 20014G26KT 10SM CLR 39/10 A2978,KIFP,2025-08-14T17:47:00Z,35.1487,-114.561,39,10,200,14,26,10+,29.78,,,,,,,,,,,CLR,,,,,,,,VFR,,,,,,,,,,,,METAR,210
KGYR 141747Z 14006KT 10SM FEW120 37/17 A2989,KGYR,2025-08-14T17:47:00Z,33.428,-112.368,37,17,140,6,,10+,29.89,,,,,,,,,,,FEW,12000,,,,,,,VFR,,,,,,,,,,,,METAR,292
KGYH 141747Z 00000KT 10SM SCT030 30/23 A3001,KGYH,2025-08-14T17:47:00Z,34.763,-82.375,30,23,0,0,,10+,30.01,,,,,,,,,,,SCT,3000,,,,,,,VFR,,,,,,,,,,,,METAR,283
KFDK 141747Z 00000KT 10SM BKN025 BKN043 BKN060 32/22 A2994,KFDK,2025-08-14T17:47:00Z,39.4177,-77.3696,32,22,0,0,,10+,29.94,,,,,,,,,,,BKN,2500,BKN,4300,BKN,6000,,,MVFR,,,,,,,,,,,,METAR,82
KEVB 141747Z 15006KT 10SM SCT034 33/27 A3006,KEVB,2025-08-14T17:47:00Z,29.0568,-80.9491,33,27,150,6,,10+,30.06,,,,,,,,,,,SCT,3400,,,,,,,VFR,,,,,,,,,,,,METAR,2
KCHD 141747Z VRB03KT 10SM FEW120 SCT200 35/14 A2991,KCHD,2025-08-14T17:47:00Z,33.2669,-111.809,35,14,VRB,3,,10+,29.91,,,,,,,,,,,FEW,12000,SCT,20000,,,,,VFR,,,,,,,,,,,,METAR,378
KCFO 141747Z 36006KT 10SM CLR 35/M03 A3007,KCFO,2025-08-14T17:47:00Z,39.7948,-104.54,35,-3,360,6,,10+,30.07,,,,,,,,,,,CLR,,,,,,,,VFR,,,,,,,,,,,,METAR,1672
KBVI 141747Z 34004KT 10SM SCT038 SCT055 31/17 A3006,KBVI,2025-08-14T17:47:00Z,40.7735,-80.3825,31,17,340,4,,10+,30.06,,,,,,,,,,,SCT,3800,SCT,5500,,,,,VFR,,,,,,,,,,,,METAR,387
KAQV 141747Z AUTO 00000KT 10SM FEW028 BKN035 BKN050 31/24 A3001 RMK AO2 SLP157 T03110244 10328 20233 58008,KAQV,2025-08-14T17:47:00Z,31.396,-93.297,31.1,24.4,0,0,,10+,30.01,1015.7,,TRUE,TRUE,,,,,,,FEW,2800,BKN,3500,BKN,5000,,,VFR,-0.08,32.8,23.3,,,,,,,,,METAR,123
KANE 141747Z 16012G18KT 10SM CLR 26/17 A2994,KANE,2025-08-14T17:47:00Z,45.1426,-93.2127,26,17,160,12,18,10+,29.94,,,,,,,,,,,CLR,,,,,,,,VFR,,,,,,,,,,,,METAR,276
KADS 141747Z 19004KT 13SM SCT042 SCT080 34/20 A2997,KADS,2025-08-14T17:47:00Z,32.9634,-96.8354,34,20,190,4,,13,29.97,,,,,,,,,,,SCT,4200,SCT,8000,,,,,VFR,,,,,,,,,,,,METAR,198
MMSL 141746Z 17004KT 9SM FEW030 31/24 A2996 RMK 8/100 MDT CU AC,MMSL,2025-08-14T17:46:00Z,22.948,-109.936,31,24,170,4,,9,29.96,,,,,,,,,,,FEW,3000,,,,,,,VFR,,,,,,,,,,,,METAR,205
MMLO 141746Z 22009KT 9SM SCT030 BKN250 22/15 A3033 RMK SLP129 57003 903 8/508 FRMG TCU HZY,MMLO,2025-08-14T17:46:00Z,20.997,-101.481,22,15,220,9,,9,30.33,1012.9,,,,,,,,,,SCT,3000,BKN,25000,,,,,VFR,-0.03,,,,,,,,,,,METAR,1805
MMCB 141746Z 13004KT 10SM SCT020CB BKN240 25/19 A3020 RMK 8/308,MMCB,2025-08-14T17:46:00Z,18.83,-99.265,25,19,130,4,,10+,30.20,,,,,,,,,,,SCT,2000,BKN,24000,,,,,VFR,,,,,,,,,,,,METAR,1281
KRYN 141746Z 09004KT 10SM CLR 33/12 A3000,KRYN,2025-08-14T17:46:00Z,32.1418,-111.177,33,12,90,4,,10+,30.00,,,,,,,,,,,CLR,,,,,,,,VFR,,,,,,,,,,,,METAR,731
KCWF 141746Z 23009KT 10SM SCT020 BKN030 31/24 A3001,KCWF,2025-08-14T17:46:00Z,30.2216,-93.1467,31,24,230,9,,10+,30.01,,,,,,,,,,,SCT,2000,BKN,3000,,,,,MVFR,,,,,,,,,,,,METAR,4
TJIG 141745Z 10012KT 10SM SCT040 SCT090 31/24 A2998,TJIG,2025-08-14T17:45:00Z,18.457,-66.094,31,24,100,12,,10+,29.98,,,,,,,,,,,SCT,4000,SCT,9000,,,,,VFR,,,,,,,,,,,,METAR,3
PALP 141745Z 28013KT 10SM -SHRA OVC006 06/05 A2980,PALP,2025-08-14T17:45:00Z,70.348,-150.928,6,5,280,13,,10+,29.80,,,,,,,,,,-SHRA,OVC,600,,,,,,,IFR,,,,,,,,,,,,METAR,4
PAKU 141745Z 28016KT 10SM R24/P6000FT BKN008 BKN012 08/06 A2979,PAKU,2025-08-14T17:45:00Z,70.331,-149.613,8,6,280,16,,10+,29.79,,,,,,,,,,,BKN,800,BKN,1200,,,,,IFR,,,,,,,,,,,,METAR,23
MMUN 141745Z 14013KT 7SM BKN015TCU 32/26 A3004 RMK SLP173 52002 910 8/200,MMUN,2025-08-14T17:45:00Z,21.038,-86.855,32,26,140,13,,7,30.04,1017.3,,,,,,,,,,BKN,1500,,,,,,,MVFR,0.02,,,,,,,,,,,METAR,13
MMSP 141745Z 02004KT 10SM FEW020 26/09 A3029 RMK SLP100 52010 903 8/100,MMSP,2025-08-14T17:45:00Z,22.256,-100.93,26,9,20,4,,10+,30.29,1010,,,,,,,,,,FEW,2000,,,,,,,VFR,0.1,,,,,,,,,,,METAR,1841
MMMM 141745Z 18007KT 8SM SCT030 23/16 A3030 RMK SLP107 57009 901 8/200 CI,MMMM,2025-08-14T17:45:00Z,19.844,-101.037,23,16,180,7,,8,30.30,1010.7,,,,,,,,,,SCT,3000,,,,,,,VFR,-0.09,,,,,,,,,,,METAR,1840
MMMA 141745Z 15005KT 10SM BKN022 35/24 A2994 RMK SLP141 57002 907 8/100,MMMA,2025-08-14T17:45:00Z,25.77,-97.523,35,24,150,5,,10+,29.94,1014.1,,,,,,,,,,BKN,2200,,,,,,,MVFR,-0.02,,,,,,,,,,,METAR,7
MMCT 141745Z 13011KT 8SM BKN020TCU 31/27 A3000 RMK SLP159 57007 907 8/200 HZY CI,MMCT,2025-08-14T17:45:00Z,20.641,-88.446,31,27,130,11,,8,30.00,1015.9,,,,,,,,,,BKN,2000,,,,,,,MVFR,-0.07,,,,,,,,,,,METAR,29
KSWF 141745Z VRB04KT 10SM SCT030 31/20 A2994,KSWF,2025-08-14T17:45:00Z,41.5045,-74.0999,31,20,VRB,4,,10+,29.94,,,,,,,,,,,SCT,3000,,,,,,,VFR,,,,,,,,,,,,METAR,139
KPHT 141745Z AUTO 00000KT 10SM FEW036 SCT043 SCT050 31/23 A3000 RMK A01,KPHT,2025-08-14T17:45:00Z,36.3322,-88.3871,31,23,0,0,,10+,30.00,,,TRUE,TRUE,,,,,,,FEW,3600,SCT,4300,SCT,5000,,,VFR,,,,,,,,,,,,METAR,172
KOUN 141745Z 13014KT 10SM SCT045 33/21 A2998,KOUN,2025-08-14T17:45:00Z,35.2436,-97.4713,33,21,130,14,,10+,29.98,,,,,,,,,,,SCT,4500,,,,,,,VFR,,,,,,,,,,,,METAR,359
KMWC 141745Z 14007KT 10SM BKN038 BKN044 26/17 A3008,KMWC,2025-08-14T17:45:00Z,43.1095,-88.0343,26,17,140,7,,10+,30.08,,,,,,,,,,,BKN,3800,BKN,4400,,,,,VFR,,,,,,,,,,,,METAR,225
KMWA 141745Z 17004KT 10SM BKN035 BKN048 32/22 A3000,KMWA,2025-08-14T17:45:00Z,37.7544,-89.0118,32,22,170,4,,10+,30.00,,,,,,,,,,,BKN,3500,BKN,4800,,,,,VFR,,,,,,,,,,,,METAR,142
KMMU 141745Z 06003KT 10SM FEW035 SCT095 31/23 A2993,KMMU,2025-08-14T17:45:00Z,40.7989,-74.4164,31,23,60,3,,10+,29.93,,,,,,,,,,,FEW,3500,SCT,9500,,,,,VFR,,,,,,,,,,,,METAR,55
KLWB 141745Z 29009KT 10SM SCT050 SCT100 28/19 A3008,KLWB,2025-08-14T17:45:00Z,37.8633,-80.3923,28,19,290,9,,10+,30.08,,,,,,,,,,,SCT,5000,SCT,10000,,,,,VFR,,,,,,,,,,,,METAR,702
KLOT 141745Z 06008KT 10SM FEW050 28/15 A3006,KLOT,2025-08-14T17:45:00Z,41.6031,-88.1017,28,15,60,8,,10+,30.06,,,,,,,,,,,FEW,5000,,,,,,,VFR,,,,,,,,,,,,METAR,205
KJVL 141745Z VRB05KT 7SM HZ BKN045 26/16 A3005,KJVL,2025-08-14T17:45:00Z,42.6213,-89.0419,26,16,VRB,5,,7,30.05,,,,,,,,,,HZ,BKN,4500,,,,,,,VFR,,,,,,,,,,,,METAR,244
KESN 141745Z 32005KT 10SM BKN028 BKN050 30/24 A2993,KESN,2025-08-14T17:45:00Z,38.804,-76.069,30,24,320,5,,10+,29.93,,,,,,,,,,,BKN,2800,BKN,5000,,,,,MVFR,,,,,,,,,,,,METAR,14
KEMT 141745Z 18007KT 7SM FEW020 24/17 A2994,KEMT,2025-08-14T17:45:00Z,34.0882,-118.034,24,17,180,7,,7,29.94,,,,,,,,,,,FEW,2000,,,,,,,VFR,,,,,,,,,,,,METAR,84
KCGF 141745Z 36009KT 10SM SCT065 27/18 A3007,KCGF,2025-08-14T17:45:00Z,41.566,-81.4827,27,18,360,9,,10+,30.07,,,,,,,,,,,SCT,6500,,,,,,,VFR,,,,,,,,,,,,METAR,265
KBAK 141745Z 00000KT 10SM SCT035 29/20 A3003,KBAK,2025-08-14T17:45:00Z,39.2664,-85.8926,29,20,0,0,,10+,30.03,,,,,,,,,,,SCT,3500,,,,,,,VFR,,,,,,,,,,,,METAR,199
KATW 141745Z VRB04KT 10SM SCT040 27/16 A3006,KATW,2025-08-14T17:45:00Z,44.2519,-88.526,27,16,VRB,4,,10+,30.06,,,,,,,,,,,SCT,4000,,,,,,,VFR,,,,,,,,,,,,METAR,266
MMTM 141744Z 12010KT 6SM SCT015TCU BKN200 32/25 A2994 RMK SLP141 57002 907 8/208 HZY,MMTM,2025-08-14T17:44:00Z,22.29,-97.863,32,25,120,10,,6,29.94,1014.1,,,,,,,,,,SCT,1500,BKN,20000,,,,,VFR,-0.02,,,,,,,,,,,METAR,21
MMMZ 141744Z 23005KT 14SM FEW022TCU SCT090 BKN240 30/25 A2995 RMK SLP138 57007 911 8/228,MMMZ,2025-08-14T17:44:00Z,23.161,-106.271,30,25,230,5,,14,29.95,1013.8,,,,,,,,,,FEW,2200,SCT,9000,BKN,24000,,,VFR,-0.07,,,,,,,,,,,METAR,7
MMIO 141744Z 36010KT 10SM SCT050 29/13 A3021 RMK 8/500,MMIO,2025-08-14T17:44:00Z,25.544,-100.928,29,13,360,10,,10+,30.21,,,,,,,,,,,SCT,5000,,,,,,,VFR,,,,,,,,,,,,METAR,1430
MMZH 141743Z E00000KT 7SM FEW020 SCT090 BKN250 32/23 A2999 RMK SLP147 52003 910 8/132 HZY,MMZH,2025-08-14T17:43:00Z,17.605,-101.464,32,23,0,0,,7,29.99,1014.7,,,,,,,,,,FEW,2000,SCT,9000,BKN,25000,,,VFR,0.03,,,,,,,,,,,METAR,9
MMPB 141743Z 18005KT 9SM BKN020 21/10 A3039 RMK 8/100 HZY,MMPB,2025-08-14T17:43:00Z,19.17,-98.371,21,10,180,5,,9,30.39,,,,,,,,,,,BKN,2000,,,,,,,MVFR,,,,,,,,,,,,METAR,2250
MMPA 141743Z 02006KT 5SM BKN020 BKN280 32/24 A2994 RMK SLP123 52002 907 8/108 HZY,MMPA,2025-08-14T17:43:00Z,20.601,-97.459,32,24,20,6,,5,29.94,1012.3,,,,,,,,,,BKN,2000,BKN,28000,,,,,MVFR,0.02,,,,,,,,,,,METAR,153
MMMX 141743Z 12003KT 6SM SCT020 22/10 A3036 NOSIG RMK SLP117 57008 904 8/100 HZY,MMMX,2025-08-14T17:43:00Z,19.436,-99.072,22,10,120,3,,6,30.36,1011.7,,,,,TRUE,,,,,SCT,2000,,,,,,,VFR,-0.08,,,,,,,,,,,METAR,2224
MMMV 141743Z 10006KT 12SM SCT050 34/19 A2999 RMK 8/100,MMMV,2025-08-14T17:43:00Z,26.956,-101.47,34,19,100,6,,12,29.99,,,,,,,,,,,SCT,5000,,,,,,,VFR,,,,,,,,,,,,METAR,567
MMMD 141743Z 13008KT 7SM BKN015 BKN300 32/26 A3001 RMK SLP164 52004 900 8/108 MDTCU,MMMD,2025-08-14T17:43:00Z,20.936,-89.659,32,26,130,8,,7,30.01,1016.4,,,,,,,,,,BKN,1500,BKN,30000,,,,,MVFR,0.04,,,,,,,,,,,METAR,10
MMCE 141743Z 13007KT 7SM FEW260 32/25 A2996 RMK SLP142 57008 952 8/008 MDT CU S,MMCE,2025-08-14T17:43:00Z,18.651,-91.8,32,25,130,7,,7,29.96,1014.2,,,,,,,,,,FEW,26000,,,,,,,VFR,-0.08,,,,,,,,,,,METAR,5
MMBT 141743Z 02006KT 8SM SCT020 SCT100 BKN220 30/23 A2999 RMK 8/136 HZY CU N,MMBT,2025-08-14T17:43:00Z,15.775,-96.26,30,23,20,6,,8,29.99,,,,,,,,,,,SCT,2000,SCT,10000,BKN,22000,,,VFR,,,,,,,,,,,,METAR,137
MMVA 141742Z 19006KT 7SM BKN020TCU 34/27 A2993 RMK SLP134 57010 900 8/200 HZY,MMVA,2025-08-14T17:42:00Z,17.998,-92.817,34,27,190,6,,7,29.93,1013.4,,,,,,,,,,BKN,2000,,,,,,,MVFR,-0.1,,,,,,,,,,,METAR,13
MMSM 141742Z 11002KT 7SM BKN020 21/13 A3037 RMK 8/200 HZY,MMSM,2025-08-14T17:42:00Z,19.763,-99.002,21,13,110,2,,7,30.37,,,,,,,,,,,BKN,2000,,,,,,,MVFR,,,,,,,,,,,,METAR,2250
MMPQ 141742Z 00000KT 8SM SCT040 31/24 A2984 RMK SLP105 57010 953 8/100,MMPQ,2025-08-14T17:42:00Z,17.534,-92.017,31,24,0,0,,8,29.84,1010.5,,,,,,,,,,SCT,4000,,,,,,,VFR,-0.1,,,,,,,,,,,METAR,48
MMML 141742Z 06007KT 10SM SKC 36/21 A2980 RMK SLP091 52003 957 HZ N NE E,MMML,2025-08-14T17:42:00Z,32.631,-115.238,36,21,60,7,,10+,29.80,1009.1,,,,,,,,,,SKC,,,,,,,,VFR,0.03,,,,,,,,,,,METAR,21
MMLT 141742Z 15010KT 9SM FEW050 32/24 A2987 RMK SLP115 8/100,MMLT,2025-08-14T17:42:00Z,25.993,-111.35,32,24,150,10,,9,29.87,1011.5,,,,,,,,,,FEW,5000,,,,,,,VFR,,,,,,,,,,,,METAR,4
MMCM 141742Z 14014KT 7SM SCT020 32/24 A3000 RMK SLP159 5//// 910 8/500,MMCM,2025-08-14T17:42:00Z,18.504,-88.326,32,24,140,14,,7,30.00,1015.9,,,,,,,,,,SCT,2000,,,,,,,VFR,,,,,,,,,,,,METAR,10
MMVR 141741Z 34003KT 5SM SCT018TCU 32/25 A2994 RMK SLP098 57017 963 8/200 HZY,MMVR,2025-08-14T17:41:00Z,19.144,-96.189,32,25,340,3,,5,29.94,1009.8,,,,,,,,,,SCT,1800,,,,,,,MVFR,-0.17,,,,,,,,,,,METAR,26
MMTC 141741Z 00000KT 10SM FEW030 32/14 A3013 RMK SLP101 57005 904 8/100,MMTC,2025-08-14T17:41:00Z,25.564,-103.408,32,14,0,0,,10+,30.13,1010.1,,,,,,,,,,FEW,3000,,,,,,,VFR,-0.05,,,,,,,,,,,METAR,1128
MMLP 141741Z 34007KT 10SM FEW030 35/22 A2993 RMK SLP133 57002 908 8/100,MMLP,2025-08-14T17:41:00Z,24.077,-110.364,35,22,340,7,,10+,29.93,1013.3,,,,,,,,,,FEW,3000,,,,,,,VFR,-0.02,,,,,,,,,,,METAR,16
MMCV 141741Z 16012KT 10SM SKC 34/21 A2995 RMK SLP124 57004 906 HZY DSNT CU/W,MMCV,2025-08-14T17:41:00Z,23.706,-98.959,34,21,160,12,,10+,29.95,1012.4,,,,,,,,,,SKC,,,,,,,,VFR,-0.04,,,,,,,,,,,METAR,230
MMZO 141740Z 12006KT 10SM BKN180 30/22 A2993 RMK 8/006,MMZO,2025-08-14T17:40:00Z,19.147,-104.565,30,22,120,6,,10+,29.93,,,,,,,,,,,BKN,18000,,,,,,,VFR,,,,,,,,,,,,METAR,11
MMZC 141740Z E18010KT 8SM SCT040 SCT200 23/12 A3033 RMK 8/106,MMZC,2025-08-14T17:40:00Z,22.904,-102.68,23,12,180,10,,8,30.33,,,,,,,,,,,SCT,4000,SCT,20000,,,,,VFR,,,,,,,,,,,,METAR,2175
MMTO 141740Z 26004KT 7SM SCT020TCU SCT080 18/11 A3044 RMK SLP107 57002 910 8/230 HZY,MMTO,2025-08-14T17:40:00Z,19.343,-99.568,18,11,260,4,,7,30.44,1010.7,,,,,,,,,,SCT,2000,SCT,8000,,,,,VFR,-0.02,,,,,,,,,,,METAR,2582
MMTG 141740Z 11006KT 7SM SCT025 30/21 A3002 RMK SLP135 57012 953 8/100 HZY ISOLD TCU,MMTG,2025-08-14T17:40:00Z,16.571,-93.03,30,21,110,6,,7,30.02,1013.5,,,,,,,,,,SCT,2500,,,,,,,VFR,-0.12,,,,,,,,,,,METAR,463
MMRX 141740Z 13012KT 8SM SKC 37/20 A2990 RMK SLP128 57007 903 ISOL CU/CI,MMRX,2025-08-14T17:40:00Z,26.01,-98.232,37,20,130,12,,8,29.90,1012.8,,,,,,,,,,SKC,,,,,,,,VFR,-0.07,,,,,,,,,,,METAR,45
MMQT 141740Z 28008KT 8SM SCT020 SCT200 23/14 A3035 RMK 8/102,MMQT,2025-08-14T17:40:00Z,20.617,-100.194,23,14,280,8,,8,30.35,,,,,,,,,,,SCT,2000,SCT,20000,,,,,VFR,,,,,,,,,,,,METAR,1909
MMPR 141740Z 28003KT 15SM SCT025TCU SCT230 32/24 A2996 RMK SLP138 57003 915 8/201 DSNT CB S W,MMPR,2025-08-14T17:40:00Z,20.68,-105.25,32,24,280,3,,15,29.96,1013.8,,,,,,,,,,SCT,2500,SCT,23000,,,,,VFR,-0.03,,,,,,,,,,,METAR,6
MMPN 141740Z 23007KT 6SM FEW030CB BKN140 22/18 A3025 RMK 8/330 HZY,MMPN,2025-08-14T17:40:00Z,19.396,-102.041,22,18,230,7,,6,30.25,,,,,,,,,,,FEW,3000,BKN,14000,,,,,VFR,,,,,,,,,,,,METAR,1602
MMPG 141740Z 12008KT 10SM SKC 34/23 A2997 RMK HZY,MMPG,2025-08-14T17:40:00Z,28.63,-100.541,34,23,120,8,,10+,29.97,,,,,,,,,,,SKC,,,,,,,,VFR,,,,,,,,,,,,METAR,224
MMPE 141740Z 15013KT 10SM SCT200 34/22 A2984 RMK 8/020 HZY,MMPE,2025-08-14T17:40:00Z,31.3514,-113.305,34,22,150,13,,10+,29.84,,,,,,,,,,,SCT,20000,,,,,,,VFR,,,,,,,,,,,,METAR,27
MMOX 141740Z 04003KT 8SM SCT020 SCT100 BKN220 26/16 A3026 RMK SLP119 57007 909 8/112 MDT CU ARND HZY,MMOX,2025-08-14T17:40:00Z,17.002,-96.724,26,16,40,3,,8,30.26,1011.9,,,,,,,,,,SCT,2000,SCT,10000,BKN,22000,,,VFR,-0.07,,,,,,,,,,,METAR,1528
MMNL 141740Z 17007KT 10SM SKC 36/21 A2993 RMK SLP118 57002 903,MMNL,2025-08-14T17:40:00Z,27.448,-99.574,36,21,170,7,,10+,29.93,1011.8,,,,,,,,,,SKC,,,,,,,,VFR,-0.02,,,,,,,,,,,METAR,146
MMMY 141740Z 10009KT 12SM SKC 33/21 A2999 RMK SLP132 57006 902 CU N ISOL CI,MMMY,2025-08-14T17:40:00Z,25.774,-100.104,33,21,100,9,,12,29.99,1013.2,,,,,,,,,,SKC,,,,,,,,VFR,-0.06,,,,,,,,,,,METAR,382
MMMT 141740Z 03007KT 8SM SCT020 32/24 A2995 RMK SLP142 57007 953 8/100 HZY,MMMT,2025-08-14T17:40:00Z,18.098,-94.583,32,24,30,7,,8,29.95,1014.2,,,,,,,,,,SCT,2000,,,,,,,VFR,-0.07,,,,,,,,,,,METAR,15
MMLM 141740Z 15011KT 10SM FEW020 SCT220 34/23 A2992 RMK SLP132 8/201 ISOL AC,MMLM,2025-08-14T17:40:00Z,25.688,-109.085,34,23,150,11,,10+,29.92,1013.2,,,,,,,,,,FEW,2000,SCT,22000,,,,,VFR,,,,,,,,,,,,METAR,6
MMIA 141740Z 00000KT 6SM BKN020 OVC100 25/22 A3011 RMK 8/25/,MMIA,2025-08-14T17:40:00Z,19.276,-103.576,25,22,0,0,,6,30.11,,,,,,,,,,,BKN,2000,OVC,10000,,,,,MVFR,,,,,,,,,,,,METAR,744
MMHO 141740Z 14007KT 10SM SKC 37/17 A2992 RMK SLP100 57004 903,MMHO,2025-08-14T17:40:00Z,29.097,-111.051,37,17,140,7,,10+,29.92,1010,,,,,,,,,,SKC,,,,,,,,VFR,-0.04,,,,,,,,,,,METAR,186
MMGM 141740Z 20010KT 10SM FEW020 FEW160 35/28 A2986 RMK 8/160,MMGM,2025-08-14T17:40:00Z,27.964,-110.928,35,28,200,10,,10+,29.86,,,,,,,,,,,FEW,2000,FEW,16000,,,,,VFR,,,,,,,,,,,,METAR,13
MMGA 141740Z E00000KT 10SM BKN050 21/10 A3034 RMK 8/500,MMGA,2025-08-14T17:40:00Z,-99.99,-99.99,21,10,0,0,,10+,30.34,,,,,,,,,,,BKN,5000,,,,,,,VFR,,,,,,,,,,,,METAR,9999
MMEP 141740Z 35005KT 12SM SCT030 28/19 A3012 RMK SLP180 50003 917 8/100,MMEP,2025-08-14T17:40:00Z,21.418,-104.842,28,19,350,5,,12,30.12,1018,,,,,,,,,,SCT,3000,,,,,,,VFR,0.03,,,,,,,,,,,METAR,921
MMCZ 141740Z 12007KT 8SM BKN015TCU 33/25 A3001 RMK SLP169 54000 911 8/200 SC CI,MMCZ,2025-08-14T17:40:00Z,20.516,-86.932,33,25,120,7,,8,30.01,1016.9,,,,,,,,,,BKN,1500,,,,,,,MVFR,,,,,,,,,,,,METAR,7
MMCU 141740Z 33005KT 10SM BKN080 BKN200 29/12 A3021 RMK SLP110 57001 963 8/078 CU W,MMCU,2025-08-14T17:40:00Z,28.701,-105.965,29,12,330,5,,10+,30.21,1011,,,,,,,,,,BKN,8000,BKN,20000,,,,,VFR,-0.01,,,,,,,,,,,METAR,1349
MMCS 141740Z 16005KT 10SM FEW030 SCT200 32/13 A3013 RMK SLP063 58003 964 8/102,MMCS,2025-08-14T17:40:00Z,31.636,-106.427,32,13,160,5,,10+,30.13,1006.3,,,,,,,,,,FEW,3000,SCT,20000,,,,,VFR,-0.03,,,,,,,,,,,METAR,1194
MMCP 141740Z 15012KT 7SM SCT030 SCT300 33/25 A2996 RMK SLP135 57010 956 8/109,MMCP,2025-08-14T17:40:00Z,19.817,-90.502,33,25,150,12,,7,29.96,1013.5,,,,,,,,,,SCT,3000,SCT,30000,,,,,VFR,-0.1,,,,,,,,,,,METAR,9
MMCN 141740Z 17005KT 10SM FEW030 36/23 A2992 RMK SLP132 8/100 HZY,MMCN,2025-08-14T17:40:00Z,27.395,-109.837,36,23,170,5,,10+,29.92,1013.2,,,,,,,,,,FEW,3000,,,,,,,VFR,,,,,,,,,,,,METAR,57
MMAS 141740Z 25004KT 10SM BKN040 25/15 A3030 RMK SLP123 57007 904 8/100 HZY ISOL CI,MMAS,2025-08-14T17:40:00Z,21.702,-102.318,25,15,250,4,,10+,30.30,1012.3,,,,,,,,,,BKN,4000,,,,,,,VFR,-0.07,,,,,,,,,,,METAR,1866
MMAN 141740Z 13007KT 12SM FEW035 FEW200 34/20 A2999 RMK SLP126 57006 900 8/501,MMAN,2025-08-14T17:40:00Z,25.865,-100.239,34,20,130,7,,12,29.99,1012.6,,,,,,,,,,FEW,3500,FEW,20000,,,,,VFR,-0.06,,,,,,,,,,,METAR,447
RKTI 141739Z 01003KT 3200 BR FEW002 BKN025 23/23 A3000 RMK CIG025,RKTI,2025-08-14T17:39:00Z,37.03,127.885,23,23,10,3,,1.99,30.00,,,,,,,,,,BR,FEW,200,BKN,2500,,,,,IFR,,,,,,,,,,,,SPECI,55
VOTP 141730Z VRB01KT 6000 SCT020 FEW025TCU BKN100 26/25 Q1006 NOSIG,VOTP,2025-08-14T17:30:00Z,13.633,79.543,26,25,VRB,1,,3.73,29.70,,,,,,TRUE,,,,,SCT,2000,FEW,2500,BKN,10000,,,MVFR,,,,,,,,,,,,METAR,103
KVCV 141730Z AUTO 25010KT 10SM CLR 34/M00 A2998 RMK AO2,KVCV,2025-08-14T17:30:00Z,34.5933,-117.389,34,0,250,10,,10+,29.98,,,TRUE,TRUE,,,,,,,CLR,,,,,,,,VFR,,,,,,,,,,,,METAR,871
KRHV 141729Z 28003KT 10SM SCT030 19/14 A2998,KRHV,2025-08-14T17:29:00Z,37.3331,-121.82,19,14,280,3,,10+,29.98,,,,,,,,,,,SCT,3000,,,,,,,VFR,,,,,,,,,,,,METAR,37
